{"type": "Feature","bbox": [31.9774,-25.8374,32.6299,-24.787],"geometry": {"type": "MultiPolygon","coordinates": [[[[32.4704,-25.7533,38.9012],[32.4724,-25.752,42.4335],[32.4847,-25.7183,47.8849],[32.5193,-25.6865,52.7095],[32.5651,-25.6991,53.2016],[32.58,-25.6595,55.3723],[32.5501,-25.5835,55.0368],[32.5113,-25.5591,41.9729],[32.5265,-25.5378,47.8663],[32.5299,-25.504,51.8842],[32.5409,-25.4972,54.5463],[32.55,-25.393,85.0433],[32.6236,-25.3128,48.2595],[32.6299,-25.2918,59.9828],[32.6235,-25.3124,48.2595],[32.4966,-25.2568,42.8624],[32.5015,-25.2625,35.6216],[32.506,-25.2722,35.7113],[32.5051,-25.2852,39.2908],[32.4985,-25.2952,36.3154],[32.4619,-25.2859,41.4025],[32.4466,-25.2892,48.5653],[32.4349,-25.2859,48.1115],[32.4178,-25.2666,43.7134],[32.4187,-25.2495,41.735],[32.3942,-25.2105,53.2379],[32.3918,-25.2013,58.2142],[32.3984,-25.1806,151.0586],[32.4025,-25.1465,81.8297],[32.3811,-25.1098,78.1082],[32.3837,-25.0813,79.7429],[32.3811,-25.0649,54.6489],[32.3767,-25.0567,50.5396],[32.3743,-25.0424,56.0056],[32.3784,-25.0257,61.2717],[32.4096,-24.9994,62.1777],[32.4089,-24.9931,65.2435],[32.3971,-24.9782,63.0068],[32.3819,-24.9545,84.9744],[32.3762,-24.954,76.5581],[32.3652,-24.9597,68.9869],[32.361,-24.9578,72.4768],[32.3553,-24.9522,70.6984],[32.3615,-24.9431,73.2458],[32.3547,-24.9407,71.7208],[32.3487,-24.9407,72.8557],[32.3372,-24.9336,73.7138],[32.338,-24.92,81.4366],[32.3467,-24.9035,75.3947],[32.3372,-24.8971,78.1569],[32.3285,-24.9007,79.1115],[32.3149,-24.9022,80.3882],[32.3087,-24.8993,83.549],[32.3071,-24.8899,78.1107],[32.293,-24.8754,92.1069],[32.2883,-24.9135,87.8951],[32.2799,-24.9156,91.2466],[32.2631,-24.9107,93.5227],[32.2448,-24.9103,94.1758],[32.2438,-24.9066,92.6137],[32.2604,-24.8951,95.5733],[32.2594,-24.8894,95.2229],[32.2545,-24.8873,97.6476],[32.2489,-24.8881,99.4625],[32.2465,-24.8869,97.9853],[32.2475,-24.8813,93.2609],[32.2428,-24.8762,98.8681],[32.2284,-24.8761,101.6775],[32.2202,-24.8609,107.081],[32.2087,-24.8528,104.014],[32.1866,-24.8517,108.1601],[32.1807,-24.8464,103.0269],[32.1831,-24.8381,108.3316],[32.1816,-24.833,110.5656],[32.1728,-24.8322,113.2734],[32.1653,-24.8352,113.5145],[32.1447,-24.8344,117.8298],[32.1345,-24.8293,121.7457],[32.1275,-24.817,121.9922],[32.125,-24.7999,121.1663],[32.118,-24.787,128.9315],[32.1091,-24.7927,123.8765],[32.1092,-24.7989,133.5762],[32.1044,-24.8082,128.7402],[32.0945,-24.807,136.1968],[32.084,-24.7975,143.4301],[32.0409,-24.8101,191.8903],[32.031,-24.8151,178.0402],[32.0071,-24.8104,206.6502],[32.0155,-24.9251,403.6624],[32.0302,-25.0657,303.8351],[32.0336,-25.1325,271.5422],[32.0288,-25.2414,305.694],[32.0153,-25.3825,368.2343],[32.0135,-25.3881,363.4351],[31.9905,-25.429,252.1388],[31.9895,-25.4377,105.631],[31.9796,-25.4571,341.9621],[31.9774,-25.4747,388.5603],[31.9774,-25.5098,362.9562],[31.9813,-25.5238,348.7969],[31.9958,-25.5263,305.9691],[32.0056,-25.626,250.6066],[32.0061,-25.6452,397.2691],[31.9979,-25.6706,382.9418],[32.0345,-25.6829,334.1684],[32.0893,-25.6803,189.2756],[32.1191,-25.6812,174.1236],[32.1257,-25.6878,163.6494],[32.1401,-25.6872,169.0957],[32.1563,-25.695,114.8366],[32.1753,-25.7184,96.9655],[32.1936,-25.733,89.0007],[32.2325,-25.7451,80.4545],[32.2422,-25.7445,79.9186],[32.2473,-25.7422,79.8985],[32.255,-25.7445,75.8734],[32.2624,-25.7568,71.9432],[32.2617,-25.7711,123.0139],[32.2648,-25.7752,101.7374],[32.2665,-25.7828,105.5441],[32.263,-25.8053,108.0639],[32.2665,-25.8182,92.1659],[32.2665,-25.8342,84.4766],[32.2808,-25.8374,60.4355],[32.3358,-25.8029,95.5962],[32.4135,-25.7635,41.2342],[32.4262,-25.7738,15.0412],[32.4286,-25.7582,18.5453],[32.432,-25.7543,19.4298],[32.4524,-25.7558,37.461],[32.4704,-25.7533,38.9012]]]]}
,"properties": {"GID_2": "MOZ.6.6_1","GID_0": "MOZ","country": "Mozambique","GID_1": "MOZ.6_1","province": "Maputo","NL_NAME_1": "NA","county": "Moamba","VARNAME_2": "NA","NL_NAME_2": "NA","TYPE_2": "Distrito","ENGTYPE_2": "District","CC_2": "NA","HASC_2": "MZ.MP.MO","name": "Moamba.county","area_km2": 4559.949,"hist_schema_id": "Elevation0-9000","hist_area_km2": {"25": 36.284,"50": 449.627,"75": 951.846,"100": 1222.912,"125": 895.353,"150": 470.871,"175": 206.495,"200": 103.615,"225": 76.95,"250": 57.886,"275": 34.754,"300": 22.541,"325": 14.449,"350": 8.455,"375": 4.943,"400": 2.97}}}