{"type": "Feature","bbox": [31.3073,-25.3829,34.4736,-21.3091],"geometry": {"type": "MultiPolygon","coordinates": [[[[33.3532,-25.2729,5.7891],[33.421,-25.2437,4.6605],[33.429,-25.2421,0.0],[33.4426,-25.2346,2.1867],[33.4932,-25.2179,3.5287],[33.4957,-25.2135,5.9984],[33.5015,-25.2093,0.0],[33.5115,-25.2062,0.0],[33.5121,-25.2079,0.0],[33.5163,-25.2074,0.0],[33.5457,-25.1937,6.3],[33.5785,-25.1843,0.8286],[33.5793,-25.1824,2.9378],[33.6046,-25.1762,1.6529],[33.6365,-25.1621,3.1708],[33.6943,-25.1321,9.4483],[33.7074,-25.1282,0.0],[33.7151,-25.124,6.6568],[33.7249,-25.1221,1.3072],[33.7351,-25.1162,12.2725],[33.7618,-25.1101,0.0],[33.7788,-25.1007,30.6089],[33.809,-25.0915,0.0],[33.869,-25.0688,11.6262],[33.9012,-25.0588,1.4161],[33.9096,-25.0576,2.5371],[33.9318,-25.0499,0.0],[33.9604,-25.0435,0.0],[33.9793,-25.0368,5.7915],[33.986,-25.0365,0.0],[34.0015,-25.031,1.9429],[34.0154,-25.0232,3.7552],[34.0488,-25.0121,0.0],[34.0557,-25.0079,15.5952],[34.1015,-24.9954,6.5498],[34.1093,-24.9904,15.6721],[34.1368,-24.9815,1.1166],[34.1607,-24.9704,12.5444],[34.1676,-24.9696,0.0],[34.1746,-24.9651,6.1677],[34.1774,-24.9654,2.4524],[34.2074,-24.9524,5.6814],[34.2415,-24.9401,9.9109],[34.2649,-24.9376,7.1017],[34.304,-24.9276,0.0],[34.3088,-24.9249,3.2641],[34.3396,-24.916,3.0599],[34.3618,-24.906,12.301],[34.3757,-24.9026,0.0],[34.3899,-24.8918,8.7918],[34.4168,-24.8826,6.1221],[34.4265,-24.8768,1.507],[34.4493,-24.8707,6.4582],[34.4629,-24.8643,10.2629],[34.4736,-24.8626,8.7577],[34.4361,-24.8065,75.9224],[34.3021,-24.7931,77.1626],[34.3015,-24.7071,27.6245],[34.4551,-24.636,34.9185],[34.3541,-24.5273,51.5274],[34.4285,-24.4555,1.8088],[34.4223,-24.4489,24.8518],[34.396,-24.4595,26.2805],[34.3402,-24.4678,2.4827],[34.3263,-24.4792,10.3149],[34.3145,-24.4837,11.3803],[34.3073,-24.4791,13.8835],[34.3028,-24.4791,19.4994],[34.2875,-24.4845,6.1135],[34.2735,-24.4852,29.4415],[34.2587,-24.4881,9.0418],[34.2183,-24.5079,10.8176],[34.2066,-24.5165,7.3511],[34.1959,-24.5178,10.0188],[34.1808,-24.5171,9.4522],[34.1411,-24.5359,20.0992],[34.0012,-24.3515,72.1993],[34.0005,-24.0861,28.522],[33.9918,-24.0888,28.5055],[33.985,-24.0787,29.9944],[33.9728,-24.0734,25.3215],[33.9613,-24.072,29.7705],[33.9456,-24.0776,20.8069],[33.9416,-24.072,38.0719],[33.9312,-24.042,25.1539],[33.9275,-24.0236,29.0593],[33.9319,-24.0208,24.6946],[33.9339,-24.0135,21.5615],[33.9276,-24.0068,25.6385],[33.9278,-24.0032,27.038],[33.9337,-23.9976,24.8353],[33.9377,-23.9912,29.9961],[33.9349,-23.9859,21.0589],[33.9258,-23.985,20.5166],[33.9255,-23.9793,24.8357],[33.9317,-23.9628,21.583],[33.9333,-23.9526,30.4575],[33.9266,-23.9373,26.4914],[33.9198,-23.907,23.3312],[33.9201,-23.8979,23.6125],[33.9174,-23.8921,27.0997],[33.9156,-23.8803,24.3242],[33.9196,-23.8807,26.3428],[33.9382,-23.8708,27.3145],[33.9397,-23.8623,26.6098],[33.9356,-23.8574,25.733],[33.9265,-23.8516,27.6434],[33.9263,-23.8443,27.1078],[33.9153,-23.8372,24.9447],[33.9289,-23.8227,25.7734],[33.9281,-23.8134,26.1836],[33.9308,-23.8036,26.3747],[33.9287,-23.7922,27.1246],[33.9182,-23.774,29.0325],[33.9239,-23.7699,30.128],[33.9282,-23.7627,28.4441],[33.9286,-23.7506,28.7852],[33.9361,-23.727,34.2346],[33.9338,-23.7187,33.9811],[33.9582,-23.7086,36.2479],[33.9477,-23.6859,33.3791],[33.9418,-23.6847,34.5659],[33.9419,-23.6768,34.6329],[33.9376,-23.6633,35.6774],[33.9294,-23.6551,30.7874],[33.9225,-23.6603,31.165],[33.9044,-23.669,31.2994],[33.8963,-23.6666,29.2713],[33.8935,-23.6626,29.7635],[33.9005,-23.6531,32.1513],[33.9101,-23.6472,32.6397],[33.9116,-23.6397,35.2457],[33.9164,-23.6299,33.2997],[33.9257,-23.6227,38.9691],[33.9282,-23.6091,34.4668],[33.9449,-23.5863,37.2111],[33.9355,-23.5806,34.9672],[33.9303,-23.5753,35.0692],[33.9345,-23.5652,33.8678],[33.9452,-23.5564,35.8291],[33.9473,-23.5454,35.0764],[33.9403,-23.539,36.5418],[33.9305,-23.5077,37.0643],[33.9272,-23.5027,37.7585],[33.927,-23.4911,37.5402],[33.9091,-23.4816,37.0095],[33.8953,-23.4842,41.7333],[33.8883,-23.4749,37.5499],[33.8852,-23.467,38.3393],[33.8796,-23.4399,40.0044],[33.8741,-23.4355,40.5952],[33.8709,-23.4371,39.7015],[33.8656,-23.4308,44.1271],[33.8633,-23.4177,39.9724],[33.8634,-23.3979,44.6625],[33.8429,-23.3887,41.1654],[33.8459,-23.3796,41.2567],[33.8416,-23.3582,41.8422],[33.9021,-23.3356,43.8621],[33.9013,-23.3253,44.1788],[33.8791,-23.3221,47.1437],[33.8699,-23.298,45.3163],[33.8712,-23.2813,47.0762],[33.875,-23.2697,46.3316],[33.8678,-23.2562,46.0785],[33.8563,-23.2418,48.3854],[33.8459,-23.2341,46.787],[33.8495,-23.1868,51.8621],[33.8441,-23.179,49.0851],[33.8281,-23.1761,49.6613],[33.8294,-23.153199999999998,47.986],[33.8203,-23.1479,48.7926],[33.81,-23.1444,50.7744],[33.8021,-23.1252,49.8155],[33.793,-23.1162,51.5732],[33.7803,-23.1106,50.4762],[33.7749,-23.0822,56.8272],[33.7551,-23.0828,55.57],[33.7431,-23.0868,51.3358],[33.7386,-23.0813,50.7952],[33.7358,-23.0696,51.9836],[33.7131,-23.0314,54.2539],[33.6979,-23.0259,57.7884],[33.6874,-23.0177,55.3987],[33.6913,-23.0016,55.75],[33.6846,-22.9846,60.3111],[33.6838,-22.968,59.5786],[33.6791,-22.959,58.1154],[33.6762,-22.9489,62.4686],[33.6688,-22.9406,58.5149],[33.6612,-22.9354,64.609],[33.6581,-22.9237,63.2501],[33.6483,-22.9168,60.4362],[33.6469,-22.8937,65.3301],[33.6388,-22.8945,65.6909],[33.6155,-22.9016,65.4821],[33.6079,-22.8985,62.7985],[33.6012,-22.8934,62.2452],[33.5774,-22.8636,65.5615],[33.5708,-22.8508,68.943],[33.5636,-22.8428,62.8451],[33.5442,-22.8273,65.176],[33.533,-22.8204,62.3238],[33.5131,-22.8126,62.9379],[33.5019,-22.7997,64.542],[33.498,-22.7812,64.8268],[33.4868,-22.7774,65.592],[33.4901,-22.7612,66.2005],[33.4864,-22.7544,68.7455],[33.4708,-22.7463,65.1839],[33.4599,-22.7355,66.4719],[33.458,-22.7254,68.0049],[33.4537,-22.7149,69.6953],[33.446,-22.7082,68.6504],[33.4247,-22.7018,66.1208],[33.4131,-22.6965,65.6937],[33.3975,-22.6868,65.838],[33.3868,-22.6758,68.0089],[33.3725,-22.6712,67.0721],[33.3642,-22.6643,71.4898],[33.3413,-22.6629,66.9565],[33.322,-22.659,68.4941],[33.3221,-22.6448,70.4044],[33.3141,-22.6319,72.6291],[33.3033,-22.6206,71.9347],[33.2964,-22.6077,73.3523],[33.294,-22.5945,76.1104],[33.2887,-22.5917,74.3931],[33.2822,-22.5824,78.4594],[33.2842,-22.5724,81.6597],[33.2722,-22.5638,77.8512],[33.2744,-22.5494,80.2847],[33.2802,-22.5431,83.6822],[33.2788,-22.5381,79.972],[33.287,-22.528,81.5544],[33.2878,-22.5181,84.741],[33.2946,-22.5038,83.7921],[33.2931,-22.4967,83.3932],[33.2979,-22.4875,89.271],[33.307,-22.4624,90.1477],[33.3117,-22.4414,87.8256],[33.3115,-22.4348,92.0075],[33.3061,-22.4157,89.4718],[33.3084,-22.4075,90.7261],[33.3151,-22.3987,92.8208],[33.3206,-22.3846,95.102],[33.3355,-22.3858,94.5547],[33.3589,-22.3802,97.386],[33.3804,-22.388,103.2637],[33.3862,-22.3864,110.3211],[33.3782,-22.3713,100.2146],[33.3702,-22.3636,97.5913],[33.3666,-22.3541,100.9429],[33.359,-22.3146,104.149],[33.3631,-22.2982,102.5298],[33.3719,-22.2857,105.205],[33.3665,-22.2621,104.1014],[33.3555,-22.2585,104.7923],[33.3475,-22.2519,106.3263],[33.3324,-22.2366,115.1981],[33.3299,-22.2253,108.3022],[33.3412,-22.2011,117.2755],[33.3443,-22.178,112.6269],[33.343,-22.1625,115.6005],[33.3625,-22.151,117.8691],[33.3646,-22.1294,114.57],[33.3581,-22.108,113.7417],[33.3525,-22.1004,114.2226],[33.3426,-22.0946,124.7962],[33.3348,-22.087,115.5907],[33.3296,-22.0559,121.7551],[33.3346,-22.034,119.4458],[33.3488,-22.0012,118.332],[33.3197,-21.9922,119.5262],[33.31,-21.9832,119.2956],[33.2906,-21.9742,118.9993],[33.2809,-21.9652,122.6877],[33.2518,-21.9472,124.228],[33.1548,-21.8208,128.817],[33.1934,-21.7575,133.7836],[33.1644,-21.7033,140.0448],[33.1836,-21.622,143.1228],[33.1932,-21.613,144.0056],[33.2029,-21.6129,141.9066],[33.2029,-21.5858,129.8318],[33.2125,-21.5768,127.7932],[33.2318,-21.5768,121.3545],[33.2415,-21.5677,115.4997],[33.2415,-21.5587,114.7553],[33.2318,-21.5497,109.8016],[33.2318,-21.5406,108.2587],[33.2414,-21.5316,104.0411],[33.2511,-21.5316,104.2223],[33.2607,-21.5225,105.0765],[33.2704,-21.5315,95.3511],[33.2704,-21.5225,99.1148],[33.3089,-21.4863,89.636],[33.28,-21.4954,93.7831],[33.2703,-21.4954,88.665],[33.2317,-21.4774,91.6424],[33.1931,-21.4865,93.8828],[33.1641,-21.5046,94.9094],[33.1062,-21.5317,101.4008],[33.0676,-21.5679,110.7991],[33.0676,-21.586,103.3226],[33.0483,-21.586,104.212],[33.029,-21.5769,105.5291],[33.0193,-21.5679,108.7176],[33.0,-21.5679,108.4309],[32.9843,-21.5705,104.0],[32.97,-21.5678,110.3104],[32.9616,-21.5627,109.6974],[32.9571,-21.5555,107.0622],[32.9625,-21.5274,112.9155],[32.9605,-21.5197,113.4367],[32.9507,-21.5051,115.4941],[32.932,-21.4902,116.0686],[32.9116,-21.484,112.5],[32.8904,-21.4869,118.6157],[32.8722,-21.5004,115.75],[32.8498,-21.5066,121.0948],[32.7805,-21.4753,125.3458],[32.769,-21.4603,126.4669],[32.7552,-21.4477,129.8903],[32.7307,-21.4372,132.5923],[32.6914,-21.4124,132.7702],[32.6609,-21.398,134.5],[32.62,-21.3904,143.1853],[32.5442,-21.3826,146.8167],[32.5232,-21.3738,152.3069],[32.5138,-21.3648,149.7927],[32.5019,-21.3484,150.4512],[32.48,-21.326,155.2502],[32.48,-21.3281,151.4159],[32.4685,-21.3239,151.6817],[32.461,-21.3158,157.3334],[32.4527,-21.3109,153.203],[32.4402,-21.3091,161.3294],[32.4265,-21.3115,157.3519],[32.4112,-21.3181,160.9999],[32.3998,-21.3276,193.8589],[32.1596,-21.5734,381.7582],[32.1427,-21.5929,353.4502],[31.9039,-21.8397,346.625],[31.8657,-21.8805,385.0516],[31.8673,-21.8807,383.101],[31.7578,-21.9939,483.2856],[31.7455,-22.0039,487.2104],[31.6816,-22.0697,455.5742],[31.6805,-22.0687,456.0549],[31.6113,-22.1408,321.9019],[31.5903,-22.1595,311.8247],[31.5374,-22.2148,247.7038],[31.5287,-22.2211,256.6233],[31.504,-22.2515,247.647],[31.4977,-22.2555,247.7252],[31.4867,-22.2666,231.8869],[31.4815,-22.2695,232.6514],[31.4699,-22.2836,214.2703],[31.3815,-22.3718,295.5596],[31.3073,-22.4203,198.5062],[31.3094,-22.422,199.111],[31.3074,-22.4235,193.0],[31.5458,-23.1372,282.747],[31.5636,-23.1982,288.2188],[31.5559,-23.2691,304.9494],[31.5507,-23.4103,367.387],[31.561,-23.482,422.4361],[31.6658,-23.5914,393.3637],[31.6905,-23.6294,386.5903],[31.6974,-23.7219,419.0501],[31.7692,-23.8878,381.1542],[31.8807,-23.955,178.647],[31.8809,-23.9679,133.6367],[31.8868,-24.0013,215.8069],[31.908,-24.1824,383.9952],[31.9489,-24.2463,348.5293],[31.9704,-24.2458,329.0201],[32.0448,-24.209,277.7128],[32.0748,-24.2032,262.65],[32.0959,-24.2056,254.8862],[32.1274,-24.2127,234.0218],[32.1654,-24.2138,217.5654],[32.1918,-24.2164,193.8022],[32.208,-24.2333,186.0453],[32.2147,-24.2335,188.377],[32.2293,-24.2399,179.4306],[32.2333,-24.2349,177.3126],[32.2564,-24.2361,179.6506],[32.2691,-24.2427,173.0744],[32.2756,-24.2486,163.0844],[32.2934,-24.2511,155.6822],[32.3007,-24.2496,153.5132],[32.312,-24.2502,149.4532],[32.3212,-24.2526,147.5583],[32.3425,-24.2462,140.5695],[32.3573,-24.2476,136.5854],[32.3865,-24.261,124.2837],[32.3957,-24.2674,119.7785],[32.4331,-24.2803,106.7279],[32.4397,-24.2802,103.927],[32.4476,-24.2937,101.6157],[32.4491,-24.3023,100.0074],[32.4638,-24.308,97.299],[32.4757,-24.3248,94.2151],[32.4806,-24.3271,94.2083],[32.4809,-24.326,94.153],[32.4884,-24.33,93.172],[32.5068,-24.3322,91.2537],[32.5127,-24.3343,89.8429],[32.5219,-24.334,86.4076],[32.528,-24.3383,86.0801],[32.5339,-24.3452,83.787],[32.5371,-24.3463,83.7225],[32.5455,-24.346,82.2709],[32.5579,-24.3333,79.6756],[32.5679,-24.3355,80.0943],[32.587,-24.3499,76.3299],[32.5991,-24.3694,70.9036],[32.606,-24.3758,70.201],[32.6146,-24.3796,68.5264],[32.6664,-24.3759,59.3351],[32.6964,-24.3857,50.6882],[32.7185,-24.4026,49.3667],[32.725,-24.4234,45.4513],[32.7285,-24.4577,45.5373],[32.724,-24.4752,44.4758],[32.7197,-24.483,43.0997],[32.7164,-24.4984,41.6449],[32.7192,-24.5088,43.3619],[32.7306,-24.5309,44.83],[32.7467,-24.5409,42.5932],[32.7463,-24.5444,41.0704],[32.7507,-24.5541,38.0801],[32.7633,-24.5638,38.1559],[32.7642,-24.575,38.0922],[32.7828,-24.6101,33.2884],[32.7986,-24.6294,33.1843],[32.8185,-24.6607,31.4735],[32.8316,-24.6701,28.2342],[32.8382,-24.6837,26.3892],[32.8394,-24.6963,27.7921],[32.8367,-24.7228,25.2072],[32.8612,-24.7415,25.4187],[32.8615,-24.7434,24.7002],[32.8663,-24.7471,23.7841],[32.8728,-24.7494,23.8509],[32.8737,-24.7515,24.0104],[32.8683,-24.7641,22.5321],[32.8673,-24.7711,21.7997],[32.8722,-24.7756,26.325],[32.8788,-24.7672,25.5762],[32.8879,-24.7613,28.7676],[32.9508,-24.764,23.1754],[32.9091,-24.8518,21.6068],[32.9089,-24.858,17.7793],[32.9054,-24.8661,17.8164],[32.9058,-24.8681,16.6963],[32.9126,-24.8721,17.0184],[32.9099,-24.8759,17.65],[32.9155,-24.8827,16.7818],[32.9155,-24.89,16.1191],[32.9247,-24.8977,15.7851],[32.9375,-24.8982,15.3274],[32.9401,-24.903199999999998,14.3616],[32.9393,-24.9086,13.9519],[32.9405,-24.9123,14.4955],[32.9381,-24.9156,14.2359],[32.9319,-24.9157,14.5351],[32.9189,-24.9257,12.5502],[32.9139,-24.926,15.5354],[32.9145,-24.9296,11.9033],[32.9125,-24.934,12.4478],[32.9029,-24.943,11.2867],[32.9034,-24.9561,12.0329],[32.9018,-24.9609,11.0],[32.9053,-24.9666,11.0],[32.9117,-24.9708,15.6315],[32.9199,-24.9716,13.6971],[32.9232,-24.974,13.977],[32.9217,-24.979,11.0],[32.9186,-24.9828,14.466],[32.9208,-25.0112,10.5],[32.915,-25.033,10.5],[32.915,-25.0388,10.5],[32.9244,-25.0529,10.5],[32.9232,-25.0623,12.0501],[32.9254,-25.0696,11.3828],[32.9355,-25.0699,11.0375],[32.9468,-25.0763,10.2765],[32.9552,-25.0788,12.735],[32.9991,-25.086,11.2769],[32.9958,-25.0949,10.2316],[32.9828,-25.1177,9.7611],[32.9843,-25.126,10.5108],[32.9898,-25.1332,9.6071],[32.9976,-25.1356,9.4289],[33.0037,-25.1316,9.9061],[33.0095,-25.1303,10.3811],[33.0123,-25.1337,9.378],[33.0103,-25.146,10.874],[33.0122,-25.1491,12.6411],[33.012,-25.1525,8.4221],[33.0072,-25.1565,8.4319],[32.9958,-25.1721,8.9235],[32.9946,-25.1757,8.4896],[32.9969,-25.1801,8.0337],[32.9926,-25.1993,7.5968],[32.9906,-25.2022,7.4423],[32.9943,-25.2034,6.7683],[33.1011,-25.203,43.3146],[33.1275,-25.2447,52.7034],[33.1339,-25.2754,54.0144],[33.1375,-25.3009,50.6306],[33.1317,-25.3829,15.3321],[33.2226,-25.3329,12.9825],[33.2382,-25.3268,3.9292],[33.241,-25.3268,0.0],[33.2426,-25.3288,0.0],[33.2435,-25.3262,31.0845],[33.2479,-25.3257,0.0],[33.249,-25.3226,7.8792],[33.2468,-25.321,2.0136],[33.2471,-25.3187,1.5747],[33.2515,-25.3143,7.2121],[33.2551,-25.3035,0.6009],[33.2538,-25.3035,0.8391],[33.2524,-25.309,0.5],[33.251,-25.309,6.1841],[33.2507,-25.306,0.5],[33.2463,-25.3051,4.355],[33.2399,-25.3143,21.2023],[33.2346,-25.3129,0.5],[33.2296,-25.319,1.3985],[33.2254,-25.3104,0.5],[33.2185,-25.3079,0.5],[33.2168,-25.3015,0.9872],[33.2185,-25.2988,1.1966],[33.2265,-25.2943,7.1196],[33.2499,-25.2885,0.5],[33.2663,-25.2787,6.0111],[33.281,-25.2743,0.5],[33.2815,-25.2718,0.6596],[33.291,-25.2635,2.9472],[33.3046,-25.2624,2.044],[33.3049,-25.2579,20.3976],[33.3074,-25.2543,8.374],[33.3171,-25.2468,3.5787],[33.3301,-25.2454,2.6631],[33.339,-25.2485,1.1125],[33.3418,-25.2512,9.1755],[33.3418,-25.2549,8.2446],[33.3368,-25.2607,8.3029],[33.3257,-25.2582,1.4854],[33.3249,-25.2638,4.5155],[33.3204,-25.2682,3.8624],[33.3146,-25.2685,24.5321],[33.3068,-25.2657,0.6489],[33.3032,-25.2763,7.4368],[33.2926,-25.2801,5.392],[33.2907,-25.279,0.5],[33.289,-25.2865,15.8831],[33.2826,-25.2876,0.7144],[33.2782,-25.2849,0.5],[33.274,-25.2976,2.112],[33.2643,-25.2968,1.9935],[33.2624,-25.2988,8.355],[33.261,-25.2957,0.5],[33.2615,-25.3096,3.7854],[33.2596,-25.3118,0.9645],[33.2574,-25.3118,0.5],[33.2574,-25.3168,3.4284],[33.2621,-25.3163,0.0],[33.3074,-25.2926,14.8871],[33.3532,-25.2729,5.7891]]],
[[[33.5013,-25.2149,0.0],[33.5018,-25.2124,1.4454],[33.5004,-25.2121,1.0433],[33.5001,-25.2143,0.8726],[33.496,-25.2165,0.5454],[33.5007,-25.2154,0.0],[33.5013,-25.2149,0.0]]]]}
,"properties": {"GID_1": "MOZ.2_1","GID_0": "MOZ","country": "Mozambique","province": "Gaza","VARNAME_1": "NA","NL_NAME_1": "NA","TYPE_1": "Provincia","ENGTYPE_1": "Province","CC_1": "NA","HASC_1": "MZ.GA","ISO_1": "MZ-G","name": "Gaza.province","area_km2": 75643.43,"hist_schema_id": "Elevation0-9000","hist_area_km2": {"0": 1902.27,"25": 6387.35,"50": 13077.49,"75": 11959.4,"100": 7423.01,"125": 6494.22,"150": 4554.14,"175": 4231.05,"200": 3862.78,"225": 3178.27,"250": 2437.06,"275": 2208.21,"300": 2042.04,"325": 1807.85,"350": 1270.54,"375": 992.96,"400": 610.82,"425": 495.59,"450": 429.55,"475": 211.87,"500": 54.3,"525": 12.66}}}