{"type":"Feature","properties":{"ISO3166-1-Alpha-3":"MOZ","country":"Mozambique","fill":"#F0F","id":"1207","name":"Gaza"},
"geometry":{"type": "Polygon","coordinates": [[[32.4472,-21.31368,153.8061],[32.40854,-21.29033,163.003],[32.37299,-21.32795,167.8406],[32.32452,-21.37818,207.6816],[32.27222,-21.43254,310.0571],[32.21972,-21.4869,336.9162],[32.16732,-21.54127,339.4485],[32.11481,-21.59563,329.3848],[32.06241,-21.65,343.9523],[32.01001,-21.70446,406.1664],[31.95761,-21.75883,377.9194],[31.90521,-21.81319,346.0469],[31.85271,-21.86755,397.8849],[31.80031,-21.92202,410.3753],[31.74781,-21.97638,495.4578],[31.69551,-22.03075,484.8791],[31.64311,-22.08521,412.7645],[31.59071,-22.13958,308.8593],[31.53821,-22.19394,253.4688],[31.48581,-22.2483,239.5598],[31.43382,-22.30205,223.6262],[31.36871,-22.34504,295.6074],[31.28892,-22.39734,202.5488],[31.2791,-22.41532,210.1511],[31.32334,-22.54286,421.5037],[31.37491,-22.69159,505.928],[31.42638,-22.8401,377.2348],[31.46762,-22.95896,346.7263],[31.53635,-23.15698,272.1611],[31.54245,-23.18727,249.2047],[31.52147,-23.41557,334.5838],[31.52762,-23.45681,344.7405],[31.54627,-23.49236,351.3529],[31.64229,-23.58786,349.2535],[31.66203,-23.62403,372.7464],[31.70063,-23.74909,379.49],[31.74119,-23.83679,333.3505],[31.7552,-23.85777,328.1855],[31.77406,-23.8741,341.52],[31.83866,-23.91782,292.2399],[31.85044,-23.93063,311.8025],[31.85581,-23.94655,265.965],[31.85649,-23.96296,218.4569],[31.86305,-24.12142,266.9317],[31.86945,-24.1638,302.0509],[31.92631,-24.27674,251.4932],[31.94211,-24.26772,278.1392],[32.06717,-24.21165,272.7662],[32.07461,-24.21124,264.982],[32.08221,-24.2117,270.7194],[32.09135,-24.2132,257.0908],[32.11528,-24.22002,238.1866],[32.17362,-24.22829,223.8767],[32.18618,-24.23516,219.3507],[32.19052,-24.23811,214.4361],[32.20871,-24.24384,208.3151],[32.24096,-24.24896,188.409],[32.24948,-24.25103,187.2639],[32.27388,-24.2626,173.6768],[32.39118,-24.2781,123.435],[32.40699,-24.28389,115.1461],[32.41599,-24.28932,113.8282],[32.42405,-24.29573,113.1661],[32.47805,-24.35123,102.1496],[32.48363,-24.35479,99.6531],[32.5136,-24.36549,92.9151],[32.54151,-24.38161,84.1407],[32.5566,-24.38761,79.1497],[32.56652,-24.38978,76.5527],[32.57551,-24.3904,74.2453],[32.58249,-24.38967,72.6299],[32.58884,-24.38823,71.9021],[32.61292,-24.38022,68.8244],[32.63308,-24.37634,65.6326],[32.64114,-24.37675,64.366],[32.64734,-24.37846,63.3348],[32.65215,-24.38079,63.3763],[32.65654,-24.38373,61.4424],[32.66863,-24.38983,58.1007],[32.69375,-24.39748,52.901],[32.69948,-24.40016,51.0973],[32.70553,-24.40497,51.3579],[32.70894,-24.40972,51.7817],[32.71095,-24.41469,49.6614],[32.71157,-24.41908,49.9665],[32.71064,-24.43432,48.8492],[32.71545,-24.53328,42.1738],[32.71721,-24.53897,43.234],[32.71953,-24.54393,42.9202],[32.72232,-24.54853,43.4276],[32.76062,-24.59002,36.4677],[32.82237,-24.67637,30.557],[32.82738,-24.68609,29.6708],[32.8311,-24.6971,27.9772],[32.83575,-24.72185,24.5854],[32.8404,-24.72841,27.9167],[32.848,-24.73565,26.3137],[32.8635,-24.74738,24.4375],[32.87699,-24.75528,25.4083],[32.92805,-24.77451,25.2799],[32.93663,-24.78179,24.8647],[32.93828,-24.79378,24.3368],[32.92169,-24.84887,25.5443],[32.92014,-24.86391,26.8176],[32.92092,-24.8791,20.0525],[32.93053,-24.89584,15.5979],[32.93347,-24.90556,14.8867],[32.93394,-24.91238,14.9582],[32.93115,-24.91651,13.6516],[32.92774,-24.92044,13.564],[32.92433,-24.9238,11.9549],[32.92169,-24.92788,12.196],[32.9203,-24.93217,13.1271],[32.92696,-25.03744,17.6363],[32.92944,-25.04777,17.0743],[32.93425,-25.0518,18.5344],[32.94004,-25.05366,17.9086],[32.96221,-25.05563,15.6075],[32.97213,-25.05795,14.475],[32.98686,-25.06405,12.5197],[32.99399,-25.06917,13.6545],[32.99802,-25.07495,15.6717],[32.99895,-25.08069,11.9887],[32.99729,-25.09128,11.1301],[32.99616,-25.09563,10.2316],[32.99678,-25.09955,9.8325],[32.99833,-25.10395,11.5048],[32.99993,-25.11309,12.7305],[32.99946,-25.13056,12.824],[33.00474,-25.16105,8.2948],[33.00396,-25.16663,8.5345],[32.99977,-25.1796,7.7649],[32.99915,-25.18301,7.7422],[32.99895,-25.18766,7.581],[33.00055,-25.19696,6.8099],[33.00396,-25.20575,8.0367],[33.00815,-25.20704,7.5229],[33.0792,-25.21427,33.0319],[33.0961,-25.21939,38.6271],[33.11026,-25.22632,38.4983],[33.11723,-25.23143,43.2469],[33.12204,-25.23655,47.1222],[33.13057,-25.25014,49.904],[33.13522,-25.26021,50.9973],[33.13692,-25.26574,47.9902],[33.13971,-25.28435,48.2376],[33.13956,-25.29045,44.9566],[33.13553,-25.31313,33.3484],[33.13103,-25.3291,19.2651],[33.13026,-25.33468,8.2894],[33.13201,-25.37917,40.2604],[33.13201,-25.37916,40.2604],[33.15309,-25.36582,24.4203],[33.20436,-25.34531,0.0],[33.22731,-25.33196,0.0],[33.24195,-25.30983,3.2249],[33.22731,-25.31455,5.1211],[33.22145,-25.31805,9.1813],[33.21461,-25.2973,11.9555],[33.23292,-25.29079,16.5123],[33.25758,-25.28834,0.5],[33.26979,-25.28004,0.5],[33.27858,-25.27077,28.7228],[33.31918,-25.25237,0.5],[33.33253,-25.24847,0.5],[33.32407,-25.26116,0.5],[33.31007,-25.27313,43.4655],[33.29347,-25.2833,42.403],[33.27719,-25.28997,11.2091],[33.27719,-25.29681,20.6498],[33.31764,-25.28704,12.1719],[33.46469,-25.21315,16.7876],[33.58522,-25.17457,37.4703],[33.72918,-25.10508,24.4405],[33.93385,-25.03623,32.146],[34.1565,-24.96087,31.5792],[34.21217,-24.95273,0.0],[34.32325,-24.91009,7.4732],[34.34938,-24.90309,6.6859],[34.48015,-24.85223,7.2874],[34.48016,-24.85222,7.2874],[34.44935,-24.80314,85.3678],[34.41927,-24.79213,100.4742],[34.34109,-24.78975,98.9932],[34.32367,-24.78577,87.8259],[34.31468,-24.7759,67.545],[34.30879,-24.765,40.0989],[34.30476,-24.751,24.5],[34.3029,-24.73689,24.5],[34.29918,-24.722,27.2052],[34.29763,-24.71074,28.0367],[34.30631,-24.70237,28.1804],[34.31871,-24.69467,36.0244],[34.46118,-24.62687,53.3115],[34.46645,-24.62155,55.5102],[34.46273,-24.61452,44.1103],[34.38729,-24.54434,57.8129],[34.37798,-24.52956,57.8079],[34.38279,-24.51742,70.9926],[34.3907,-24.50755,71.1829],[34.42098,-24.47975,57.4984],[34.42811,-24.46931,24.4763],[34.42796,-24.46373,0.5],[34.42486,-24.45985,7.4425],[34.41989,-24.45783,0.5],[34.41447,-24.45665,5.7165],[34.40858,-24.45737,0.9248],[34.38264,-24.46889,5.9335],[34.37705,-24.4707,17.8708],[34.3707,-24.47163,21.2631],[34.35054,-24.47241,12.5434],[34.34429,-24.4738,20.2715],[34.33018,-24.48171,1.4654],[34.32429,-24.48295,1.2608],[34.31143,-24.48321,15.34],[34.3046,-24.48398,1.8867],[34.29887,-24.48584,6.8572],[34.28548,-24.49458,19.6195],[34.28037,-24.49701,18.2478],[34.27479,-24.49861,12.7733],[34.26316,-24.50031,24.0105],[34.26114,-24.50078,23.7187],[34.25913,-24.50155,22.5549],[34.25076,-24.50605,23.2273],[34.24642,-24.5091,26.5226],[34.23618,-24.51416,13.7376],[34.22435,-24.51773,21.7113],[34.18203,-24.52563,24.8367],[34.14074,-24.53861,13.8438],[34.13361,-24.53618,23.4586],[34.12632,-24.5278,22.8893],[34.00343,-24.33273,81.3801],[33.9992,-24.31676,101.5963],[33.99703,-24.30157,97.5744],[33.99238,-24.08638,35.2378],[33.98958,-24.08468,39.9393],[33.97982,-24.08633,45.282],[33.97424,-24.08576,45.322],[33.96912,-24.0839,40.6075],[33.9592,-24.07941,38.1333],[33.95377,-24.07765,28.1462],[33.94804,-24.07641,18.939],[33.94116,-24.07734,21.8011],[33.9345,-24.07998,23.9452],[33.92752,-24.08649,20.8913],[33.9252,-24.087,18.6303],[33.92411,-24.08437,17.8989],[33.92427,-24.07517,27.2574],[33.92365,-24.06773,29.3101],[33.91605,-24.03838,28.7796],[33.91574,-24.03243,25.4597],[33.91636,-24.02649,26.7279],[33.91961,-24.01636,27.6758],[33.9269,-24.00153,23.5617],[33.92814,-23.99957,21.8235],[33.92923,-23.99833,20.763],[33.93078,-23.99425,26.0561],[33.93202,-23.9882,24.4349],[33.93078,-23.97781,28.0384],[33.93341,-23.95926,25.3398],[33.92659,-23.89105,29.5979],[33.92721,-23.88536,32.0671],[33.92892,-23.88051,25.9478],[33.93047,-23.87343,25.8216],[33.93093,-23.86412,32.1859],[33.92675,-23.84557,25.0277],[33.92566,-23.83565,32.3112],[33.92659,-23.82836,25.9569],[33.93031,-23.81725,29.063],[33.92969,-23.80144,26.4733],[33.93233,-23.78392,34.3587],[33.93326,-23.75891,33.4475],[33.93527,-23.75395,34.606],[33.9469,-23.73772,41.0056],[33.94804,-23.73292,44.2322],[33.94876,-23.72145,44.1552],[33.95145,-23.7171,36.7056],[33.95858,-23.70951,36.2479],[33.96121,-23.70455,36.8297],[33.96168,-23.69731,40.321],[33.95935,-23.69034,44.5784],[33.94426,-23.66424,43.6757],[33.93992,-23.65943,38.5609],[33.93512,-23.65757,31.7714],[33.92969,-23.65799,32.3202],[33.92442,-23.65985,29.0477],[33.91465,-23.66496,33.0993],[33.90892,-23.66698,33.5424],[33.90318,-23.66775,34.1225],[33.89636,-23.66558,31.1902],[33.89398,-23.66124,29.7647],[33.89357,-23.65587,34.2614],[33.89543,-23.65091,36.6219],[33.89807,-23.64667,37.1177],[33.91496,-23.63406,31.3123],[33.91837,-23.6305,32.3469],[33.92148,-23.62641,35.0231],[33.92613,-23.61716,42.7273],[33.92783,-23.61215,34.6054],[33.93047,-23.60786,36.1712],[33.93496,-23.60507,39.9307],[33.94008,-23.60259,45.0555],[33.94488,-23.59918,47.0093],[33.94835,-23.59505,45.9788],[33.94959,-23.58802,40.2221],[33.94649,-23.58233,34.8808],[33.94054,-23.57458,40.347],[33.93806,-23.56874,41.5394],[33.93837,-23.56342,33.6311],[33.94085,-23.55929,35.6041],[33.94457,-23.55536,38.1104],[33.94814,-23.55091,34.91],[33.95062,-23.54461,34.6942],[33.94866,-23.53712,44.8427],[33.93527,-23.51272,41.4074],[33.92892,-23.5059,37.3438],[33.92179,-23.50265,41.0539],[33.90845,-23.5028,43.1991],[33.90287,-23.50218,46.3623],[33.89745,-23.50048,49.991],[33.89605,-23.49965,51.3285],[33.89429,-23.49789,48.9352],[33.88985,-23.49195,41.2726],[33.88701,-23.48373,37.0484],[33.88391,-23.46988,37.6526],[33.88065,-23.4626,40.0176],[33.87631,-23.45712,51.8466],[33.86608,-23.44865,52.4427],[33.8636,-23.44337,51.8098],[33.86298,-23.43779,44.3228],[33.86313,-23.43211,38.8128],[33.86174,-23.42384,39.4175],[33.85073,-23.40658,48.743],[33.84794,-23.39914,41.6733],[33.84654,-23.39216,44.7397],[33.84623,-23.38601,44.6051],[33.84685,-23.38028,42.1053],[33.84902,-23.37573,45.2653],[33.8529,-23.37294,47.313],[33.85817,-23.37201,54.5523],[33.86964,-23.37175,57.2691],[33.89853,-23.36338,57.5958],[33.90334,-23.36028,61.1682],[33.90628,-23.35594,58.7682],[33.90737,-23.34958,60.758],[33.90504,-23.3454,56.9881],[33.90148,-23.34168,53.4822],[33.89078,-23.33594,54.4563],[33.88453,-23.33144,55.6867],[33.876,-23.32266,45.2068],[33.87243,-23.31589,44.7093],[33.87042,-23.30876,44.8129],[33.87042,-23.28106,45.4524],[33.86887,-23.26835,46.8761],[33.86499,-23.25967,46.7559],[33.85166,-23.23863,47.7192],[33.84856,-23.2298,46.507],[33.84716,-23.22148,46.7751],[33.84716,-23.20587,47.0862],[33.84546,-23.19998,48.222],[33.84313,-23.19486,49.624],[33.83642,-23.18685,48.0512],[33.83285,-23.18324,48.5291],[33.82959,-23.17926,49.1088],[33.80696,-23.14071,49.4249],[33.80076,-23.13218,49.3236],[33.79471,-23.12541,54.336],[33.78929,-23.12133,50.872],[33.77761,-23.10929,53.0292],[33.77249,-23.10588,49.7235],[33.76722,-23.10417,55.1927],[33.75993,-23.10107,53.604],[33.75218,-23.09616,54.6929],[33.74149,-23.08298,54.0556],[33.72955,-23.07094,54.0421],[33.72113,-23.065,57.1542],[33.7174,-23.06159,55.2292],[33.70733,-23.04976,58.2695],[33.7033,-23.04665,60.2195],[33.69787,-23.0435,68.529],[33.69245,-23.03937,70.4126],[33.68593,-23.0325,71.2397],[33.68438,-23.02635,63.371],[33.68469,-23.00841,58.0923],[33.68221,-22.99033,62.8151],[33.67555,-22.97059,66.9709],[33.6403,-22.9247,78.611],[33.62434,-22.89747,68.7204],[33.61111,-22.88191,83.55],[33.60335,-22.87519,77.7213],[33.58103,-22.86171,66.4852],[33.57684,-22.85855,68.3504],[33.57033,-22.8507,68.943],[33.5646,-22.84186,62.8451],[33.55788,-22.83411,68.8897],[33.54982,-22.82765,69.5692],[33.53168,-22.81716,65.5144],[33.50796,-22.79794,68.6019],[33.49938,-22.79334,64.2544],[33.49272,-22.79049,72.3544],[33.46295,-22.77117,84.4168],[33.44429,-22.75386,86.3999],[33.42585,-22.72936,90.9819],[33.41747,-22.71541,96.8515],[33.40538,-22.69908,92.5331],[33.39856,-22.69164,72.4012],[33.39469,-22.68833,67.8696],[33.38146,-22.68001,74.0014],[33.37572,-22.67551,70.6528],[33.36936,-22.66931,70.4061],[33.30947,-22.58203,86.1536],[33.29908,-22.55805,83.8474],[33.29629,-22.54539,85.5967],[33.29567,-22.53888,85.5387],[33.29552,-22.53258,85.9751],[33.30513,-22.47573,90.3811],[33.31567,-22.44545,93.8839],[33.3166,-22.43982,94.4869],[33.31862,-22.4024,96.9059],[33.32001,-22.39703,96.3644],[33.32249,-22.39269,97.079],[33.32606,-22.38923,98.4074],[33.33505,-22.38349,94.1432],[33.36394,-22.3744,109.4355],[33.3689,-22.37181,109.7309],[33.37262,-22.36835,98.5601],[33.37432,-22.36329,98.992],[33.37495,-22.35739,109.3332],[33.37262,-22.33817,109.3062],[33.36161,-22.29781,101.6934],[33.36068,-22.285,105.9225],[33.36208,-22.26686,109.5018],[33.36084,-22.24815,115.5094],[33.35603,-22.22397,118.0947],[33.35572,-22.21751,117.4923],[33.37138,-22.15286,123.438],[33.37448,-22.128,121.8025],[33.37401,-22.12004,125.3428],[33.37215,-22.10883,127.9474],[33.34037,-22.0632,119.2303],[33.33619,-22.04801,126.1729],[33.33464,-22.03307,119.4458],[33.33474,-22.00811,118.2547],[33.3334,-22.00284,120.1867],[33.33154,-21.9999,120.5117],[33.26322,-21.94936,124.1684],[33.16111,-21.82926,127.2309],[33.15692,-21.82239,128.5997],[33.15506,-21.81531,130.1444],[33.15522,-21.80306,129.5331],[33.15754,-21.79205,130.972],[33.16111,-21.78177,130.4512],[33.16162,-21.77366,131.6502],[33.16002,-21.76224,133.783],[33.14654,-21.71004,139.03],[33.14607,-21.70364,137.9315],[33.14638,-21.69743,137.7504],[33.14716,-21.6917,138.4371],[33.14855,-21.68627,139.6015],[33.15041,-21.68131,140.9435],[33.15553,-21.67263,143.496],[33.15863,-21.66865,141.9392],[33.16638,-21.65563,141.7603],[33.18705,-21.63346,142.5793],[33.20271,-21.62033,141.8535],[33.20968,-21.6132,140.649],[33.2162,-21.60535,139.601],[33.23206,-21.57951,122.9203],[33.26167,-21.5454,116.4955],[33.26663,-21.53646,140.09],[33.27113,-21.52613,93.1457],[33.27697,-21.50458,90.2626],[33.24095,-21.49083,94.2458],[33.21826,-21.48706,96.9049],[33.20018,-21.49001,94.7953],[33.13971,-21.51497,96.8575],[33.12142,-21.52613,94.6134],[33.10147,-21.54328,99.9723],[33.0854,-21.56246,106.6544],[33.07889,-21.57951,105.3055],[33.07005,-21.59636,112.5941],[33.05083,-21.59083,105.8297],[33.03171,-21.57718,105.2519],[33.02365,-21.56959,107.799],[33.00055,-21.56804,109.3804],[32.98561,-21.56876,107.3593],[32.97766,-21.56029,122.2819],[32.97523,-21.53109,120.2373],[32.96846,-21.51605,122.0011],[32.95275,-21.50241,120.041],[32.93451,-21.49218,116.154],[32.92061,-21.48706,113.6736],[32.90562,-21.48665,117.8416],[32.84831,-21.49388,124.4179],[32.82914,-21.49218,125.0134],[32.81229,-21.48758,125.6019],[32.79725,-21.48107,123.0172],[32.6846,-21.39983,144.8268],[32.64564,-21.38402,142.7397],[32.62553,-21.38138,144.0975],[32.56094,-21.38402,143.9327],[32.54523,-21.37771,148.3455],[32.4889,-21.34438,158.4548],[32.44585,-21.30899,160.7177],[32.4472,-21.31368,153.8061]]]}}