{"type": "Feature","bbox": [36.9629,-14.3635,37.6201,-13.8538],"geometry": {"type": "MultiPolygon","coordinates": [[[[37.6201,-14.2879,436.9327],[37.6145,-14.2785,437.2821],[37.6053,-14.2725,435.9806],[37.5684,-14.2666,439.2393],[37.5468,-14.2457,448.4079],[37.5407,-14.2219,468.0859],[37.5285,-14.213,456.4564],[37.5222,-14.195,464.4094],[37.5099,-14.1861,463.7729],[37.4915,-14.1652,465.1671],[37.4862,-14.1487,460.4706],[37.4777,-14.1392,465.9982],[37.4758,-14.1242,468.9274],[37.4728,-14.1175,470.775],[37.47,-14.1175,472.7412],[37.4609,-14.1087,470.9652],[37.46,-14.1044,471.2885],[37.4663,-14.091,474.112],[37.4653,-14.0883,479.0149],[37.4669,-14.0847,488.4029],[37.4546,-14.0697,488.4991],[37.4556,-14.0532,489.0203],[37.4592,-14.047,489.5635],[37.4692,-14.0369,494.2501],[37.4792,-14.0101,505.1718],[37.4439,-13.9523,529.7657],[37.4594,-13.9134,534.9933],[37.4287,-13.8841,549.8804],[37.3882,-13.8549,581.3112],[37.3528,-13.8538,650.8179],[37.3144,-13.8831,561.902],[37.296,-13.9048,537.8203],[37.2526,-13.8824,580.8875],[37.147,-13.951599999999999,603.2355],[37.1107,-13.9526,703.4966],[37.0681,-14.0403,595.6161],[37.0224,-14.0971,632.3296],[36.9629,-14.1644,551.7882],[36.965,-14.1666,544.1437],[36.9637,-14.1699,549.4076],[37.0026,-14.1861,537.3398],[37.018,-14.198,542.6783],[37.0303,-14.198,541.8524],[37.0331,-14.2091,534.2726],[37.0426,-14.2099,536.3013],[37.0527,-14.2181,531.0309],[37.0619,-14.2151,521.828],[37.068,-14.224,527.5858],[37.0798,-14.2253,523.3146],[37.0899,-14.2388,520.5797],[37.1055,-14.2429,529.5942],[37.1348,-14.2427,519.0473],[37.1563,-14.2368,521.2939],[37.1717,-14.2517,503.9638],[37.184,-14.2487,507.4241],[37.2148,-14.2636,499.6988],[37.2517,-14.2696,493.9613],[37.2701,-14.2785,496.5839],[37.2716,-14.283,493.5689],[37.2738,-14.2837,487.9704],[37.283,-14.2777,485.1528],[37.2892,-14.2777,485.2855],[37.2984,-14.2837,485.8415],[37.3045,-14.2777,484.642],[37.3168,-14.2807,481.0113],[37.326,-14.2807,483.8882],[37.3347,-14.2904,480.3149],[37.3439,-14.2904,476.8381],[37.35,-14.3024,479.7087],[37.3777,-14.2904,473.2512],[37.3874,-14.2926,465.6657],[37.3936,-14.2897,468.6027],[37.4194,-14.2897,464.0609],[37.4269,-14.2874,461.8207],[37.473,-14.2994,466.1931],[37.5315,-14.3352,444.64],[37.553,-14.3382,449.4786],[37.5686,-14.3553,445.2241],[37.5809,-14.3582,437.3213],[37.5901,-14.3582,450.421],[37.5956,-14.3635,438.3558],[37.6114,-14.3493,438.2911],[37.6083,-14.2964,432.2676],[37.6201,-14.2879,436.9327]]]]}
,"properties": {"GID_3": "MOZ.8.7.1_1","GID_0": "MOZ","country": "Mozambique","GID_1": "MOZ.8_1","province": "Nassa","NL_NAME_1": "NA","GID_2": "MOZ.8.7_1","county": "Maúa","NL_NAME_2": "NA","city": "Maiaca","VARNAME_3": "NA","NL_NAME_3": "NA","TYPE_3": "Localidad","ENGTYPE_3": "Locality","CC_3": "NA","HASC_3": "NA","name": "Maiaca.city","area_km2": 2028.56,"hist_schema_id": "Elevation0-9000","hist_area_km2": {"425": 6.225,"450": 75.756,"475": 163.197,"500": 289.209,"525": 337.452,"550": 443.05,"575": 404.021,"600": 233.865,"625": 71.773,"650": 3.58,"675": 0.329,"700": 0.021,"725": 0.041,"750": 0.021,"775": 0.021}}}