{"type":"Feature","properties":{"GID_2":"MOZ.4.7_1","GID_0":"MOZ","country":"Mozambique","GID_1":"MOZ.4_1","province":"Manica","NL_NAME_1":"NA","county":"Mossurize","VARNAME_2":"NA","NL_NAME_2":"NA","TYPE_2":"Distrito","ENGTYPE_2":"District","CC_2":"NA","HASC_2":"MZ.MN.MO","name":"Mossurize.county"},
"geometry":{"type": "MultiPolygon","coordinates": [[[[33.1001,-20.5792,205.4588],[33.0986,-20.5737,173.0412],[33.1073,-20.5685,178.5089],[33.1194,-20.555,173.2475],[33.1216,-20.5413,184.9788],[33.1355,-20.5068,162.4532],[33.1435,-20.5044,187.202],[33.1584,-20.5036,170.3423],[33.1696,-20.4941,153.1192],[33.1806,-20.4821,162.3352],[33.1904,-20.4574,161.2338],[33.2238,-20.4235,156.9806],[33.2295,-20.412,162.8323],[33.2314,-20.4038,141.1652],[33.2351,-20.4013,149.7571],[33.2498,-20.3999,145.8575],[33.258,-20.3902,153.9467],[33.2647,-20.3758,147.9501],[33.2593,-20.3687,154.188],[33.2571,-20.3571,148.582],[33.2651,-20.3471,140.8464],[33.277,-20.3214,143.0155],[33.2859,-20.3169,132.7567],[33.299,-20.3204,138.9918],[33.313,-20.3284,145.1046],[33.3225,-20.3245,137.8904],[33.3352,-20.3255,138.2912],[33.3572,-20.3388,132.0244],[33.3808,-20.3377,127.1839],[33.384,-20.3365,134.0318],[33.3907,-20.3278,136.3408],[33.3944,-20.3175,131.7995],[33.4232,-20.3147,127.0875],[33.4319,-20.3086,128.9948],[33.4477,-20.293,127.1871],[33.4559,-20.2905,129.8128],[33.4675,-20.2931,114.7368],[33.4753,-20.2917,120.2141],[33.4784,-20.2931,119.053],[33.4948,-20.2778,122.4942],[33.5114,-20.2708,108.6821],[33.5073,-20.2637,115.6745],[33.4975,-20.255,121.2178],[33.4912,-20.2325,128.5887],[33.4832,-20.2184,140.0612],[33.4787,-20.2057,139.5447],[33.4631,-20.1801,160.4482],[33.4594,-20.1673,171.4811],[33.4425,-20.1485,187.2858],[33.4055,-20.1144,167.728],[33.4,-20.121,163.031],[33.3843,-20.1304,165.5889],[33.3764,-20.137,170.235],[33.3499,-20.1378,174.3613],[33.3419,-20.1396,178.8954],[33.3422,-20.1518,177.4848],[33.337,-20.1546,180.6313],[33.324,-20.1569,184.3581],[33.3158,-20.1625,188.7848],[33.3166,-20.1768,192.8886],[33.308,-20.187,196.4079],[33.306,-20.2002,196.7775],[33.2915,-20.2227,212.2241],[33.2798,-20.2306,226.2155],[33.2664,-20.232,218.8994],[33.2573,-20.2311,234.187],[33.2529,-20.2279,222.521],[33.2111,-20.2306,251.4068],[33.2071,-20.2342,261.4726],[33.1918,-20.2373,286.0926],[33.1848,-20.2421,316.2467],[33.1775,-20.2404,373.9133],[33.168,-20.2269,457.2283],[33.1692,-20.2102,518.5453],[33.1667,-20.1849,643.371],[33.1574,-20.1437,416.2592],[33.154,-20.0898,286.4314],[33.1515,-20.081,238.9562],[33.1465,-20.0879,201.093],[33.1358,-20.0871,240.0717],[33.1251,-20.0897,212.3117],[33.1159,-20.0859,231.9453],[33.1065,-20.0787,307.3185],[33.0867,-20.093,279.8094],[33.0763,-20.0977,302.9435],[33.0651,-20.0869,295.8619],[33.0537,-20.0865,288.7282],[33.0314,-20.0683,322.8271],[33.0247,-20.0516,342.3402],[33.0249,-20.0436,313.2546],[33.014,-20.011,412.1029],[33.0109,-20.0188,410.4355],[33.0009,-20.024,403.3703],[33.0002,-20.0265,356.9608],[32.9965,-20.0281,335.0786],[32.9812,-20.0308,389.6838],[32.9719,-20.0344,439.9156],[32.9695,-20.0374,369.2089],[32.9263,-20.044,418.678],[32.9205,-20.0476,416.6309],[32.9122,-20.063,677.7405],[32.9185,-20.0735,700.7665],[32.9203,-20.0913,747.0323],[32.9198,-20.1152,723.0148],[32.9098,-20.1202,718.262],[32.8942,-20.1157,917.4907],[32.8899,-20.1103,983.5134],[32.8875,-20.1028,1046.2166],[32.8807,-20.1027,1129.3066],[32.878,-20.1064,1062.6544],[32.8682,-20.1116,1130.4849],[32.8557,-20.1561,1082.2806],[32.8559,-20.1607,1102.8118],[32.8708,-20.1803,1093.5391],[32.8713,-20.1895,1076.2795],[32.8698,-20.1927,1050.0295],[32.8468,-20.2003,1004.8614],[32.8427,-20.2054,932.5748],[32.8389,-20.2193,833.2343],[32.8401,-20.2235,860.5353],[32.8488,-20.2311,953.7621],[32.8627,-20.2358,892.7733],[32.8665,-20.24,881.0539],[32.8662,-20.2517,937.944],[32.8607,-20.2742,799.284],[32.864,-20.2871,941.6151],[32.807,-20.3393,879.5548],[32.8004,-20.353,875.5151],[32.7993,-20.3587,816.0621],[32.8007,-20.3714,941.9638],[32.781,-20.3951,604.045],[32.7645,-20.4108,911.3114],[32.734,-20.4485,917.2928],[32.7219,-20.467,825.0353],[32.6771,-20.5468,676.1449],[32.6687,-20.555,826.5671],[32.6584,-20.5616,776.5214],[32.6459,-20.5599,727.317],[32.6152,-20.5594,860.9657],[32.6037,-20.5609,867.8159],[32.5671,-20.5609,806.7516],[32.5573,-20.5656,616.4388],[32.5275,-20.5883,504.1818],[32.524,-20.5924,481.8766],[32.5118,-20.5997,399.4731],[32.4921,-20.6185,480.4532],[32.4885,-20.6275,460.5871],[32.4846,-20.6578,493.6371],[32.4856,-20.6745,525.7067],[32.4947,-20.7008,556.0369],[32.4978,-20.8074,461.7624],[32.5029,-20.8334,456.0304],[32.5153,-20.8721,377.6711],[32.5186,-20.8889,380.6424],[32.517,-20.9102,401.7999],[32.6017,-20.9158,444.5204],[32.6686,-20.8872,379.3365],[32.7718,-20.8732,377.5423],[32.7758,-20.8645,358.2647],[32.7939,-20.8405,325.2352],[32.8009,-20.8395,326.2465],[32.8102,-20.8482,334.8829],[32.8168,-20.8575,344.3644],[32.8239,-20.8633,353.8169],[32.8346,-20.8673,357.1357],[32.8467,-20.8781,368.3982],[32.8494,-20.8825,379.5967],[32.9153,-20.8927,384.758],[32.9991,-20.875,337.8288],[33.0684,-20.8459,326.7676],[33.0779,-20.8518,344.597],[33.0875,-20.8554,346.9225],[33.111,-20.8178,294.1815],[33.1633,-20.8151,333.6613],[33.1768,-20.8185,347.4001],[33.1978,-20.8276,389.0966],[33.2128,-20.8287,384.7755],[33.2257,-20.8277,357.6664],[33.2341,-20.8241,348.3027],[33.2367,-20.8187,348.2712],[33.2349,-20.8096,338.9772],[33.2285,-20.7984,325.8169],[33.2009,-20.7538,289.7319],[33.1879,-20.7403,290.3727],[33.1779,-20.7253,272.6155],[33.1679,-20.7149,266.9937],[33.1641,-20.708,261.6444],[33.1603,-20.6971,259.8248],[33.1603,-20.6868,249.4322],[33.1546,-20.6745,246.9698],[33.154,-20.6609,241.6372],[33.1503,-20.6513,241.6122],[33.1416,-20.6513,236.0851],[33.1373,-20.6544,231.0563],[33.1314,-20.6282,223.5942],[33.126,-20.6167,217.5066],[33.1146,-20.6063,200.9523],[33.1127,-20.5946,203.0755],[33.1001,-20.5792,205.4588]]]]}}