{"type":"Feature","properties":{"GID_3":"MOZ.3.7.2_1","GID_0":"MOZ","country":"Mozambique","GID_1":"MOZ.3_1","province":"Inhambane","NL_NAME_1":"NA","GID_2":"MOZ.3.7_1","county":"Mabote","NL_NAME_2":"NA","city":"Zimane","VARNAME_3":"NA","NL_NAME_3":"NA","TYPE_3":"Localidad","ENGTYPE_3":"Locality","CC_3":"NA","HASC_3":"NA","name":"Zimane.city"},
"geometry":{"type": "MultiPolygon","coordinates": [[[[33.6483,-22.9042,62.1309],[33.6686,-22.9022,77.3936],[33.676,-22.8992,82.106],[33.7084,-22.8827,90.7703],[33.7725,-22.8425,108.0658],[33.7844,-22.738,131.832],[33.7589,-22.6625,135.5995],[33.7654,-22.6372,144.2648],[33.7688,-22.5994,151.4443],[33.7736,-22.4933,162.3559],[33.775,-22.2914,196.1503],[33.785,-22.0071,185.3215],[33.775,-21.9907,187.1234],[33.7652,-21.9817,177.8854],[33.6393,-21.9823,178.9666],[33.6198,-21.9462,168.9669],[33.6483,-21.8377,167.2583],[33.6386,-21.8196,158.6756],[33.7835,-21.7738,180.9146],[33.793,-21.7557,184.1439],[33.7832,-21.7287,180.4321],[33.7734,-21.7106,175.642],[33.7734,-21.6926,164.9731],[33.5994,-21.7023,140.4935],[33.5705,-21.7205,140.1515],[33.5221,-21.7207,140.6277],[33.4642,-21.7479,131.7782],[33.4545,-21.7389,133.956],[33.3577,-21.694,127.8346],[33.3191,-21.7212,131.0309],[33.3094,-21.7302,133.143],[33.2611,-21.7303,134.899],[33.2321,-21.7213,136.2277],[33.2127,-21.7123,136.4051],[33.1934,-21.7123,136.274],[33.1644,-21.7033,140.0448],[33.1934,-21.7575,133.7836],[33.1548,-21.8208,128.817],[33.2518,-21.9472,124.228],[33.2809,-21.9652,122.6877],[33.2906,-21.9742,118.9993],[33.31,-21.9832,119.2956],[33.3197,-21.9922,119.5262],[33.3488,-22.0012,118.332],[33.3346,-22.034,119.4458],[33.3296,-22.0559,121.7551],[33.3348,-22.087,115.5907],[33.3426,-22.0946,124.7962],[33.3525,-22.1004,114.2226],[33.3581,-22.108,113.7417],[33.3646,-22.1294,114.57],[33.3625,-22.151,117.8691],[33.343,-22.1625,115.6005],[33.3443,-22.178,112.6269],[33.3412,-22.2011,117.2755],[33.3299,-22.2253,108.3022],[33.3324,-22.2366,115.1981],[33.3475,-22.2519,106.3263],[33.3555,-22.2585,104.7923],[33.3665,-22.2621,104.1014],[33.3719,-22.2857,105.205],[33.3631,-22.2982,102.5298],[33.359,-22.3146,104.149],[33.3666,-22.3541,100.9429],[33.3702,-22.3636,97.5913],[33.3782,-22.3713,100.2146],[33.3862,-22.3864,110.3211],[33.3804,-22.388,103.2637],[33.3589,-22.3802,97.386],[33.3355,-22.3858,94.5547],[33.3206,-22.3846,95.102],[33.3151,-22.3987,92.8208],[33.3084,-22.4075,90.7261],[33.3061,-22.4157,89.4718],[33.3115,-22.4348,92.0075],[33.3117,-22.4414,87.8256],[33.307,-22.4624,90.1477],[33.2979,-22.4875,89.271],[33.2931,-22.4967,83.3932],[33.2946,-22.5038,83.7921],[33.2878,-22.5181,84.741],[33.287,-22.528,81.5544],[33.2788,-22.5381,79.972],[33.2802,-22.5431,83.6822],[33.2744,-22.5494,80.2847],[33.2722,-22.5638,77.8512],[33.2842,-22.5724,81.6597],[33.2822,-22.5824,78.4594],[33.2887,-22.5917,74.3931],[33.294,-22.5945,76.1104],[33.2964,-22.6077,73.3523],[33.3033,-22.6206,71.9347],[33.3141,-22.6319,72.6291],[33.3221,-22.6448,70.4044],[33.322,-22.659,68.4941],[33.3413,-22.6629,66.9565],[33.3642,-22.6643,71.4898],[33.3725,-22.6712,67.0721],[33.3868,-22.6758,68.0089],[33.3975,-22.6868,65.838],[33.4131,-22.6965,65.6937],[33.4247,-22.7018,66.1208],[33.446,-22.7082,68.6504],[33.4537,-22.7149,69.6953],[33.458,-22.7254,68.0049],[33.4599,-22.7355,66.4719],[33.4708,-22.7463,65.1839],[33.4864,-22.7544,68.7455],[33.4901,-22.7612,66.2005],[33.4868,-22.7774,65.592],[33.498,-22.7812,64.8268],[33.5019,-22.7997,64.542],[33.5131,-22.8126,62.9379],[33.533,-22.8204,62.3238],[33.5442,-22.8273,65.176],[33.5636,-22.8428,62.8451],[33.5708,-22.8508,68.943],[33.5774,-22.8636,65.5615],[33.6012,-22.8934,62.2452],[33.6079,-22.8985,62.7985],[33.6155,-22.9016,65.4821],[33.6388,-22.8945,65.6909],[33.6469,-22.8937,65.3301],[33.6483,-22.9042,62.1309]]]]}}