{"type":"Feature","properties":{"GID_3":"MOZ.8.12.2_1","GID_0":"MOZ","country":"Mozambique","GID_1":"MOZ.8_1","province":"Nassa","NL_NAME_1":"NA","GID_2":"MOZ.8.12_1","county":"Muembe","NL_NAME_2":"NA","city":"Muembe","VARNAME_3":"NA","NL_NAME_3":"NA","TYPE_3":"Localidad","ENGTYPE_3":"Locality","CC_3":"NA","HASC_3":"NA","name":"Muembe.city"},
"geometry":{"type": "MultiPolygon","coordinates": [[[[35.9272,-13.2466,773.0984],[35.9436,-13.2563,724.4217],[35.9567,-13.2583,701.176],[35.9649,-13.2696,690.1259],[35.9657,-13.2815,688.2953],[35.9625,-13.2928,676.313],[35.966,-13.2972,682.8329],[35.975,-13.2986,663.8762],[35.9759,-13.3027,659.4746],[35.9746,-13.3101,677.5247],[35.9859,-13.3174,646.8357],[35.9856,-13.3255,659.1378],[35.9873,-13.3294,661.4672],[35.9914,-13.3295,648.8038],[35.9965,-13.3272,665.5168],[35.9988,-13.3288,663.0566],[36.0002,-13.3337,653.4083],[36.0269,-13.312,630.6702],[36.0427,-13.315,636.2977],[36.0659,-13.297,622.7616],[36.0918,-13.291,605.8406],[36.11,-13.2834,616.8419],[36.1152,-13.2762,623.6674],[36.1081,-13.2716,621.7937],[36.103,-13.2708,618.9288],[36.0848,-13.278,626.6816],[36.0766,-13.2753,629.3128],[36.068,-13.2603,628.4647],[36.0608,-13.2348,633.5797],[36.0559,-13.2257,650.0059],[36.045,-13.2146,644.8761],[36.0318,-13.1712,666.5077],[36.0286,-13.1465,672.2538],[36.0273,-13.1114,685.452],[36.0315,-13.1007,699.1116],[36.0319,-13.0929,708.3082],[36.0384,-13.0802,698.8671],[36.0225,-13.0525,718.432],[36.0202,-13.0293,728.9749],[36.0352,-13.0115,730.3323],[36.0391,-12.9991,737.084],[36.0339,-13.0017,728.8359],[36.0293,-12.9973,731.4238],[35.9836,-12.9389,788.743],[35.9528,-12.9449,886.9989],[35.9281,-12.9303,988.1655],[35.8941,-12.9001,1100.3253],[35.857,-12.9628,1231.9666],[35.7995,-13.0183,1276.7793],[35.7578,-13.0193,1233.8652],[35.7183,-13.0094,1146.453],[35.6877,-13.0492,1080.085],[35.6468,-13.0492,1166.7006],[35.6055,-13.0422,1073.9158],[35.5791,-13.0224,1043.4609],[35.5699,-13.0105,1048.0588],[35.5477,-12.9654,1020.2448],[35.5322,-12.9575,1035.6642],[35.5287,-12.9541,1038.7098],[35.4958,-12.9628,1021.1453],[35.4741,-12.9926,990.4734],[35.4741,-13.0015,1036.135],[35.4772,-13.0075,1024.5496],[35.4629,-13.0249,1015.5626],[35.4463,-13.0314,1023.7043],[35.4481,-13.0503,1037.6797],[35.438,-13.0525,1038.6873],[35.434,-13.0671,1035.4559],[35.4144,-13.0908,1076.6553],[35.4282,-13.1232,1065.1626],[35.4187,-13.141,1086.618],[35.4367,-13.1621,1105.7812],[35.4771,-13.1694,1133.1484],[35.4824,-13.1752,1128.9858],[35.4998,-13.1825,1155.0686],[35.5338,-13.1903,1318.1858],[35.5359,-13.1745,1162.3972],[35.5882,-13.205,1053.491],[35.6222,-13.2054,1040.8125],[35.649,-13.2216,1003.0332],[35.6583,-13.2254,1017.1891],[35.6792,-13.2395,988.7534],[35.7011,-13.2485,945.6636],[35.7085,-13.2466,966.7772],[35.7261,-13.247,898.1468],[35.7514,-13.2368,928.2805],[35.7689,-13.2273,922.2015],[35.7888,-13.227,854.9465],[35.8037,-13.2288,834.6413],[35.8195,-13.2267,849.8295],[35.8456,-13.2262,838.5155],[35.8706,-13.2183,903.953],[35.8879,-13.2222,812.3395],[35.9008,-13.2273,808.0424],[35.9126,-13.2271,786.3425],[35.9183,-13.2299,755.7698],[35.9272,-13.2466,773.0984]]]]}}