{"type":"Feature","properties":{"GID_3":"MOZ.7.14.1_1","GID_0":"MOZ","country":"Mozambique","GID_1":"MOZ.7_1","province":"Nampula","NL_NAME_1":"NA","GID_2":"MOZ.7.14_1","county":"Murrupula","NL_NAME_2":"NA","city":"Chinga","VARNAME_3":"NA","NL_NAME_3":"NA","TYPE_3":"Localidad","ENGTYPE_3":"Locality","CC_3":"NA","HASC_3":"NA","name":"Chinga.city"},
"geometry":{"type": "MultiPolygon","coordinates": [[[[38.7669,-15.2196,417.3009],[38.7669,-15.2088,406.836],[38.7543,-15.1789,442.7765],[38.7558,-15.1749,439.9695],[38.7756,-15.1597,443.6742],[38.7796,-15.1506,472.2075],[38.7802,-15.1369,464.1709],[38.7738,-15.1303,460.7508],[38.7698,-15.1142,469.459],[38.7617,-15.1107,482.8203],[38.7423,-15.1101,476.8538],[38.7346,-15.1083,475.5787],[38.7286,-15.1001,479.8748],[38.717,-15.0894,502.8617],[38.7069,-15.0857,492.9194],[38.693,-15.0825,504.1444],[38.6736,-15.0825,505.1817],[38.6638,-15.0782,499.2965],[38.6549,-15.0701,505.7562],[38.639,-15.0632,516.6129],[38.6264,-15.0548,518.9618],[38.6227,-15.0483,529.8223],[38.5999,-15.051,563.6656],[38.5919,-15.0496,532.2853],[38.5463,-15.0597,1409.7257],[38.5288,-15.1231,551.4019],[38.5193,-15.1349,546.1884],[38.5037,-15.1382,531.3171],[38.4963,-15.1442,520.8685],[38.4886,-15.1586,516.3967],[38.4738,-15.1684,511.6525],[38.4834,-15.1797,516.5619],[38.4867,-15.1928,522.6666],[38.5005,-15.2074,514.14],[38.5169,-15.2343,546.592],[38.5352,-15.2482,483.235],[38.5612,-15.2366,500.6516],[38.5732,-15.237,491.9998],[38.6078,-15.2519,431.7808],[38.6524,-15.2596,388.3632],[38.6577,-15.2623,388.6411],[38.6817,-15.2874,374.5474],[38.6807,-15.2942,377.4091],[38.7035,-15.3295,365.7394],[38.7075,-15.3247,363.2689],[38.7346,-15.2646,401.4485],[38.7331,-15.2501,434.988],[38.7358,-15.2404,460.1839],[38.7413,-15.2385,450.1456],[38.7669,-15.2196,417.3009]]]]}}