{"type": "Feature","bbox": [37.3028,-17.5492,37.7629,-17.0226],"geometry": {"type": "MultiPolygon","coordinates": [[[[37.6043,-17.5399,0.0],[37.6018,-17.5393,0.0],[37.6013,-17.5396,0.0],[37.6026,-17.5407,0.0],[37.6043,-17.5399,0.0]]],
[[[37.6988,-17.4776,0.0],[37.6974,-17.4765,0.0],[37.6901,-17.4835,0.0],[37.6907,-17.4849,0.0],[37.6924,-17.484,0.0],[37.6954,-17.486,0.0],[37.6965,-17.4885,0.0],[37.7001,-17.489,0.0],[37.699,-17.4862,0.0],[37.7012,-17.4865,0.0],[37.6993,-17.4849,0.0],[37.7021,-17.4846,0.0],[37.7021,-17.4826,0.0],[37.7043,-17.4837,0.0],[37.7026,-17.4804,0.0],[37.6988,-17.4776,0.0]]],
[[[37.6888,-17.484,0.0],[37.6899,-17.4801,0.0],[37.6879,-17.4815,0.0],[37.6879,-17.4837,0.0],[37.6893,-17.4851,0.0],[37.6888,-17.484,0.0]]],
[[[37.6975,-17.4728,0.0],[37.6974,-17.4727,0.0],[37.6973,-17.4726,0.0],[37.6974,-17.4729,0.0],[37.6975,-17.4728,0.0]]],
[[[37.5887,-17.5379,0.0],[37.5879,-17.5374,0.0],[37.5874,-17.5401,0.0],[37.5893,-17.5432,0.0],[37.591,-17.5407,0.0],[37.5887,-17.5379,0.0]]],
[[[37.5904,-17.536,0.0],[37.5901,-17.5349,0.0],[37.5874,-17.5354,0.0],[37.5887,-17.5368,0.0],[37.5904,-17.536,0.0]]],
[[[37.5921,-17.5346,0.0],[37.5907,-17.534,0.0],[37.5932,-17.5362,0.0],[37.5932,-17.5354,0.0],[37.5921,-17.5346,0.0]]],
[[[37.7124,-17.2123,33.8097],[37.6874,-17.1968,53.6774],[37.6916,-17.1867,36.1706],[37.6893,-17.1885,34.9506],[37.6745,-17.1705,63.4548],[37.6774,-17.1535,50.7729],[37.6476,-17.1514,77.2084],[37.6384,-17.1404,61.7556],[37.6563,-17.1274,44.0069],[37.6533,-17.1063,47.1541],[37.6424,-17.0874,60.3074],[37.6454,-17.0484,69.0673],[37.6123,-17.0226,68.1935],[37.5962,-17.0342,95.0972],[37.5837,-17.0581,63.116],[37.5588,-17.0968,57.193],[37.5503,-17.1049,60.9597],[37.5446,-17.1093,57.6778],[37.5057,-17.115,24.4942],[37.4967,-17.1398,33.2483],[37.4855,-17.1607,11.2916],[37.4837,-17.1742,28.5142],[37.471,-17.2191,31.5806],[37.4619,-17.2191,27.4285],[37.4472,-17.2106,53.028],[37.4344,-17.1949,28.1505],[37.4148,-17.1933,53.1964],[37.3995,-17.2042,51.3869],[37.3995,-17.2125,43.9537],[37.3792,-17.2184,68.9215],[37.3551,-17.2063,106.0108],[37.3464,-17.1952,95.5228],[37.3308,-17.1863,97.6571],[37.3152,-17.1744,111.1496],[37.3069,-17.177,117.9435],[37.3028,-17.186,127.0059],[37.3152,-17.2012,120.2181],[37.3229,-17.2177,91.519],[37.3277,-17.246,57.7923],[37.3277,-17.2608,65.5799],[37.3218,-17.2788,64.3754],[37.3122,-17.2793,73.9448],[37.315,-17.2902,71.6693],[37.3277,-17.3026,56.6853],[37.3278,-17.3212,36.6849],[37.33,-17.3285,26.2611],[37.3207,-17.3327,35.9855],[37.318,-17.3389,25.2206],[37.3185,-17.3546,39.1579],[37.3245,-17.3682,58.5196],[37.337,-17.3802,46.2883],[37.3401,-17.3951,37.6335],[37.3527,-17.407,30.0112],[37.3558,-17.4189,24.0969],[37.3675,-17.4292,2.9917],[37.3846,-17.4405,12.2803],[37.3869,-17.4435,19.5933],[37.3875,-17.4492,11.9266],[37.3995,-17.4696,9.5328],[37.3932,-17.4756,11.8744],[37.3776,-17.4845,7.689],[37.3932,-17.4935,5.7126],[37.4108,-17.4963,3.5843],[37.4209,-17.5145,11.3043],[37.4773,-17.5145,3.3499],[37.4869,-17.5233,4.0805],[37.4838,-17.5353,4.6863],[37.4866,-17.5405,5.8718],[37.4942,-17.5469,4.8382],[37.5156,-17.5492,10.3089],[37.515,-17.5431,11.0093],[37.5257,-17.5472,6.3385],[37.5364,-17.5452,6.9996],[37.552,-17.531,0.0],[37.5666,-17.5308,0.0],[37.581,-17.5364,0.0],[37.5821,-17.5315,0.0],[37.5899,-17.5293,2.8301],[37.5976,-17.5354,0.0],[37.6054,-17.5379,2.2891],[37.6418,-17.514,3.6167],[37.6599,-17.5062,1.7622],[37.6796,-17.4954,4.2963],[37.684,-17.4899,0.0],[37.6849,-17.4785,0.0],[37.6876,-17.4737,0.975],[37.6901,-17.4724,0.5924],[37.6973,-17.4726,0.0],[37.6916,-17.4627,3.6993],[37.7093,-17.4537,3.3871],[37.7141,-17.4497,6.0192],[37.7365,-17.4425,11.2071],[37.7423,-17.4365,4.0379],[37.742,-17.4305,2.6197],[37.7438,-17.425,4.519],[37.7498,-17.4224,2.9889],[37.7617,-17.4206,9.7609],[37.7629,-17.419,1.3823],[37.7591,-17.4111,7.5011],[37.7422,-17.4069,5.8273],[37.7302,-17.4063,2.1195],[37.7088,-17.4178,4.882],[37.6995,-17.41,8.873],[37.7017,-17.3948,2.1883],[37.6994,-17.3863,3.6134],[37.6896,-17.3767,2.8153],[37.6817,-17.3634,3.0517],[37.6714,-17.3391,1.8156],[37.6809,-17.33,2.145],[37.6836,-17.3148,3.3141],[37.6771,-17.2935,3.5964],[37.6712,-17.2817,6.0652],[37.6837,-17.2728,10.5834],[37.6897,-17.2663,6.7444],[37.6933,-17.2546,9.5009],[37.7087,-17.237,14.0029],[37.7337,-17.2247,12.9563],[37.7329,-17.2098,9.8295],[37.7124,-17.2123,33.8097]]]]}
,"properties": {"GID_3": "MOZ.11.8.2_1","GID_0": "MOZ","country": "Mozambique","GID_1": "MOZ.11_1","province": "Zambezia","NL_NAME_1": "NA","GID_2": "MOZ.11.8_1","county": "MaganjadaCosta","NL_NAME_2": "NA","city": "MaganjaDaCosta","VARNAME_3": "NA","NL_NAME_3": "NA","TYPE_3": "Localidad","ENGTYPE_3": "Locality","CC_3": "NA","HASC_3": "NA","name": "Maganja_Da_Costa.city","area_km2": 1588.589,"hist_schema_id": "Elevation0-9000","hist_area_km2": {"0": 746.304,"25": 335.108,"50": 294.605,"75": 163.123,"100": 42.481,"125": 6.927,"150": 0.041}}}