{"type":"Feature","properties":{"GID_2":"MOZ.9.1_1","GID_0":"MOZ","country":"Mozambique","GID_1":"MOZ.9_1","province":"Sofala","NL_NAME_1":"NA","county":"Buzi","VARNAME_2":"NA","NL_NAME_2":"NA","TYPE_2":"Distrito","ENGTYPE_2":"District","CC_2":"NA","HASC_2":"MZ.SO.BU","name":"Buzi.county"},
"geometry":{"type": "MultiPolygon","coordinates": [[[[34.7001,-20.4329,0.0],[34.6951,-20.4329,0.0],[34.6885,-20.4379,0.0],[34.684,-20.4437,1.6382],[34.6862,-20.4468,1.1564],[34.6779,-20.4421,0.0],[34.6632,-20.4485,0.5],[34.6615,-20.4507,0.5],[34.6621,-20.4557,1.9713],[34.6529,-20.4662,0.992],[34.6529,-20.4685,0.5],[34.6587,-20.4735,1.8332],[34.6585,-20.4782,3.3991],[34.6543,-20.4843,0.5],[34.6538,-20.4887,3.6498],[34.6599,-20.5004,3.3796],[34.6587,-20.5132,0.0],[34.6771,-20.5104,1.6576],[34.6821,-20.5129,0.6806],[34.6843,-20.516,1.446],[34.6871,-20.5154,0.473],[34.6901,-20.5104,1.5938],[34.6849,-20.5065,1.4683],[34.6829,-20.4968,0.967],[34.6807,-20.496,0.5],[34.6724,-20.4985,2.224],[34.676,-20.496,3.7274],[34.6818,-20.4951,0.5],[34.6801,-20.4915,1.9901],[34.6846,-20.4979,3.4587],[34.6865,-20.506,2.7884],[34.6899,-20.5071,0.0],[34.6926,-20.506,0.0],[34.6937,-20.504,0.0],[34.6913,-20.4954,2.136],[34.6946,-20.4993,0.0],[34.6937,-20.4935,1.4413],[34.6971,-20.4915,0.375],[34.6979,-20.489,3.7105],[34.7012,-20.4882,0.5],[34.701,-20.4835,0.625],[34.6976,-20.4771,3.3847],[34.7021,-20.474,2.062],[34.7026,-20.4718,2.8515],[34.7035,-20.4732,2.7308],[34.6993,-20.4785,5.002],[34.7018,-20.4829,4.4042],[34.7035,-20.4829,3.8096],[34.7035,-20.4885,2.3922],[34.6993,-20.4926,2.087],[34.699,-20.4951,4.6071],[34.6976,-20.4937,0.0],[34.6957,-20.4971,0.0],[34.6965,-20.4993,0.0],[34.6982,-20.4985,0.679],[34.6982,-20.5029,0.0],[34.6999,-20.5029,0.8654],[34.7188,-20.4749,0.0],[34.7132,-20.4579,0.0],[34.711,-20.4574,1.4732],[34.7126,-20.4543,1.7656],[34.7118,-20.4496,0.6541],[34.7101,-20.4493,1.2052],[34.7121,-20.4474,0.0],[34.7101,-20.4424,0.0958],[34.7054,-20.4349,0.7214],[34.7015,-20.4346,3.6751],[34.7001,-20.4329,0.0]]],
[[[34.6913,-20.3871,0.0],[34.6899,-20.3854,3.0068],[34.6879,-20.389,0.0],[34.6896,-20.389,0.0],[34.6913,-20.3871,0.0]]],
[[[34.6779,-20.3401,3.1259],[34.6751,-20.3393,0.0],[34.6743,-20.3412,3.6083],[34.6768,-20.3435,1.6648],[34.6779,-20.3401,3.1259]]],
[[[34.7018,-20.3113,3.0351],[34.7038,-20.3104,2.8951],[34.7038,-20.3087,2.3631],[34.7021,-20.309,1.2189],[34.7018,-20.3113,3.0351]]],
[[[34.6285,-20.5224,1.1371],[34.6296,-20.5226,0.5],[34.6301,-20.521,0.5],[34.6293,-20.5212,0.5],[34.6285,-20.5224,1.1371]]],
[[[34.6629,-20.3904,3.3904],[34.6618,-20.3896,3.3904],[34.6596,-20.3954,2.1954],[34.6615,-20.394,5.7718],[34.6629,-20.3904,3.3904]]],
[[[34.7465,-20.026,1.0],[34.7457,-20.0221,2.7954],[34.7465,-20.0193,1.2741],[34.7487,-20.0182,0.375],[34.7496,-20.0054,3.735],[34.7521,-20.0065,3.471],[34.7499,-20.0121,3.6422],[34.7507,-20.014,0.0],[34.7549,-20.0074,0.0],[34.7551,-20.0015,0.5557],[34.7574,-19.9982,0.0],[34.7574,-19.9746,0.6712],[34.7599,-19.9718,2.003],[34.7615,-19.9654,0.0],[34.7632,-19.9549,0.0],[34.7626,-19.9465,0.0],[34.7651,-19.9354,0.0],[34.764,-19.9268,0.0],[34.7612,-19.9229,0.7293],[34.7621,-19.9029,0.0],[34.7576,-19.8913,1.0749],[34.7743,-19.8557,0.0],[34.8338,-19.849,0.0],[34.8279,-19.8424,0.0],[34.8271,-19.8388,0.0],[34.8344,-19.8143,0.0],[34.8339,-19.8069,2.5903],[34.8094,-19.7978,0.0],[34.7951,-19.7813,0.0],[34.7894,-19.7692,0.0],[34.7843,-19.7625,0.0],[34.7706,-19.7515,0.0],[34.7472,-19.7393,0.0],[34.7303,-19.7333,4.6186],[34.7091,-19.734,6.1925],[34.6986,-19.726,0.5],[34.6986,-19.719,0.5],[34.696,-19.7167,0.5],[34.6934,-19.699,0.5],[34.6893,-19.6908,0.5],[34.666,-19.6719,0.5],[34.6561,-19.6537,5.2833],[34.6505,-19.6504,5.9038],[34.6385,-19.6599,0.5],[34.5883,-19.6594,4.358],[34.5341,-19.6137,1.6321],[34.526,-19.6011,2.3129],[34.5181,-19.6041,4.9573],[34.5013,-19.6019,5.3158],[34.4579,-19.6061,4.3126],[34.4507,-19.622,14.1321],[34.41,-19.6367,34.367],[34.362,-19.6401,62.2526],[34.1528,-19.6625,66.7813],[34.1476,-19.6504,67.2174],[34.129,-19.6216,73.4751],[34.1246,-19.6067,77.2051],[34.1153,-19.5941,80.7272],[34.0921,-19.5909,83.0917],[34.0802,-19.593,81.9104],[34.0716,-19.5801,87.8467],[34.0498,-19.5902,88.2167],[34.0448,-19.5865,94.828],[34.0365,-19.5908,95.4076],[34.0204,-19.5875,112.6011],[34.0092,-19.5954,104.797],[34.0015,-19.5983,109.0155],[33.9934,-19.5989,110.7651],[33.9702,-19.5997,125.0068],[33.9641,-19.5969,130.8971],[33.9552,-19.5989,132.2223],[33.945,-19.597,142.6876],[33.7408,-19.5987,108.1946],[33.7431,-19.6089,102.3668],[33.7422,-19.6179,92.2699],[33.7492,-19.6306,87.3046],[33.7637,-19.6446,84.8164],[33.7685,-19.6548,79.1873],[33.83,-19.7291,69.3249],[33.833,-19.7431,67.8862],[33.8481,-19.77,50.9546],[33.8518,-19.7707,64.7366],[33.8594,-19.776,60.5292],[33.8679,-19.777,55.3904],[33.8925,-19.7629,55.8657],[33.9084,-19.7686,54.8273],[33.9199,-19.7891,45.5797],[33.938,-19.7955,45.3176],[33.9544,-19.7987,36.2165],[33.962,-19.8075,40.2187],[33.9648,-19.8219,36.298],[33.9729,-19.832,31.7253],[33.9844,-19.8298,34.3184],[33.9995,-19.8157,37.5675],[34.0262,-19.8226,32.6253],[34.0329,-19.8195,31.4232],[34.0389,-19.8202,25.3025],[34.0422,-19.8216,26.5908],[34.0463,-19.8272,26.1355],[34.0595,-19.8603,28.8974],[34.0659,-19.8683,26.5043],[34.0592,-19.8788,28.1518],[34.0434,-19.9323,31.5183],[34.0445,-19.9407,35.3044],[34.0236,-19.9622,94.6857],[34.0169,-19.9978,104.8378],[34.0115,-20.0,119.9093],[34.006,-20.0062,121.128],[33.9993,-20.0236,131.116],[33.9977,-20.0325,146.3609],[33.9859,-20.0451,154.2277],[33.9766,-20.0601,169.2516],[33.9646,-20.0685,172.1287],[33.9468,-20.0861,189.8387],[33.9358,-20.104,216.327],[33.9363,-20.1146,234.8113],[33.9637,-20.153,243.5238],[34.1285,-20.3577,156.6654],[34.1422,-20.3647,148.8971],[34.168,-20.3824,135.9853],[34.1789,-20.388,125.265],[34.1972,-20.3912,112.2084],[34.2186,-20.3912,103.8842],[34.2309,-20.3971,97.6556],[34.237,-20.3971,93.2109],[34.2677,-20.4068,78.9969],[34.2725,-20.4248,75.4063],[34.2795,-20.4636,68.9758],[34.2772,-20.4701,68.5529],[34.2769,-20.4773,64.3052],[34.2812,-20.4946,60.9217],[34.2851,-20.5017,62.6114],[34.2978,-20.5089,66.7889],[34.3006,-20.5257,58.9767],[34.333,-20.5471,56.8553],[34.3781,-20.5323,46.6004],[34.3965,-20.5336,44.9908],[34.4101,-20.5356,40.9452],[34.4209,-20.5438,37.1109],[34.4407,-20.553,31.5057],[34.4702,-20.5561,23.1923],[34.4824,-20.5607,19.9607],[34.502,-20.5649,16.3347],[34.5197,-20.5605,15.6202],[34.5616,-20.5444,13.8577],[34.5734,-20.5409,15.6223],[34.5901,-20.5387,3.9774],[34.6032,-20.5296,2.1737],[34.6018,-20.5243,1.8737],[34.5988,-20.526,3.0905],[34.5999,-20.5232,4.5695],[34.6015,-20.5226,4.2121],[34.604,-20.529,1.9272],[34.6063,-20.5276,0.5],[34.6063,-20.524,0.5],[34.6115,-20.5204,2.6485],[34.6235,-20.5246,0.5],[34.6296,-20.5182,0.5],[34.6332,-20.5168,0.5],[34.6329,-20.511,1.1541],[34.6346,-20.5085,2.3442],[34.6354,-20.5085,2.0551],[34.634,-20.5112,1.1541],[34.6346,-20.5151,1.556],[34.6368,-20.5165,0.5],[34.6479,-20.5182,0.125],[34.656,-20.5154,0.0],[34.6546,-20.5101,3.5441],[34.6571,-20.5024,1.1608],[34.6504,-20.4887,1.3422],[34.6451,-20.4849,3.6108],[34.6421,-20.4787,1.7292],[34.6393,-20.4779,1.653],[34.6385,-20.4796,2.4686],[34.6399,-20.4926,2.9649],[34.6376,-20.494,2.9132],[34.6276,-20.4879,2.7669],[34.6251,-20.4796,2.2427],[34.6154,-20.4749,2.9457],[34.616,-20.4737,2.2721],[34.6257,-20.4782,1.5572],[34.6288,-20.4868,4.6572],[34.6351,-20.4896,1.7291],[34.6376,-20.4926,2.3584],[34.6387,-20.4924,2.3584],[34.6371,-20.4796,2.4686],[34.6382,-20.4768,1.8803],[34.6421,-20.4774,2.7084],[34.6465,-20.4846,3.0257],[34.6512,-20.4868,1.0712],[34.6571,-20.4735,3.9354],[34.6493,-20.4687,4.2813],[34.646,-20.4643,1.4066],[34.6368,-20.4612,1.6395],[34.639,-20.4518,2.5448],[34.6376,-20.4499,1.6396],[34.6399,-20.4504,3.0038],[34.6387,-20.4599,0.5],[34.651,-20.4662,4.1028],[34.6613,-20.4549,2.2827],[34.6599,-20.4496,0.5],[34.6699,-20.4435,0.0],[34.671,-20.439,1.3464],[34.6768,-20.4354,0.0],[34.676,-20.4246,1.7327],[34.6738,-20.421,0.0],[34.6638,-20.4146,0.5394],[34.6618,-20.4162,0.7359],[34.6629,-20.4265,0.0],[34.6593,-20.4346,3.0122],[34.6404,-20.4407,1.2019],[34.641,-20.439,3.6727],[34.6446,-20.4376,4.1344],[34.6557,-20.4354,1.2203],[34.6587,-20.4326,1.9833],[34.6582,-20.4268,0.5645],[34.6596,-20.4235,0.0],[34.6565,-20.4176,0.0],[34.6568,-20.401,0.7413],[34.6535,-20.3999,5.7701],[34.6457,-20.403199999999998,1.946],[34.6501,-20.3993,2.8322],[34.6563,-20.3974,0.0],[34.6621,-20.3876,3.3187],[34.6601,-20.3838,1.3016],[34.6515,-20.3785,1.3001],[34.6515,-20.3749,1.0],[34.6554,-20.3735,3.7105],[34.6529,-20.3757,1.0],[34.6529,-20.3782,1.3001],[34.6649,-20.3849,4.1291],[34.666,-20.3915,3.8577],[34.6621,-20.3999,0.5988],[34.6632,-20.4021,0.0],[34.6662,-20.4024,0.0],[34.6676,-20.4001,0.8999],[34.6757,-20.401,0.0],[34.6768,-20.3949,0.0],[34.6826,-20.3901,0.0],[34.6832,-20.3849,0.375],[34.6804,-20.3821,1.9765],[34.6821,-20.3793,4.1487],[34.684,-20.3799,1.5386],[34.6846,-20.3815,2.1032],[34.6826,-20.3804,1.5386],[34.6826,-20.3815,1.99],[34.6876,-20.3868,1.9476],[34.6896,-20.3829,4.6756],[34.6935,-20.3821,0.0],[34.6979,-20.3771,2.2237],[34.7035,-20.3782,0.0],[34.7071,-20.3754,0.488],[34.7101,-20.3762,2.2788],[34.711,-20.3746,2.2788],[34.7065,-20.3707,4.1936],[34.7038,-20.3651,2.1982],[34.7001,-20.3632,3.4769],[34.6996,-20.3593,0.5258],[34.7018,-20.3582,0.0],[34.7012,-20.3557,0.0],[34.6985,-20.354,6.5249],[34.6979,-20.3476,0.0],[34.6907,-20.3365,0.0],[34.6862,-20.336,0.0],[34.6813,-20.339,0.0],[34.6785,-20.3463,4.3204],[34.6726,-20.3404,0.0],[34.6712,-20.3404,0.0],[34.6701,-20.3437,1.5422],[34.6696,-20.3401,2.9438],[34.6726,-20.3385,0.0],[34.6724,-20.3354,0.0],[34.6662,-20.3335,1.7373],[34.6587,-20.3349,3.3272],[34.6538,-20.3304,2.376],[34.6529,-20.3265,3.1037],[34.654,-20.3262,2.816],[34.6551,-20.3307,2.376],[34.6579,-20.3324,2.763],[34.6662,-20.329,4.7023],[34.6732,-20.3324,1.3956],[34.6765,-20.3318,0.0],[34.6793,-20.3299,0.0],[34.6818,-20.3235,2.2633],[34.6851,-20.3229,0.4098],[34.6901,-20.3165,4.5702],[34.6937,-20.3162,3.2143],[34.6982,-20.3104,6.0161],[34.7001,-20.3118,1.4567],[34.7007,-20.3087,3.2591],[34.7032,-20.3068,1.3326],[34.7107,-20.3043,4.0917],[34.7171,-20.2843,2.3247],[34.7168,-20.2829,0.3907],[34.7143,-20.2832,1.708],[34.7201,-20.2757,0.0],[34.7196,-20.2721,3.3421],[34.721,-20.2721,3.3421],[34.7207,-20.2687,5.5333],[34.7221,-20.2687,1.886],[34.7215,-20.2676,3.0845],[34.7246,-20.2643,0.6307],[34.7246,-20.2593,2.4749],[34.7287,-20.2568,0.0],[34.7337,-20.2462,0.0],[34.7337,-20.2426,0.91],[34.7374,-20.2396,0.0],[34.7404,-20.2318,0.0],[34.7401,-20.2287,0.0],[34.7349,-20.2304,0.7884],[34.7321,-20.2343,0.5],[34.7296,-20.2451,3.4252],[34.7251,-20.2474,3.0282],[34.7246,-20.251,4.8596],[34.7243,-20.2474,3.0282],[34.7276,-20.2443,1.0],[34.7293,-20.2379,2.7814],[34.7287,-20.231,1.4162],[34.7315,-20.2251,2.0745],[34.7351,-20.2218,0.0],[34.7404,-20.221,0.0],[34.7421,-20.2165,0.0],[34.7401,-20.2146,0.0],[34.7376,-20.2146,0.9754],[34.7343,-20.2151,1.6593],[34.7337,-20.2176,5.1325],[34.7315,-20.2182,4.0156],[34.7279,-20.2146,0.0],[34.7271,-20.2196,2.7656],[34.7243,-20.224,1.6608],[34.7185,-20.224,0.0],[34.7179,-20.2257,5.8745],[34.7199,-20.2276,2.4604],[34.7168,-20.2271,4.291],[34.7168,-20.2237,3.6422],[34.721,-20.2221,2.6362],[34.7218,-20.2201,3.083],[34.7238,-20.2229,2.5001],[34.7263,-20.219,0.7779],[34.7276,-20.2124,0.0],[34.7249,-20.2104,0.0],[34.7196,-20.2099,3.9939],[34.7193,-20.2082,0.5777],[34.7118,-20.2046,2.7948],[34.7085,-20.2007,0.0],[34.7082,-20.1954,0.3672],[34.7051,-20.1971,1.085],[34.7068,-20.1932,2.9538],[34.7051,-20.1887,1.0002],[34.6979,-20.1837,2.7827],[34.6949,-20.1835,3.822],[34.6988,-20.1832,3.68],[34.7082,-20.1863,2.3094],[34.7085,-20.1829,7.4078],[34.7035,-20.1751,4.4747],[34.6985,-20.1726,0.3954],[34.6949,-20.1729,0.0],[34.6835,-20.1824,2.6387],[34.686,-20.1793,0.0],[34.6754,-20.1785,2.4533],[34.6732,-20.1743,0.375],[34.6696,-20.174,0.5],[34.6699,-20.1757,3.2998],[34.6685,-20.1757,2.7915],[34.6671,-20.1726,0.5],[34.6629,-20.1712,2.9558],[34.6626,-20.1643,2.8623],[34.6671,-20.1507,5.9093],[34.6668,-20.1432,2.3088],[34.6632,-20.1413,3.7203],[34.6679,-20.1421,3.5217],[34.669,-20.1443,1.5902],[34.6674,-20.1479,2.2856],[34.671,-20.1485,1.5455],[34.6693,-20.1554,1.5029],[34.6649,-20.1626,3.5434],[34.6651,-20.1679,3.9642],[34.6682,-20.1712,5.2456],[34.6735,-20.1724,2.9077],[34.6793,-20.1765,0.0],[34.6829,-20.1749,0.0],[34.6915,-20.1657,5.2981],[34.6985,-20.1654,0.0],[34.6999,-20.1635,0.0],[34.6982,-20.1624,6.9171],[34.6993,-20.1593,6.7653],[34.7004,-20.1593,6.7653],[34.7001,-20.1612,8.2454],[34.7085,-20.1601,0.0],[34.7146,-20.1518,2.3103],[34.7207,-20.1521,0.0],[34.7199,-20.1471,0.5],[34.7238,-20.144,2.4581],[34.7243,-20.1443,2.4581],[34.721,-20.1468,0.5],[34.724,-20.151,4.9659],[34.7235,-20.1535,3.6117],[34.716,-20.156,0.0],[34.7151,-20.1582,0.0],[34.7165,-20.159,0.0],[34.721,-20.1599,0.0],[34.7271,-20.1574,1.8909],[34.7329,-20.159,2.073],[34.741,-20.1571,2.6724],[34.746,-20.1593,1.7496],[34.7507,-20.1679,0.5847],[34.7551,-20.1707,2.2147],[34.7624,-20.1726,0.8819],[34.7674,-20.169,1.0296],[34.7701,-20.164,1.8804],[34.7679,-20.1612,4.759],[34.7699,-20.1615,0.0],[34.771,-20.1588,0.0],[34.776,-20.156,4.0874],[34.7779,-20.1529,0.0],[34.7801,-20.1468,0.0],[34.7751,-20.1437,0.5481],[34.7801,-20.1418,0.0],[34.7804,-20.1393,1.1287],[34.7718,-20.1046,0.0],[34.764,-20.0915,4.4078],[34.7615,-20.0901,4.4484],[34.7576,-20.0785,1.6169],[34.7538,-20.0754,5.6757],[34.7543,-20.0724,1.2081],[34.7568,-20.0701,2.3075],[34.7549,-20.0651,0.0],[34.7515,-20.0218,4.2907],[34.7493,-20.0207,0.5],[34.7476,-20.0224,0.5],[34.7496,-20.031,3.1949],[34.7465,-20.026,1.0]]]]}}