{"type":"Feature","properties":{"GID_3":"MOZ.11.3.2_1","GID_0":"MOZ","country":"Mozambique","GID_1":"MOZ.11_1","province":"Zambezia","NL_NAME_1":"NA","GID_2":"MOZ.11.3_1","county":"Gile","NL_NAME_2":"NA","city":"Gile","VARNAME_3":"NA","NL_NAME_3":"NA","TYPE_3":"Localidad","ENGTYPE_3":"Locality","CC_3":"NA","HASC_3":"NA","name":"Gile.city"},
"geometry":{"type": "MultiPolygon","coordinates": [[[[37.9078,-16.2981,176.7995],[37.9163,-16.3101,177.2247],[37.9184,-16.3166,175.0002],[37.9181,-16.3237,171.1193],[37.8952,-16.3723,175.144],[37.9027,-16.38,170.9746],[37.9088,-16.3986,160.3869],[37.9085,-16.4104,160.6283],[37.9127,-16.4383,157.493],[37.9392,-16.4315,158.4826],[37.9453,-16.4386,152.1479],[37.9545,-16.4415,149.311],[37.9564,-16.4578,157.4237],[37.963,-16.4552,140.0692],[37.981,-16.4584,146.3941],[37.9903,-16.4685,141.8108],[37.9932,-16.4739,140.4311],[37.9889,-16.4849,142.7337],[37.9917,-16.4856,140.7067],[37.9997,-16.4925,152.6088],[38.0005,-16.4992,139.5217],[38.0027,-16.5005,143.0397],[38.0078,-16.4977,137.0967],[38.0164,-16.5063,136.9495],[38.0199,-16.5072,131.4788],[38.0232,-16.5192,126.7773],[38.0261,-16.5217,135.7897],[38.0331,-16.5226,132.5912],[38.0379,-16.5274,130.3339],[38.0488,-16.5056,159.4627],[38.0814,-16.5119,126.8891],[38.1261,-16.4947,178.2881],[38.1728,-16.5075,139.1819],[38.1813,-16.5051,141.2443],[38.1863,-16.4982,147.1232],[38.2617,-16.5004,161.6139],[38.2752,-16.498,151.5549],[38.3247,-16.4844,150.8199],[38.3348,-16.4841,129.6443],[38.3501,-16.4806,119.9312],[38.3401,-16.4613,150.4147],[38.3444,-16.4535,164.6726],[38.3545,-16.4426,206.2573],[38.3657,-16.3879,206.9292],[38.3778,-16.3797,272.1127],[38.4151,-16.3671,253.4045],[38.4209,-16.3632,228.6342],[38.4438,-16.3562,171.3304],[38.4492,-16.3458,162.9158],[38.4588,-16.3417,153.906],[38.4655,-16.3406,159.123],[38.4866,-16.3452,134.4747],[38.5075,-16.3403,114.2148],[38.5248,-16.3421,128.7999],[38.5316,-16.3394,122.1645],[38.5355,-16.3225,114.2669],[38.5449,-16.3099,124.5213],[38.5498,-16.2548,141.8415],[38.5648,-16.2437,139.7288],[38.5786,-16.2374,148.9803],[38.5801,-16.227,148.0382],[38.5882,-16.2138,161.7415],[38.5991,-16.2081,158.1248],[38.6005,-16.1937,162.8038],[38.6053,-16.1858,168.4717],[38.6354,-16.1679,196.4097],[38.6469,-16.1589,209.5495],[38.66,-16.1438,239.7466],[38.6917,-16.1565,230.3776],[38.706,-16.1605,229.5962],[38.7297,-16.1573,197.5293],[38.7429,-16.1515,188.5482],[38.7611,-16.1393,182.2584],[38.8308,-16.12,135.96],[38.8442,-16.1195,122.6194],[38.8532,-16.121,120.0894],[38.8498,-16.0908,176.7589],[38.8384,-16.0717,132.2752],[38.837,-16.0558,168.8437],[38.7821,-16.0409,173.2731],[38.7618,-16.0247,183.7126],[38.7132,-15.9462,193.3741],[38.6952,-15.9108,198.8552],[38.6083,-15.8627,230.1895],[38.5593,-15.8486,208.6201],[38.4597,-15.8486,240.8603],[38.4616,-15.8612,238.2847],[38.4276,-15.8612,269.5574],[38.4213,-15.8642,256.815],[38.4193,-15.8792,308.7021],[38.3934,-15.8791,248.2186],[38.3872,-15.8642,287.7907],[38.372,-15.8583,233.5385],[38.3581,-15.8678,266.0916],[38.3406,-15.8731,267.8777],[38.3313,-15.8642,266.945],[38.3313,-15.8523,248.402],[38.322,-15.8493,238.7572],[38.3189,-15.8642,275.2598],[38.3065,-15.8761,276.2266],[38.3034,-15.8761,282.7158],[38.292,-15.8652,271.2218],[38.2785,-15.8552,255.3746],[38.263,-15.8582,273.4111],[38.1828,-15.8493,277.3753],[38.1828,-15.8216,285.3078],[38.1771,-15.814,300.0486],[38.1635,-15.8137,294.9575],[38.1575,-15.8223,298.3085],[38.1449,-15.8223,289.4847],[38.1295,-15.8105,311.451],[38.1264,-15.8015,316.092],[38.1113,-15.7958,355.9913],[38.0982,-15.7949,350.6685],[38.0758,-15.7834,374.004],[38.0545,-15.7785,372.8504],[38.0255,-15.7685,401.2661],[38.0175,-15.7608,370.7675],[38.0133,-15.7499,365.6845],[38.0085,-15.7592,368.1365],[38.0058,-15.7601,366.1769],[38.0011,-15.75,359.3247],[37.9987,-15.7488,366.2177],[37.9906,-15.7579,366.5103],[37.9863,-15.7668,375.1594],[37.9877,-15.7869,393.2226],[37.9843,-15.8115,426.4038],[37.9994,-15.813,505.4107],[38.0048,-15.8096,506.2692],[38.009,-15.8123,458.5623],[38.0037,-15.8377,382.739],[38.0048,-15.8427,368.5587],[38.0121,-15.8468,384.0352],[38.0261,-15.8596,341.7211],[38.027,-15.865,348.8678],[38.0115,-15.8757,356.181],[38.0037,-15.8883,374.1829],[38.0065,-15.9034,411.778],[38.0151,-15.9178,405.5149],[38.0129,-15.9233,388.9906],[38.0134,-15.9295,403.4288],[38.0064,-15.9389,381.8988],[38.0067,-15.9591,344.5139],[38.0053,-15.9635,351.7265],[37.9994,-15.9712,338.0472],[37.9945,-15.9725,326.4896],[37.9922,-15.9752,321.472],[37.9925,-15.9812,317.703],[37.9956,-15.9867,324.0922],[37.9948,-15.9904,311.9355],[37.9864,-16.0024,330.1301],[37.9921,-16.0148,371.5234],[38.005,-16.033,330.0626],[38.02,-16.0438,297.9236],[38.0145,-16.0618,275.5016],[38.0009,-16.0819,257.3898],[37.9966,-16.0934,250.747],[37.9887,-16.0998,248.5936],[37.9733,-16.105,234.5287],[37.9597,-16.1172,231.0585],[37.9414,-16.1648,219.3335],[37.9463,-16.189,201.7868],[37.9539,-16.1956,221.8043],[37.9562,-16.2028,199.2141],[37.9497,-16.2179,198.5374],[37.9482,-16.2635,179.4207],[37.9422,-16.2741,201.3708],[37.9298,-16.2824,230.4864],[37.9194,-16.2921,203.5965],[37.9078,-16.2981,176.7995]]]]}}