{"type":"Feature","properties":{"GID_3":"MOZ.4.6.3_1","GID_0":"MOZ","country":"Mozambique","GID_1":"MOZ.4_1","province":"Manica","NL_NAME_1":"NA","GID_2":"MOZ.4.6_1","county":"Manica","NL_NAME_2":"NA","city":"Mavonde","VARNAME_3":"NA","NL_NAME_3":"NA","TYPE_3":"Localidad","ENGTYPE_3":"Locality","CC_3":"NA","HASC_3":"NA","name":"Mavonde.city"},
"geometry":{"type": "MultiPolygon","coordinates": [[[[33.123,-18.4124,534.3652],[33.1127,-18.4102,547.7854],[33.1051,-18.4006,543.2292],[33.1048,-18.3894,558.3036],[33.0952,-18.3867,556.1161],[33.0868,-18.3617,563.2067],[33.0867,-18.3502,566.1475],[33.0395,-18.3376,680.5056],[33.0388,-18.3434,684.2936],[33.0543,-18.3578,649.1463],[33.055,-18.3619,629.9346],[33.0467,-18.3796,601.6384],[33.0416,-18.3827,593.2228],[33.0339,-18.3836,612.0461],[33.0238,-18.3911,608.218],[33.0174,-18.417,644.6061],[33.0163,-18.4313,633.1639],[33.0227,-18.4442,704.7108],[33.0229,-18.4575,770.7197],[33.0211,-18.4655,747.9047],[33.0144,-18.4737,682.3383],[32.9979,-18.4828,653.8071],[32.9791,-18.4896,662.6843],[32.9743,-18.4893,690.8305],[32.964,-18.478,677.8199],[32.9604,-18.478,706.5961],[32.9446,-18.4905,690.3386],[32.9361,-18.4939,678.354],[32.9311,-18.4941,700.2426],[32.92,-18.5018,714.2458],[32.9149,-18.5025,695.3819],[32.9041,-18.4994,847.7649],[32.8992,-18.5061,699.2433],[32.8917,-18.5067,708.6923],[32.8881,-18.5115,715.3336],[32.8845,-18.5223,740.4022],[32.8946,-18.5427,1163.8978],[32.8956,-18.5578,1362.7271],[32.8928,-18.5679,1428.5272],[32.8859,-18.5791,1488.611],[32.8988,-18.5911,1562.1945],[32.9029,-18.601,1391.3275],[32.9028,-18.6062,1265.4351],[32.9092,-18.6215,974.1525],[32.9369,-18.6616,699.059],[32.9541,-18.6902,1289.8448],[32.955,-18.698,1178.5165],[32.9504,-18.7098,1092.1963],[32.9602,-18.7222,1058.7819],[32.963,-18.7233,1098.7363],[32.9639,-18.7292,1056.9779],[32.9626,-18.7357,1079.7092],[32.965,-18.7402,954.9946],[32.9652,-18.7495,938.3138],[32.9712,-18.7573,830.5318],[32.9811,-18.7768,817.1612],[32.9825,-18.8061,804.4235],[32.9854,-18.8142,801.3459],[32.9911,-18.8217,805.3095],[32.9988,-18.8284,807.577],[33.0346,-18.8419,682.0368],[33.0424,-18.8473,665.3389],[33.0483,-18.8624,663.7002],[33.0498,-18.8865,649.6501],[33.041,-18.9125,644.959],[33.0576,-18.9087,685.0389],[33.0817,-18.912,687.6716],[33.0895,-18.9108,661.3137],[33.0861,-18.8665,664.8509],[33.0765,-18.8498,671.1355],[33.0726,-18.8296,675.8661],[33.0725,-18.7962,696.3167],[33.1129,-18.7704,852.7039],[33.1063,-18.7568,763.8363],[33.1047,-18.7435,719.8085],[33.0978,-18.7173,678.1355],[33.1043,-18.6927,655.573],[33.1026,-18.6735,612.5027],[33.1089,-18.6267,591.1379],[33.1125,-18.6121,571.6454],[33.1249,-18.5923,556.7455],[33.1477,-18.5843,547.8209],[33.1557,-18.5935,533.3199],[33.2751,-18.5889,493.0052],[33.2799,-18.5803,494.2328],[33.2798,-18.5674,504.8965],[33.2732,-18.5488,493.6823],[33.2644,-18.5439,483.0651],[33.2586,-18.5275,490.4062],[33.2264,-18.4949,498.9726],[33.1762,-18.505,503.7844],[33.1378,-18.452,530.9691],[33.123,-18.4124,534.3652]]]]}}