{"type": "Feature","bbox": [39.6387,-15.2286,39.9616,-14.8935],"geometry": {"type": "MultiPolygon","coordinates": [[[[39.8851,-15.2286,158.0009],[39.9096,-15.216,125.8904],[39.9127,-15.2028,142.4399],[39.9079,-15.1955,135.5262],[39.9012,-15.171,151.1016],[39.8931,-15.1598,170.5673],[39.8889,-15.1505,182.7013],[39.8966,-15.133,190.3616],[39.888,-15.1194,216.1696],[39.8833,-15.1087,247.1404],[39.9324,-15.0644,217.9887],[39.9407,-15.0619,227.3155],[39.9616,-15.0616,212.9483],[39.9598,-15.0436,214.5429],[39.9492,-15.0195,153.1073],[39.9586,-15.0145,153.3095],[39.9491,-15.0057,156.7202],[39.9465,-15.0086,157.8424],[39.9432,-14.9984,164.4537],[39.923,-14.9762,206.845],[39.8881,-14.9629,228.0316],[39.8654,-14.9566,245.4902],[39.8229,-14.9549,258.8842],[39.7861,-14.9661,290.3763],[39.7808,-14.9635,274.1217],[39.7808,-14.9486,257.8144],[39.7874,-14.8978,206.7588],[39.7862,-14.8971,206.7588],[39.7689,-14.8935,205.5081],[39.749,-14.9046,206.1249],[39.7317,-14.9181,205.7806],[39.7058,-14.919,213.758],[39.6594,-14.9379,231.6151],[39.6409,-14.9695,233.6395],[39.6387,-14.9712,236.3826],[39.658,-14.9776,269.9553],[39.6832,-14.9749,291.4294],[39.7248,-14.9986,291.6326],[39.7371,-15.0433,232.7474],[39.7619,-15.0911,275.1911],[39.7783,-15.1426,188.9918],[39.8485,-15.2014,158.5396],[39.8851,-15.2286,158.0009]]]]}
,"properties": {"GID_3": "MOZ.7.5.3_1","GID_0": "MOZ","country": "Mozambique","GID_1": "MOZ.7_1","province": "Nampula","NL_NAME_1": "NA","GID_2": "MOZ.7.5_1","county": "Meconta","NL_NAME_2": "NA","city": "Meconta","VARNAME_3": "NA","NL_NAME_3": "NA","TYPE_3": "Localidad","ENGTYPE_3": "Locality","CC_3": "NA","HASC_3": "NA","name": "Meconta.city","area_km2": 552.7581,"hist_schema_id": "Elevation0-9000","hist_area_km2": {"125": 6.7314,"150": 33.7231,"175": 61.6339,"200": 108.4743,"225": 152.8613,"250": 126.4986,"275": 57.3058,"300": 5.3454,"325": 0.1024,"350": 0.0819}}}