{"type":"Feature","properties":{"GID_2":"MOZ.8.4_1","GID_0":"MOZ","country":"Mozambique","GID_1":"MOZ.8_1","province":"Nassa","NL_NAME_1":"NA","county":"Majune","VARNAME_2":"NA","NL_NAME_2":"NA","TYPE_2":"Distrito","ENGTYPE_2":"District","CC_2":"NA","HASC_2":"MZ.NS.MJ","name":"Majune.county"},
"geometry":{"type": "MultiPolygon","coordinates": [[[[35.6212,-13.5464,812.4557],[35.6169,-13.5509,800.4264],[35.6691,-13.5807,843.4706],[35.709,-13.5926,915.0374],[35.7643,-13.6046,1018.1613],[35.7643,-13.6255,852.8412],[35.7674,-13.6374,810.6036],[35.8718,-13.6702,832.3782],[35.9066,-13.6858,791.8],[35.9292,-13.7012,744.4689],[35.9424,-13.706,714.5002],[35.9653,-13.7087,690.5784],[35.9701,-13.7179,681.094],[36.0038,-13.7328,668.1962],[36.0329,-13.7357,659.3831],[36.0591,-13.7865,634.9091],[36.0832,-13.7912,630.9592],[36.092,-13.797,633.0041],[36.1052,-13.8253,616.3203],[36.1252,-13.842,607.579],[36.1067,-13.8457,605.3303],[36.0933,-13.8503,610.9169],[36.0844,-13.8493,605.3768],[36.079,-13.8518,603.8362],[36.0714,-13.864,607.8878],[36.0714,-13.8819,604.9874],[36.0602,-13.8928,611.7339],[36.0591,-13.9066,610.2379],[36.0515,-13.9169,612.1942],[36.0509,-13.924,616.3514],[36.0647,-13.9285,624.5703],[36.0956,-13.9551,622.3574],[36.1175,-13.9684,629.8228],[36.1359,-13.9535,685.5367],[36.2925,-13.876,683.9963],[36.3939,-13.8402,673.528],[36.3939,-13.827,681.0784],[36.4243,-13.7904,651.0261],[36.4322,-13.7871,632.7255],[36.4412,-13.7859,643.0015],[36.4593,-13.7901,643.3988],[36.4709,-13.7911,663.4316],[36.5119,-13.7903,658.7402],[36.5235,-13.7922,664.9417],[36.5628,-13.7925,693.0715],[36.5858,-13.7813,719.8423],[36.5903,-13.7721,730.375],[36.6035,-13.7623,750.4725],[36.6276,-13.7378,824.623],[36.6396,-13.7366,898.1072],[36.6445,-13.7411,983.4135],[36.77,-13.7455,939.6022],[36.7732,-13.7323,915.0621],[36.7899,-13.7145,892.3276],[36.8029,-13.6835,888.3558],[36.8055,-13.6672,865.6027],[36.8147,-13.6556,878.2677],[36.8349,-13.6024,849.9831],[36.8456,-13.5918,819.8704],[36.8443,-13.5682,779.0581],[36.8471,-13.5608,759.5146],[36.8473,-13.5547,740.22],[36.838,-13.5256,723.3401],[36.8426,-13.5079,712.6382],[36.8507,-13.4876,709.7749],[36.8559,-13.4786,697.2146],[36.8745,-13.4569,676.777],[36.8786,-13.4452,675.5129],[36.8754,-13.4368,646.9293],[36.8747,-13.4292,640.5183],[36.8763,-13.4231,641.6939],[36.8736,-13.415,624.1497],[36.8801,-13.4051,628.381],[36.881,-13.3984,613.004],[36.8766,-13.3702,603.3119],[36.8891,-13.3537,590.9156],[36.8893,-13.3451,585.9244],[36.8987,-13.3304,590.2344],[36.8969,-13.3223,586.5167],[36.8973,-13.2894,561.6234],[36.9045,-13.2773,552.8828],[36.919,-13.2795,554.251],[36.9354,-13.2748,554.7787],[36.938,-13.2565,552.706],[36.9518,-13.2457,543.2263],[36.9625,-13.222,546.758],[36.9716,-13.2218,544.819],[36.9854,-13.2098,535.6331],[36.9916,-13.1994,529.9294],[36.9954,-13.188,526.9469],[37.001,-13.1779,532.3138],[36.9872,-13.1719,539.8749],[36.9618,-13.1775,558.191],[36.9329,-13.1785,569.3821],[36.9228,-13.1807,587.4122],[36.8889,-13.2115,598.6806],[36.8675,-13.2014,594.9028],[36.8386,-13.1967,585.4312],[36.8212,-13.1865,567.2225],[36.8033,-13.1699,557.0746],[36.7876,-13.1411,547.1041],[36.7842,-13.1214,544.4875],[36.771,-13.1026,530.0548],[36.7604,-13.0954,533.8586],[36.7523,-13.0815,529.6279],[36.7431,-13.0722,523.8358],[36.7153,-13.0541,518.4503],[36.7056,-13.0453,515.7219],[36.7034,-13.0345,509.7661],[36.704,-13.0143,505.4504],[36.7073,-12.9973,492.6196],[36.7057,-12.9948,501.3385],[36.7172,-12.974,501.0825],[36.7371,-12.9618,483.1598],[36.7427,-12.9558,473.6784],[36.7482,-12.931,478.3806],[36.7418,-12.9136,468.318],[36.7496,-12.9007,466.0598],[36.751,-12.8878,466.5465],[36.7463,-12.8691,458.0094],[36.7464,-12.8575,448.3101],[36.7478,-12.8445,454.8597],[36.7523,-12.8339,451.0623],[36.7597,-12.8288,462.3023],[36.77,-12.8247,472.1291],[36.7884,-12.8212,452.0771],[36.8081,-12.8004,445.0147],[36.8177,-12.7967,438.5832],[36.838,-12.794,440.1389],[36.8467,-12.7721,443.0838],[36.8648,-12.7633,442.2133],[36.8822,-12.7381,425.1261],[36.9147,-12.7135,425.2086],[36.9102,-12.7022,443.1024],[36.9025,-12.7001,428.7402],[36.8912,-12.708,429.3291],[36.8746,-12.7093,438.8465],[36.8624,-12.7061,448.9812],[36.8543,-12.6974,451.815],[36.8452,-12.6926,471.8335],[36.8397,-12.7069,439.6294],[36.8227,-12.7014,448.9027],[36.8134,-12.7113,443.5505],[36.8082,-12.701,441.7755],[36.7976,-12.6874,457.6682],[36.7924,-12.6975,449.5015],[36.7791,-12.71,457.2672],[36.7655,-12.7099,440.3153],[36.7574,-12.6976,457.4852],[36.7427,-12.6874,468.1908],[36.7144,-12.6839,478.3654],[36.7026,-12.688,484.9192],[36.6899,-12.6821,469.7179],[36.6851,-12.6759,473.0617],[36.6726,-12.6753,476.7992],[36.6598,-12.672,472.5223],[36.6575,-12.6642,483.4875],[36.6283,-12.682,503.7159],[36.6219,-12.689,509.2756],[36.6044,-12.6916,508.7302],[36.5847,-12.6906,511.8495],[36.576,-12.6927,514.6797],[36.5683,-12.6971,520.9163],[36.5602,-12.7046,518.7927],[36.5443,-12.7284,506.1597],[36.5367,-12.733,539.4927],[36.5373,-12.7393,517.4365],[36.5162,-12.7449,525.2673],[36.4995,-12.7433,532.5126],[36.4923,-12.7472,534.8484],[36.4847,-12.7431,539.8281],[36.4757,-12.7421,540.7334],[36.4475,-12.7532,536.6828],[36.445,-12.7431,546.4597],[36.4205,-12.7288,558.12],[36.4128,-12.7395,542.6438],[36.4096,-12.7467,569.6077],[36.3969,-12.7485,592.0447],[36.3573,-12.7818,649.7836],[36.353,-12.7924,679.8008],[36.3422,-12.7896,697.2225],[36.3256,-12.7898,688.0743],[36.3081,-12.7921,704.7653],[36.2779,-12.7896,690.2019],[36.236,-12.8072,738.5193],[36.2138,-12.7967,744.3964],[36.2112,-12.8085,743.9208],[36.2124,-12.8147,743.4045],[36.1882,-12.8026,747.4666],[36.1752,-12.8078,755.2703],[36.1545,-12.8195,763.4302],[36.1246,-12.8242,779.7083],[36.1005,-12.8173,794.2059],[36.0773,-12.8325,811.418],[36.0434,-12.8459,991.8868],[36.0227,-12.8396,837.008],[36.0179,-12.8413,838.3441],[36.0255,-12.8514,819.6164],[36.0282,-12.877,790.5714],[36.0224,-12.9027,788.4124],[36.0372,-12.9347,751.2161],[36.0365,-12.9543,746.4243],[36.0416,-12.9846,741.0245],[36.0417,-12.9918,744.4807],[36.0352,-13.0115,730.3323],[36.0202,-13.0293,728.9749],[36.0225,-13.0525,718.432],[36.0384,-13.0802,698.8671],[36.0319,-13.0929,708.3082],[36.0315,-13.1007,699.1116],[36.0273,-13.1114,685.452],[36.0286,-13.1465,672.2538],[36.0318,-13.1712,666.5077],[36.045,-13.2146,644.8761],[36.0559,-13.2257,650.0059],[36.0608,-13.2348,633.5797],[36.068,-13.2603,628.4647],[36.0766,-13.2753,629.3128],[36.0848,-13.278,626.6816],[36.103,-13.2708,618.9288],[36.1081,-13.2716,621.7937],[36.1152,-13.2762,623.6674],[36.11,-13.2834,616.8419],[36.0918,-13.291,605.8406],[36.0659,-13.297,622.7616],[36.0427,-13.315,636.2977],[36.0269,-13.312,630.6702],[36.0002,-13.3337,653.4083],[35.9988,-13.3288,663.0566],[35.9965,-13.3272,665.5168],[35.9914,-13.3295,648.8038],[35.9873,-13.3294,661.4672],[35.9856,-13.3255,659.1378],[35.9859,-13.3174,646.8357],[35.9746,-13.3101,677.5247],[35.9759,-13.3027,659.4746],[35.975,-13.2986,663.8762],[35.966,-13.2972,682.8329],[35.9625,-13.2928,676.313],[35.9657,-13.2815,688.2953],[35.9649,-13.2696,690.1259],[35.9567,-13.2583,701.176],[35.9436,-13.2563,724.4217],[35.9272,-13.2466,773.0984],[35.9197,-13.257,791.5757],[35.8975,-13.2648,784.3934],[35.8817,-13.2746,809.5822],[35.8668,-13.2808,812.0266],[35.8553,-13.2838,831.2479],[35.8398,-13.2812,867.6808],[35.8364,-13.3508,757.617],[35.8411,-13.362,739.8402],[35.8462,-13.3663,733.3726],[35.8542,-13.3699,742.7784],[35.8705,-13.3843,713.1155],[35.8643,-13.398,695.7876],[35.853,-13.3979,709.4689],[35.8476,-13.4057,715.2747],[35.8247,-13.4122,714.3245],[35.8164,-13.4223,721.2474],[35.8071,-13.4414,736.8627],[35.8085,-13.4528,732.9727],[35.8069,-13.4593,749.7451],[35.8017,-13.4662,748.0167],[35.7772,-13.4837,752.0616],[35.7714,-13.4923,750.1802],[35.7586,-13.5026,772.8081],[35.7487,-13.5033,769.4537],[35.6929,-13.5286,780.0787],[35.6481,-13.5361,802.345],[35.6212,-13.5464,812.4557]]]]}}