{"type": "Feature","bbox": [35.3146,-18.2262,36.2446,-17.4911],"geometry": {"type": "MultiPolygon","coordinates": [[[[35.4643,-17.9084,22.3553],[35.4765,-17.9299,21.804],[35.4911,-17.9487,22.2344],[35.5026,-17.9577,20.1412],[35.5107,-17.9663,20.1525],[35.5209,-17.9837,20.8156],[35.5372,-17.9907,19.8333],[35.556399999999996,-17.9961,18.9786],[35.5599,-18.0041,19.3536],[35.5656,-18.0099,19.4767],[35.5838,-18.0181,17.6797],[35.677,-18.0344,15.0],[35.6905,-18.0422,16.7456],[35.7054,-18.0476,14.0],[35.7295,-18.0641,13.5],[35.7553,-18.0748,13.0],[35.7811,-18.0914,14.8738],[35.7941,-18.0977,15.4904],[35.8163,-18.1041,11.5],[35.8275,-18.1102,11.8881],[35.8374,-18.1225,11.0],[35.8655,-18.1058,15.9153],[35.8726,-18.1032,13.4057],[35.8874,-18.1023,13.4902],[35.8899,-18.1064,13.2513],[35.9201,-18.1029,13.0948],[35.9327,-18.1053,13.3132],[35.9436,-18.1093,12.641],[35.9547,-18.111,13.511],[35.9579,-18.1144,14.3661],[35.959,-18.1181,12.2112],[35.9676,-18.1214,11.5288],[35.9774,-18.11,12.0681],[35.984,-18.109,12.3271],[35.9945,-18.1036,10.9392],[36.012,-18.1365,11.5239],[36.023,-18.1506,10.8629],[36.0401,-18.1549,10.5527],[36.053,-18.1538,11.4902],[36.0807,-18.1621,9.383],[36.1102,-18.1664,5.8038],[36.1189,-18.1728,7.676],[36.1387,-18.1996,6.4454],[36.1485,-18.2077,6.7881],[36.1718,-18.222,7.3579],[36.1856,-18.222,8.4626],[36.2034,-18.2262,7.5436],[36.2349,-18.1947,6.7436],[36.2265,-18.1708,7.5192],[36.2234,-18.1475,7.0718],[36.2328,-18.1147,7.0416],[36.2446,-18.0614,7.4165],[36.2446,-18.0307,6.8126],[36.2234,-18.0163,7.173],[36.2171,-17.9805,12.6509],[36.1952,-17.9596,11.1188],[36.1752,-17.9617,13.171],[36.1043,-17.9477,19.1369],[36.0667,-17.9328,21.6897],[36.0542,-17.9298,22.7302],[36.0479,-17.9149,25.9833],[36.0542,-17.8999,33.3429],[36.0542,-17.8761,37.8835],[36.0448,-17.8403,47.1826],[36.0448,-17.8134,45.4195],[36.0357,-17.7819,50.0276],[36.0385,-17.7031,73.3519],[36.0291,-17.6852,92.4857],[36.0135,-17.6673,70.4175],[36.0051,-17.6437,72.4687],[36.0578,-17.654,102.808],[36.0731,-17.6613,102.2407],[36.0932,-17.6639,94.1028],[36.0974,-17.656,73.8934],[36.0828,-17.6395,63.7973],[36.0761,-17.6077,82.1832],[36.0855,-17.5957,74.6777],[36.0698,-17.5748,90.9268],[36.0542,-17.5659,104.1697],[36.026,-17.5301,121.6963],[36.0132,-17.4989,107.5181],[36.0417,-17.4997,126.3891],[36.0114,-17.498,109.0257],[35.9898,-17.4989,134.2757],[35.9801,-17.4911,143.1823],[35.9889,-17.5007,139.909],[35.9534,-17.5133,131.4169],[35.9421,-17.5115,118.5161],[35.9184,-17.5025,137.7127],[35.8984,-17.5007,149.6747],[35.7955,-17.509,185.3011],[35.788,-17.5139,174.7332],[35.7891,-17.5238,167.4571],[35.7881,-17.5381,159.9089],[35.7966,-17.566,137.2109],[35.8174,-17.6099,114.2553],[35.8187,-17.6223,112.213],[35.8122,-17.6247,116.1238],[35.821,-17.6388,104.7813],[35.8054,-17.6433,107.7204],[35.6177,-17.652,163.7165],[35.5507,-17.6534,179.5825],[35.5171,-17.6571,252.9267],[35.4882,-17.6408,246.6806],[35.4793,-17.6189,211.666],[35.4691,-17.6081,196.7314],[35.442,-17.5996,173.2695],[35.4101,-17.5986,148.665],[35.3945,-17.6014,137.3281],[35.3837,-17.5969,86.2525],[35.3741,-17.5981,89.8037],[35.3234,-17.597,28.4794],[35.3218,-17.6256,27.4632],[35.3362,-17.669,28.7036],[35.336,-17.6767,27.7249],[35.3297,-17.68,28.1538],[35.3178,-17.6796,27.0],[35.3146,-17.6857,28.8338],[35.318,-17.6914,28.4222],[35.3362,-17.6914,27.8003],[35.3623,-17.7238,26.9048],[35.3675,-17.7333,26.0],[35.3684,-17.74,26.0],[35.3649,-17.7582,25.5],[35.3903,-17.8021,23.5],[35.4198,-17.8361,22.5],[35.4467,-17.8742,24.6753],[35.4643,-17.9084,22.3553]]]]}
,"properties": {"GID_3": "MOZ.11.11.2_1","GID_0": "MOZ","country": "Mozambique","GID_1": "MOZ.11_1","province": "Zambezia","NL_NAME_1": "NA","GID_2": "MOZ.11.11_1","county": "Mopeia","NL_NAME_2": "NA","city": "Mopeia","VARNAME_3": "NA","NL_NAME_3": "NA","TYPE_3": "Localidad","ENGTYPE_3": "Locality","CC_3": "NA","HASC_3": "NA","name": "Mopeia.city","area_km2": 4092.668,"hist_schema_id": "Elevation0-9000","hist_area_km2": {"0": 617.569,"25": 1106.144,"50": 457.94,"75": 479.899,"100": 455.654,"125": 444.736,"150": 259.701,"175": 129.086,"200": 65.042,"225": 37.518,"250": 22.508,"275": 11.88,"300": 2.93,"325": 1.354,"350": 0.505,"375": 0.182}}}