{"type": "Feature","bbox": [34.4694,-19.5297,35.6879,-18.6434],"geometry": {"type": "MultiPolygon","coordinates": [[[[35.4663,-19.3701,0.7335],[35.4657,-19.3682,5.2139],[35.4626,-19.3707,6.4773],[35.4649,-19.3713,1.4886],[35.4663,-19.3701,0.7335]]],
[[[35.4918,-19.3435,0.5394],[35.491,-19.3415,1.3771],[35.4874,-19.3424,0.0],[35.4871,-19.3443,1.4007],[35.4899,-19.3449,0.0],[35.4918,-19.3435,0.5394]]],
[[[35.4979,-19.3401,0.0],[35.4985,-19.3388,1.1971],[35.4954,-19.3404,0.9777],[35.494,-19.3443,0.125],[35.4949,-19.3443,0.125],[35.496,-19.3432,1.1243],[35.4979,-19.3401,0.0]]],
[[[35.5199,-19.311,0.5],[35.5185,-19.3107,0.25],[35.5187,-19.3126,0.0],[35.5204,-19.3137,0.0],[35.5207,-19.3129,0.125],[35.5199,-19.311,0.5]]],
[[[35.6763,-19.1415,0.0],[35.676,-19.1387,0.0],[35.6718,-19.1404,0.5],[35.6726,-19.1426,0.805],[35.6763,-19.1415,0.0]]],
[[[35.6835,-19.1418,0.0],[35.6868,-19.1401,0.0],[35.6874,-19.1374,0.0],[35.6851,-19.1382,1.0919],[35.6835,-19.1418,0.0]]],
[[[35.6821,-19.1243,0.0],[35.6754,-19.124,0.0],[35.6693,-19.1362,0.5],[35.6746,-19.1374,1.661],[35.6813,-19.1324,3.4983],[35.6862,-19.1332,0.0],[35.6876,-19.1304,0.0],[35.6843,-19.129,2.8692],[35.6821,-19.1243,0.0]]],
[[[35.6876,-19.0891,0.5],[35.6874,-19.0887,0.5],[35.6874,-19.089,0.5],[35.6876,-19.0891,0.5]]],
[[[35.6871,-19.0888,0.5],[35.6874,-19.0887,0.5],[35.6871,-19.0884,0.5],[35.6871,-19.0888,0.5]]],
[[[34.8508,-18.7109,306.4249],[34.8385,-18.7165,278.1166],[34.8297,-18.7133,283.8088],[34.8176,-18.7117,257.3611],[34.7969,-18.7042,231.9314],[34.763,-18.6806,211.1683],[34.717,-18.6702,83.7643],[34.7069,-18.6629,78.2774],[34.6952,-18.6586,69.9616],[34.6897,-18.6509,63.6532],[34.6436,-18.6434,39.3338],[34.6349,-18.6475,33.0223],[34.6348,-18.6535,32.6887],[34.6248,-18.6645,31.59],[34.6185,-18.6691,31.1992],[34.6212,-18.6804,30.9572],[34.6208,-18.6906,29.9003],[34.61,-18.6988,28.7522],[34.603,-18.708,28.2597],[34.6055,-18.7198,28.3151],[34.6018,-18.7297,27.0458],[34.6015,-18.7504,25.4056],[34.5937,-18.7588,24.6635],[34.5796,-18.7679,24.4797],[34.5434,-18.7873,22.9142],[34.537,-18.8094,21.7174],[34.5249,-18.8197,21.3907],[34.5155,-18.8197,22.4574],[34.5026,-18.8242,20.6601],[34.4908,-18.8368,20.0027],[34.4785,-18.8405,18.5749],[34.4694,-18.8645,18.0],[34.47,-18.8707,18.0],[34.4767,-18.8766,18.0],[34.4949,-18.8812,18.0],[34.5011,-18.8868,18.0],[34.5086,-18.8985,18.0],[34.5152,-18.903,18.0],[34.545,-18.9124,18.7844],[34.5464,-18.938,23.9553],[34.5416,-18.9468,23.1982],[34.5567,-18.9754,22.23],[34.5662,-18.9818,22.5609],[34.5678,-18.9851,19.4092],[34.5665,-18.9931,22.0897],[34.5602,-19.0093,20.3808],[34.5552,-19.0167,22.9447],[34.5595,-19.0279,19.7829],[34.5517,-19.0368,19.8729],[34.554,-19.0498,22.5285],[34.5498,-19.0615,21.2192],[34.5561,-19.0761,18.83],[34.5473,-19.0841,21.6465],[34.5541,-19.0933,21.3764],[34.5481,-19.0987,18.7077],[34.557,-19.1133,16.9797],[34.5549,-19.1289,19.8126],[34.5338,-19.1533,16.5561],[34.5342,-19.17,16.4874],[34.5514,-19.1675,20.7043],[34.5563,-19.1681,24.4206],[34.5623,-19.1714,25.4145],[34.5676,-19.1718,25.6491],[34.5729,-19.1701,27.5658],[34.5772,-19.1745,29.133],[34.5865,-19.1754,32.5043],[34.5953,-19.1819,34.0546],[34.6048,-19.1852,38.8034],[34.6453,-19.2377,93.5822],[34.6702,-19.2546,118.1477],[34.6859,-19.2801,131.1324],[34.6908,-19.2933,125.8081],[34.6898,-19.3263,119.5339],[34.7069,-19.3609,121.5747],[34.719,-19.3649,110.8751],[34.75,-19.3696,90.3378],[34.7681,-19.3794,84.7975],[34.8156,-19.3759,62.8724],[34.8307,-19.3792,62.9965],[34.8358,-19.3822,60.2432],[34.8573,-19.3813,55.5073],[34.8701,-19.3786,53.3088],[34.9093,-19.3866,50.3794],[34.9268,-19.3814,48.0265],[34.9396,-19.3854,51.4666],[34.948,-19.39,46.971],[34.9598,-19.3858,49.7564],[34.9758,-19.3872,46.8094],[34.9897,-19.3852,46.2311],[34.9996,-19.3861,43.3893],[35.0167,-19.3983,39.5258],[35.0258,-19.3965,46.262],[35.0279,-19.4002,39.8198],[35.0393,-19.4043,35.9405],[35.0436,-19.4026,34.5663],[35.0592,-19.4064,36.315],[35.0637,-19.4025,33.9702],[35.0693,-19.4053,34.7328],[35.0751,-19.4042,34.7542],[35.08,-19.4064,29.5803],[35.0832,-19.4123,31.4973],[35.0834,-19.4214,29.1688],[35.0883,-19.4308,27.7775],[35.1148,-19.4577,26.0186],[35.1161,-19.4752,25.3158],[35.1139,-19.4798,24.4844],[35.1362,-19.4915,19.8005],[35.1488,-19.4937,21.7783],[35.1565,-19.4902,22.437],[35.1589,-19.4826,18.2151],[35.1626,-19.4802,18.243],[35.1799,-19.4927,18.9346],[35.1958,-19.4964,11.5754],[35.2157,-19.4916,14.1277],[35.2238,-19.4911,12.2523],[35.2436,-19.5079,9.0081],[35.2557,-19.5146,10.9199],[35.2605,-19.5252,7.0623],[35.2792,-19.5297,5.7669],[35.2964,-19.5268,5.3001],[35.3101,-19.5268,7.2302],[35.3132,-19.5296,6.2918],[35.3194,-19.5246,2.4605],[35.3262,-19.522,4.5698],[35.3296,-19.5193,3.319],[35.329,-19.5179,1.9893],[35.3329,-19.5176,0.0],[35.3363,-19.514,5.19],[35.3404,-19.5129,1.8373],[35.3432,-19.5082,2.4442],[35.3485,-19.5068,1.2338],[35.3518,-19.5021,1.5085],[35.3529,-19.5035,0.9551],[35.3554,-19.5021,0.0],[35.4046,-19.4546,0.0],[35.4065,-19.4496,2.504],[35.4029,-19.4501,3.5073],[35.4018,-19.4557,3.0461],[35.3904,-19.4643,1.4844],[35.3929,-19.4599,0.0],[35.396,-19.4593,6.6677],[35.4012,-19.454,0.0],[35.4018,-19.4487,0.6563],[35.4093,-19.4454,0.0],[35.4146,-19.4399,0.0],[35.4157,-19.4354,2.9958],[35.4193,-19.4326,0.0],[35.421,-19.4282,0.9331],[35.4274,-19.4243,0.5],[35.4285,-19.421,0.8207],[35.4257,-19.4185,3.0455],[35.4282,-19.419,4.5254],[35.4318,-19.4226,2.5872],[35.4443,-19.4074,3.9844],[35.459,-19.3926,0.0],[35.4588,-19.3913,0.0],[35.4543,-19.3913,1.8307],[35.4512,-19.3882,2.206],[35.4488,-19.3899,2.6207],[35.449,-19.3946,2.3881],[35.4474,-19.389,3.4558],[35.4493,-19.3871,0.7353],[35.449,-19.3846,1.1414],[35.4538,-19.3801,4.8163],[35.454,-19.3729,3.7169],[35.4654,-19.3671,0.375],[35.4643,-19.3607,1.2248],[35.4674,-19.3582,3.1386],[35.4685,-19.359,5.1474],[35.4654,-19.3621,2.6435],[35.4679,-19.369,1.0991],[35.4665,-19.3718,3.3307],[35.4607,-19.3724,0.0],[35.4585,-19.3746,0.9135],[35.4596,-19.3774,0.0],[35.4588,-19.384,0.0],[35.4635,-19.3818,1.7685],[35.4668,-19.3821,0.0],[35.476,-19.3665,7.2063],[35.4874,-19.3546,0.0],[35.4879,-19.3513,0.0],[35.4832,-19.3535,0.0],[35.4868,-19.3476,5.5645],[35.4851,-19.3443,1.7406],[35.4874,-19.3404,3.0954],[35.4893,-19.3415,2.2321],[35.4921,-19.3399,0.5],[35.4924,-19.3362,3.3907],[35.4954,-19.3393,3.1311],[35.501,-19.3318,1.7399],[35.5021,-19.3337,2.0547],[35.4993,-19.3351,2.5313],[35.499,-19.3388,1.1971],[35.506,-19.3301,0.8832],[35.516,-19.3215,0.0],[35.5179,-19.3129,0.0],[35.5157,-19.316,0.0],[35.5146,-19.3151,0.0],[35.519,-19.3076,3.2164],[35.519,-19.3062,0.5],[35.5165,-19.3054,0.5],[35.5243,-19.3032,0.5],[35.5243,-19.2985,0.5],[35.5268,-19.2946,0.5],[35.5276,-19.296,0.5],[35.5262,-19.2988,1.3445],[35.5279,-19.3001,0.5],[35.5285,-19.3046,0.0],[35.5296,-19.3043,1.6325],[35.5515,-19.2796,0.7914],[35.5729,-19.2599,1.4221],[35.5735,-19.2576,1.8506],[35.5768,-19.2568,0.0],[35.5896,-19.2451,0.8718],[35.5968,-19.2368,0.0],[35.5962,-19.2357,0.0],[35.5932,-19.2365,0.4822],[35.5896,-19.2438,1.5434],[35.5826,-19.2443,0.5],[35.581,-19.2468,2.3772],[35.5807,-19.2424,2.5662],[35.5868,-19.2407,0.8304],[35.5885,-19.2362,0.0],[35.5876,-19.236,0.4058],[35.5854,-19.2379,4.4698],[35.5849,-19.2349,3.1269],[35.5868,-19.2357,0.4058],[35.589,-19.2307,0.4736],[35.5901,-19.2324,0.6609],[35.5921,-19.2321,0.0],[35.5993,-19.2229,0.6616],[35.6007,-19.2235,0.0],[35.6046,-19.2204,0.0],[35.6071,-19.2151,1.7609],[35.6129,-19.2112,3.2282],[35.6115,-19.2165,0.0],[35.6054,-19.224,0.0],[35.6063,-19.2251,0.0],[35.6129,-19.2165,0.0],[35.6215,-19.2001,4.3762],[35.6512,-19.1707,5.114],[35.6768,-19.1487,0.0],[35.6774,-19.1474,1.6225],[35.6704,-19.1474,2.1298],[35.6654,-19.1429,0.5],[35.6629,-19.1462,0.5],[35.6618,-19.1524,1.5584],[35.6604,-19.1449,2.769],[35.6565,-19.1454,2.0354],[35.6615,-19.1432,1.5901],[35.6632,-19.139,7.6595],[35.6676,-19.1362,9.7461],[35.6712,-19.131,8.1691],[35.671,-19.1274,8.1437],[35.6743,-19.1243,0.0],[35.6743,-19.1201,0.0],[35.6787,-19.121,2.2044],[35.6835,-19.1193,0.9437],[35.6849,-19.1171,0.0],[35.6813,-19.1099,0.5],[35.6879,-19.0996,2.4436],[35.6857,-19.0954,5.3953],[35.6874,-19.0899,4.5881],[35.6837,-19.0904,1.8554],[35.6871,-19.0884,0.5],[35.6836,-19.086,5.0768],[35.6817,-19.0772,2.9298],[35.6647,-19.0616,5.017],[35.6472,-19.0485,3.5665],[35.6432,-19.0443,2.0666],[35.6343,-19.0286,6.4445],[35.6165,-19.0202,11.5078],[35.6101,-19.0142,8.639],[35.6013,-19.0094,8.7845],[35.5876,-19.0054,9.532],[35.5721,-18.9851,12.87],[35.5517,-18.9722,15.8981],[35.5348,-18.9638,19.5626],[35.506,-18.9638,26.7053],[35.4832,-18.959,31.6757],[35.468,-18.9662,37.2019],[35.4509,-18.9587,34.976],[35.4333,-18.9356,44.4899],[35.4227,-18.9186,46.4515],[35.4067,-18.9127,46.4095],[35.369,-18.9078,58.1216],[35.36,-18.8953,53.5977],[35.3385,-18.8786,68.1375],[35.334,-18.8731,60.9041],[35.3219,-18.8476,76.4614],[35.3136,-18.8352,82.0763],[35.2655,-18.7786,93.52],[35.2572,-18.7712,103.738],[35.2471,-18.7668,109.289],[35.2293,-18.7668,111.0298],[35.2194,-18.7681,117.2259],[35.2025,-18.7766,115.4372],[35.1934,-18.7776,117.6575],[35.1381,-18.7752,148.4615],[35.1099,-18.7704,147.7194],[35.0998,-18.7668,147.8344],[35.0744,-18.7512,150.8221],[35.0723,-18.7433,153.3792],[35.0632,-18.7446,147.126],[35.0503,-18.7368,162.7954],[35.0401,-18.726,160.3704],[35.004,-18.7344,173.131],[34.9957,-18.732,173.5358],[34.9576,-18.7404,187.7179],[34.9436,-18.7308,190.512],[34.9271,-18.7152,205.0009],[34.9093,-18.703,216.7649],[34.9026,-18.7004,229.9082],[34.8928,-18.7056,235.5222],[34.8539,-18.7095,303.4833],[34.8508,-18.7109,306.4249]]]]}
,"properties": {"GID_2": "MOZ.9.11_1","GID_0": "MOZ","country": "Mozambique","GID_1": "MOZ.9_1","province": "Sofala","NL_NAME_1": "NA","county": "Muanza","VARNAME_2": "NA","NL_NAME_2": "NA","TYPE_2": "Distrito","ENGTYPE_2": "District","CC_2": "NA","HASC_2": "MZ.SO.MU","name": "Muanza.county","area_km2": 7542.265,"hist_schema_id": "Elevation0-9000","hist_area_km2": {"0": 563.643,"25": 1334.595,"50": 989.116,"75": 883.085,"100": 909.625,"125": 817.925,"150": 739.277,"175": 573.461,"200": 362.655,"225": 240.035,"250": 92.106,"275": 28.289,"300": 8.072,"325": 0.382}}}