{"type": "Feature","bbox": [32.1045,-15.9931,33.1174,-15.5649],"geometry": {"type": "MultiPolygon","coordinates": [[[[32.7479,-15.9931,485.7709],[32.7667,-15.9849,479.3604],[32.8027,-15.9747,461.1787],[32.8222,-15.9664,455.1248],[32.8276,-15.9682,452.705],[32.8531,-15.9632,432.8718],[32.8576,-15.9542,435.0669],[32.8896,-15.948,416.8876],[32.8942,-15.9411,407.0891],[32.8974,-15.9318,400.455],[32.8965,-15.9241,395.1437],[32.8981,-15.914,386.4875],[32.9078,-15.8938,380.3097],[32.9055,-15.8876,386.1629],[32.9079,-15.8829,378.329],[32.9117,-15.8814,379.0337],[32.9139,-15.8779,372.8184],[32.9255,-15.8743,365.3408],[32.9265,-15.8694,365.9125],[32.9538,-15.8555,353.5847],[32.9629,-15.8539,365.4911],[32.976,-15.8557,351.6792],[32.9784,-15.8609,345.8991],[32.9909,-15.8611,345.2273],[33.0003,-15.8524,329.994],[33.0064,-15.85,329.7851],[33.0032,-15.8455,329.0795],[33.0047,-15.8438,330.1393],[33.0064,-15.8451,318.1362],[33.0106,-15.8427,318.4721],[33.0122,-15.8387,342.0811],[33.0168,-15.8384,309.1336],[33.0229,-15.8412,307.0256],[33.026,-15.839,303.7733],[33.0225,-15.8345,307.1811],[33.0228,-15.8297,310.9211],[33.0349,-15.8305,291.8806],[33.0366,-15.8277,280.0047],[33.0334,-15.8234,291.6504],[33.0364,-15.8141,273.0009],[33.0423,-15.8038,246.6275],[33.0404,-15.7969,269.4872],[33.0479,-15.7942,276.9785],[33.0507,-15.7849,214.2768],[33.0458,-15.7801,240.1872],[33.0541,-15.7783,234.9711],[33.0628,-15.7739,206.6227],[33.0704,-15.769,193.407],[33.0787,-15.7591,182.8575],[33.1063,-15.7489,154.0695],[33.1174,-15.7498,173.5453],[33.1082,-15.7364,143.1866],[33.0994,-15.7118,146.6579],[33.0788,-15.6825,153.4618],[33.073,-15.6802,144.125],[33.061,-15.6949,181.8371],[33.0406,-15.7117,286.1343],[33.0264,-15.7265,411.1156],[33.0107,-15.7377,257.0475],[32.9982,-15.744,215.0197],[32.9824,-15.7376,226.3354],[32.9654,-15.7352,244.2016],[32.9625,-15.7388,243.8414],[32.9524,-15.743,241.7635],[32.951,-15.7367,245.7179],[32.9448,-15.736,267.3135],[32.9384,-15.7409,277.5213],[32.9259,-15.7352,302.5017],[32.9172,-15.735,264.4235],[32.9033,-15.7425,272.2776],[32.8718,-15.7461,281.0977],[32.8595,-15.7403,286.259],[32.8394,-15.7237,296.9939],[32.8161,-15.7188,316.1502],[32.8031,-15.7208,322.3372],[32.7899,-15.6859,994.0813],[32.6758,-15.6813,735.4114],[32.6265,-15.6483,897.9475],[32.5991,-15.5649,321.0],[32.5811,-15.5673,321.0],[32.488,-15.5714,321.0],[32.4375,-15.5672,321.0],[32.4119,-15.5685,321.0],[32.3939,-15.5752,321.0],[32.3806,-15.5825,321.0],[32.2381,-15.6471,321.0],[32.1657,-15.6741,321.0],[32.1045,-15.6887,321.0],[32.1251,-15.7699,321.0],[32.125,-15.7785,321.0],[32.1367,-15.795,321.1417],[32.1385,-15.8063,328.8269],[32.1469,-15.8154,335.953],[32.15,-15.826,331.461],[32.1503,-15.8434,335.5826],[32.1552,-15.8452,340.77],[32.1617,-15.8439,348.1786],[32.1659,-15.847,355.1194],[32.203,-15.8613,384.4773],[32.2232,-15.877,404.0771],[32.2486,-15.9066,436.7701],[32.2606,-15.9136,440.2741],[32.2748,-15.9185,452.4008],[32.2967,-15.9299,474.691],[32.3386,-15.933,507.1589],[32.4305,-15.9836,559.8762],[32.4449,-15.9791,556.6],[32.464,-15.9611,555.3436],[32.4782,-15.9638,557.2137],[32.4898,-15.9641,549.0849],[32.5251,-15.9475,560.1268],[32.5459,-15.9416,560.4713],[32.5668,-15.9383,558.0854],[32.5783,-15.9396,563.5843],[32.6027,-15.9582,560.2742],[32.6091,-15.9813,548.6503],[32.6181,-15.9873,554.9998],[32.7479,-15.9931,485.7709]]]]}
,"properties": {"GID_3": "MOZ.10.2.2_1","GID_0": "MOZ","country": "Mozambique","GID_1": "MOZ.10_1","province": "Tete","NL_NAME_1": "NA","GID_2": "MOZ.10.2_1","county": "CahoraBassa","NL_NAME_2": "NA","city": "Chitima","VARNAME_3": "NA","NL_NAME_3": "NA","TYPE_3": "Localidad","ENGTYPE_3": "Locality","CC_3": "NA","HASC_3": "NA","name": "Chitima.city","area_km2": 3082.59,"hist_schema_id": "Elevation0-9000","hist_area_km2": {"150": 3.082,"175": 8.531,"200": 14.856,"225": 18.489,"250": 18.713,"275": 28.058,"300": 44.85,"325": 531.503,"350": 339.78,"375": 399.389,"400": 395.768,"425": 336.288,"450": 301.409,"475": 250.153,"500": 172.15,"525": 114.753,"550": 67.609,"575": 7.651,"600": 3.654,"625": 3.082,"650": 3.041,"675": 3.021,"700": 2.511,"725": 2.102,"750": 1.878,"775": 1.511,"800": 1.306,"825": 1.021,"850": 0.878,"875": 0.837,"900": 1.408,"925": 1.204,"950": 0.898,"975": 0.51,"1000": 0.469,"1025": 0.225}}}