{"type": "Feature","bbox": [33.9363,-19.6625,34.5593,-18.9467],"geometry": {"type": "MultiPolygon","coordinates": [[[[34.5181,-19.6041,4.9573],[34.526,-19.6011,2.3129],[34.5244,-19.5985,0.5],[34.5216,-19.5619,5.2158],[34.527,-19.5556,4.9937],[34.5375,-19.5539,3.8882],[34.5388,-19.5444,4.123],[34.5451,-19.5358,2.8119],[34.5547,-19.528,2.1708],[34.5532,-19.5166,4.58],[34.5466,-19.5149,3.7901],[34.537,-19.5245,3.5677],[34.5234,-19.507,4.5497],[34.5243,-19.5035,4.4476],[34.5365,-19.5105,4.2353],[34.5388,-19.5067,2.8173],[34.5361,-19.4997,2.8842],[34.5295,-19.494,4.2746],[34.5234,-19.4857,3.631],[34.5272,-19.4798,5.6636],[34.5279,-19.4717,5.44],[34.5322,-19.4661,3.5472],[34.5424,-19.459,5.412],[34.5447,-19.453,3.5363],[34.5313,-19.4605,4.1183],[34.526,-19.4605,3.8127],[34.5225,-19.4534,3.9656],[34.54,-19.4475,4.2707],[34.5394,-19.4433,4.456],[34.5305,-19.4431,3.8711],[34.5228,-19.4388,5.3699],[34.5255,-19.4337,6.0762],[34.5356,-19.4323,4.3125],[34.5359,-19.423,4.5927],[34.5296,-19.4242,3.9779],[34.5279,-19.4219,4.4835],[34.5305,-19.4131,5.4742],[34.534,-19.4088,4.5112],[34.5459,-19.3997,6.613],[34.5542,-19.4038,5.3215],[34.5546,-19.3765,6.1832],[34.5574,-19.3583,7.792],[34.5547,-19.3302,8.3311],[34.5582,-19.3253,8.956],[34.55,-19.3251,9.1674],[34.5503,-19.3164,9.4264],[34.5536,-19.309,10.0631],[34.5593,-19.3029,10.5169],[34.5492,-19.2814,9.9909],[34.5502,-19.2755,10.6603],[34.5577,-19.2787,11.4856],[34.5432,-19.2625,12.9168],[34.5529,-19.2509,14.8269],[34.55,-19.2461,12.6744],[34.5278,-19.2428,15.0927],[34.5266,-19.2392,14.3149],[34.5286,-19.2336,14.82],[34.5262,-19.2154,13.5172],[34.522,-19.2067,16.4479],[34.5163,-19.2004,14.4196],[34.5233,-19.1879,15.8588],[34.5343,-19.176,14.4863],[34.534,-19.1637,14.5101],[34.53,-19.1624,16.0899],[34.5282,-19.1596,16.7706],[34.5308,-19.1459,17.3594],[34.5276,-19.1362,20.5134],[34.5002,-19.114,20.7047],[34.4929,-19.101,22.2166],[34.4845,-19.0935,24.3683],[34.4771,-19.0946,23.7839],[34.4738,-19.0822,26.663],[34.4078,-19.0562,29.277],[34.3935,-19.0371,29.1806],[34.3798,-19.0142,33.9444],[34.3745,-18.998,36.7898],[34.3711,-18.9952,41.6992],[34.3667,-18.9974,42.2665],[34.361,-18.9978,35.3001],[34.3568,-18.9946,32.2436],[34.3368,-18.9911,44.8916],[34.3313,-18.9985,36.214],[34.3233,-19.0029,36.1101],[34.3031,-19.0055,39.3072],[34.2961,-19.0135,37.191],[34.2825,-19.0232,38.9252],[34.2648,-19.0634,40.2601],[34.2514,-19.0722,42.266],[34.2085,-19.0482,47.9313],[34.1526,-19.0138,61.0027],[34.0962,-18.9986,58.6985],[34.0891,-18.9921,90.4559],[34.0793,-18.9649,69.1327],[34.0731,-18.9574,96.0235],[34.0543,-18.9467,150.2984],[34.0444,-18.9632,259.3723],[34.0319,-18.9995,218.773],[33.9382,-19.2428,179.8384],[33.9363,-19.597,147.6802],[33.9552,-19.5989,132.2223],[33.9641,-19.5969,130.8971],[33.9702,-19.5997,125.0068],[34.0015,-19.5983,109.0155],[34.0092,-19.5954,104.797],[34.0204,-19.5875,112.6011],[34.0365,-19.5908,95.4076],[34.0448,-19.5865,94.828],[34.0498,-19.5902,88.2167],[34.0716,-19.5801,87.8467],[34.0802,-19.593,81.9104],[34.0921,-19.5909,83.0917],[34.1153,-19.5941,80.7272],[34.1246,-19.6067,77.2051],[34.129,-19.6216,73.4751],[34.1476,-19.6504,67.2174],[34.1528,-19.6625,66.7813],[34.362,-19.6401,62.2526],[34.41,-19.6367,34.367],[34.4507,-19.622,14.1321],[34.4579,-19.6061,4.3126],[34.5013,-19.6019,5.3158],[34.5181,-19.6041,4.9573]]]]}
,"properties": {"GID_2": "MOZ.9.12_1","GID_0": "MOZ","country": "Mozambique","GID_1": "MOZ.9_1","province": "Sofala","NL_NAME_1": "NA","county": "Nhamatanda","VARNAME_2": "NA","NL_NAME_2": "NA","TYPE_2": "Distrito","ENGTYPE_2": "District","CC_2": "NA","HASC_2": "MZ.SO.NH","name": "Nhamatanda.county","area_km2": 4028.694,"hist_schema_id": "Elevation0-9000","hist_area_km2": {"0": 623.78,"25": 1013.99,"50": 617.685,"75": 437.864,"100": 401.415,"125": 397.678,"150": 294.735,"175": 152.997,"200": 62.744,"225": 15.628,"250": 5.37,"275": 2.985,"300": 1.061,"325": 0.28,"350": 0.18,"375": 0.1,"400": 0.14,"425": 0.06}}}