{"type": "Feature","bbox": [33.5802,-25.1246,33.7588,-24.9755],"geometry": {"type": "MultiPolygon","coordinates": [[[[33.6011,-25.0657,2.6543],[33.6067,-25.0751,1.4581],[33.6211,-25.0839,1.1508],[33.6239,-25.0897,1.1022],[33.6455,-25.0874,1.7138],[33.652,-25.0902,23.1433],[33.6636,-25.0888,27.2685],[33.6974,-25.0795,7.1488],[33.7034,-25.0921,12.176],[33.714,-25.1246,0.0],[33.7249,-25.1221,1.3072],[33.736,-25.116,10.2356],[33.7588,-25.1107,0.0],[33.7337,-25.0813,14.5617],[33.7034,-25.0134,1.7762],[33.6971,-25.0085,1.7296],[33.6897,-25.0065,1.9473],[33.6837,-25.009,3.0971],[33.6822,-25.0174,2.9027],[33.676,-25.0163,2.5919],[33.6719,-25.0195,2.9646],[33.6693,-25.03,3.1136],[33.6667,-25.0296,3.8753],[33.6601,-25.0237,2.4022],[33.6477,-25.0106,4.2939],[33.6556,-25.0003,2.9086],[33.6495,-24.9925,3.7475],[33.6497,-24.9755,3.4185],[33.6435,-24.9759,3.334],[33.6318,-24.9843,4.5716],[33.617,-24.9855,3.7954],[33.5836,-24.9978,2.7354],[33.5845,-25.0318,2.3745],[33.5816,-25.0419,1.6521],[33.5834,-25.0481,2.5464],[33.6073,-25.0479,2.2614],[33.6101,-25.0508,1.7185],[33.6082,-25.0556,0.3234],[33.5844,-25.0564,0.9299],[33.5802,-25.0583,0.4456],[33.5918,-25.0605,2.6622],[33.6011,-25.0657,2.6543]]]]}
,"properties": {"GID_3": "MOZ.2.11.3_1","GID_0": "MOZ","country": "Mozambique","GID_1": "MOZ.2_1","province": "Gaza","NL_NAME_1": "NA","GID_2": "MOZ.2.11_1","county": "Xai-Xai","NL_NAME_2": "NA","city": "CidadeDeXai-Xai","VARNAME_3": "NA","NL_NAME_3": "NA","TYPE_3": "Localidad","ENGTYPE_3": "Locality","CC_3": "NA","HASC_3": "NA","name": "Cidade_De_Xai-Xai.city","area_km2": 136.1663,"hist_schema_id": "Elevation0-9000","hist_area_km2": {"0": 93.8792,"25": 24.3319,"50": 13.5577,"75": 4.3014,"100": 0.096}}}