{"type":"Feature","properties":{"featurecla":"River","scalerank":9,"rivernum":977,"dissolve":"977River","name":"Ligonha","name_alt":null,"note":null,"min_zoom":7.1,"strokeweig":0.2,"name_en":"Ligonha","min_label":8.1},
"geometry":{"type": "LineString","coordinates": [[38.877685546875,-16.000030206255886,149.7827],[38.916796875000017,-16.05462005000588,127.0228],[38.938867187500023,-16.11663176875588,114.4159],[38.930566406250023,-16.14690520625588,125.6508],[38.922265625000023,-16.177569268755889,124.0781],[38.92236328125,-16.20891692500588,98.9664],[38.931640625,-16.24041106563088,81.8579],[38.959228515625,-16.29290130000588,98.7954],[38.9921875,-16.343780206255886,68.0855],[39.003173828125,-16.37420012813088,58.0473],[39.011132812500023,-16.405596612505889,72.1152],[39.028222656250023,-16.43450286250588,66.1276],[39.042871093750023,-16.465655206255889,37.2516],[39.050537109375,-16.499541925005886,42.011],[39.047265625000023,-16.533233331255886,30.8231],[39.022851562500023,-16.54461028438088,53.7639],[38.994384765625,-16.54998137813088,46.5842],[38.97802734375,-16.612334893755886,38.8981],[39.022558593750006,-16.65935637813088,15.8403],[39.043554687500006,-16.678545831255889,18.0518],[39.055566406250023,-16.70549895625588,26.8085],[39.064355468750023,-16.719268487505886,14.2763],[39.072265625,-16.73333098750588,10.3031],[39.071679687500023,-16.750323175005889,10.5672],[39.072265625,-16.766631768755886,11.7511],[39.092187500000023,-16.78533294063088,6.6892],[39.114013671875,-16.806670831255886,6.6038],[39.1259765625,-16.834307550005889,7.0962],[39.127832031250023,-16.86663176875588,0.9999]]}}