{"type":"Feature","properties":{"featurecla":"River","scalerank":9,"rivernum":977,"dissolve":"977River","name":"Ligonha2","name_alt":null,"note":"0.15","min_zoom":7.1,"strokeweig":0.15,"name_en":"Ligonha","min_label":8.1},
"geometry":{"type": "LineString","coordinates": [[37.377685546875,-15.222198175005886,870.5569],[37.420166015625,-15.20769622188088,775.8417],[37.45654296875,-15.18450286250588,730.9065],[37.491455078125,-15.14128997188088,709.6986],[37.538818359375,-15.138995050005889,719.9887],[37.559814453125,-15.15276458125588,733.1354],[37.575439453125,-15.174346612505886,692.5409],[37.5947265625,-15.185381768755889,690.3804],[37.613867187500006,-15.191729425005889,686.1632],[37.618359375000011,-15.204913018755889,650.6398],[37.622167968750006,-15.21672942500588,655.4993],[37.6357421875,-15.22014739375588,666.6255],[37.650390625,-15.22136809688088,655.4651],[37.659423828125,-15.22966887813088,628.9918],[37.666601562500006,-15.23894622188088,629.3792],[37.7587890625,-15.209795831255889,590.5328],[37.85,-15.19451262813088,592.0033],[37.865478515625,-15.21502044063088,619.2488],[37.88330078125,-15.23333098750588,573.543],[37.908105468750023,-15.23552825313088,578.7883],[37.933349609375,-15.23333098750588,548.3876],[37.9541015625,-15.23259856563088,567.9708],[37.97216796875,-15.250030206255886,603.6044],[37.98681640625,-15.26897551875588,587.1308],[38.0,-15.288897393755889,522.6428]]}}