{"type":"Feature","properties":{"featurecla":"River","scalerank":9,"rivernum":977,"dissolve":"977River","name":"Ligonha1","name_alt":null,"note":null,"min_zoom":7.1,"strokeweig":0.2,"name_en":"Ligonha","min_label":8.1},
"geometry":{"type": "LineString","coordinates": [[38.0,-15.288897393755889,522.6428],[38.031982421875,-15.29876067500588,545.6577],[38.066650390625,-15.308428643755889,555.9592],[38.075097656250023,-15.318194268755889,539.0379],[38.083398437500023,-15.32781340938088,508.2087],[38.101806640625,-15.327178643755886,498.7819],[38.119384765625,-15.338897393755886,519.9809],[38.130615234375,-15.34685637813088,499.6406],[38.144433593750023,-15.35564544063088,489.4199],[38.140625,-15.36882903438088,515.0123],[38.144628906250006,-15.37932708125588,489.7996],[38.178955078125,-15.408038018755889,505.2318],[38.2109375,-15.44573333125588,446.1072],[38.248779296875,-15.45989348750588,443.3972],[38.288818359375,-15.466631768755889,433.2712],[38.307226562500006,-15.46257903438088,453.2545],[38.324951171875,-15.45549895625588,405.5829],[38.345117187500023,-15.45671965938088,431.278],[38.363867187500006,-15.46941497188088,413.2786],[38.400390625,-15.49041106563088,414.4603],[38.430566406250023,-15.516631768755886,394.5067],[38.449951171875,-15.547393487505886,391.4182],[38.477441406250023,-15.56658294063088,379.2501],[38.517968750000023,-15.575518487505889,389.7184],[38.542724609375,-15.60808684688088,363.6637],[38.56787109375,-15.643877862505889,363.55],[38.611083984375,-15.66228606563088,304.3761],[38.64892578125,-15.66961028438088,337.8202],[38.683349609375,-15.68328215938088,253.5694],[38.703027343750023,-15.71624114375588,227.1153],[38.727783203125,-15.74993255000588,218.3952],[38.760498046875,-15.76824309688088,214.0232],[38.7861328125,-15.794463800005886,222.2183],[38.8056640625,-15.83245208125588,216.393],[38.822265625,-15.87224700313088,177.815],[38.833398437500023,-15.888506768755889,178.1755],[38.834716796875,-15.909502862505889,181.718],[38.843994140625,-15.920928643755886,160.4798],[38.861083984375,-15.927764581255886,159.1202],[38.866308593750006,-15.96526458125588,172.0506],[38.877685546875,-15.99993255000588,149.7827]]}}