{"type":"Feature","properties":{"GID_3":"MOZ.2.6.2_1","GID_0":"MOZ","country":"Mozambique","GID_1":"MOZ.2_1","province":"Gaza","NL_NAME_1":"NA","GID_2":"MOZ.2.6_1","county":"Guijá","NL_NAME_2":"NA","city":"Mubanguene","VARNAME_3":"NA","NL_NAME_3":"NA","TYPE_3":"Localidad","ENGTYPE_3":"Locality","CC_3":"NA","HASC_3":"NA","name":"Mubanguene.city"},
"geometry":{"type": "MultiPolygon","coordinates": [[[[32.9917,-24.478,25.3137],[33.0009,-24.4704,27.0376],[33.0009,-24.445,31.6699],[33.0071,-24.4384,31.6605],[33.0215,-24.4309,31.7114],[33.0283,-24.4222,30.5691],[33.0716,-24.3965,20.6316],[33.1017,-24.3977,21.8031],[33.1104,-24.403,24.2039],[33.121,-24.4158,21.964],[33.1364,-24.4159,22.5028],[33.1352,-24.4182,20.7831],[33.1528,-24.4062,17.3314],[33.1645,-24.4028,10.2754],[33.1638,-24.3885,11.672],[33.1522,-24.3505,16.4246],[33.1402,-24.3219,19.3259],[33.1327,-24.3086,18.3408],[33.0991,-24.2821,23.2123],[33.0939,-24.2764,23.4031],[33.0789,-24.2451,27.0011],[33.0492,-24.2156,28.9299],[33.0331,-24.2036,31.3481],[33.0223,-24.1828,33.4597],[33.0256,-24.1693,37.555],[33.0219,-24.1529,37.524],[32.987,-24.1005,43.6727],[32.914,-24.0035,64.7289],[32.8911,-24.0243,58.3328],[32.8357,-24.0924,58.6837],[32.7399,-24.191,45.5746],[32.7525,-24.2096,39.8454],[32.7669,-24.2227,39.6482],[32.7826,-24.2526,38.081],[32.8203,-24.3025,31.7239],[32.8401,-24.3374,35.3262],[32.8401,-24.3449,36.3163],[32.8429,-24.3561,34.0514],[32.8531,-24.3667,32.6134],[32.8538,-24.3785,33.1604],[32.8764,-24.4097,29.8021],[32.8825,-24.4365,31.328],[32.8873,-24.4459,29.529],[32.9009,-24.4514,34.1744],[32.9217,-24.4511,33.1431],[32.9307,-24.4483,30.163],[32.9565,-24.449,27.578],[32.9652,-24.451,24.4732],[32.9917,-24.478,25.3137]]]]}}