{"type": "Feature","bbox": [36.1463,-16.378,36.7777,-15.8244],"geometry": {"type": "MultiPolygon","coordinates": [[[[36.7777,-16.0525,468.2287],[36.7735,-16.0354,466.8507],[36.7735,-16.0222,468.6076],[36.7703,-16.0187,472.5346],[36.7457,-16.0205,474.4071],[36.738,-16.0191,474.9586],[36.7396,-16.0073,495.1702],[36.7379,-16.004,501.1168],[36.7293,-15.9971,515.6158],[36.7183,-15.9979,534.7222],[36.7093,-16.0051,530.2411],[36.7017,-15.999,509.8584],[36.6984,-15.9998,517.6278],[36.6869,-16.0077,512.5682],[36.6744,-16.0098,516.7192],[36.6638,-16.0188,525.5483],[36.6538,-16.0186,524.8206],[36.6282,-16.0139,530.4781],[36.6218,-16.0073,528.5263],[36.6169,-16.0049,538.7994],[36.6064,-16.0082,531.1902],[36.598,-16.0033,540.3385],[36.5926,-16.0039,542.9922],[36.5881,-16.0017,536.3586],[36.5894,-15.993,540.8702],[36.5855,-15.9897,563.1247],[36.5719,-15.9941,539.6733],[36.5675,-15.9789,552.7552],[36.5533,-15.9513,563.6292],[36.5403,-15.9145,590.5912],[36.5396,-15.901,608.4709],[36.5368,-15.8985,602.7719],[36.5217,-15.8967,616.4364],[36.5177,-15.894,607.0963],[36.5179,-15.8853,610.8479],[36.5072,-15.881,626.7693],[36.5013,-15.8808,619.446],[36.5026,-15.8836,614.4977],[36.4972,-15.886,620.3713],[36.4794,-15.888,633.1292],[36.4401,-15.8715,625.764],[36.4132,-15.8723,639.2555],[36.4068,-15.8687,639.2722],[36.4027,-15.861,646.9303],[36.3562,-15.8311,655.5587],[36.3412,-15.8244,649.8812],[36.3328,-15.8418,657.9777],[36.3133,-15.8598,611.6544],[36.2941,-15.8878,594.408],[36.2724,-15.9117,653.5815],[36.2599,-15.9385,532.2181],[36.2506,-15.9445,534.9527],[36.2475,-15.9534,556.6906],[36.2475,-15.9713,533.3913],[36.2413,-15.9981,487.9301],[36.2444,-16.0124,507.6334],[36.2324,-16.0263,486.2835],[36.2284,-16.0371,481.3133],[36.2018,-16.0486,457.6743],[36.1928,-16.0492,458.1391],[36.1771,-16.0584,455.334],[36.1696,-16.0716,429.6055],[36.1591,-16.0762,435.6681],[36.1463,-16.0866,421.4364],[36.1511,-16.0968,415.6442],[36.2126,-16.1579,394.6058],[36.232,-16.1532,411.2522],[36.2713,-16.1532,509.0645],[36.2721,-16.1605,524.766],[36.2647,-16.1729,551.3974],[36.2638,-16.196,782.5978],[36.2721,-16.2048,1276.7925],[36.2724,-16.2227,853.9905],[36.2906,-16.2333,607.6115],[36.3003,-16.2487,440.2748],[36.3211,-16.2544,1003.8615],[36.3779,-16.2755,1355.7664],[36.435,-16.2901,720.4741],[36.4489,-16.2794,426.5268],[36.4674,-16.2555,553.4837],[36.5052,-16.2208,564.8652],[36.5083,-16.2188,592.6479],[36.5243,-16.2197,682.8737],[36.5269,-16.2248,623.3817],[36.5269,-16.2636,1015.858],[36.5362,-16.2725,890.1866],[36.5704,-16.2725,585.6818],[36.5921,-16.2904,658.2413],[36.5983,-16.2994,872.3571],[36.6107,-16.3083,833.4995],[36.62,-16.3113,641.757],[36.6325,-16.3113,492.0984],[36.6432,-16.3194,546.4037],[36.6534,-16.3425,570.5293],[36.6904,-16.362,623.213],[36.6904,-16.378,891.649],[36.7664,-16.3208,353.0701],[36.7617,-16.3172,377.1459],[36.7558,-16.3188,365.1422],[36.7563,-16.3162,415.0908],[36.7605,-16.3144,364.252],[36.7509,-16.3001,377.4647],[36.7504,-16.2883,360.7368],[36.7556,-16.2686,370.2451],[36.755,-16.2628,370.3617],[36.7521,-16.254,385.5288],[36.7451,-16.2409,387.0545],[36.7394,-16.2215,428.4049],[36.7469,-16.1905,575.3229],[36.7169,-16.1399,504.7806],[36.6993,-16.0991,552.7933],[36.6922,-16.0783,504.8647],[36.7008,-16.0803,497.3385],[36.7176,-16.0808,498.1255],[36.7361,-16.0753,485.1948],[36.7453,-16.0691,471.6692],[36.7551,-16.0527,481.9254],[36.7637,-16.0495,466.6522],[36.7715,-16.0531,470.8122],[36.7777,-16.0525,468.2287]]]]}
,"properties": {"GID_3": "MOZ.11.7.3_1","GID_0": "MOZ","country": "Mozambique","GID_1": "MOZ.11_1","province": "Zambezia","NL_NAME_1": "NA","GID_2": "MOZ.11.7_1","county": "Lugela","NL_NAME_2": "NA","city": "Muabanama","VARNAME_3": "NA","NL_NAME_3": "NA","TYPE_3": "Localidad","ENGTYPE_3": "Locality","CC_3": "NA","HASC_3": "NA","name": "Muabanama.city","area_km2": 2177.739,"hist_schema_id": "Elevation0-9000","hist_area_km2": {"350": 1.16,"375": 4.823,"400": 15.206,"425": 36.872,"450": 54.814,"475": 74.872,"500": 117.174,"525": 158.163,"550": 180.694,"575": 184.96,"600": 179.129,"625": 198.112,"650": 210.311,"675": 210.951,"700": 148.48,"725": 79.075,"750": 50.837,"775": 36.334,"800": 28.045,"825": 21.589,"850": 20.224,"875": 19.103,"900": 16.883,"925": 16.027,"950": 14.906,"975": 13.379,"1000": 12.93,"1025": 9.245,"1050": 7.107,"1075": 6.394,"1100": 5.335,"1125": 4.724,"1150": 5.009,"1175": 4.581,"1200": 4.459,"1225": 3.441,"1250": 4.092,"1275": 4.296,"1300": 3.562,"1325": 2.341,"1350": 2.219,"1375": 1.343,"1400": 1.201,"1425": 0.977,"1450": 0.611,"1475": 0.529,"1500": 0.448,"1525": 0.387,"1550": 0.183,"1575": 0.122,"1600": 0.081}}}