{"type":"Feature","properties":{"featurecla":"Delta","name":"Zambezi Delta","namealt":null,"region":"Africa","subregion":null,"min_label":5.3,"max_label":9.0,"scalerank":4},
"geometry":{"type": "MultiPolygon","coordinates": [[[[36.652864650278133,-18.42963619964641,0.0],[36.4840600858507,-18.6521834924299,0.0],[36.635752800396205,-18.466729425005951,0.0],[36.652864650278133,-18.42963619964641,0.0]]],
[[[36.409300131468825,-18.743582328966426,0.0],[36.37502708024553,-18.772160780909488,6.6674],[36.397715691021205,-18.757745050005909,0.0],[36.409300131468825,-18.743582328966426,0.0]]]]}}