{"type": "Feature","bbox": [33.0022,-24.6392,33.4355,-24.2428],"geometry": {"type": "MultiPolygon","coordinates": [[[[33.2612,-24.2428,35.3347],[33.2234,-24.2783,34.0716],[33.2234,-24.2873,32.4551],[33.2266,-24.3048,34.0687],[33.2495,-24.3758,28.4196],[33.211,-24.4352,9.6912],[33.1965,-24.4041,12.6132],[33.1623,-24.4033,10.8259],[33.1528,-24.4062,17.3314],[33.1352,-24.4182,20.7831],[33.1175,-24.4511,20.6778],[33.1033,-24.4704,29.1964],[33.1036,-24.4752,26.5252],[33.0892,-24.4907,28.6162],[33.0676,-24.4925,28.2394],[33.0574,-24.4832,29.2986],[33.0468,-24.4768,30.3089],[33.0078,-24.477,26.7849],[33.0037,-24.4889,26.6466],[33.0022,-24.4876,29.6174],[33.0158,-24.5052,29.925],[33.0348,-24.5195,21.7478],[33.0499,-24.5257,20.7934],[33.0529,-24.5292,22.6469],[33.0549,-24.5385,26.0246],[33.0551,-24.5517,25.3518],[33.0751,-24.5571,18.5202],[33.0923,-24.5571,23.0653],[33.0928,-24.5667,23.464],[33.0959,-24.5775,25.1503],[33.0999,-24.5804,24.9617],[33.1171,-24.5816,22.7649],[33.1291,-24.59,17.8716],[33.137,-24.6057,21.797],[33.1496,-24.616,22.8048],[33.2112,-24.6392,21.0122],[33.2337,-24.6323,14.3521],[33.2501,-24.6202,16.462],[33.2649,-24.6173,15.6503],[33.2781,-24.6228,12.4446],[33.282,-24.6217,19.8622],[33.2812,-24.6152,16.2888],[33.2744,-24.6013,20.0012],[33.283,-24.5562,14.4972],[33.3011,-24.5443,13.3757],[33.3082,-24.5378,13.1901],[33.3242,-24.5281,13.9794],[33.3687,-24.5165,7.1435],[33.3847,-24.4982,5.0],[33.4301,-24.4984,7.5],[33.4355,-24.4909,13.2628],[33.4275,-24.48,7.5],[33.4115,-24.4749,7.5],[33.3942,-24.4649,11.3024],[33.3764,-24.4465,12.2653],[33.3724,-24.4333,17.1346],[33.3454,-24.3692,23.7497],[33.3304,-24.3414,27.7581],[33.3266,-24.3362,27.349],[33.2978,-24.3112,29.54],[33.2811,-24.2883,31.1854],[33.2772,-24.2826,31.3221],[33.2755,-24.2754,35.0709],[33.2716,-24.2694,36.0473],[33.2612,-24.2428,35.3347]]]]}
,"properties": {"GID_3": "MOZ.2.6.1_1","GID_0": "MOZ","country": "Mozambique","GID_1": "MOZ.2_1","province": "Gaza","NL_NAME_1": "NA","GID_2": "MOZ.2.6_1","county": "Guijá","NL_NAME_2": "NA","city": "Chivonguene","VARNAME_3": "NA","NL_NAME_3": "NA","TYPE_3": "Localidad","ENGTYPE_3": "Locality","CC_3": "NA","HASC_3": "NA","name": "Chivonguene.city","area_km2": 749.2954,"hist_schema_id": "Elevation0-9000","hist_area_km2": {"0": 84.327,"25": 658.73,"50": 6.2385}}}