{"type":"Feature","properties":{"GID_2":"MOZ.2.5_1","GID_0":"MOZ","country":"Mozambique","GID_1":"MOZ.2_1","province":"Gaza","NL_NAME_1":"NA","county":"Chókwè","VARNAME_2":"NA","NL_NAME_2":"NA","TYPE_2":"Distrito","ENGTYPE_2":"District","CC_2":"NA","HASC_2":"MZ.GA.CK","name":"Chókwè.county"},
"geometry":{"type": "MultiPolygon","coordinates": [[[[33.4436,-24.8159,10.8543],[33.4646,-24.8248,10.1816],[33.4858,-24.8229,8.639],[33.5229,-24.8018,5.5986],[33.5186,-24.7938,12.4792],[33.5207,-24.7769,9.5501],[33.523,-24.771,8.536],[33.5226,-24.7618,9.8693],[33.5158,-24.7574,12.1448],[33.4956,-24.7597,6.3854],[33.4877,-24.7719,12.0314],[33.4775,-24.7807,13.5785],[33.4576,-24.7746,11.8149],[33.4496,-24.7601,13.7339],[33.4396,-24.7483,9.7845],[33.3979,-24.7161,15.4314],[33.3868,-24.7106,15.721],[33.3601,-24.6854,8.6086],[33.3395,-24.6697,16.7345],[33.3194,-24.666,8.0],[33.3018,-24.6665,13.5795],[33.287,-24.6879,19.5591],[33.271,-24.6866,20.1137],[33.2681,-24.6825,13.8571],[33.2709,-24.6792,18.3497],[33.2841,-24.6508,13.8936],[33.2845,-24.639,12.9871],[33.282,-24.6217,19.8622],[33.2781,-24.6228,12.4446],[33.2649,-24.6173,15.6503],[33.2501,-24.6202,16.462],[33.2337,-24.6323,14.3521],[33.2112,-24.6392,21.0122],[33.1496,-24.616,22.8048],[33.137,-24.6057,21.797],[33.1291,-24.59,17.8716],[33.1171,-24.5816,22.7649],[33.0999,-24.5804,24.9617],[33.0959,-24.5775,25.1503],[33.0928,-24.5667,23.464],[33.0923,-24.5571,23.0653],[33.0751,-24.5571,18.5202],[33.0551,-24.5517,25.3518],[33.0549,-24.5385,26.0246],[33.0529,-24.5292,22.6469],[33.0499,-24.5257,20.7934],[33.0348,-24.5195,21.7478],[33.0158,-24.5052,29.925],[32.9991,-24.4837,31.2439],[32.9883,-24.4754,27.9805],[32.966,-24.4515,23.6692],[32.9565,-24.449,27.578],[32.9307,-24.4483,30.163],[32.9217,-24.4511,33.1431],[32.9009,-24.4514,34.1744],[32.8873,-24.4459,29.529],[32.8825,-24.4365,31.328],[32.8764,-24.4097,29.8021],[32.8538,-24.3785,33.1604],[32.8531,-24.3667,32.6134],[32.8429,-24.3561,34.0514],[32.8401,-24.3449,36.3163],[32.8401,-24.3374,35.3262],[32.8203,-24.3025,31.7239],[32.7826,-24.2526,38.081],[32.7669,-24.2227,39.6482],[32.7525,-24.2096,39.8454],[32.7399,-24.191,45.5746],[32.7263,-24.1781,37.0],[32.721,-24.1707,38.6591],[32.7039,-24.1604,47.0956],[32.672,-24.1266,79.7103],[32.6512,-24.1145,64.5761],[32.6371,-24.1105,45.7249],[32.611,-24.1274,45.1306],[32.5979,-24.1979,74.4348],[32.5724,-24.2378,82.6328],[32.5579,-24.3333,79.6756],[32.5679,-24.3355,80.0943],[32.587,-24.3499,76.3299],[32.5991,-24.3694,70.9036],[32.606,-24.3758,70.201],[32.6146,-24.3796,68.5264],[32.6543,-24.376,62.2585],[32.6717,-24.3768,57.9947],[32.6964,-24.3857,50.6882],[32.7185,-24.4026,49.3667],[32.725,-24.4234,45.4513],[32.7285,-24.4577,45.5373],[32.724,-24.4752,44.4758],[32.7197,-24.483,43.0997],[32.7164,-24.4984,41.6449],[32.7192,-24.5088,43.3619],[32.7306,-24.5309,44.83],[32.7467,-24.5409,42.5932],[32.7463,-24.5444,41.0704],[32.7507,-24.5541,38.0801],[32.7633,-24.5638,38.1559],[32.7642,-24.575,38.0922],[32.7828,-24.6101,33.2884],[32.7986,-24.6294,33.1843],[32.8185,-24.6607,31.4735],[32.8316,-24.6701,28.2342],[32.8382,-24.6837,26.3892],[32.8394,-24.6963,27.7921],[32.8367,-24.7228,25.2072],[32.8612,-24.7415,25.4187],[32.8615,-24.7434,24.7002],[32.8663,-24.7471,23.7841],[32.8728,-24.7494,23.8509],[32.8737,-24.7515,24.0104],[32.8672,-24.7693,22.9754],[32.8673,-24.7711,21.7997],[32.8722,-24.7756,26.325],[32.8788,-24.7672,25.5762],[32.8879,-24.7613,28.7676],[32.9508,-24.764,23.1754],[32.9512,-24.763,23.1754],[32.9842,-24.7874,22.1512],[32.9874,-24.8142,21.7173],[32.9997,-24.8248,21.2877],[33.0271,-24.8398,20.7197],[33.0417,-24.8431,21.1724],[33.0872,-24.858,35.5994],[33.1146,-24.8616,36.2297],[33.1451,-24.8636,56.3747],[33.1626,-24.8603,59.2137],[33.2069,-24.8339,60.8808],[33.2555,-24.8005,47.8708],[33.2819,-24.776,16.5118],[33.2881,-24.7747,17.9969],[33.3661,-24.7723,13.0768],[33.368,-24.7754,12.4881],[33.3691,-24.7849,11.7328],[33.3913,-24.789,12.0054],[33.401,-24.7936,10.4211],[33.438,-24.8203,8.9707],[33.4436,-24.8159,10.8543]]]]}}