{"type":"Feature","properties":{"GID_3":"MOZ.5.2.1_1","GID_0":"MOZ","country":"Mozambique","GID_1":"MOZ.5_1","province":"MaputoCity","NL_NAME_1":"NA","GID_2":"MOZ.5.2_1","county":"Maputo","NL_NAME_2":"NA","city":"CidadeDeMatola","VARNAME_3":"NA","NL_NAME_3":"NA","TYPE_3":"Localidad","ENGTYPE_3":"Locality","CC_3":"NA","HASC_3":"NA","name":"Cidade_De_Matola.city"},
"geometry":{"type": "MultiPolygon","coordinates": [[[[32.4141,-25.8722,8.381],[32.4049,-25.8784,23.2399],[32.404,-25.8846,4.3102],[32.409,-25.8881,26.702],[32.4188,-25.8901,22.0101],[32.4206,-25.8925,18.5768],[32.4212,-25.9023,3.8528],[32.4253,-25.9067,20.3937],[32.4342,-25.9114,12.9086],[32.4319,-25.921,1.9169],[32.4357,-25.9264,7.5414],[32.4356,-25.9352,0.9409],[32.4455,-25.9378,23.9369],[32.4367,-25.947,18.7788],[32.4314,-25.9552,5.4835],[32.4317,-25.9599,0.2842],[32.4367,-25.965699999999998,1.1059],[32.445,-25.9677,9.5606],[32.4513,-25.9712,9.7982],[32.4544,-25.9753,2.0782],[32.4572,-25.9748,8.8685],[32.4663,-25.9841,5.7211],[32.4721,-25.985,1.0],[32.4848,-25.9706,0.0],[32.4994,-25.9626,0.0],[32.5046,-25.9579,3.3372],[32.504,-25.9524,2.1793],[32.5101,-25.9463,0.0],[32.509,-25.9449,1.4048],[32.506,-25.9471,1.6189],[32.5037,-25.9449,2.5626],[32.5057,-25.944,2.2251],[32.5062,-25.9387,3.8358],[32.5085,-25.936,3.1642],[32.5132,-25.9346,2.3206],[32.5226,-25.9273,2.3364],[32.5355,-25.9155,25.2715],[32.5446,-25.8997,25.4343],[32.5532,-25.8777,25.6848],[32.5754,-25.7998,33.1811],[32.5919,-25.7694,46.7599],[32.582,-25.7466,54.3959],[32.577,-25.7431,56.5336],[32.5699,-25.7303,54.5477],[32.5628,-25.7228,56.1467],[32.5603,-25.7169,56.0459],[32.5651,-25.6991,53.2016],[32.5193,-25.6865,52.7095],[32.4847,-25.7183,47.8849],[32.4733,-25.7495,45.3568],[32.494,-25.7496,38.5484],[32.4984,-25.7464,44.3523],[32.5008,-25.7372,45.0488],[32.5081,-25.7345,47.855],[32.514,-25.7362,49.1964],[32.5156,-25.7503,47.2095],[32.5139,-25.7618,49.3029],[32.515,-25.7688,48.0406],[32.529,-25.7868,53.5285],[32.528,-25.7919,55.119],[32.5248,-25.7945,53.6981],[32.5236,-25.8041,52.76],[32.5172,-25.8135,51.5578],[32.5202,-25.8201,49.5759],[32.5016,-25.8332,45.3913],[32.5092,-25.837,47.1927],[32.5094,-25.8657,43.0904],[32.5219,-25.8729,36.5791],[32.5171,-25.8929,27.2055],[32.5193,-25.9021,16.684],[32.5186,-25.9109,16.0819],[32.5232,-25.9152,11.3091],[32.5157,-25.9219,9.8146],[32.5157,-25.925,3.2544],[32.5186,-25.9259,3.5687],[32.5173,-25.9281,2.5881],[32.5091,-25.9253,10.9074],[32.491,-25.9332,17.672],[32.4896,-25.9132,29.8183],[32.4777,-25.9065,30.7249],[32.4825,-25.9055,32.5508],[32.466,-25.896,32.0175],[32.4563,-25.8958,28.491],[32.4141,-25.8722,8.381]]]]}}