{"type":"Feature","properties":{"GID_3":"MOZ.2.4.1_1","GID_0":"MOZ","country":"Mozambique","GID_1":"MOZ.2_1","province":"Gaza","NL_NAME_1":"NA","GID_2":"MOZ.2.4_1","county":"Chigubo","NL_NAME_2":"NA","city":"Chigubo","VARNAME_3":"NA","NL_NAME_3":"NA","TYPE_3":"Localidad","ENGTYPE_3":"Locality","CC_3":"NA","HASC_3":"NA","name":"Chigubo.city"},
"geometry":{"type": "MultiPolygon","coordinates": [[[[32.9053,-22.9816,94.0919],[32.9985,-22.965699999999998,88.186],[33.0194,-22.9644,81.2386],[33.2471,-23.0008,68.3825],[33.2135,-23.0433,69.7294],[33.3339,-23.0453,67.6372],[33.3744,-23.032,68.0913],[33.4575,-22.9979,77.0126],[33.4828,-22.9978,76.2668],[33.6665,-23.0658,76.3525],[33.6936,-23.0725,76.4433],[33.7101,-23.0801,72.0778],[33.7431,-23.0868,51.3358],[33.7386,-23.0813,50.7952],[33.7358,-23.0696,51.9836],[33.7131,-23.0314,54.2539],[33.6979,-23.0259,57.7884],[33.6874,-23.0177,55.3987],[33.6913,-23.0016,55.75],[33.6846,-22.9846,60.3111],[33.6838,-22.968,59.5786],[33.6791,-22.959,58.1154],[33.6762,-22.9489,62.4686],[33.6688,-22.9406,58.5149],[33.6612,-22.9354,64.609],[33.6581,-22.9237,63.2501],[33.6483,-22.9168,60.4362],[33.6469,-22.8937,65.3301],[33.6388,-22.8945,65.6909],[33.6155,-22.9016,65.4821],[33.6079,-22.8985,62.7985],[33.6012,-22.8934,62.2452],[33.5774,-22.8636,65.5615],[33.5708,-22.8508,68.943],[33.5636,-22.8428,62.8451],[33.5442,-22.8273,65.176],[33.533,-22.8204,62.3238],[33.5131,-22.8126,62.9379],[33.5019,-22.7997,64.542],[33.498,-22.7812,64.8268],[33.4868,-22.7774,65.592],[33.4901,-22.7612,66.2005],[33.4864,-22.7544,68.7455],[33.4708,-22.7463,65.1839],[33.4599,-22.7355,66.4719],[33.458,-22.7254,68.0049],[33.4537,-22.7149,69.6953],[33.446,-22.7082,68.6504],[33.4247,-22.7018,66.1208],[33.4131,-22.6965,65.6937],[33.3975,-22.6868,65.838],[33.3868,-22.6758,68.0089],[33.3725,-22.6712,67.0721],[33.3642,-22.6643,71.4898],[33.3413,-22.6629,66.9565],[33.322,-22.659,68.4941],[33.3221,-22.6448,70.4044],[33.3141,-22.6319,72.6291],[33.3033,-22.6206,71.9347],[33.2964,-22.6077,73.3523],[33.294,-22.5945,76.1104],[33.2887,-22.5917,74.3931],[33.2822,-22.5824,78.4594],[33.2842,-22.5724,81.6597],[33.2722,-22.5638,77.8512],[33.2744,-22.5494,80.2847],[33.2802,-22.5431,83.6822],[33.2788,-22.5381,79.972],[33.287,-22.528,81.5544],[33.2878,-22.5181,84.741],[33.2946,-22.5038,83.7921],[33.2931,-22.4967,83.3932],[33.2979,-22.4875,89.271],[33.307,-22.4624,90.1477],[33.3117,-22.4414,87.8256],[33.3115,-22.4348,92.0075],[33.3061,-22.4157,89.4718],[33.3084,-22.4075,90.7261],[33.3151,-22.3987,92.8208],[33.3206,-22.3846,95.102],[33.3355,-22.3858,94.5547],[33.3589,-22.3802,97.386],[33.3804,-22.388,103.2637],[33.3862,-22.3864,110.3211],[33.3782,-22.3713,100.2146],[33.3702,-22.3636,97.5913],[33.3666,-22.3541,100.9429],[33.359,-22.3146,104.149],[33.3631,-22.2982,102.5298],[33.3719,-22.2857,105.205],[33.3665,-22.2621,104.1014],[33.3555,-22.2585,104.7923],[33.3475,-22.2519,106.3263],[33.3324,-22.2366,115.1981],[33.3299,-22.2253,108.3022],[33.3412,-22.2011,117.2755],[33.3443,-22.178,112.6269],[33.343,-22.1625,115.6005],[33.3625,-22.151,117.8691],[33.3646,-22.1294,114.57],[33.3581,-22.108,113.7417],[33.3525,-22.1004,114.2226],[33.3426,-22.0946,124.7962],[33.3348,-22.087,115.5907],[33.3296,-22.0559,121.7551],[33.3346,-22.034,119.4458],[33.3488,-22.0012,118.332],[33.3197,-21.9922,119.5262],[33.31,-21.9832,119.2956],[33.2906,-21.9742,118.9993],[33.2824,-21.9792,120.4277],[33.0071,-21.9756,121.9444],[32.9325,-21.9646,128.9787],[32.8627,-21.9789,136.9376],[32.8203,-21.9663,141.7043],[32.8053,-21.9661,145.7171],[32.7401,-22.0052,156.7491],[32.7055,-22.0129,162.0633],[32.6903,-22.0199,163.9603],[32.6316,-22.0568,171.9503],[32.5919,-22.0682,176.6908],[32.6063,-22.1557,160.3735],[32.5926,-22.2785,154.259],[32.6088,-22.3506,142.7339],[32.6103,-22.458,129.3814],[32.6413,-22.4531,127.6584],[32.6623,-22.6192,103.3964],[32.7459,-22.8158,99.3864],[32.9053,-22.9816,94.0919]]]]}}