{"type": "Feature","bbox": [33.6383,-19.2886,34.0543,-18.9001],"geometry": {"type": "MultiPolygon","coordinates": [[[[33.7349,-19.0371,484.0113],[33.7235,-19.0595,509.1853],[33.7184,-19.0653,505.382],[33.7022,-19.0742,515.2327],[33.6818,-19.0884,571.5635],[33.6765,-19.0937,573.6788],[33.6671,-19.0977,600.9645],[33.6633,-19.1031,610.6201],[33.6571,-19.1251,572.676],[33.6473,-19.1382,541.0208],[33.6517,-19.1808,544.6804],[33.6383,-19.2097,468.4572],[33.6385,-19.2208,472.0513],[33.666,-19.2449,392.8676],[33.6684,-19.2557,379.4617],[33.6816,-19.2772,296.4106],[33.7195,-19.2886,213.3098],[33.7192,-19.28,236.0799],[33.7221,-19.2671,246.0881],[33.7256,-19.267,260.8352],[33.7326,-19.2621,267.238],[33.7652,-19.2481,214.3504],[33.7716,-19.2409,236.3362],[33.7876,-19.2136,314.0529],[33.7942,-19.198,364.6516],[33.8275,-19.1609,283.5465],[33.841,-19.1526,295.4474],[33.8625,-19.1327,343.9931],[33.8687,-19.1097,382.8451],[33.8869,-19.1093,332.6593],[33.9082,-19.1048,300.6492],[33.9201,-19.0998,252.6965],[33.9277,-19.0928,228.8376],[33.9481,-19.0965,190.6247],[33.9561,-19.0852,221.567],[33.9719,-19.0932,186.9955],[33.9693,-19.1003,174.5297],[33.9793,-19.0986,164.588],[33.9801,-19.1026,145.8575],[33.9768,-19.1103,141.5978],[33.9882,-19.1136,154.2466],[34.0319,-18.9995,218.773],[34.0444,-18.9632,259.3723],[34.0543,-18.9467,150.2984],[34.0391,-18.9211,213.2628],[34.0282,-18.9209,164.928],[34.0229,-18.917,132.6731],[34.0162,-18.9167,148.3866],[34.0145,-18.9215,145.8142],[34.0104,-18.9257,141.1087],[34.0056,-18.9199,151.5615],[33.9749,-18.9001,167.0127],[33.9673,-18.9179,232.3898],[33.946,-18.9381,228.7762],[33.9423,-18.9467,248.04],[33.9382,-18.9433,246.4232],[33.9272,-18.9448,261.6944],[33.9227,-18.9506,294.4065],[33.9151,-18.9552,262.041],[33.9014,-18.9476,327.6976],[33.8839,-18.9564,341.5454],[33.8591,-18.9653,373.7852],[33.8533,-18.978,372.1981],[33.8221,-18.9895,386.2384],[33.8032,-18.9894,403.7228],[33.7971,-18.9784,397.8731],[33.7803,-18.9786,411.155],[33.7685,-18.9951,452.1902],[33.7675,-19.0005,447.6741],[33.7349,-19.0371,484.0113]]]]}
,"properties": {"GID_3": "MOZ.4.2.1_1","GID_0": "MOZ","country": "Mozambique","GID_1": "MOZ.4_1","province": "Manica","NL_NAME_1": "NA","GID_2": "MOZ.4.2_1","county": "Gondola","NL_NAME_2": "NA","city": "Amatongas","VARNAME_3": "NA","NL_NAME_3": "NA","TYPE_3": "Localidad","ENGTYPE_3": "Locality","CC_3": "NA","HASC_3": "NA","name": "Amatongas.city","area_km2": 814.3675,"hist_schema_id": "Elevation0-9000","hist_area_km2": {"100": 1.2635,"125": 1.4238,"150": 2.847,"175": 6.0936,"200": 10.3425,"225": 21.0842,"250": 38.9546,"275": 59.7238,"300": 74.5103,"325": 77.5635,"350": 75.1467,"375": 75.0651,"400": 80.3568,"425": 77.8707,"450": 66.4619,"475": 43.4124,"500": 32.2909,"525": 27.5648,"550": 20.2535,"575": 13.1022,"600": 6.7315,"625": 2.0836,"650": 0.0601,"675": 0.0802,"700": 0.0601,"725": 0.02}}}