{"type":"Feature","properties":{"GID_2":"MOZ.3.8_1","GID_0":"MOZ","country":"Mozambique","GID_1":"MOZ.3_1","province":"Inhambane","NL_NAME_1":"NA","county":"Massinga","VARNAME_2":"NA","NL_NAME_2":"NA","TYPE_2":"Distrito","ENGTYPE_2":"District","CC_2":"NA","HASC_2":"MZ.IN.MS","name":"Massinga.county"},
"geometry":{"type": "MultiPolygon","coordinates": [[[[35.571,-23.0049,3.7054],[35.5865,-22.981,0.0],[35.5954,-22.9638,0.0],[35.601,-22.9449,4.1054],[35.6007,-22.9357,8.3523],[35.604,-22.9235,0.3242],[35.601,-22.9221,0.0],[35.5996,-22.9246,9.3338],[35.5932,-22.9243,2.9425],[35.5757,-22.9196,3.514],[35.5674,-22.9157,1.6326],[35.5507,-22.8968,0.0],[35.5568,-22.9088,0.8098],[35.5643,-22.9157,0.7774],[35.5701,-22.9243,0.7974],[35.5765,-22.9287,3.1846],[35.5779,-22.936,2.0824],[35.5768,-22.9374,0.0],[35.5729,-22.9312,0.0],[35.5676,-22.9321,1.1962],[35.5526,-22.9246,1.7978],[35.5443,-22.9279,0.0],[35.5418,-22.9343,1.3666],[35.539,-22.9365,1.8435],[35.5412,-22.9268,0.0],[35.5504,-22.9221,1.1983],[35.5479,-22.9215,0.9447],[35.5474,-22.9196,0.5073],[35.5449,-22.9204,1.0288],[35.5449,-22.9171,0.7035],[35.5471,-22.9154,0.4598],[35.5454,-22.9096,1.3005],[35.5429,-22.9068,0.5763],[35.5426,-22.903199999999998,0.0],[35.5446,-22.8993,0.0],[35.5387,-22.8926,1.6488],[35.5393,-22.8882,0.0],[35.5376,-22.8821,0.0],[35.5274,-22.8662,1.769],[35.5282,-22.8626,1.6655],[35.5229,-22.8538,19.6935],[35.5221,-22.8429,0.0],[35.5174,-22.829,0.5294],[35.5176,-22.819,0.4614],[35.5157,-22.8068,0.0],[35.5132,-22.8062,0.7784],[35.516,-22.8121,0.0],[35.5149,-22.814,0.0],[35.5121,-22.8065,0.9249],[35.5137,-22.8029,0.0],[35.5124,-22.8004,0.2899],[35.514,-22.7938,0.0],[35.5129,-22.7896,1.7286],[35.5137,-22.7685,0.0],[35.5115,-22.7607,27.6502],[35.5118,-22.7432,0.0],[35.5151,-22.6912,0.0],[35.5115,-22.6635,2.178],[35.5115,-22.6499,2.8322],[35.5043,-22.6115,0.0],[35.504,-22.6213,0.0],[35.5068,-22.6279,0.0],[35.5079,-22.6504,1.6515],[35.5093,-22.6535,1.6654],[35.5049,-22.6485,1.6627],[35.5051,-22.6457,1.4324],[35.5024,-22.6401,0.6676],[35.5035,-22.6326,0.0],[35.5018,-22.6301,2.1376],[35.5013,-22.6182,0.0],[35.4927,-22.6208,37.0254],[35.4855,-22.6258,37.8284],[35.4705,-22.6451,43.4861],[35.4612,-22.6507,12.9901],[35.4456,-22.6574,51.079],[35.4301,-22.6618,52.4741],[35.4001,-22.6633,48.2094],[35.3592,-22.6942,66.7258],[35.3493,-22.7081,62.1072],[35.3371,-22.7331,57.2465],[35.3325,-22.7667,60.577],[35.3359,-22.788,63.6186],[35.1002,-22.7912,91.029],[34.9989,-22.3584,83.7066],[34.9601,-22.3557,92.0452],[34.9503,-22.3515,94.0066],[34.9378,-22.3568,94.2104],[34.933,-22.3518,93.9922],[34.9237,-22.3465,93.0436],[34.545,-22.3461,153.0221],[34.5246,-22.3304,152.1279],[34.5383,-22.3154,147.5689],[34.5081,-22.2311,153.2435],[34.3939,-22.229,176.8667],[34.3793,-22.2146,182.8474],[34.3687,-22.2109,181.7848],[34.3941,-22.3409,174.5159],[34.501,-22.3481,150.2856],[34.5166,-22.5959,161.5235],[34.4427,-22.6498,134.4017],[34.3732,-22.6745,134.131],[34.3751,-22.6902,132.1657],[34.3812,-22.699,125.6976],[34.3812,-22.7252,130.0336],[34.3835,-22.7375,128.422],[34.3875,-22.7463,125.458],[34.4502,-22.8037,134.0116],[34.4735,-22.8066,140.7167],[34.6054,-22.867,139.1754],[34.773,-22.8654,111.5997],[34.7863,-22.8638,110.7693],[34.8661,-22.875,119.3541],[34.8645,-22.9873,110.3079],[34.8859,-22.9988,108.7189],[34.9523,-23.0562,144.9302],[35.0068,-23.0628,124.447],[35.036,-23.0998,115.9874],[35.0536,-23.1269,118.0736],[35.0633,-23.1451,119.3953],[35.0681,-23.1637,105.231],[35.0754,-23.1733,105.6154],[35.0934,-23.1825,107.5078],[35.0945,-23.1875,107.1757],[35.0837,-23.23,115.5643],[35.0899,-23.2391,112.8617],[35.0976,-23.2447,110.8388],[35.1102,-23.2928,95.9361],[35.1145,-23.2997,99.1644],[35.114,-23.3048,97.5822],[35.0751,-23.3405,99.0245],[35.0242,-23.4474,125.8275],[35.0506,-23.4498,132.1419],[35.072,-23.4608,124.6767],[35.0974,-23.4624,124.9522],[35.1062,-23.4678,130.5329],[35.1149,-23.4798,144.4701],[35.1231,-23.4763,140.5891],[35.1291,-23.4488,117.107],[35.1336,-23.4458,119.8309],[35.1314,-23.4303,118.1507],[35.1136,-23.3944,104.5376],[35.1032,-23.3844,107.315],[35.0968,-23.3749,111.9658],[35.1393,-23.3214,102.2533],[35.1614,-23.3117,96.3453],[35.1619,-23.2995,103.5695],[35.1782,-23.3033,100.4512],[35.2577,-23.4073,115.0044],[35.2638,-23.4216,105.2342],[35.2735,-23.4372,107.6389],[35.3343,-23.4568,135.3834],[35.3442,-23.4586,102.5457],[35.3436,-23.4821,81.1708],[35.3768,-23.4813,73.2524],[35.3879,-23.4841,48.4995],[35.4147,-23.4855,95.7849],[35.4217,-23.4839,10.2505],[35.4267,-23.4796,10.4701],[35.4332,-23.4791,12.7218],[35.4382,-23.471,0.0],[35.4437,-23.4557,0.0],[35.4443,-23.4496,0.0],[35.4485,-23.4376,0.0],[35.4479,-23.4296,0.0],[35.4512,-23.4207,5.1489],[35.4515,-23.4154,9.5809],[35.4629,-23.389,0.0],[35.4715,-23.3626,2.5095],[35.4851,-23.3374,0.0],[35.4882,-23.3268,19.3357],[35.4882,-23.3196,15.0828],[35.4932,-23.3024,0.0],[35.4949,-23.2757,8.4125],[35.4926,-23.2732,32.0869],[35.496,-23.2493,8.6814],[35.4949,-23.2446,14.7599],[35.4957,-23.2368,0.0],[35.4907,-23.2304,6.0705],[35.4879,-23.221,7.7448],[35.4888,-23.2132,11.7711],[35.4851,-23.1768,4.1714],[35.4932,-23.1582,0.0],[35.4963,-23.1457,10.0844],[35.4976,-23.1451,0.0],[35.4965,-23.1421,14.4994],[35.5021,-23.1257,0.0],[35.5043,-23.1138,12.3312],[35.5174,-23.0832,10.0605],[35.5346,-23.0607,0.0],[35.5387,-23.0518,4.9877],[35.571,-23.0049,3.7054]]]]}}