{"type":"Feature","properties":{"GID_2":"MOZ.3.12_1","GID_0":"MOZ","country":"Mozambique","GID_1":"MOZ.3_1","province":"Inhambane","NL_NAME_1":"NA","county":"Zavala","VARNAME_2":"NA","NL_NAME_2":"NA","TYPE_2":"Distrito","ENGTYPE_2":"District","CC_2":"NA","HASC_2":"MZ.IN.ZA","name":"Zavala.county"},
"geometry":{"type": "MultiPolygon","coordinates": [[[[34.3015,-24.7071,27.6245],[34.3021,-24.7931,77.1626],[34.4361,-24.8065,75.9224],[34.4738,-24.8626,8.7577],[34.4899,-24.8596,0.0],[34.5107,-24.8532,0.0],[34.516,-24.8479,6.6208],[34.5343,-24.8421,0.0],[34.5376,-24.8382,6.9923],[34.549,-24.8335,6.4187],[34.6393,-24.8049,1.6664],[34.7201,-24.7812,3.8594],[34.7835,-24.7596,0.0],[34.7968,-24.7535,2.9826],[34.8104,-24.7499,0.0],[34.8596,-24.7265,0.0],[34.8885,-24.7151,0.0],[34.9176,-24.7001,5.4497],[34.9318,-24.696,0.0],[34.9424,-24.6904,8.6112],[34.9607,-24.6849,0.0],[35.0026,-24.6676,3.218],[35.0435,-24.6474,0.0],[35.0563,-24.639,9.8418],[35.0651,-24.636,0.0],[35.0788,-24.6257,16.4662],[35.0918,-24.6204,0.0],[35.0954,-24.6165,2.6723],[35.1049,-24.6112,10.5646],[35.0934,-24.5848,0.5],[35.1021,-24.5727,0.5],[35.1048,-24.5646,0.5],[35.09,-24.5501,0.5],[35.032,-24.5013,0.5],[35.0168,-24.4916,0.5],[35.0004,-24.4938,0.5],[34.9685,-24.4871,0.5],[34.9063,-24.495,0.5],[34.8703,-24.503,0.5],[34.8184,-24.5221,0.5],[34.8066,-24.5281,0.5],[34.7932,-24.5423,0.5],[34.7781,-24.5463,0.5],[34.7614,-24.5416,0.5],[34.7309,-24.5503,6.5013],[34.6907,-24.5583,0.5],[34.6818,-24.563,0.5],[34.6785,-24.5797,0.8967],[34.6673,-24.5896,0.5],[34.6525,-24.5887,0.5],[34.6394,-24.5767,0.5],[34.6385,-24.5666,0.5],[34.6428,-24.5511,0.5],[34.6085,-24.5391,0.5],[34.5999,-24.5117,0.5],[34.5938,-24.5004,0.5],[34.5854,-24.4955,0.5],[34.5465,-24.4918,19.5553],[34.5361,-24.4961,38.303],[34.5271,-24.5032,32.716],[34.5158,-24.5081,6.4966],[34.4983,-24.5083,38.9545],[34.4782,-24.506,0.5],[34.459,-24.49,0.5],[34.4534,-24.4813,0.5],[34.4285,-24.4555,1.8088],[34.3541,-24.5273,51.5274],[34.4551,-24.636,34.9185],[34.3015,-24.7071,27.6245]]]]}}