{"type": "Feature","bbox": [35.1253,-12.6333,36.0855,-11.9457],"geometry": {"type": "MultiPolygon","coordinates": [[[[35.1748,-12.303,677.6036],[35.1655,-12.3368,688.03],[35.1654,-12.3424,686.4977],[35.1427,-12.3944,693.3511],[35.1499,-12.4498,743.4419],[35.1575,-12.4541,840.7697],[35.1654,-12.4647,795.9504],[35.1802,-12.4904,836.7572],[35.1928,-12.4921,853.7026],[35.1935,-12.4943,866.0555],[35.1917,-12.5072,862.9401],[35.1859,-12.516,875.8065],[35.1916,-12.5357,889.0538],[35.1811,-12.5574,935.3167],[35.2046,-12.5863,965.2493],[35.2055,-12.6078,1047.8043],[35.2093,-12.6312,1104.7488],[35.2249,-12.6333,1222.041],[35.2364,-12.6168,1197.0852],[35.2395,-12.6019,1327.5472],[35.2518,-12.581,1614.167],[35.3167,-12.6049,1140.1625],[35.3352,-12.6078,1033.528],[35.3414,-12.572,996.0978],[35.363,-12.5482,971.7164],[35.3722,-12.5447,959.9495],[35.3877,-12.5571,951.024],[35.4093,-12.5571,936.5569],[35.4309,-12.5691,974.0189],[35.4463,-12.5691,906.4196],[35.4565,-12.5749,918.5457],[35.4834,-12.572,930.341],[35.4958,-12.5571,904.6991],[35.4958,-12.5422,891.1456],[35.4988,-12.5303,882.085],[35.5328,-12.5303,876.8182],[35.5766,-12.5134,841.0592],[35.5826,-12.5042,850.2412],[35.5864,-12.494,841.7218],[35.601,-12.4791,828.7369],[35.6193,-12.4468,830.3303],[35.647,-12.408,802.7977],[35.6451,-12.4034,791.4901],[35.6445,-12.3836,762.853],[35.6535,-12.357,747.4103],[35.6752,-12.3493,741.0847],[35.6885,-12.3399,742.8523],[35.7119,-12.3305,741.7871],[35.7332,-12.3248,810.4261],[35.7644,-12.2977,732.0764],[35.7712,-12.2808,724.9434],[35.7762,-12.2753,744.2045],[35.7957,-12.2752,728.1744],[35.8049,-12.2839,740.7181],[35.8292,-12.2917,710.0563],[35.8366,-12.2869,689.08],[35.8468,-12.269,688.3049],[35.8516,-12.2441,678.6884],[35.8628,-12.2357,659.741],[35.8727,-12.2326,651.0518],[35.8941,-12.2348,661.2458],[35.9075,-12.2304,626.9518],[35.9136,-12.2125,601.2247],[35.9319,-12.1946,628.3077],[35.9441,-12.1917,627.8034],[35.9624,-12.1827,599.1808],[35.9746,-12.1708,615.1931],[35.9868,-12.1499,605.9221],[36.002,-12.1052,572.0175],[36.0173,-12.0783,570.8165],[36.0356,-12.0545,562.2556],[36.0387,-12.0395,556.3311],[36.0692,-12.0217,547.8461],[36.0844,-12.0097,549.9861],[36.0855,-11.9964,547.0721],[36.067,-12.0084,575.7219],[36.0423,-12.0084,638.3204],[36.0176,-12.0054,605.8985],[35.9723,-12.0032,681.5655],[35.9529,-11.9911,723.4149],[35.9002,-11.9964,701.2857],[35.749,-11.9964,739.4746],[35.7243,-12.0203,726.0494],[35.715,-12.0322,772.0162],[35.681,-12.0352,743.769],[35.664,-12.0235,717.7603],[35.5913,-12.0158,688.803],[35.4803,-11.9935,701.6592],[35.3506,-11.9875,723.8055],[35.3033,-11.9785,692.2028],[35.2817,-11.9785,651.0691],[35.2454,-11.9856,650.3871],[35.2271,-11.9875,649.2543],[35.224,-11.9785,643.1277],[35.2148,-11.9696,636.4518],[35.2008,-11.9777,639.5507],[35.1777,-11.9865,648.8836],[35.1777,-11.9726,642.615],[35.1628,-11.9605,656.3953],[35.1314,-11.9457,642.989],[35.1253,-11.9634,635.5876],[35.1371,-11.9978,628.4974],[35.1516,-12.0272,634.2231],[35.1554,-12.0412,633.5752],[35.1554,-12.0534,636.1182],[35.1724,-12.0739,638.681],[35.1857,-12.0726,641.7004],[35.1968,-12.0775,644.9412],[35.2028,-12.0852,645.1303],[35.2083,-12.1029,645.5346],[35.1934,-12.1222,653.1952],[35.1902,-12.1303,650.6455],[35.1832,-12.1363,651.8337],[35.1703,-12.1422,651.5443],[35.166,-12.1482,664.0247],[35.1604,-12.1682,661.7315],[35.1621,-12.1739,660.599],[35.1826,-12.1924,658.9963],[35.1827,-12.2191,664.9752],[35.1854,-12.2259,674.2875],[35.1901,-12.2529,670.2646],[35.1951,-12.2587,674.5178],[35.1916,-12.2736,677.4841],[35.1748,-12.303,677.6036]]]]}
,"properties": {"GID_3": "MOZ.8.15.2_1","GID_0": "MOZ","country": "Mozambique","GID_1": "MOZ.8_1","province": "Nassa","NL_NAME_1": "NA","GID_2": "MOZ.8.15_1","county": "Sanga","NL_NAME_2": "NA","city": "Macaloge","VARNAME_3": "NA","NL_NAME_3": "NA","TYPE_3": "Localidad","ENGTYPE_3": "Locality","CC_3": "NA","HASC_3": "NA","name": "Macaloge.city","area_km2": 4385.439,"hist_schema_id": "Elevation0-9000","hist_area_km2": {"525": 0.145,"550": 7.196,"575": 35.62,"600": 61.156,"625": 71.962,"650": 167.613,"675": 280.849,"700": 386.818,"725": 372.543,"750": 294.185,"775": 293.19,"800": 273.958,"825": 268.704,"850": 263.531,"875": 268.108,"900": 270.097,"925": 206.297,"950": 159.005,"975": 121.228,"1000": 107.514,"1025": 98.772,"1050": 78.042,"1075": 58.724,"1100": 46.921,"1125": 36.859,"1150": 26.461,"1175": 20.601,"1200": 18.281,"1225": 15.899,"1250": 15.381,"1275": 12.358,"1300": 10.557,"1325": 8.218,"1350": 6.561,"1375": 4.885,"1400": 3.022,"1425": 2.484,"1450": 1.946,"1475": 2.07,"1500": 1.573,"1525": 1.346,"1550": 1.056,"1575": 0.787,"1600": 0.704,"1625": 0.621,"1650": 0.269,"1675": 0.331,"1700": 0.373,"1725": 0.207,"1750": 0.331,"1775": 0.083}}}