{"type": "Feature","bbox": [36.1159,-14.1759,37.7504,-13.4279],"geometry": {"type": "MultiPolygon","coordinates": [[[[36.5903,-13.7721,730.375],[36.5858,-13.7813,719.8423],[36.5628,-13.7925,693.0715],[36.5235,-13.7922,664.9417],[36.5119,-13.7903,658.7402],[36.4709,-13.7911,663.4316],[36.4593,-13.7901,643.3988],[36.4412,-13.7859,643.0015],[36.4322,-13.7871,632.7255],[36.4243,-13.7904,651.0261],[36.3939,-13.827,681.0784],[36.3939,-13.8402,673.528],[36.2925,-13.876,683.9963],[36.1359,-13.9535,685.5367],[36.1175,-13.9684,629.8228],[36.1159,-13.9677,636.5815],[36.1176,-13.9688,629.8228],[36.116,-13.9745,622.2252],[36.1183,-13.9805,633.5568],[36.1272,-13.9841,634.3094],[36.1351,-13.99,631.5269],[36.1256,-14.0118,627.2421],[36.1392,-14.0254,631.7236],[36.141,-14.0295,627.5377],[36.1528,-14.0322,630.4686],[36.1565,-14.0376,632.5067],[36.1572,-14.0507,633.0388],[36.1641,-14.0693,632.2681],[36.1698,-14.0789,635.6392],[36.181,-14.0888,636.4335],[36.181,-14.0954,635.7424],[36.1892,-14.0959,646.316],[36.2001,-14.0888,644.5582],[36.2077,-14.0873,648.3552],[36.2187,-14.0921,652.4263],[36.2345,-14.0909,665.8159],[36.2418,-14.0939,662.0034],[36.2553,-14.0918,666.87],[36.2645,-14.0879,674.1652],[36.2745,-14.0908,676.2465],[36.2972,-14.1023,706.1843],[36.3042,-14.1079,718.7203],[36.3157,-14.1119,743.0874],[36.3432,-14.1173,756.5167],[36.353,-14.1158,743.8606],[36.3686,-14.1002,722.8483],[36.3731,-14.0847,710.3374],[36.3797,-14.0759,708.1646],[36.38,-14.0625,690.2619],[36.3828,-14.0535,686.0563],[36.4048,-14.0167,663.4377],[36.5042,-14.0292,752.9216],[36.5219,-14.043,706.6543],[36.5281,-14.0442,700.6205],[36.5313,-14.0469,697.1544],[36.5332,-14.0593,686.069],[36.5382,-14.0731,677.1393],[36.5584,-14.0835,665.0349],[36.5731,-14.0842,655.489],[36.5947,-14.0762,646.9269],[36.6126,-14.0755,651.0952],[36.626,-14.0713,638.8544],[36.6522,-14.0742,627.707],[36.6655,-14.079,624.3135],[36.674,-14.0782,622.7706],[36.6807,-14.0738,625.4041],[36.697,-14.0709,617.726],[36.7031,-14.0757,615.7101],[36.722,-14.0799,609.053],[36.743899999999996,-14.0788,605.1596],[36.7532,-14.0844,603.9443],[36.7648,-14.0849,603.2994],[36.7804,-14.0826,590.9631],[36.785,-14.0842,592.0405],[36.7911,-14.0995,589.3814],[36.8013,-14.1136,585.2217],[36.8166,-14.1156,585.0933],[36.8262,-14.1222,580.5659],[36.828,-14.1334,576.0355],[36.8326,-14.1363,575.7275],[36.8358,-14.1428,577.3419],[36.8409,-14.1477,573.5908],[36.8527,-14.148,572.6817],[36.8561,-14.1512,575.3392],[36.8692,-14.1502,568.7753],[36.8767,-14.1594,565.3511],[36.8852,-14.1647,566.517],[36.8932,-14.1729,553.862],[36.9013,-14.1759,560.8584],[36.9135,-14.1735,551.9244],[36.9198,-14.17,553.7883],[36.9281,-14.1743,556.4948],[36.9397,-14.1693,545.2231],[36.9488,-14.1631,544.8427],[36.9597,-14.1629,545.5683],[36.9629,-14.1644,551.7882],[37.031,-14.0868,614.396],[37.0681,-14.0403,595.6161],[37.1107,-13.9526,703.4966],[37.147,-13.951599999999999,603.2355],[37.2526,-13.8824,580.8875],[37.296,-13.9048,537.8203],[37.3144,-13.8831,561.902],[37.3528,-13.8538,650.8179],[37.3882,-13.8549,581.3112],[37.4287,-13.8841,549.8804],[37.4579,-13.9119,538.2073],[37.4651,-13.8903,547.7736],[37.4603,-13.8815,549.6442],[37.4553,-13.8457,566.5093],[37.4487,-13.8425,578.8437],[37.442,-13.8332,592.4409],[37.4355,-13.8139,606.2836],[37.4412,-13.7661,622.8974],[37.4649,-13.7615,600.5706],[37.4744,-13.7624,588.6044],[37.4873,-13.7689,576.6439],[37.4934,-13.7787,563.7139],[37.5223,-13.807,548.0083],[37.533,-13.8146,537.5233],[37.5522,-13.8323,547.3528],[37.5659,-13.8406,529.1873],[37.5927,-13.8344,522.7383],[37.6182,-13.855,501.6559],[37.6354,-13.858,494.6262],[37.6621,-13.8577,500.2073],[37.6861,-13.8472,481.9559],[37.7169,-13.8407,477.1821],[37.7328,-13.8405,475.6823],[37.7427,-13.8161,487.1895],[37.7503,-13.8135,499.6301],[37.7504,-13.8092,510.7023],[37.7389,-13.7891,510.2575],[37.7328,-13.7682,502.0042],[37.7144,-13.7533,515.4834],[37.7052,-13.7503,498.1282],[37.7029,-13.7408,508.7392],[37.7029,-13.7304,500.1839],[37.6989,-13.7197,516.582],[37.6863,-13.7042,510.3313],[37.6395,-13.6771,526.8674],[37.6039,-13.6847,538.8253],[37.5978,-13.6847,535.4448],[37.5763,-13.6698,548.3306],[37.564,-13.6728,555.6235],[37.5549,-13.6549,593.5027],[37.5426,-13.637,579.106],[37.5272,-13.6221,595.6406],[37.5242,-13.6161,615.6134],[37.5395,-13.5982,644.2734],[37.5446,-13.5733,664.6481],[37.5334,-13.5624,702.278],[37.4935,-13.5028,685.2585],[37.3937,-13.4279,724.8353],[37.3889,-13.4312,728.503],[37.3833,-13.429,739.2205],[37.376,-13.4307,736.0723],[37.3111,-13.4551,761.4927],[37.272,-13.4739,782.1749],[37.22,-13.536,782.1418],[37.189,-13.5676,782.0607],[37.1601,-13.577,830.4196],[37.1492,-13.5866,842.6467],[37.1388,-13.5999,827.698],[37.1348,-13.614,823.2237],[37.1281,-13.6238,832.9114],[37.1179,-13.6306,841.9799],[37.0799,-13.6281,897.8594],[37.0187,-13.621,910.1719],[36.9761,-13.6204,733.1013],[36.8807,-13.6917,967.3843],[36.8716,-13.6859,937.4899],[36.87,-13.6568,902.6902],[36.863,-13.6522,881.0536],[36.8607,-13.6469,874.3555],[36.8652,-13.6335,862.0183],[36.8691,-13.5969,833.0502],[36.8662,-13.5922,822.1925],[36.8555,-13.6005,824.5394],[36.8456,-13.5918,819.8704],[36.8349,-13.6024,849.9831],[36.8147,-13.6556,878.2677],[36.8055,-13.6672,865.6027],[36.8029,-13.6835,888.3558],[36.7899,-13.7145,892.3276],[36.7732,-13.7323,915.0621],[36.77,-13.7455,939.6022],[36.6445,-13.7411,983.4135],[36.6396,-13.7366,898.1072],[36.6276,-13.7378,824.623],[36.6035,-13.7623,750.4725],[36.5903,-13.7721,730.375]]]]}
,"properties": {"GID_3": "MOZ.8.7.2_1","GID_0": "MOZ","country": "Mozambique","GID_1": "MOZ.8_1","province": "Nassa","NL_NAME_1": "NA","GID_2": "MOZ.8.7_1","county": "Maúa","NL_NAME_2": "NA","city": "Maua","VARNAME_3": "NA","NL_NAME_3": "NA","TYPE_3": "Localidad","ENGTYPE_3": "Locality","CC_3": "NA","HASC_3": "NA","name": "Maua.city","area_km2": 6100.943,"hist_schema_id": "Elevation0-9000","hist_area_km2": {"475": 12.106,"500": 60.27,"525": 88.938,"550": 155.34,"575": 285.051,"600": 395.082,"625": 477.56,"650": 605.031,"675": 651.138,"700": 612.523,"725": 508.685,"750": 409.823,"775": 315.15,"800": 274.384,"825": 273.254,"850": 230.537,"875": 205.824,"900": 173.984,"925": 148.375,"950": 111.838,"975": 61.563,"1000": 30.648,"1025": 8.445,"1050": 2.471,"1075": 1.854,"1100": 0.803,"1125": 0.165,"1150": 0.103}}}