{"type": "Feature","bbox": [34.8049,-17.4706,35.1724,-16.7605],"geometry": {"type": "MultiPolygon","coordinates": [[[[34.9867,-16.7605,242.9393],[34.9758,-16.7746,214.2459],[34.9686,-16.7808,208.13],[34.955,-16.7866,194.3002],[34.9429,-16.8002,195.3192],[34.923,-16.8075,173.1114],[34.9095,-16.8238,153.8197],[34.9032,-16.8414,140.6397],[34.9012,-16.866,119.8719],[34.8841,-16.8784,107.8947],[34.8497,-16.9097,79.3742],[34.839,-16.9107,78.268],[34.8296,-16.9188,66.628],[34.8274,-16.9219,64.7153],[34.8324,-16.9295,64.5375],[34.828,-16.9353,63.3126],[34.8049,-16.9559,63.746],[34.8187,-16.9762,61.5],[34.8262,-16.9968,61.6847],[34.8377,-17.0105,61.0409],[34.8648,-17.0299,59.815],[34.8886,-17.0684,58.4836],[34.8948,-17.0872,55.5],[34.9036,-17.1064,57.4486],[34.9156,-17.1546,53.6139],[34.9217,-17.1717,54.2158],[34.9581,-17.2391,48.5],[34.9545,-17.2475,49.372],[34.9598,-17.2592,47.5],[34.9711,-17.2671,47.941],[34.9757,-17.2821,46.5],[34.9783,-17.3136,46.8068],[34.9995,-17.352,45.0],[35.0084,-17.3523,45.6094],[35.0149,-17.355,44.9131],[35.0214,-17.3633,45.8692],[35.0568,-17.4354,41.0],[35.0631,-17.4543,40.7126],[35.0711,-17.4706,40.78],[35.0851,-17.4634,39.5],[35.0904,-17.4518,41.6321],[35.0881,-17.4403,39.2444],[35.0988,-17.4188,38.6189],[35.1355,-17.3895,36.9611],[35.1468,-17.3766,36.4283],[35.0814,-17.1953,439.165],[35.0391,-17.1145,332.2722],[35.0481,-17.1093,344.2012],[35.0559,-17.1077,353.2719],[35.0701,-17.1085,403.9363],[35.0804,-17.1057,456.861],[35.0796,-17.1048,456.861],[35.085,-17.1022,469.4035],[35.0854,-17.0986,476.3463],[35.0906,-17.090699999999998,499.8517],[35.0927,-17.0913,510.97],[35.1031,-17.0865,636.7168],[35.0995,-17.0836,551.1458],[35.0986,-17.0797,532.278],[35.0858,-17.0751,486.41],[35.0828,-17.0703,488.3289],[35.0825,-17.0656,500.8893],[35.0854,-17.0632,521.3694],[35.0845,-17.0617,521.6422],[35.0766,-17.0643,496.283],[35.0743,-17.0604,504.9033],[35.0716,-17.0594,497.4596],[35.0631,-17.0509,462.874],[35.0591,-17.0381,412.7935],[35.0632,-17.0211,390.9758],[35.0621,-17.018,379.5754],[35.0569,-17.0163,415.9471],[35.0585,-17.0123,406.7997],[35.052,-17.0083,418.7614],[35.0549,-17.0078,424.7035],[35.0555,-17.0044,432.806],[35.0591,-17.003,439.6778],[35.0589,-17.0002,490.5213],[35.0633,-16.9921,509.3785],[35.0709,-16.9918,441.6905],[35.0831,-16.9836,531.9537],[35.0951,-16.9848,672.338],[35.0989,-16.9805,592.1856],[35.1099,-16.9747,603.0261],[35.1254,-16.9737,704.6229],[35.1363,-16.9681,675.9695],[35.1389,-16.9632,625.1166],[35.143,-16.9599,681.2197],[35.142,-16.9572,579.2339],[35.1501,-16.9409,547.4746],[35.1558,-16.9388,693.345],[35.1632,-16.9418,761.4835],[35.166,-16.9385,831.7248],[35.1697,-16.938,866.5151],[35.1724,-16.9344,827.9922],[35.1681,-16.931,747.803],[35.1674,-16.9185,696.7014],[35.1527,-16.8865,564.5542],[35.1532,-16.8775,562.4675],[35.1502,-16.8748,547.6197],[35.1515,-16.8675,546.5402],[35.1568,-16.8601,592.1589],[35.1607,-16.8598,586.6345],[35.1616,-16.8583,583.0337],[35.1596,-16.8406,548.8263],[35.156,-16.8319,494.9184],[35.1471,-16.8258,446.9461],[35.134,-16.8233,621.045],[35.1156,-16.8149,318.7969],[35.1089,-16.8145,318.6859],[35.0991,-16.8174,284.8293],[35.0959,-16.8211,284.3073],[35.0943,-16.82,272.3499],[35.0917,-16.8211,269.6456],[35.0905,-16.8182,266.1942],[35.0724,-16.8186,259.8946],[35.0679,-16.8255,257.9242],[35.0644,-16.8276,240.6393],[35.0393,-16.8229,242.6586],[35.0338,-16.8184,239.7679],[35.0265,-16.8047,254.4782],[35.0035,-16.7957,243.4955],[35.0027,-16.7917,239.2852],[34.9955,-16.7902,226.2756],[34.9919,-16.7806,251.9564],[34.9937,-16.7694,249.2009],[34.9896,-16.7677,240.7976],[34.9895,-16.765,240.4362],[34.9864,-16.7629,241.3562],[34.9867,-16.7605,242.9393]]]]}
,"properties": {"GID_3": "MOZ.10.10.4_1","GID_0": "MOZ","country": "Mozambique","GID_1": "MOZ.10_1","province": "Tete","NL_NAME_1": "NA","GID_2": "MOZ.10.10_1","county": "Mutarara","NL_NAME_2": "NA","city": "Nhamayabue","VARNAME_3": "NA","NL_NAME_3": "NA","TYPE_3": "Localidad","ENGTYPE_3": "Locality","CC_3": "NA","HASC_3": "NA","name": "Nhamayabue.city","area_km2": 1410.696,"hist_schema_id": "Elevation0-9000","hist_area_km2": {"25": 6.151,"50": 224.283,"75": 126.723,"100": 65.493,"125": 73.27,"150": 83.208,"175": 101.076,"200": 127.685,"225": 118.018,"250": 95.172,"275": 74.887,"300": 58.422,"325": 44.277,"350": 37.747,"375": 31.868,"400": 26.274,"425": 24.268,"450": 20.521,"475": 19.894,"500": 18.476,"525": 13.063,"550": 8.682,"575": 3.976,"600": 1.967,"625": 1.562,"650": 1.055,"675": 0.73,"700": 0.75,"725": 0.467,"750": 0.325,"775": 0.122,"800": 0.061,"825": 0.061,"850": 0.101,"875": 0.02,"900": 0.02,"925": 0.02}}}