{"type":"Feature","properties":{"GID_3":"MOZ.2.8.3_1","GID_0":"MOZ","country":"Mozambique","GID_1":"MOZ.2_1","province":"Gaza","NL_NAME_1":"NA","GID_2":"MOZ.2.8_1","county":"Mandlakazi","NL_NAME_2":"NA","city":"Chidenguele","VARNAME_3":"NA","NL_NAME_3":"NA","TYPE_3":"Localidad","ENGTYPE_3":"Locality","CC_3":"NA","HASC_3":"NA","name":"Chidenguele.city"},
"geometry":{"type": "MultiPolygon","coordinates": [[[[34.084,-24.7644,35.5352],[34.0686,-24.7708,40.9238],[34.0586,-24.767,48.085],[34.053,-24.7665,50.1256],[34.0474,-24.7693,44.0653],[34.0412,-24.7682,44.3002],[34.0308,-24.7727,45.8698],[34.0285,-24.782,41.4844],[34.0305,-24.7864,52.2819],[34.0291,-24.797,54.3168],[34.0103,-24.8215,77.4951],[34.0247,-24.8382,69.5121],[34.0382,-24.8473,64.1522],[34.0425,-24.8554,63.7216],[34.0469,-24.8695,78.3255],[34.0521,-24.8751,84.6342],[34.1104,-24.8744,84.4835],[34.1092,-24.9904,15.6721],[34.1368,-24.9815,1.1166],[34.1607,-24.9704,12.5444],[34.1676,-24.9696,0.0],[34.1746,-24.9651,6.1677],[34.1774,-24.9654,2.4524],[34.2074,-24.9524,5.6814],[34.2415,-24.9401,9.9109],[34.2649,-24.9376,7.1017],[34.304,-24.9276,0.0],[34.3088,-24.9249,3.2641],[34.3396,-24.916,3.0599],[34.3618,-24.906,12.301],[34.3757,-24.9026,0.0],[34.3899,-24.8918,8.7918],[34.4168,-24.8826,6.1221],[34.4265,-24.8768,1.507],[34.4493,-24.8707,6.4582],[34.4629,-24.8643,10.2629],[34.4736,-24.8626,8.7577],[34.4361,-24.8065,75.9224],[34.3021,-24.7931,77.1626],[34.3017,-24.7429,24.5],[34.2854,-24.7423,24.5],[34.2738,-24.7369,24.7699],[34.2596,-24.7274,24.5],[34.2504,-24.7246,24.5],[34.2425,-24.7237,24.8079],[34.2246,-24.7269,24.5],[34.2177,-24.73,24.8027],[34.203,-24.7406,24.5],[34.1933,-24.7425,24.5],[34.1771,-24.7414,24.7652],[34.1503,-24.7442,26.0194],[34.1282,-24.7434,25.9372],[34.1077,-24.7518,26.3511],[34.084,-24.7644,35.5352]]]]}}