{"type": "Feature","bbox": [37.3937,-13.8971,38.2186,-13.1125],"geometry": {"type": "MultiPolygon","coordinates": [[[[38.2183,-13.1449,430.8487],[38.2153,-13.1336,429.2211],[38.2169,-13.1276,427.8154],[38.2123,-13.1132,423.1614],[38.1816,-13.1125,432.732],[38.1711,-13.1151,443.384],[38.1439,-13.1327,443.9863],[38.1346,-13.1359,460.1478],[38.1346,-13.1419,436.3574],[38.0855,-13.1777,467.8375],[38.0456,-13.1807,479.6677],[38.0303,-13.2075,497.4033],[38.0202,-13.2216,482.4705],[38.0058,-13.2374,505.2901],[37.9812,-13.2552,502.2866],[37.9598,-13.2761,506.7079],[37.9137,-13.2761,531.7196],[37.8698,-13.259,508.0811],[37.8524,-13.2731,533.4339],[37.834,-13.2702,565.7313],[37.8248,-13.2642,524.3977],[37.7861,-13.2858,571.8549],[37.788,-13.291,588.1495],[37.742,-13.3328,706.0187],[37.7174,-13.3268,549.0051],[37.7052,-13.3358,557.3713],[37.6776,-13.3388,590.4443],[37.6292,-13.327,656.9614],[37.6261,-13.3277,635.0515],[37.5947,-13.3388,630.0468],[37.5537,-13.3558,677.7246],[37.532,-13.3981,707.6941],[37.4966,-13.3954,686.6516],[37.4628,-13.4223,747.4238],[37.4215,-13.4173,741.3692],[37.406,-13.4195,739.6716],[37.3937,-13.4279,724.8353],[37.4935,-13.5028,685.2585],[37.5334,-13.5624,702.278],[37.5446,-13.5733,664.6481],[37.5395,-13.5982,644.2734],[37.5242,-13.6161,615.6134],[37.5272,-13.6221,595.6406],[37.5426,-13.637,579.106],[37.5549,-13.6549,593.5027],[37.564,-13.6728,555.6235],[37.5763,-13.6698,548.3306],[37.5978,-13.6847,535.4448],[37.6039,-13.6847,538.8253],[37.6395,-13.6771,526.8674],[37.6863,-13.7042,510.3313],[37.6927,-13.7114,505.384],[37.6989,-13.7197,516.582],[37.7029,-13.7304,500.1839],[37.7029,-13.7408,508.7392],[37.7052,-13.7503,498.1282],[37.7144,-13.7533,515.4834],[37.7328,-13.7682,502.0042],[37.7389,-13.7891,510.2575],[37.7504,-13.8092,510.7023],[37.7503,-13.8135,499.6301],[37.7427,-13.8161,487.1895],[37.7328,-13.8405,475.6823],[37.747,-13.8595,485.2723],[37.7549,-13.8519,465.0192],[37.76,-13.852,487.8873],[37.7748,-13.859,466.4391],[37.7941,-13.8577,462.4728],[37.8102,-13.8499,460.8753],[37.8177,-13.8548,461.2616],[37.8373,-13.8579,459.2672],[37.847,-13.8741,456.5837],[37.8537,-13.8811,447.3771],[37.8663,-13.8766,475.1923],[37.8928,-13.889,445.2922],[37.9206,-13.8971,424.1907],[37.92,-13.8908,455.7513],[37.9233,-13.8651,469.1709],[37.9119,-13.8563,441.3757],[37.9095,-13.8497,448.6929],[37.9008,-13.8363,455.7338],[37.9006,-13.7948,474.0832],[37.898,-13.7879,456.909],[37.887,-13.771,463.8997],[37.8836,-13.7595,478.7025],[37.8835,-13.755,473.1934],[37.9045,-13.7116,500.6805],[37.9137,-13.6817,502.7463],[37.9137,-13.6579,534.3973],[37.9475,-13.628,534.9196],[37.9567,-13.6102,520.5955],[37.972,-13.5893,568.2626],[38.0045,-13.536,566.2447],[38.0643,-13.5022,619.2236],[38.0452,-13.4371,549.1439],[38.0402,-13.4154,516.1572],[38.0412,-13.4073,512.6891],[38.047,-13.4001,514.1075],[38.0615,-13.3875,507.1431],[38.1086,-13.3548,499.9503],[38.1274,-13.3527,496.6605],[38.1404,-13.348,489.4159],[38.1469,-13.3417,480.9795],[38.1561,-13.3238,477.6673],[38.1737,-13.3108,469.9658],[38.1784,-13.3052,470.8257],[38.1837,-13.291,485.3811],[38.1806,-13.2761,470.902],[38.2021,-13.2224,448.3513],[38.2002,-13.2206,446.496],[38.1999,-13.215,446.1395],[38.2064,-13.185,436.7142],[38.2186,-13.1694,434.258],[38.2183,-13.1449,430.8487]]]]}
,"properties": {"GID_3": "MOZ.8.6.3_1","GID_0": "MOZ","country": "Mozambique","GID_1": "MOZ.8_1","province": "Nassa","NL_NAME_1": "NA","GID_2": "MOZ.8.6_1","county": "Marrupa","NL_NAME_2": "NA","city": "Nungo","VARNAME_3": "NA","NL_NAME_3": "NA","TYPE_3": "Localidad","ENGTYPE_3": "Locality","CC_3": "NA","HASC_3": "NA","name": "Nungo.city","area_km2": 3100.942,"hist_schema_id": "Elevation0-9000","hist_area_km2": {"425": 16.429,"450": 80.694,"475": 168.531,"500": 344.262,"525": 495.885,"550": 547.89,"575": 427.624,"600": 276.256,"625": 211.733,"650": 171.678,"675": 131.653,"700": 79.358,"725": 55.668,"750": 39.114,"775": 22.702,"800": 12.743,"825": 6.969,"850": 4.227,"875": 2.536,"900": 1.938,"925": 1.381,"950": 0.557,"975": 0.412,"1000": 0.247,"1025": 0.206,"1050": 0.062,"1075": 0.103,"1100": 0.062}}}