{"type":"Feature","properties":{"GID_3":"MOZ.1.4.4_1","GID_0":"MOZ","country":"Mozambique","GID_1":"MOZ.1_1","province":"CaboDelgado","NL_NAME_1":"NA","GID_2":"MOZ.1.4_1","county":"Macomia","NL_NAME_2":"NA","city":"Quirimba","VARNAME_3":"NA","NL_NAME_3":"NA","TYPE_3":"Localidad","ENGTYPE_3":"Locality","CC_3":"NA","HASC_3":"NA","name":"Quirimba.city"},
"geometry":{"type": "MultiPolygon","coordinates": [[[[40.6004,-12.4901,0.0],[40.5993,-12.4896,0.0],[40.5993,-12.4932,0.0],[40.6029,-12.4954,7.6823],[40.6012,-12.4979,4.431],[40.6082,-12.4954,0.0],[40.6074,-12.4949,0.0],[40.606,-12.4957,1.1408],[40.6051,-12.4918,0.9576],[40.6004,-12.4901,0.0]]],
[[[40.6074,-12.4679,0.0],[40.6065,-12.4671,0.0],[40.6054,-12.4688,0.0],[40.6076,-12.4693,0.0],[40.6074,-12.4679,0.0]]],
[[[40.5968,-12.4046,4.0222],[40.5901,-12.4065,2.7415],[40.5887,-12.4254,1.2068],[40.5935,-12.4315,3.1387],[40.5935,-12.4388,2.1522],[40.596,-12.4446,0.4394],[40.5951,-12.451,1.6298],[40.5971,-12.4515,1.838],[40.5974,-12.4587,0.0],[40.601,-12.4615,0.0],[40.6099,-12.4626,4.2634],[40.616,-12.4562,3.7212],[40.6176,-12.4512,2.56],[40.6182,-12.4332,4.6582],[40.6162,-12.4285,5.4284],[40.6174,-12.4196,0.8186],[40.5968,-12.4046,4.0222]]],
[[[40.5988,-12.3976,0.2723],[40.5985,-12.3971,0.2723],[40.594,-12.3971,0.0],[40.596,-12.3985,0.0],[40.5988,-12.3976,0.2723]]],
[[[40.6307,-12.4724,0.0],[40.6296,-12.4718,0.0],[40.6315,-12.4765,7.1903],[40.6288,-12.4776,0.0],[40.6279,-12.486,5.6488],[40.6324,-12.4876,4.8264],[40.6343,-12.4812,1.8739],[40.6324,-12.4779,7.1903],[40.6349,-12.4754,5.1287],[40.6349,-12.4726,0.8179],[40.6307,-12.4724,0.0]]],
[[[40.6254,-12.4343,0.0],[40.6229,-12.4343,0.0],[40.6229,-12.436,0.0],[40.6235,-12.436,0.0],[40.6254,-12.4343,0.0]]],
[[[40.6124,-12.371,0.0],[40.6113,-12.3701,0.0],[40.6107,-12.3724,0.0],[40.6132,-12.3735,0.0],[40.6132,-12.3726,0.0],[40.6124,-12.371,0.0]]],
[[[40.6143,-12.3226,0.0],[40.6126,-12.3221,0.0],[40.6207,-12.331,0.0],[40.6201,-12.3282,0.0],[40.6143,-12.3226,0.0]]],
[[[40.5996,-12.326,0.0],[40.594,-12.3315,3.3881],[40.581,-12.3382,0.0],[40.5824,-12.341,2.9346],[40.5812,-12.3454,0.0],[40.5874,-12.3454,2.4538],[40.5935,-12.3507,2.5096],[40.5904,-12.354,0.0],[40.5918,-12.3604,2.0121],[40.589,-12.3588,0.4849],[40.5871,-12.3599,3.1771],[40.5824,-12.3512,0.0],[40.5801,-12.3535,3.2371],[40.5782,-12.3532,1.4416],[40.5799,-12.3588,2.097],[40.5743,-12.3574,1.6844],[40.5724,-12.3479,0.8503],[40.5679,-12.3399,1.2731],[40.5671,-12.3435,2.6576],[40.5632,-12.3451,0.0],[40.5557,-12.354,0.7211],[40.554,-12.3532,1.2753],[40.5496,-12.3557,1.5865],[40.5449,-12.3607,2.3603],[40.5446,-12.3632,0.0],[40.5468,-12.3665,0.0],[40.559,-12.371,0.9979],[40.5596,-12.3746,0.0],[40.566,-12.3757,0.0],[40.5676,-12.3735,3.186],[40.5696,-12.3754,1.4133],[40.5782,-12.3757,1.0684],[40.571,-12.3804,1.7557],[40.5612,-12.3787,0.0],[40.5663,-12.3876,3.5972],[40.5704,-12.389,2.9169],[40.5721,-12.3926,2.943],[40.5721,-12.399,1.908],[40.574,-12.4035,3.8702],[40.5721,-12.4079,1.4204],[40.5821,-12.399,3.8708],[40.5835,-12.396,6.7106],[40.5874,-12.3962,5.7174],[40.5943,-12.3926,3.0647],[40.5949,-12.394,6.5676],[40.5938,-12.3957,1.0945],[40.6001,-12.3951,2.1553],[40.601,-12.3926,0.0],[40.5965,-12.3896,1.031],[40.591,-12.3907,1.167],[40.5904,-12.3935,4.217],[40.5899,-12.391,6.3426],[40.5993,-12.3854,2.8796],[40.5999,-12.3835,2.735],[40.5985,-12.3824,2.0189],[40.6093,-12.3735,0.0],[40.6135,-12.364,2.101],[40.6162,-12.3668,0.0],[40.6204,-12.3646,0.0],[40.6196,-12.3535,0.0],[40.6168,-12.3479,2.6237],[40.621,-12.349,0.0],[40.621,-12.3468,0.0],[40.6176,-12.3399,1.5329],[40.6249,-12.3374,2.8431],[40.6246,-12.3329,0.7303],[40.6232,-12.331,0.0],[40.6204,-12.3335,0.0],[40.6093,-12.3321,0.0],[40.6037,-12.3299,1.0522],[40.5996,-12.326,0.0]]]]}}