{"type": "Feature","bbox": [32.4108,-25.9332,32.529,-25.7345],"geometry": {"type": "MultiPolygon","coordinates": [[[[32.4733,-25.7495,45.3568],[32.4704,-25.7533,38.9012],[32.4524,-25.7558,37.461],[32.4341,-25.7534,15.136],[32.4298,-25.756,19.1009],[32.4237,-25.7864,17.4061],[32.4194,-25.7929,20.3931],[32.4153,-25.8136,9.7116],[32.4108,-25.8224,16.1568],[32.4146,-25.8428,17.6378],[32.4109,-25.848,10.8787],[32.4134,-25.8622,15.7155],[32.417,-25.8673,23.2251],[32.4163,-25.8707,5.8244],[32.4141,-25.8722,8.381],[32.4563,-25.8958,28.491],[32.466,-25.896,32.0175],[32.4825,-25.9055,32.5508],[32.4777,-25.9065,30.7249],[32.4896,-25.9132,29.8183],[32.491,-25.9332,17.672],[32.5091,-25.9253,10.9074],[32.5173,-25.9281,2.5881],[32.5186,-25.9259,3.5687],[32.5157,-25.925,3.2544],[32.5157,-25.9219,9.8146],[32.5232,-25.9152,11.3091],[32.5186,-25.9109,16.0819],[32.5193,-25.9021,16.684],[32.5171,-25.8929,27.2055],[32.5219,-25.8729,36.5791],[32.5094,-25.8657,43.0904],[32.5092,-25.837,47.1927],[32.5016,-25.8332,45.3913],[32.5202,-25.8201,49.5759],[32.5172,-25.8135,51.5578],[32.5236,-25.8041,52.76],[32.5248,-25.7945,53.6981],[32.528,-25.7919,55.119],[32.529,-25.7868,53.5285],[32.515,-25.7688,48.0406],[32.5139,-25.7618,49.3029],[32.5156,-25.7503,47.2095],[32.514,-25.7362,49.1964],[32.5081,-25.7345,47.855],[32.5008,-25.7372,45.0488],[32.4984,-25.7464,44.3523],[32.494,-25.7496,38.5484],[32.4733,-25.7495,45.3568]]]]}
,"properties": {"GID_2": "MOZ.5.1_1","GID_0": "MOZ","country": "Mozambique","GID_1": "MOZ.5_1","province": "MaputoCity","NL_NAME_1": "NA","county": "Boane","VARNAME_2": "NA","NL_NAME_2": "NA","TYPE_2": "Distrito","ENGTYPE_2": "District","CC_2": "NA","HASC_2": "MZ.MP.BO","name": "Boane.county","area_km2": 167.9598,"hist_schema_id": "Elevation0-9000","hist_area_km2": {"0": 2.5372,"25": 94.7594,"50": 70.6632}}}