{"type": "Feature","bbox": [39.5573,-15.2683,39.8851,-14.9712],"geometry": {"type": "MultiPolygon","coordinates": [[[[39.8115,-15.2656,143.1046],[39.8188,-15.2683,135.9458],[39.8246,-15.2624,135.1716],[39.8296,-15.2605,143.4939],[39.835,-15.262,131.6427],[39.8394,-15.2606,128.9366],[39.8398,-15.2518,126.1795],[39.8851,-15.2286,158.0009],[39.8485,-15.2014,158.5396],[39.7783,-15.1426,188.9918],[39.7619,-15.0911,275.1911],[39.7371,-15.0433,232.7474],[39.7248,-14.9986,291.6326],[39.6832,-14.9749,291.4294],[39.658,-14.9776,269.9553],[39.6387,-14.9712,236.3826],[39.6294,-14.9782,230.2136],[39.6256,-14.99,238.6482],[39.6141,-15.0058,247.3805],[39.6087,-15.0062,235.004],[39.5949,-15.0165,250.214],[39.579,-15.0318,263.3871],[39.5681,-15.0468,275.3703],[39.5604,-15.0543,271.8775],[39.5573,-15.0598,283.6996],[39.566,-15.081,323.2732],[39.5679,-15.0953,303.0744],[39.5782,-15.1058,282.2646],[39.5815,-15.1128,274.1897],[39.5924,-15.1277,293.7934],[39.6129,-15.1332,295.3983],[39.6264,-15.1404,274.8848],[39.6347,-15.1535,267.3154],[39.6387,-15.1778,223.8006],[39.6579,-15.1778,245.0973],[39.6745,-15.1691,214.657],[39.7249,-15.1691,211.8005],[39.7415,-15.2055,194.485],[39.7704,-15.2433,181.8243],[39.8115,-15.2656,143.1046]]]]}
,"properties": {"GID_3": "MOZ.7.5.1_1","GID_0": "MOZ","country": "Mozambique","GID_1": "MOZ.7_1","province": "Nampula","NL_NAME_1": "NA","GID_2": "MOZ.7.5_1","county": "Meconta","NL_NAME_2": "NA","city": "7DeAbril","VARNAME_3": "NA","NL_NAME_3": "NA","TYPE_3": "Localidad","ENGTYPE_3": "Locality","CC_3": "NA","HASC_3": "NA","name": "7_De_Abril.city","area_km2": 473.7561,"hist_schema_id": "Elevation0-9000","hist_area_km2": {"125": 3.2116,"150": 19.1273,"175": 39.4657,"200": 44.6467,"225": 45.0246,"250": 80.1839,"275": 118.8054,"300": 99.6853,"325": 22.0295,"350": 0.7164,"375": 0.348,"400": 0.4503,"425": 0.0614}}}