{"type": "Feature","bbox": [33.5215,-24.8737,33.835,-24.6404],"geometry": {"type": "MultiPolygon","coordinates": [[[[33.5217,-24.7997,6.4702],[33.5229,-24.8018,5.5986],[33.5353,-24.8071,9.3909],[33.5837,-24.8193,4.7764],[33.5866,-24.8503,3.9682],[33.5963,-24.8644,7.5298],[33.6112,-24.871,5.5755],[33.6278,-24.8737,5.4341],[33.636,-24.8723,5.3154],[33.6385,-24.8683,5.1984],[33.6378,-24.8619,5.6238],[33.6627,-24.8427,33.0872],[33.671,-24.8335,13.5216],[33.6723,-24.8269,14.479],[33.6804,-24.8207,22.5525],[33.6935,-24.8169,24.0578],[33.7031,-24.8113,36.7275],[33.7146,-24.8103,42.1029],[33.7215,-24.8124,24.2787],[33.7284,-24.8089,38.3174],[33.7325,-24.8087,34.9926],[33.7459,-24.8107,69.0197],[33.7562,-24.82,60.5121],[33.7588,-24.8244,62.8267],[33.7696,-24.826,55.5658],[33.78,-24.8224,70.7558],[33.7873,-24.8137,74.4029],[33.835,-24.7365,76.8846],[33.8231,-24.7034,80.3123],[33.8079,-24.7022,83.1581],[33.8145,-24.6986,82.2571],[33.8187,-24.6875,80.1139],[33.8234,-24.6835,79.6762],[33.8299,-24.6742,69.1486],[33.8321,-24.6688,75.5767],[33.8296,-24.6614,69.1593],[33.8229,-24.653,69.2835],[33.8175,-24.6404,67.8268],[33.7711,-24.645,78.6771],[33.7579,-24.6507,82.7397],[33.7452,-24.6514,84.4113],[33.7051,-24.6675,83.4006],[33.6644,-24.6732,82.4036],[33.6384,-24.688,77.996],[33.6191,-24.6946,73.6206],[33.6075,-24.7008,74.7633],[33.602,-24.7217,42.8022],[33.5431,-24.719,54.9244],[33.5375,-24.7211,8.2806],[33.5321,-24.7294,10.2728],[33.5239,-24.725,9.8836],[33.5215,-24.7365,8.1229],[33.5238,-24.7436,9.6234],[33.538,-24.7682,10.8184],[33.5391,-24.776,9.3262],[33.534,-24.7789,9.7298],[33.5317,-24.7823,9.5325],[33.5301,-24.7899,8.5287],[33.5217,-24.7997,6.4702]]]]}
,"properties": {"GID_3": "MOZ.2.2.6_1","GID_0": "MOZ","country": "Mozambique","GID_1": "MOZ.2_1","province": "Gaza","NL_NAME_1": "NA","GID_2": "MOZ.2.2_1","county": "Chibuto","NL_NAME_2": "NA","city": "Malehice","VARNAME_3": "NA","NL_NAME_3": "NA","TYPE_3": "Localidad","ENGTYPE_3": "Locality","CC_3": "NA","HASC_3": "NA","name": "Malehice.city","area_km2": 485.444,"hist_schema_id": "Elevation0-9000","hist_area_km2": {"0": 126.8051,"25": 20.583,"50": 40.4904,"75": 288.6309,"100": 8.9346}}}