{"type": "Feature","bbox": [37.9203,-14.6806,38.6874,-14.1139],"geometry": {"type": "MultiPolygon","coordinates": [[[[38.3984,-14.1271,346.4903],[38.3733,-14.1384,350.3966],[38.355,-14.1417,345.3794],[38.3353,-14.1545,355.5743],[38.3041,-14.1469,352.5123],[38.2787,-14.1593,356.4263],[38.2485,-14.1669,365.4173],[38.237,-14.1747,368.3837],[38.2121,-14.2021,363.52],[38.1832,-14.2289,371.623],[38.1731,-14.2313,361.5393],[38.1617,-14.2281,364.7278],[38.148,-14.2362,367.8543],[38.1346,-14.2466,377.6569],[38.1253,-14.2562,376.7177],[38.1191,-14.2599,369.6398],[38.1062,-14.2516,373.4703],[38.095,-14.2514,371.2854],[38.0844,-14.258,365.2469],[38.0708,-14.259,379.1959],[38.0619,-14.2522,380.9039],[38.0489,-14.2535,389.9769],[38.0367,-14.2506,382.6247],[38.0319,-14.2477,389.3783],[38.0189,-14.2474,394.4643],[37.9991,-14.2596,393.7463],[37.9877,-14.2717,394.0469],[37.9833,-14.2736,385.2661],[37.961,-14.2957,390.4849],[37.9404,-14.3132,393.8143],[37.928,-14.3164,391.2741],[37.9278,-14.3552,423.5498],[37.9203,-14.3648,422.2502],[37.9322,-14.3841,430.622],[38.0113,-14.4415,476.5676],[38.0376,-14.4543,530.0113],[38.0541,-14.467,478.5462],[38.0508,-14.4925,454.2866],[38.041,-14.5093,476.0924],[38.0261,-14.5153,471.0867],[38.0136,-14.5166,470.6472],[38.0087,-14.537,480.7757],[37.9987,-14.5503,496.8768],[37.987,-14.5514,506.5942],[37.9763,-14.5659,517.1037],[37.99,-14.5852,529.0012],[37.9975,-14.6105,944.9611],[37.9813,-14.6237,568.0123],[37.9783,-14.6449,636.4868],[37.9783,-14.6508,628.368],[37.9912,-14.6611,552.8445],[38.0037,-14.6527,551.8972],[38.0335,-14.649,534.1456],[38.0574,-14.6487,508.1385],[38.0838,-14.6551,478.1593],[38.0863,-14.6582,478.4924],[38.0883,-14.6695,495.0824],[38.0975,-14.6806,465.8431],[38.1079,-14.6806,466.1149],[38.122,-14.6579,466.6715],[38.129,-14.6514,463.9933],[38.1408,-14.6502,453.9165],[38.1503,-14.6458,451.9756],[38.1676,-14.6354,455.5374],[38.1764,-14.6248,445.0732],[38.1946,-14.6329,451.1786],[38.1994,-14.6284,441.9304],[38.2085,-14.6249,448.211],[38.2292,-14.6213,425.5764],[38.2303,-14.6129,436.2579],[38.2256,-14.6024,422.2025],[38.2307,-14.5882,421.2231],[38.2401,-14.5848,426.6163],[38.2537,-14.5988,425.994],[38.2648,-14.5934,422.1678],[38.2748,-14.5859,421.3271],[38.2994,-14.5858,439.1213],[38.3101,-14.5832,455.8357],[38.3401,-14.5927,464.1082],[38.3525,-14.5988,487.541],[38.3954,-14.5832,452.3335],[38.418,-14.5941,437.0267],[38.4354,-14.5953,434.9645],[38.4577,-14.5927,415.3636],[38.4759,-14.5846,406.692],[38.4846,-14.5787,399.6945],[38.4839,-14.5679,395.2107],[38.495,-14.5262,391.8295],[38.4927,-14.5167,392.2387],[38.4929,-14.5104,381.3465],[38.497,-14.4975,383.4085],[38.4904,-14.4854,379.8139],[38.501,-14.4677,380.9757],[38.5145,-14.4606,367.8065],[38.527,-14.4423,361.9484],[38.5284,-14.4318,368.5978],[38.52,-14.4158,362.843],[38.5194,-14.4059,357.8287],[38.5249,-14.3903,362.2397],[38.5208,-14.3778,351.4694],[38.521,-14.3616,350.6806],[38.5241,-14.3479,338.6993],[38.5288,-14.3402,339.7099],[38.5392,-14.3135,332.5689],[38.5465,-14.3044,340.7604],[38.5562,-14.3026,343.3598],[38.5673,-14.295,338.6097],[38.5767,-14.2855,337.4063],[38.5924,-14.2584,326.3138],[38.591,-14.25,320.3907],[38.5925,-14.2403,323.7054],[38.6094,-14.2288,325.8432],[38.6239,-14.2157,324.6078],[38.6417,-14.1954,321.1284],[38.6548,-14.1888,318.9212],[38.6726,-14.1766,317.3256],[38.6874,-14.1639,305.3045],[38.6861,-14.1482,305.8782],[38.6753,-14.1415,306.86],[38.6699,-14.1358,308.1838],[38.6624,-14.1329,315.812],[38.6487,-14.1407,316.1444],[38.6201,-14.151,325.3249],[38.6086,-14.157,322.5218],[38.5756,-14.1463,326.4884],[38.5629,-14.1436,334.7357],[38.5437,-14.1451,332.7483],[38.5334,-14.1515,333.1233],[38.5224,-14.1555,333.4475],[38.5103,-14.1516,328.8763],[38.4815,-14.1269,338.0344],[38.4697,-14.1216,338.9105],[38.4406,-14.1139,341.2453],[38.4299,-14.1145,345.4547],[38.3984,-14.1271,346.4903]]]]}
,"properties": {"GID_3": "MOZ.7.3.1_1","GID_0": "MOZ","country": "Mozambique","GID_1": "MOZ.7_1","province": "Nampula","NL_NAME_1": "NA","GID_2": "MOZ.7.3_1","county": "Lalaua","NL_NAME_2": "NA","city": "Lalaua","VARNAME_3": "NA","NL_NAME_3": "NA","TYPE_3": "Localidad","ENGTYPE_3": "Locality","CC_3": "NA","HASC_3": "NA","name": "Lalaua.city","area_km2": 2916.071,"hist_schema_id": "Elevation0-9000","hist_area_km2": {"300": 3.742,"325": 109.029,"350": 307.932,"375": 464.881,"400": 549.834,"425": 465.358,"450": 360.151,"475": 235.046,"500": 119.41,"525": 60.296,"550": 35.035,"575": 26.19,"600": 21.738,"625": 20.446,"650": 18.599,"675": 13.918,"700": 11.455,"725": 10.388,"750": 8.745,"775": 8.375,"800": 7.904,"825": 7.205,"850": 7.124,"875": 7.021,"900": 5.522,"925": 5.132,"950": 4.845,"975": 3.962,"1000": 3.12,"1025": 2.956,"1050": 2.155,"1075": 2.175,"1100": 1.478,"1125": 1.231,"1150": 1.395,"1175": 0.841,"1200": 0.513,"1225": 0.267,"1250": 0.103,"1275": 0.082,"1300": 0.062,"1350": 0.082,"1375": 0.082,"1400": 0.144,"1450": 0.062}}}