{"type": "Feature","bbox": [32.4846,-20.9158,33.2367,-20.56],"geometry": {"type": "MultiPolygon","coordinates": [[[[33.0986,-20.5737,173.0412],[33.089,-20.5787,177.3712],[33.0708,-20.5847,190.4641],[33.0485,-20.596,182.1824],[33.0195,-20.6038,222.5445],[33.0037,-20.6054,267.4323],[33.0014,-20.609,202.7838],[32.9196,-20.6192,219.3816],[32.9089,-20.6258,226.0375],[32.9027,-20.6371,230.0026],[32.8811,-20.6499,230.9747],[32.8613,-20.6562,233.2632],[32.8539,-20.655,235.6784],[32.848,-20.6519,238.5804],[32.8442,-20.6552,238.0742],[32.8306,-20.6546,262.2404],[32.8136,-20.6488,314.0696],[32.8067,-20.6445,355.6792],[32.7924,-20.6289,546.4387],[32.7902,-20.6207,552.1797],[32.7912,-20.5982,480.5406],[32.782,-20.5901,495.4076],[32.7617,-20.5866,509.1056],[32.7469,-20.6078,567.4813],[32.7367,-20.6165,584.3244],[32.6852,-20.6242,571.861],[32.6753,-20.6178,472.9427],[32.6699,-20.6024,614.7334],[32.6343,-20.56,676.0538],[32.5671,-20.5609,806.7516],[32.5573,-20.5656,616.4388],[32.5275,-20.5883,504.1818],[32.524,-20.5924,481.8766],[32.5118,-20.5997,399.4731],[32.4921,-20.6185,480.4532],[32.4885,-20.6275,460.5871],[32.4846,-20.6578,493.6371],[32.4856,-20.6745,525.7067],[32.4947,-20.7008,556.0369],[32.4978,-20.8074,461.7624],[32.5029,-20.8334,456.0304],[32.5153,-20.8721,377.6711],[32.5186,-20.8889,380.6424],[32.517,-20.9102,401.7999],[32.6017,-20.9158,444.5204],[32.6686,-20.8872,379.3365],[32.7718,-20.8732,377.5423],[32.7758,-20.8645,358.2647],[32.7939,-20.8405,325.2352],[32.8009,-20.8395,326.2465],[32.8102,-20.8482,334.8829],[32.8168,-20.8575,344.3644],[32.8239,-20.8633,353.8169],[32.8346,-20.8673,357.1357],[32.8467,-20.8781,368.3982],[32.8494,-20.8825,379.5967],[32.9153,-20.8927,384.758],[32.9991,-20.875,337.8288],[33.0684,-20.8459,326.7676],[33.0779,-20.8518,344.597],[33.0875,-20.8554,346.9225],[33.111,-20.8178,294.1815],[33.1633,-20.8151,333.6613],[33.1768,-20.8185,347.4001],[33.1978,-20.8276,389.0966],[33.2128,-20.8287,384.7755],[33.2257,-20.8277,357.6664],[33.2341,-20.8241,348.3027],[33.2367,-20.8187,348.2712],[33.2349,-20.8096,338.9772],[33.2285,-20.7984,325.8169],[33.2009,-20.7538,289.7319],[33.1879,-20.7403,290.3727],[33.1779,-20.7253,272.6155],[33.1679,-20.7149,266.9937],[33.1641,-20.708,261.6444],[33.1603,-20.6971,259.8248],[33.1603,-20.6868,249.4322],[33.1546,-20.6745,246.9698],[33.154,-20.6609,241.6372],[33.1503,-20.6513,241.6122],[33.1416,-20.6513,236.0851],[33.1373,-20.6544,231.0563],[33.1314,-20.6282,223.5942],[33.126,-20.6167,217.5066],[33.1146,-20.6063,200.9523],[33.1127,-20.5946,203.0755],[33.1001,-20.5792,205.4588],[33.0986,-20.5737,173.0412]]]]}
,"properties": {"GID_3": "MOZ.4.7.1_1","GID_0": "MOZ","country": "Mozambique","GID_1": "MOZ.4_1","province": "Manica","NL_NAME_1": "NA","GID_2": "MOZ.4.7_1","county": "Mossurize","NL_NAME_2": "NA","city": "Chiurairue","VARNAME_3": "NA","NL_NAME_3": "NA","TYPE_3": "Localidad","ENGTYPE_3": "Locality","CC_3": "NA","HASC_3": "NA","name": "Chiurairue.city","area_km2": 2123.917,"hist_schema_id": "Elevation0-9000","hist_area_km2": {"175": 3.017,"200": 26.195,"225": 55.968,"250": 147.089,"275": 218.023,"300": 265.398,"325": 273.325,"350": 233.039,"375": 205.712,"400": 107.676,"425": 52.417,"450": 39.049,"475": 41.57,"500": 56.032,"525": 71.943,"550": 80.334,"575": 82.893,"600": 61.771,"625": 39.517,"650": 22.162,"675": 13.395,"700": 8.732,"725": 6.768,"750": 4.803,"775": 3.176,"800": 2.144,"825": 0.873,"850": 0.615,"875": 0.278}}}