{"type":"Feature","properties":{"GID_3":"MOZ.3.2.1_1","GID_0":"MOZ","country":"Mozambique","GID_1":"MOZ.3_1","province":"Inhambane","NL_NAME_1":"NA","GID_2":"MOZ.3.2_1","county":"Govuro","NL_NAME_2":"NA","city":"NovaMambone(MamboneSede)","VARNAME_3":"NA","NL_NAME_3":"NA","TYPE_3":"Localidad","ENGTYPE_3":"Locality","CC_3":"NA","HASC_3":"NA","name":"Nova_Mambone(Mambone_Sede).city"},
"geometry":{"type": "MultiPolygon","coordinates": [[[[35.0921,-21.341,2.4856],[35.0915,-21.3404,1.8623],[35.0899,-21.340699999999998,1.8623],[35.0924,-21.3429,4.1478],[35.0921,-21.341,2.4856]]],
[[[35.0932,-21.3438,0.5],[35.1132,-21.3415,0.0],[35.111,-21.3229,0.0],[35.1107,-21.2982,0.0],[35.1154,-21.2624,0.0],[35.1151,-21.254,0.0],[35.1129,-21.2554,0.0],[35.1099,-21.2626,0.0],[35.1099,-21.2718,0.0],[35.1082,-21.2718,0.0],[35.1057,-21.2846,0.6694],[35.0976,-21.2954,0.0],[35.0982,-21.2968,3.0039],[35.0943,-21.2985,2.4763],[35.0924,-21.304,0.0],[35.0829,-21.3096,0.0],[35.0826,-21.3143,0.0],[35.0849,-21.3165,0.0],[35.089,-21.3179,3.8544],[35.0929,-21.3163,0.0],[35.0962,-21.3196,6.1415],[35.096,-21.3254,7.3297],[35.0915,-21.3296,0.5],[35.0913,-21.3321,1.8142],[35.094,-21.334,6.6221],[35.091,-21.3393,0.5],[35.0932,-21.341,2.4856],[35.0932,-21.3438,0.5]]],
[[[35.1026,-21.1885,0.0],[35.1021,-21.1871,0.0],[35.1007,-21.1879,1.4792],[35.101,-21.1926,0.0],[35.1035,-21.1965,0.7193],[35.1015,-21.2029,0.0],[35.1049,-21.2051,0.0],[35.1057,-21.199,0.0],[35.1026,-21.1885,0.0]]],
[[[35.1135,-21.1324,0.0],[35.1113,-21.1338,1.291],[35.1149,-21.1371,0.0],[35.1157,-21.1401,0.0],[35.1129,-21.1424,0.0],[35.1165,-21.1415,0.0],[35.1168,-21.1426,0.0],[35.1126,-21.1449,0.0],[35.1185,-21.1451,0.0],[35.1188,-21.1493,0.0],[35.1162,-21.1499,0.0],[35.1157,-21.1518,0.0],[35.1204,-21.1543,0.0],[35.121,-21.1576,0.0],[35.1188,-21.1629,0.0],[35.1226,-21.1676,0.0],[35.1237,-21.164,0.0],[35.1215,-21.1493,0.0],[35.124,-21.1496,0.0],[35.1251,-21.1482,0.0],[35.1221,-21.1476,0.0],[35.1176,-21.1349,0.0],[35.1135,-21.1324,0.0]]],
[[[35.0924,-21.3274,4.1534],[35.0924,-21.3254,0.5],[35.0904,-21.3254,0.5],[35.0887,-21.3296,1.6675],[35.0907,-21.3296,0.5],[35.0924,-21.3274,4.1534]]],
[[[35.0826,-21.2554,0.4683],[35.081,-21.2551,0.0],[35.0804,-21.2599,0.0],[35.0851,-21.2582,0.0],[35.0826,-21.2554,0.4683]]],
[[[35.0729,-21.2446,0.5387],[35.0713,-21.244,0.0],[35.0704,-21.2451,0.2298],[35.0721,-21.2465,0.0],[35.0729,-21.2446,0.5387]]],
[[[35.0907,-21.3451,7.5257],[35.0913,-21.3435,4.7005],[35.0871,-21.340699999999998,0.5],[35.0874,-21.3376,4.6368],[35.0915,-21.3351,3.6878],[35.0879,-21.3296,1.6675],[35.0879,-21.3276,0.5],[35.0926,-21.3221,3.8875],[35.0812,-21.3201,0.25],[35.0715,-21.3157,0.0],[35.0693,-21.3182,1.7679],[35.0713,-21.3207,2.9844],[35.0768,-21.3224,0.5],[35.0815,-21.3218,2.4186],[35.0815,-21.324,1.5706],[35.0765,-21.3274,0.5],[35.0774,-21.3251,0.5],[35.0796,-21.3246,3.1694],[35.0793,-21.3232,5.1801],[35.0718,-21.3224,0.5],[35.0685,-21.319,1.3437],[35.0687,-21.3168,1.0907],[35.0715,-21.3149,0.0],[35.0749,-21.3154,0.0],[35.076,-21.3171,0.0],[35.0785,-21.3165,0.0],[35.0749,-21.3049,2.6147],[35.0601,-21.3029,0.5],[35.0546,-21.3071,2.1697],[35.0554,-21.3099,1.5303],[35.0537,-21.3079,2.1697],[35.0582,-21.3015,2.2565],[35.0757,-21.3004,0.0],[35.0788,-21.2935,0.0],[35.0765,-21.2849,0.0],[35.0788,-21.2815,0.0],[35.0676,-21.278199999999998,1.2694],[35.0646,-21.2763,1.1766],[35.0663,-21.2754,0.2755],[35.066,-21.2737,0.5052],[35.0615,-21.2718,1.4447],[35.0588,-21.2729,2.928],[35.0582,-21.2776,0.5],[35.0563,-21.2793,1.9838],[35.0526,-21.279,1.5238],[35.0563,-21.278199999999998,1.9838],[35.0568,-21.2735,0.5],[35.0604,-21.2707,1.0717],[35.0685,-21.2732,0.0],[35.0726,-21.2732,0.0],[35.0774,-21.271,0.0],[35.0701,-21.269,0.2782],[35.0774,-21.264,0.0],[35.079,-21.2562,0.1981],[35.0735,-21.2529,0.0],[35.0582,-21.2543,0.9573],[35.0537,-21.2524,0.8136],[35.0529,-21.2499,0.7024],[35.049,-21.2526,0.5284],[35.0493,-21.2501,0.3],[35.0479,-21.2496,1.0639],[35.0438,-21.251,0.0],[35.0443,-21.2557,0.0],[35.0415,-21.259,2.0258],[35.0399,-21.2593,0.6098],[35.0346,-21.2526,0.8597],[35.0374,-21.2529,1.172],[35.041,-21.2585,2.0258],[35.0429,-21.2543,0.0],[35.0418,-21.2515,0.0],[35.051,-21.2457,0.0],[35.0485,-21.2404,1.3934],[35.0501,-21.2385,0.3457],[35.0493,-21.2321,1.5859],[35.0462,-21.2265,1.988],[35.044,-21.2254,1.1904],[35.0471,-21.221,1.585],[35.0476,-21.2226,0.0],[35.046,-21.2254,0.0],[35.0504,-21.2257,0.6659],[35.0493,-21.229,0.0],[35.0526,-21.2296,0.0],[35.054,-21.2368,0.0],[35.0596,-21.2374,3.7919],[35.0576,-21.2393,0.0],[35.0596,-21.2401,4.5393],[35.056,-21.2393,0.0],[35.0557,-21.2418,0.0],[35.0607,-21.2443,0.4923],[35.0679,-21.2446,0.0],[35.0682,-21.2432,0.0],[35.0626,-21.2415,1.7102],[35.0846,-21.2363,0.0],[35.089,-21.2376,0.8334],[35.0915,-21.246,0.0],[35.0949,-21.2435,0.0],[35.0965,-21.244,0.0],[35.0982,-21.234,1.4361],[35.1037,-21.2265,0.0],[35.1032,-21.2257,0.0],[35.1012,-21.2274,0.6822],[35.0988,-21.2254,1.0839],[35.1026,-21.2249,0.0],[35.1046,-21.2099,0.0],[35.0962,-21.2049,1.4691],[35.0957,-21.2012,0.2373],[35.0968,-21.2021,0.2507],[35.0971,-21.201,0.0],[35.0949,-21.1996,0.2373],[35.0938,-21.2029,0.8533],[35.0915,-21.2024,0.0],[35.0918,-21.2101,1.6308],[35.0896,-21.2126,0.0],[35.0871,-21.2129,0.0],[35.0871,-21.2162,0.0],[35.0851,-21.2168,0.7771],[35.0843,-21.2126,2.0469],[35.0851,-21.2107,2.9887],[35.0865,-21.211,0.0],[35.086,-21.2046,0.0],[35.079,-21.2046,3.2071],[35.0826,-21.2032,0.0],[35.0818,-21.1976,0.0],[35.0754,-21.1949,0.29],[35.0738,-21.1924,0.0],[35.0707,-21.194,1.1101],[35.071,-21.1918,2.2577],[35.0738,-21.1896,0.0],[35.0768,-21.1899,0.5796],[35.0779,-21.1921,0.0],[35.0799,-21.1915,0.0],[35.0799,-21.1835,0.0],[35.0707,-21.181,0.1152],[35.0699,-21.1779,0.0],[35.0654,-21.1757,0.0],[35.0646,-21.1735,0.1017],[35.0626,-21.1735,0.4531],[35.0626,-21.1718,0.0],[35.0501,-21.1785,0.0],[35.0521,-21.1821,0.9591],[35.0507,-21.184,0.8593],[35.051,-21.1824,0.9591],[35.0476,-21.1801,3.3385],[35.0479,-21.1779,4.2355],[35.0521,-21.1751,0.0],[35.049,-21.1721,0.257],[35.0501,-21.1682,0.0],[35.041,-21.1676,0.4801],[35.0429,-21.1668,0.0],[35.0432,-21.1618,0.0],[35.0443,-21.1621,0.0],[35.044,-21.1665,0.0],[35.0488,-21.164,1.7359],[35.0543,-21.1635,0.0],[35.0563,-21.1563,0.7801],[35.0579,-21.1579,0.0],[35.0599,-21.1574,0.0],[35.0654,-21.1529,0.0],[35.0657,-21.1399,1.5866],[35.0671,-21.1385,0.0],[35.0657,-21.1326,0.0],[35.0638,-21.1315,1.3521],[35.0604,-21.1246,0.9412],[35.0537,-21.1224,0.0],[35.054,-21.1246,2.144],[35.0488,-21.1254,0.0],[35.0518,-21.1312,0.9403],[35.0499,-21.1315,0.0],[35.0474,-21.1357,0.0],[35.0443,-21.1354,0.0],[35.0429,-21.1371,1.393],[35.0421,-21.1387,0.0],[35.0443,-21.1426,0.5],[35.0412,-21.144,1.1569],[35.0424,-21.1415,0.5],[35.0404,-21.1368,0.0],[35.0443,-21.1299,0.9429],[35.0365,-21.1199,0.0],[35.0326,-21.1187,0.0],[35.0326,-21.1157,0.0],[35.0262,-21.1132,0.1088],[35.009,-21.114,0.2854],[35.0143,-21.1096,0.0],[35.0143,-21.1057,0.0],[35.0163,-21.1071,0.4755],[35.0207,-21.1068,0.0],[35.024,-21.1046,0.0],[35.0254,-21.0999,0.2726],[35.0268,-21.0996,0.0],[35.024,-21.0918,0.2092],[35.0285,-21.091,0.0712],[35.0285,-21.089,0.0],[35.0235,-21.0837,2.8062],[35.0187,-21.0746,1.0056],[35.0135,-21.0713,0.9183],[35.0076,-21.074,1.4308],[35.0007,-21.0701,1.0489],[34.996,-21.0729,0.5614],[34.9915,-21.0729,0.2269],[34.9918,-21.0713,0.2269],[34.9954,-21.0721,0.5614],[34.9987,-21.0693,0.294],[35.0018,-21.069,0.5203],[35.0071,-21.0729,0.8451],[35.0146,-21.0696,0.0],[35.014,-21.0674,1.6884],[35.0163,-21.0657,0.9441],[35.0163,-21.0693,0.9203],[35.0238,-21.0707,0.0],[35.026,-21.0735,3.0889],[35.026,-21.0774,0.1543],[35.0288,-21.0774,0.1457],[35.0296,-21.0749,1.35],[35.0318,-21.0765,0.0],[35.031,-21.0788,0.0],[35.0326,-21.0821,1.1704],[35.0421,-21.0857,0.0],[35.046,-21.0829,0.4124],[35.0421,-21.079,0.7639],[35.0438,-21.0737,1.371],[35.049,-21.0704,0.5],[35.0468,-21.076,0.7672],[35.0507,-21.0846,3.4093],[35.0499,-21.0874,0.0],[35.0471,-21.0893,0.0],[35.0474,-21.0912,0.0],[35.0546,-21.090699999999998,0.0],[35.0565,-21.0862,2.3638],[35.0693,-21.0832,0.0],[35.0724,-21.0788,0.281],[35.0754,-21.0774,0.6661],[35.0793,-21.0793,0.0],[35.0768,-21.0799,0.0],[35.0768,-21.0857,0.0],[35.0863,-21.0868,0.0],[35.0879,-21.0849,0.0],[35.091,-21.074,0.0],[35.091,-21.064,0.8154],[35.0935,-21.0574,2.8417],[35.0929,-21.0518,0.0],[35.0882,-21.051,0.0],[35.084,-21.0476,0.0],[35.0799,-21.049,0.0],[35.0785,-21.0585,0.3102],[35.0799,-21.0637,0.4332],[35.0826,-21.0629,2.8186],[35.0824,-21.0646,2.2563],[35.079,-21.064,0.9465],[35.0768,-21.0571,0.0],[35.074,-21.0593,0.9291],[35.0762,-21.0565,0.0],[35.0782,-21.0471,0.0],[35.0824,-21.044,0.0],[35.081,-21.0354,1.3785],[35.084,-21.0321,0.0],[35.0835,-21.0293,0.0],[35.0818,-21.029,0.0],[35.0804,-21.0318,0.9033],[35.0757,-21.0343,0.5653],[35.0721,-21.0346,2.2845],[35.0632,-21.0304,0.52],[35.0596,-21.0271,0.3432],[35.0501,-21.0265,0.4463],[35.0482,-21.028199999999998,0.7949],[35.0499,-21.0257,1.131],[35.0549,-21.0265,1.1017],[35.061,-21.0226,2.4261],[35.0663,-21.0279,0.6201],[35.074,-21.0287,0.0],[35.0746,-21.0254,0.0],[35.0826,-21.0168,0.1547],[35.0812,-21.0151,0.8356],[35.0738,-21.0165,1.5259],[35.0718,-21.0112,0.5],[35.0724,-21.0096,0.5],[35.076,-21.0143,0.5],[35.0829,-21.0121,0.5],[35.089,-21.0171,0.0],[35.0926,-21.0149,0.1589],[35.0954,-21.0088,0.5313],[35.0901,-21.0068,0.4927],[35.0871,-21.0012,0.0285],[35.0821,-21.0021,0.0],[35.0779,-20.9971,0.6365],[35.0838,-21.001,0.6837],[35.0857,-20.9982,0.885],[35.091,-20.9996,0.0],[35.089,-20.9976,2.5897],[35.0913,-20.9968,0.4174],[35.0929,-21.0029,0.0],[35.1012,-21.0051,0.0],[35.1032,-21.0074,2.748],[35.1029,-21.0135,2.0007],[35.1018,-21.0204,0.0],[35.0996,-21.0226,0.0],[35.1007,-21.0257,2.176],[35.099,-21.0276,1.596],[35.0996,-21.0299,1.9206],[35.1024,-21.031,0.0],[35.1054,-21.0263,1.3687],[35.1096,-21.0024,5.2928],[35.1165,-20.9871,0.0],[35.114,-20.9862,0.034],[35.114,-20.9832,0.0],[35.1043,-20.9818,0.0],[35.111,-20.9824,0.0],[35.1154,-20.9779,0.2493],[35.116,-20.969,3.2145],[35.1146,-20.9671,1.2097],[35.1101,-20.9724,0.9378],[35.1079,-20.9724,2.5562],[35.1115,-20.9704,0.7049],[35.114,-20.9651,1.4604],[35.111,-20.9615,0.3971],[35.1054,-20.9621,0.0],[35.1035,-20.9643,0.9297],[35.0949,-20.9626,0.0],[35.0876,-20.9635,1.9135],[35.084,-20.9599,2.1453],[35.0807,-20.959,0.0],[35.0768,-20.9607,0.7913],[35.0743,-20.9668,4.0128],[35.0721,-20.9674,1.0581],[35.0668,-20.9735,2.1063],[35.0565,-20.9749,2.366],[35.0515,-20.9726,1.6947],[35.0422,-20.9739,0.0],[34.9997,-20.9854,4.7233],[34.9637,-20.99,2.3983],[34.9415,-20.9965,4.1918],[34.93,-21.0042,7.189],[34.869,-21.0335,8.0668],[34.8072,-21.0791,10.8837],[34.7896,-21.0962,11.0269],[34.7885,-21.1449,36.876],[34.7794,-21.168,43.9857],[34.7803,-21.1863,41.8289],[34.778,-21.1958,40.6377],[34.7752,-21.233,55.3808],[34.6908,-21.2976,85.8883],[34.7212,-21.3645,89.59],[34.702,-21.4343,101.8021],[34.6992,-21.459,103.766],[34.6941,-21.4668,105.8497],[34.6946,-21.4942,108.8606],[34.6922,-21.5021,112.198],[34.6948,-21.5029,111.241],[34.7821,-21.4789,88.3234],[34.7973,-21.4769,84.8563],[34.8193,-21.4583,69.221],[34.8503,-21.4689,63.6447],[34.8848,-21.4759,51.7156],[34.9062,-21.465699999999998,48.4835],[34.9192,-21.4643,43.732],[34.9311,-21.4594,47.3547],[34.9845,-21.4454,36.7617],[34.9857,-21.4055,34.2684],[35.0023,-21.3976,21.4062],[35.0708,-21.4033,2.178],[35.0744,-21.3933,3.3825],[35.0733,-21.3823,2.1802],[35.0805,-21.3687,5.0622],[35.0867,-21.3491,2.1668],[35.0907,-21.3451,7.5257]]],
[[[35.0857,-21.0207,0.0],[35.0812,-21.0207,0.0],[35.0788,-21.024,0.0],[35.0851,-21.0251,0.0],[35.0879,-21.0221,0.0],[35.0857,-21.0207,0.0]]],
[[[35.0749,-21.0143,0.8665],[35.0735,-21.0135,0.8665],[35.0732,-21.0149,6.0651],[35.0757,-21.016,0.5],[35.076,-21.0154,0.5],[35.0749,-21.0143,0.8665]]],
[[[35.1243,-20.9665,3.2262],[35.1246,-20.9632,2.1925],[35.1282,-20.9607,1.6443],[35.1288,-20.9571,0.0],[35.1263,-20.9571,0.0],[35.119,-20.9643,0.0],[35.1193,-20.9699,4.2194],[35.1171,-20.9699,3.763],[35.1171,-20.9715,3.7349],[35.1213,-20.9724,0.6706],[35.1221,-20.9679,2.9807],[35.1243,-20.9699,0.0],[35.1243,-20.9665,3.2262]]],
[[[35.099,-20.9624,0.0],[35.0965,-20.9615,0.0],[35.0957,-20.9626,0.0],[35.0982,-20.9629,0.0],[35.099,-20.9624,0.0]]]]}}