{"type": "Feature","bbox": [31.9305,-26.476,32.401,-25.6706],"geometry": {"type": "MultiPolygon","coordinates": [[[[32.2002,-26.1722,55.1942],[32.187,-26.1671,47.4078],[32.1909,-26.1531,44.5],[32.2047,-26.1491,44.5],[32.2056,-26.1474,44.5],[32.1952,-26.1285,44.5],[32.2293,-26.126,44.5],[32.2453,-26.1072,44.5],[32.2464,-26.1027,44.5],[32.2412,-26.0899,31.5099],[32.2425,-26.0805,32.7394],[32.2561,-26.0735,23.2141],[32.2588,-26.0614,18.1861],[32.2637,-26.0498,14.4772],[32.2705,-26.0433,13.4955],[32.2821,-26.0405,22.0673],[32.2984,-26.0467,17.3366],[32.2959,-26.0359,9.4082],[32.2804,-26.0326,13.5921],[32.278,-26.029,10.892],[32.2866,-26.0216,13.7032],[32.2934,-26.0196,10.996],[32.2959,-26.0152,12.7957],[32.2933,-26.0106,17.7334],[32.2831,-26.0061,28.2466],[32.2736,-26.0066,14.6548],[32.2811,-25.9996,14.9559],[32.2796,-25.992,18.8812],[32.2678,-25.9762,28.2243],[32.2835,-25.9711,27.4723],[32.2865,-25.9653,23.9926],[32.2794,-25.9519,28.2152],[32.2692,-25.942,32.7504],[32.2731,-25.9373,31.313],[32.2852,-25.9353,30.867],[32.2889,-25.9305,32.7717],[32.288,-25.9256,34.641],[32.274,-25.9219,35.0087],[32.2697,-25.9137,34.2051],[32.2743,-25.9069,42.4596],[32.2848,-25.9056,38.8881],[32.2906,-25.9002,40.9423],[32.2957,-25.891,43.3008],[32.2923,-25.8839,44.2455],[32.3112,-25.8821,47.2347],[32.3113,-25.8714,49.9787],[32.3132,-25.8623,49.4765],[32.3041,-25.8613,52.2793],[32.2865,-25.853,54.1405],[32.2858,-25.8437,60.5619],[32.2833,-25.8369,60.0399],[32.2665,-25.8342,84.4766],[32.2665,-25.8182,92.1659],[32.263,-25.8053,108.0639],[32.2665,-25.7828,105.5441],[32.2648,-25.7752,101.7374],[32.2617,-25.7711,123.0139],[32.2624,-25.7568,71.9432],[32.255,-25.7445,75.8734],[32.2473,-25.7422,79.8985],[32.2422,-25.7445,79.9186],[32.2325,-25.7451,80.4545],[32.1936,-25.733,89.0007],[32.1753,-25.7184,96.9655],[32.1563,-25.695,114.8366],[32.1401,-25.6872,169.0957],[32.1257,-25.6878,163.6494],[32.1191,-25.6812,174.1236],[32.0893,-25.6803,189.2756],[32.0345,-25.6829,334.1684],[31.9979,-25.6706,382.9418],[31.9959,-25.6767,415.3765],[31.9786,-25.6937,436.4996],[31.9305,-25.8408,586.61],[31.9737,-25.9532,745.307],[31.9813,-25.95,619.1583],[32.0041,-25.9903,586.6097],[32.0285,-25.998,534.3766],[32.0877,-26.0109,455.0635],[32.0972,-26.0724,258.9401],[32.1081,-26.1659,271.9967],[32.0963,-26.211,175.0578],[32.0966,-26.2181,234.7323],[32.0914,-26.2445,332.8063],[32.0749,-26.3125,483.9586],[32.0767,-26.3641,456.343],[32.0802,-26.4091,469.2458],[32.0892,-26.4325,432.5636],[32.1093,-26.476,399.7176],[32.1248,-26.473,292.3004],[32.1401,-26.467,184.7682],[32.1459,-26.4615,154.5988],[32.1643,-26.4516,93.5408],[32.203,-26.4569,72.0656],[32.2343,-26.4543,58.4064],[32.2441,-26.4463,55.0034],[32.2644,-26.4415,48.9544],[32.3043,-26.4407,35.8841],[32.3092,-26.4352,32.9925],[32.3137,-26.4185,39.8125],[32.3463,-26.4379,25.901],[32.3496,-26.4358,25.7892],[32.3547,-26.4352,25.0146],[32.3593,-26.4314,21.2084],[32.3633,-26.4171,22.7086],[32.369,-26.4093,28.1869],[32.3816,-26.413,20.2369],[32.3884,-26.3624,19.3398],[32.3795,-26.3571,10.9008],[32.3766,-26.351,13.5199],[32.3821,-26.3408,13.4663],[32.3892,-26.3321,7.9356],[32.401,-26.3272,11.012],[32.3969,-26.3164,9.879],[32.3959,-26.3051,18.4995],[32.3807,-26.3061,16.434],[32.3746,-26.3039,5.6257],[32.3694,-26.2999,4.3614],[32.3783,-26.2933,7.6662],[32.3746,-26.2889,3.4624],[32.3742,-26.2819,3.4158],[32.3667,-26.2741,4.114],[32.3475,-26.2819,7.9168],[32.3415,-26.2692,24.4388],[32.3352,-26.2541,34.9112],[32.3306,-26.2144,28.3037],[32.335,-26.194,29.0948],[32.3328,-26.1782,13.5447],[32.3292,-26.1709,13.7307],[32.2882,-26.2049,31.1074],[32.2624,-26.1977,77.7982],[32.2265,-26.2056,60.5329],[32.2233,-26.1977,53.8972],[32.2234,-26.1853,48.7053],[32.2191,-26.1787,56.2977],[32.2002,-26.1722,55.1942]]]]}
,"properties": {"GID_2": "MOZ.6.7_1","GID_0": "MOZ","country": "Mozambique","GID_1": "MOZ.6_1","province": "Maputo","NL_NAME_1": "NA","county": "Namaacha","VARNAME_2": "NA","NL_NAME_2": "NA","TYPE_2": "Distrito","ENGTYPE_2": "District","CC_2": "NA","HASC_2": "MZ.MP.NA","name": "Namaacha.county","area_km2": 2153.859,"hist_schema_id": "Elevation0-9000","hist_area_km2": {"0": 12.873,"25": 159.872,"50": 290.283,"75": 288.088,"100": 278.115,"125": 150.16,"150": 108.99,"175": 99.12,"200": 89.784,"225": 64.27,"250": 54.106,"275": 50.601,"300": 48.739,"325": 46.423,"350": 46.38,"375": 48.005,"400": 52.288,"425": 59.598,"450": 51.437,"475": 42.336,"500": 33.168,"525": 23.556,"550": 16.725,"575": 13.178,"600": 10.279,"625": 6.846,"650": 2.784,"675": 2.326,"700": 1.316,"725": 0.915,"750": 0.858,"775": 0.419,"800": 0.019}}}