{"type":"Feature","properties":{"GID_3":"MOZ.7.1.1_1","GID_0":"MOZ","country":"Mozambique","GID_1":"MOZ.7_1","province":"Nampula","NL_NAME_1":"NA","GID_2":"MOZ.7.1_1","county":"Angoche","NL_NAME_2":"NA","city":"Angoche","VARNAME_3":"NA","NL_NAME_3":"NA","TYPE_3":"Localidad","ENGTYPE_3":"Locality","CC_3":"NA","HASC_3":"NA","name":"Angoche.city"},
"geometry":{"type": "MultiPolygon","coordinates": [[[[39.9688,-16.2607,0.0],[39.9676,-16.2601,0.0],[39.9693,-16.2626,0.0],[39.9696,-16.2612,0.0],[39.9688,-16.2607,0.0]]],
[[[40.0337,-16.1765,0.0],[40.0321,-16.1762,0.0],[40.031,-16.1799,0.0],[40.0329,-16.1874,0.0],[40.0346,-16.1885,0.0],[40.0351,-16.184,0.0],[40.0337,-16.1765,0.0]]],
[[[39.8968,-16.1602,1.38],[39.8874,-16.1762,0.1174],[39.8896,-16.1815,0.0],[39.894,-16.1762,0.4061],[39.8963,-16.1832,0.0],[39.8963,-16.1893,0.0],[39.8999,-16.1949,0.3816],[39.8974,-16.1918,0.2504],[39.894,-16.1912,0.0],[39.8896,-16.1968,0.0],[39.8946,-16.2024,0.8024],[39.8887,-16.1996,1.0323],[39.886,-16.1999,0.2345],[39.8849,-16.2082,0.0],[39.8996,-16.2249,2.223],[39.8985,-16.2268,0.0],[39.9012,-16.2301,5.2093],[39.9012,-16.2354,1.3678],[39.904,-16.2351,2.6557],[39.9043,-16.2382,1.9174],[39.9087,-16.2362,9.685],[39.906,-16.2399,1.8318],[39.9021,-16.2404,0.7127],[39.904,-16.2449,0.3629],[39.9087,-16.246,1.357],[39.9143,-16.2404,2.0309],[39.9154,-16.2424,0.45],[39.919,-16.2407,0.4896],[39.9193,-16.2376,0.9828],[39.9207,-16.2379,0.9828],[39.9199,-16.241,1.0032],[39.914,-16.246,0.0],[39.9362,-16.2421,2.7667],[39.9599,-16.2429,4.4864],[39.9699,-16.2371,0.9089],[39.9987,-16.2071,2.1269],[40.0224,-16.189,1.8064],[40.0274,-16.1871,0.6572],[40.0315,-16.1757,0.0],[40.0335,-16.1643,5.8909],[40.0507,-16.1287,1.4493],[40.0721,-16.1137,0.0],[40.0929,-16.0862,1.6602],[40.1043,-16.0779,0.3958],[40.104,-16.0724,0.0],[40.1026,-16.0704,0.0],[40.1001,-16.0713,9.4014],[40.0988,-16.069,0.9961],[40.099,-16.0632,1.5655],[40.109,-16.0507,0.0],[40.1063,-16.0485,11.9024],[40.106,-16.0454,9.3858],[40.1096,-16.0385,13.8108],[40.1185,-16.024,12.615],[40.1274,-16.0146,0.0],[40.1354,-16.0026,0.0],[40.1385,-15.9754,2.1113],[40.1351,-15.9721,0.7095],[40.1332,-15.9721,0.7095],[40.1346,-15.979,0.0],[40.1326,-15.9846,7.4187],[40.1237,-15.9924,1.6322],[40.121,-15.9987,12.4281],[40.1138,-16.0054,2.765],[40.1035,-16.0062,0.0],[40.1013,-16.0085,1.0882],[40.1004,-16.0054,0.0],[40.0824,-16.0046,1.5962],[40.0799,-16.0062,0.0],[40.066,-16.0274,1.3695],[40.066,-16.0438,2.0696],[40.0646,-16.0507,0.0],[40.061,-16.0574,0.0],[40.0549,-16.0646,0.0],[40.044,-16.0868,0.4313],[40.0351,-16.0935,0.7313],[40.0318,-16.0999,8.4634],[40.0232,-16.1068,1.747],[40.0204,-16.1065,0.4389],[40.0276,-16.1015,0.2701],[40.0285,-16.0974,1.1992],[40.0379,-16.0893,1.6448],[40.0454,-16.0776,0.0],[40.0462,-16.0739,1.7675],[40.0417,-16.0779,1.8262],[40.041,-16.0713,1.4792],[40.0505,-16.0387,2.4064],[40.0492,-16.0359,1.7102],[40.0413,-16.0325,1.8051],[40.0412,-16.03,1.8734],[40.0463,-16.0273,1.9956],[40.0502,-16.0215,3.1277],[40.0465,-16.017,11.846],[40.0348,-16.0143,11.4495],[40.0373,-16.0108,11.4636],[40.0481,-16.0086,2.1632],[40.0466,-16.0082,1.8657],[40.0429,-15.9983,2.7802],[40.0324,-15.9907,1.7738],[40.0238,-15.985,2.1272],[40.0119,-15.9833,4.2728],[39.9988,-15.9958,9.5586],[39.9891,-16.0101,12.0716],[39.9759,-16.0185,13.9023],[39.9645,-16.0309,14.5609],[39.9562,-16.0371,21.8473],[39.9408,-16.0336,19.7676],[39.9336,-16.0199,25.4603],[39.9181,-16.0124,36.0073],[39.9128,-16.0066,23.7465],[39.9008,-16.001,36.0687],[39.8703,-15.9999,55.197],[39.8767,-16.02,56.2312],[39.8756,-16.042,61.9924],[39.8807,-16.0763,52.4278],[39.9032,-16.1428,11.9844],[39.8968,-16.1602,1.38]]]]}}