{"type": "Feature","bbox": [38.5742,-13.7333,39.0901,-13.376],"geometry": {"type": "MultiPolygon","coordinates": [[[[38.5965,-13.5103,1127.1584],[38.5902,-13.57,744.9314],[38.5742,-13.6336,496.048],[38.58,-13.6326,495.6357],[38.5835,-13.6357,488.5021],[38.5945,-13.6366,477.968],[38.5992,-13.6336,483.1174],[38.6207,-13.6276,462.9186],[38.6401,-13.6121,448.016],[38.6467,-13.6127,446.3557],[38.6609,-13.6088,444.7805],[38.6798,-13.6166,437.9191],[38.6898,-13.619,428.8539],[38.7067,-13.6198,421.7774],[38.7216,-13.6299,421.2629],[38.7457,-13.654,413.0178],[38.7793,-13.6825,400.2312],[38.7877,-13.6993,397.1897],[38.8057,-13.7081,391.8912],[38.8114,-13.7081,389.1857],[38.8238,-13.7033,383.2276],[38.8331,-13.7039,388.429],[38.8391,-13.7224,383.0782],[38.863,-13.7132,374.7943],[38.8712,-13.7222,378.5019],[38.8797,-13.7223,375.9634],[38.8963,-13.7029,366.588],[38.9021,-13.6935,363.4725],[38.915,-13.6849,359.4595],[38.9281,-13.6924,355.0202],[38.9252,-13.7007,354.0079],[38.926,-13.7091,352.7849],[38.9332,-13.7113,358.3503],[38.9524,-13.7084,358.3885],[38.9572,-13.7119,355.316],[38.96,-13.7213,346.8235],[38.9694,-13.7234,337.7086],[38.9775,-13.7226,339.8496],[38.9997,-13.7065,333.4115],[39.0161,-13.7071,341.5613],[39.0251,-13.71,338.5037],[39.0347,-13.7172,340.675],[39.0446,-13.7203,329.3641],[39.0551,-13.7313,329.5145],[39.0595,-13.7333,317.5606],[39.08,-13.73,322.5862],[39.0901,-13.7257,320.542],[39.0891,-13.7191,320.3336],[39.0841,-13.7105,335.6969],[39.0853,-13.7018,323.0909],[39.0804,-13.6981,330.8867],[39.0766,-13.6916,339.2757],[39.0712,-13.6874,344.1362],[39.0669,-13.6804,342.5455],[39.0727,-13.6737,343.6299],[39.068,-13.5947,383.7865],[39.0547,-13.5834,409.2804],[39.0426,-13.5777,417.4925],[39.0393,-13.5684,431.1587],[38.9994,-13.5154,456.1914],[38.9465,-13.4543,478.0424],[38.9513,-13.4487,472.1364],[38.9535,-13.4428,466.9286],[38.9536,-13.4324,462.7817],[38.9323,-13.4072,473.358],[38.9324,-13.3823,455.2325],[38.8823,-13.376,498.0294],[38.8674,-13.381,508.8724],[38.7996,-13.4204,518.0112],[38.7499,-13.4537,570.4645],[38.7298,-13.4755,508.9002],[38.7069,-13.4911,504.1535],[38.6433,-13.5036,1081.8386],[38.5965,-13.5103,1127.1584]]]]}
,"properties": {"GID_3": "MOZ.1.11.5_1","GID_0": "MOZ","country": "Mozambique","GID_1": "MOZ.1_1","province": "CaboDelgado","NL_NAME_1": "NA","GID_2": "MOZ.1.11_1","county": "Namuno","NL_NAME_2": "NA","city": "Namuno-Sede","VARNAME_3": "NA","NL_NAME_3": "NA","TYPE_3": "Localidad","ENGTYPE_3": "Locality","CC_3": "NA","HASC_3": "NA","name": "Namuno-Sede.city","area_km2": 1246.6376,"hist_schema_id": "Elevation0-9000","hist_area_km2": {"300": 0.103,"325": 12.6883,"350": 64.8695,"375": 104.9293,"400": 139.1862,"425": 157.7482,"450": 192.2918,"475": 251.6979,"500": 199.9362,"525": 82.5719,"550": 21.8137,"575": 6.1028,"600": 2.0203,"625": 1.4224,"650": 1.3812,"675": 0.9276,"700": 1.1338,"725": 1.1338,"750": 0.7834,"775": 0.5154,"800": 0.536,"825": 0.4535,"850": 0.3092,"875": 0.1855,"900": 0.2886,"925": 0.3298,"950": 0.1855,"975": 0.1649,"1000": 0.1855,"1025": 0.1443,"1050": 0.2268,"1075": 0.0825,"1100": 0.0412,"1125": 0.1237,"1150": 0.0825,"1175": 0.0412}}}