{"type":"Feature","properties":{"GID_3":"MOZ.7.13.1_1","GID_0":"MOZ","country":"Mozambique","GID_1":"MOZ.7_1","province":"Nampula","NL_NAME_1":"NA","GID_2":"MOZ.7.13_1","county":"Muecate","NL_NAME_2":"NA","city":"Imala","VARNAME_3":"NA","NL_NAME_3":"NA","TYPE_3":"Localidad","ENGTYPE_3":"Locality","CC_3":"NA","HASC_3":"NA","name":"Imala.city"},
"geometry":{"type": "MultiPolygon","coordinates": [[[[39.4147,-14.3067,307.6162],[39.3961,-14.3113,307.2093],[39.3864,-14.3154,319.1935],[39.3678,-14.3139,318.7536],[39.3409,-14.3252,327.2827],[39.331,-14.3269,332.4894],[39.319,-14.3355,335.2682],[39.2818,-14.3706,338.8747],[39.2945,-14.4272,365.2942],[39.3008,-14.4449,371.8092],[39.3007,-14.464,376.0883],[39.2942,-14.4854,388.2858],[39.2871,-14.4922,380.8149],[39.2875,-14.5163,400.0227],[39.2982,-14.5188,418.1346],[39.302,-14.5248,417.7922],[39.3022,-14.5342,412.8646],[39.2923,-14.5389,430.5849],[39.2859,-14.5481,424.9558],[39.2871,-14.5542,438.9121],[39.2979,-14.5733,450.9965],[39.3148,-14.5918,491.4977],[39.3366,-14.6119,492.3095],[39.3509,-14.6222,480.5476],[39.3717,-14.6341,485.8504],[39.3986,-14.6715,431.6024],[39.419,-14.6912,403.5802],[39.4287,-14.6828,399.7839],[39.446,-14.6819,382.2966],[39.4641,-14.6906,381.7879],[39.5063,-14.7005,358.1581],[39.5081,-14.6952,366.9388],[39.5189,-14.68,370.1406],[39.5425,-14.6542,374.8493],[39.5479,-14.6423,395.1296],[39.5653,-14.6273,373.2757],[39.5821,-14.629,369.7355],[39.597,-14.6326,350.5341],[39.6167,-14.6338,335.084],[39.6302,-14.6478,327.4175],[39.631,-14.6602,316.2453],[39.6554,-14.6499,386.2907],[39.6756,-14.6368,359.1928],[39.6842,-14.6264,346.7915],[39.6833,-14.6188,350.1904],[39.6552,-14.6151,364.7364],[39.6457,-14.579,395.9146],[39.6315,-14.5608,406.9221],[39.6174,-14.546,393.3886],[39.6123,-14.5368,372.2806],[39.6052,-14.5154,357.8993],[39.6178,-14.4723,342.3013],[39.6182,-14.4625,330.833],[39.6358,-14.4529,321.8705],[39.6438,-14.4439,316.3781],[39.6572,-14.4328,321.3689],[39.6727,-14.4334,301.5237],[39.6813,-14.4252,302.0069],[39.6788,-14.4201,297.9742],[39.6661,-14.4217,300.5292],[39.6627,-14.4174,304.6842],[39.6619,-14.4128,304.6505],[39.6541,-14.4087,311.1559],[39.6491,-14.4024,308.1251],[39.642,-14.3989,315.7216],[39.637,-14.4039,313.8439],[39.6322,-14.4134,319.1732],[39.6182,-14.4043,320.9255],[39.6093,-14.4043,318.0866],[39.6042,-14.3945,328.3356],[39.5747,-14.3789,337.1571],[39.5618,-14.3803,338.8923],[39.5481,-14.3748,347.3059],[39.5413,-14.377,347.7242],[39.5203,-14.3886,365.1923],[39.5109,-14.3895,373.3456],[39.5056,-14.3877,382.2565],[39.4961,-14.3776,404.2216],[39.482,-14.3669,417.1258],[39.4701,-14.3512,365.9311],[39.4502,-14.3403,347.044],[39.4373,-14.336,338.3782],[39.4302,-14.3268,321.9777],[39.4245,-14.325,316.3801],[39.4147,-14.3067,307.6162]]]]}}