{"type": "Feature","bbox": [35.6169,-13.9684,36.6088,-13.369],"geometry": {"type": "MultiPolygon","coordinates": [[[[35.6169,-13.5504,800.4264],[35.6691,-13.5807,843.4706],[35.709,-13.5926,915.0374],[35.7643,-13.6046,1018.1613],[35.7643,-13.6255,852.8412],[35.7674,-13.6374,810.6036],[35.8718,-13.6702,832.3782],[35.9066,-13.6858,791.8],[35.9292,-13.7012,744.4689],[35.9424,-13.706,714.5002],[35.9653,-13.7087,690.5784],[35.9701,-13.7179,681.094],[36.0038,-13.7328,668.1962],[36.0329,-13.7357,659.3831],[36.0591,-13.7865,634.9091],[36.0832,-13.7912,630.9592],[36.092,-13.797,633.0041],[36.1052,-13.8253,616.3203],[36.1252,-13.842,607.579],[36.1067,-13.8457,605.3303],[36.0933,-13.8503,610.9169],[36.0844,-13.8493,605.3768],[36.079,-13.8518,603.8362],[36.0714,-13.864,607.8878],[36.0714,-13.8819,604.9874],[36.0602,-13.8928,611.7339],[36.0591,-13.9066,610.2379],[36.0515,-13.9169,612.1942],[36.0509,-13.924,616.3514],[36.0647,-13.9285,624.5703],[36.0956,-13.9551,622.3574],[36.1175,-13.9684,629.8228],[36.1359,-13.9535,685.5367],[36.2925,-13.876,683.9963],[36.3939,-13.8402,673.528],[36.3939,-13.827,681.0784],[36.4243,-13.7904,651.0261],[36.4322,-13.7871,632.7255],[36.4412,-13.7859,643.0015],[36.4593,-13.7901,643.3988],[36.4709,-13.7911,663.4316],[36.5119,-13.7903,658.7402],[36.5235,-13.7922,664.9417],[36.5628,-13.7925,693.0715],[36.5858,-13.7813,719.8423],[36.5903,-13.7721,730.375],[36.5883,-13.7659,756.3807],[36.5935,-13.7507,788.7224],[36.6088,-13.7269,819.892],[36.6022,-13.716,813.9709],[36.5859,-13.711,768.3657],[36.5724,-13.7,747.5612],[36.5382,-13.703,705.4814],[36.5167,-13.709,695.553],[36.4952,-13.6881,680.4337],[36.4829,-13.6702,668.5636],[36.4706,-13.6612,672.4825],[36.4638,-13.6596,659.3989],[36.4596,-13.6522,663.4798],[36.4531,-13.647,648.2425],[36.4461,-13.6344,646.0748],[36.4492,-13.6255,639.4984],[36.4461,-13.6076,632.0022],[36.4312,-13.584,633.1619],[36.424,-13.5676,609.5823],[36.4234,-13.5538,607.5006],[36.4319,-13.5401,595.4783],[36.4449,-13.5084,586.0347],[36.4418,-13.4789,592.0538],[36.4422,-13.4432,577.1434],[36.4362,-13.4019,566.4683],[36.4415,-13.3799,573.2996],[36.4415,-13.369,571.6165],[36.4369,-13.369,594.9921],[36.3969,-13.4018,610.0121],[36.3509,-13.3898,605.6143],[36.3447,-13.4197,626.201],[36.3299,-13.4556,595.4282],[36.3325,-13.4823,613.9594],[36.259,-13.5792,602.2493],[36.2535,-13.5838,598.6566],[36.1613,-13.5891,612.9667],[36.1486,-13.5877,630.7349],[36.1021,-13.5539,623.1573],[36.0376,-13.5479,675.5721],[36.017,-13.499,701.7048],[36.0131,-13.4823,691.9246],[36.0223,-13.4674,694.2468],[36.0197,-13.4551,686.1639],[36.0591,-13.4286,697.1104],[36.0192,-13.4018,659.1934],[35.9917,-13.3884,669.299],[35.9455,-13.4137,685.4696],[35.9332,-13.4137,683.3737],[35.9025,-13.4047,708.9066],[35.8626,-13.4018,714.8907],[35.8643,-13.398,695.7876],[35.8624,-13.3971,697.6356],[35.853,-13.3979,709.4689],[35.8476,-13.4057,715.2747],[35.8247,-13.4122,714.3245],[35.8164,-13.4223,721.2474],[35.8071,-13.4414,736.8627],[35.8085,-13.4528,732.9727],[35.8069,-13.4593,749.7451],[35.8017,-13.4662,748.0167],[35.7772,-13.4837,752.0616],[35.7714,-13.4923,750.1802],[35.7586,-13.5026,772.8081],[35.7487,-13.5033,769.4537],[35.6929,-13.5286,780.0787],[35.6481,-13.5361,802.345],[35.63,-13.5423,792.7371],[35.6212,-13.5464,812.4557],[35.6169,-13.5504,800.4264]]]]}
,"properties": {"GID_3": "MOZ.8.4.3_1","GID_0": "MOZ","country": "Mozambique","GID_1": "MOZ.8_1","province": "Nassa","NL_NAME_1": "NA","GID_2": "MOZ.8.4_1","county": "Majune","NL_NAME_2": "NA","city": "Nairrubi","VARNAME_3": "NA","NL_NAME_3": "NA","TYPE_3": "Localidad","ENGTYPE_3": "Locality","CC_3": "NA","HASC_3": "NA","name": "Nairrubi.city","area_km2": 2907.88,"hist_schema_id": "Elevation0-9000","hist_area_km2": {"575": 39.781,"600": 285.571,"625": 634.023,"650": 526.37,"675": 358.202,"700": 277.62,"725": 243.182,"750": 178.354,"775": 151.556,"800": 89.317,"825": 61.829,"850": 29.719,"875": 11.706,"900": 6.369,"925": 4.266,"950": 2.988,"975": 2.247,"1000": 1.484,"1025": 0.969,"1050": 0.701,"1075": 0.618,"1100": 0.33,"1125": 0.289,"1150": 0.185,"1175": 0.062,"1200": 0.062,"1225": 0.041}}}