{"type":"Feature","properties":{"GID_2":"MOZ.8.3_1","GID_0":"MOZ","country":"Mozambique","GID_1":"MOZ.8_1","province":"Nassa","NL_NAME_1":"NA","county":"Lichinga","VARNAME_2":"NA","NL_NAME_2":"NA","TYPE_2":"Distrito","ENGTYPE_2":"District","CC_2":"NA","HASC_2":"MZ.NS.LI","name":"Lichinga.county"},
"geometry":{"type": "MultiPolygon","coordinates": [[[[34.8664,-13.4819,474.5],[34.9638,-13.5809,572.1866],[35.0867,-13.6965,638.2184],[35.1623,-13.7968,716.1917],[35.1623,-13.7939,714.7803],[35.1699,-13.7784,911.2086],[35.1741,-13.7805,764.9184],[35.1824,-13.7741,805.0491],[35.2003,-13.7473,996.1278],[35.2716,-13.7424,1184.6638],[35.2766,-13.7386,1165.0098],[35.2771,-13.7267,1167.6692],[35.2818,-13.7156,1164.4492],[35.3053,-13.7133,1145.3276],[35.3146,-13.7186,1146.4351],[35.3217,-13.7197,1126.5497],[35.331,-13.7094,1112.2902],[35.3381,-13.7096,1092.6957],[35.3677,-13.7015,1002.5114],[35.3771,-13.7035,990.2573],[35.3895,-13.6966,966.0242],[35.4071,-13.6761,949.0573],[35.4317,-13.6655,941.894],[35.4463,-13.6572,943.966],[35.4574,-13.6486,930.855],[35.4782,-13.6278,921.0455],[35.5047,-13.6111,897.6397],[35.5112,-13.6099,897.1868],[35.5291,-13.6008,895.4155],[35.5916,-13.5603,836.2606],[35.6025,-13.5597,817.0015],[35.6212,-13.5464,812.4557],[35.63,-13.5423,792.7371],[35.6481,-13.5361,802.345],[35.6929,-13.5286,780.0787],[35.7487,-13.5033,769.4537],[35.7586,-13.5026,772.8081],[35.7714,-13.4923,750.1802],[35.7772,-13.4837,752.0616],[35.8017,-13.4662,748.0167],[35.8069,-13.4593,749.7451],[35.8085,-13.4528,732.9727],[35.8071,-13.4414,736.8627],[35.8164,-13.4223,721.2474],[35.8247,-13.4122,714.3245],[35.8476,-13.4057,715.2747],[35.853,-13.3979,709.4689],[35.8643,-13.398,695.7876],[35.8705,-13.3843,713.1155],[35.8542,-13.3699,742.7784],[35.8462,-13.3663,733.3726],[35.8411,-13.362,739.8402],[35.8364,-13.3508,757.617],[35.8398,-13.2812,867.6808],[35.8553,-13.2838,831.2479],[35.8668,-13.2808,812.0266],[35.8817,-13.2746,809.5822],[35.8975,-13.2648,784.3934],[35.9197,-13.257,791.5757],[35.9272,-13.2466,773.0984],[35.9183,-13.2299,755.7698],[35.9126,-13.2271,786.3425],[35.9008,-13.2273,808.0424],[35.8879,-13.2222,812.3395],[35.8706,-13.2183,903.953],[35.8456,-13.2262,838.5155],[35.8195,-13.2267,849.8295],[35.8037,-13.2288,834.6413],[35.7888,-13.227,854.9465],[35.7689,-13.2273,922.2015],[35.7514,-13.2368,928.2805],[35.7261,-13.247,898.1468],[35.7085,-13.2466,966.7772],[35.7011,-13.2485,945.6636],[35.6792,-13.2395,988.7534],[35.6583,-13.2254,1017.1891],[35.649,-13.2216,1003.0332],[35.6222,-13.2054,1040.8125],[35.5882,-13.205,1053.491],[35.5359,-13.1745,1162.3972],[35.5338,-13.1903,1318.1858],[35.4998,-13.1825,1155.0686],[35.4824,-13.1752,1128.9858],[35.4771,-13.1694,1133.1484],[35.4367,-13.1621,1105.7812],[35.418,-13.1401,1086.618],[35.4016,-13.1465,1112.5],[35.3821,-13.1451,1130.0837],[35.3659,-13.1516,1118.4385],[35.3374,-13.1564,1155.6736],[35.3211,-13.1566,1189.0442],[35.3157,-13.1559,1222.1146],[35.3107,-13.1468,1281.2039],[35.2557,-13.1365,1297.6643],[35.2408,-13.1291,1159.4727],[35.238,-13.122,1178.5758],[35.2159,-13.1236,1205.4027],[35.1786,-13.1406,1308.3774],[35.1203,-13.1195,1127.9075],[35.1059,-13.0851,889.5179],[35.0842,-13.0716,861.6555],[35.0658,-13.0899,860.8911],[35.0234,-13.1126,825.3445],[35.0049,-13.1285,790.9853],[34.9788,-13.1605,770.9911],[34.9758,-13.1217,1053.8899],[34.9758,-13.0889,1160.2349],[34.9727,-13.0621,1274.6901],[34.9696,-13.0591,1230.6118],[34.9543,-13.077,1093.51],[34.936,-13.0889,977.6995],[34.9237,-13.0889,989.3719],[34.9114,-13.08,962.149],[34.9088,-13.081,937.7088],[34.9076,-13.0848,973.6774],[34.8956,-13.0863,968.2478],[34.8839,-13.0949,877.9321],[34.8716,-13.0979,876.1131],[34.8563,-13.1068,816.0319],[34.8363,-13.0928,721.2605],[34.5393,-13.1998,474.5],[34.5394,-13.2492,474.5],[34.5363,-13.2768,474.5],[34.5311,-13.3016,474.5],[34.5209,-13.3372,474.5],[34.5237,-13.3581,474.5],[34.5274,-13.3669,474.5],[34.5384,-13.3777,474.5],[34.5448,-13.3885,474.5],[34.5487,-13.3892,474.5],[34.5614,-13.4031,474.5],[34.5773,-13.4289,474.5],[34.5951,-13.4723,474.5],[34.6035,-13.4818,474.5],[34.6792,-13.4822,474.5],[34.7589,-13.4788,474.5],[34.8369,-13.4808,474.5],[34.8484,-13.4787,474.5],[34.8614,-13.4792,474.5],[34.8664,-13.4819,474.5]]]]}}