{"type":"Feature","properties":{"GID_2":"MOZ.1.2_1","GID_0":"MOZ","country":"Mozambique","GID_1":"MOZ.1_1","province":"CaboDelgado","NL_NAME_1":"NA","county":"Balama","VARNAME_2":"NA","NL_NAME_2":"NA","TYPE_2":"Distrito","ENGTYPE_2":"District","CC_2":"NA","HASC_2":"MZ.CD.BA","name":"Balama.county"},
"geometry":{"type": "MultiPolygon","coordinates": [[[[38.5902,-13.57,744.9314],[38.5965,-13.5103,1127.1584],[38.6433,-13.5036,1081.8386],[38.7041,-13.4916,510.539],[38.7015,-13.4911,515.8383],[38.6954,-13.4792,514.5715],[38.6831,-13.4673,547.1038],[38.6761,-13.4437,578.6509],[38.6755,-13.4354,560.892],[38.6877,-13.4237,549.8279],[38.6951,-13.4197,543.5132],[38.7058,-13.4081,535.3914],[38.7327,-13.3911,521.7655],[38.7538,-13.3712,509.4574],[38.7643,-13.3588,507.4083],[38.7717,-13.3539,503.2604],[38.7993,-13.3154,493.404],[38.8083,-13.3079,495.8388],[38.8241,-13.2831,475.9917],[38.8258,-13.2758,473.2677],[38.8216,-13.2681,474.3578],[38.8206,-13.2609,472.3071],[38.8127,-13.2597,466.6597],[38.8077,-13.2645,468.8673],[38.7936,-13.2666,473.3751],[38.7854,-13.2728,471.2386],[38.7503,-13.257,752.8538],[38.7437,-13.2467,585.0169],[38.7378,-13.2437,564.897],[38.7347,-13.2383,553.2377],[38.7245,-13.2313,533.529],[38.7081,-13.1916,495.8203],[38.7037,-13.1858,490.0284],[38.689,-13.1439,480.2014],[38.6586,-13.124,494.8972],[38.5738,-13.0248,890.9508],[38.5779,-13.0162,641.269],[38.5878,-13.0068,453.8325],[38.5847,-13.002,446.4937],[38.5864,-12.9982,437.3769],[38.5859,-12.9956,426.053],[38.5915,-12.9876,418.4531],[38.5914,-12.9832,414.5647],[38.5989,-12.9692,401.1618],[38.6005,-12.9595,388.2473],[38.5967,-12.9504,385.0487],[38.5877,-12.9416,378.211],[38.5795,-12.9395,375.0006],[38.5589,-12.9176,373.354],[38.554,-12.9148,360.1821],[38.5475,-12.917,362.9679],[38.5352,-12.9285,367.5828],[38.5322,-12.9379,367.8856],[38.5247,-12.9445,370.7712],[38.5153,-12.9458,376.7187],[38.5047,-12.9437,377.0672],[38.4913,-12.9667,380.9443],[38.4782,-12.9729,372.63],[38.4631,-12.9745,381.244],[38.4518,-12.9727,381.1505],[38.44,-12.9655,387.1827],[38.4284,-12.9625,385.0586],[38.4217,-12.9629,384.9518],[38.4105,-12.9711,384.1209],[38.4054,-12.9817,386.0953],[38.3987,-12.9853,386.1689],[38.383,-12.9919,384.4754],[38.3689,-12.9909,385.9487],[38.3535,-12.993,395.9758],[38.3503,-12.9972,389.3133],[38.3508,-13.003,395.2749],[38.3472,-13.0052,397.3413],[38.3215,-13.0081,405.9452],[38.318,-13.0102,397.4905],[38.3151,-13.0227,401.5709],[38.3003,-13.0401,406.0102],[38.2947,-13.0418,406.8242],[38.2864,-13.0481,407.0424],[38.2868,-13.0593,410.7116],[38.2828,-13.0692,412.7969],[38.2744,-13.074,423.6262],[38.2624,-13.0687,417.3086],[38.2582,-13.0786,438.4679],[38.2577,-13.0897,422.2672],[38.2546,-13.0952,425.6656],[38.2362,-13.0975,424.748],[38.2274,-13.0923,429.5811],[38.2201,-13.1019,414.8884],[38.2156,-13.1124,416.6418],[38.2123,-13.1132,423.1614],[38.2169,-13.1276,427.8154],[38.2153,-13.1336,429.2211],[38.2183,-13.1449,430.8487],[38.2186,-13.1694,434.258],[38.2064,-13.185,436.7142],[38.1999,-13.215,446.1395],[38.2002,-13.2206,446.496],[38.2021,-13.2224,448.3513],[38.1806,-13.2761,470.902],[38.1837,-13.291,485.3811],[38.1784,-13.3052,470.8257],[38.1737,-13.3108,469.9658],[38.1561,-13.3238,477.6673],[38.1469,-13.3417,480.9795],[38.1404,-13.348,489.4159],[38.1274,-13.3527,496.6605],[38.1086,-13.3548,499.9503],[38.0615,-13.3875,507.1431],[38.047,-13.4001,514.1075],[38.04,-13.411,520.6313],[38.0452,-13.4371,549.1439],[38.0643,-13.5022,619.2236],[38.0859,-13.4945,578.8643],[38.1047,-13.4899,544.8267],[38.1144,-13.5123,522.2415],[38.1333,-13.5257,512.3842],[38.1454,-13.552,505.6037],[38.1449,-13.5762,496.6505],[38.1506,-13.5982,490.9099],[38.1489,-13.6232,485.7274],[38.146,-13.6406,484.3575],[38.1572,-13.6609,468.9462],[38.1588,-13.6668,470.2161],[38.1726,-13.6716,463.8282],[38.1736,-13.6802,461.7587],[38.1682,-13.6914,455.7322],[38.1663,-13.7204,449.8878],[38.1639,-13.7247,444.5901],[38.1626,-13.7459,444.2076],[38.1642,-13.75,439.2183],[38.1704,-13.7543,440.4413],[38.169,-13.7594,433.5435],[38.1709,-13.7701,433.5186],[38.1836,-13.7742,434.3757],[38.1831,-13.7862,434.6776],[38.201,-13.8022,435.5155],[38.2027,-13.8063,425.8947],[38.2012,-13.8139,437.171],[38.2018,-13.8245,463.3141],[38.2032,-13.8269,419.0337],[38.2065,-13.8279,419.6202],[38.2082,-13.8312,424.4647],[38.2134,-13.8334,418.8152],[38.2117,-13.839,419.245],[38.2141,-13.8465,414.5896],[38.2217,-13.8567,409.377],[38.2274,-13.8592,410.5375],[38.2323,-13.8681,411.9148],[38.2397,-13.8734,406.9246],[38.242,-13.8811,405.795],[38.2509,-13.8885,403.4524],[38.2523,-13.8979,402.0115],[38.2589,-13.911,401.3327],[38.2597,-13.9236,395.643],[38.2578,-13.9311,394.1434],[38.2615,-13.9363,392.6218],[38.2687,-13.9377,388.6566],[38.273,-13.9406,389.8742],[38.2777,-13.9475,387.2574],[38.2756,-13.9529,390.3062],[38.281,-13.9619,382.1355],[38.2875,-13.9659,390.6039],[38.2878,-13.9766,378.9167],[38.2798,-13.9927,377.6985],[38.2817,-13.9989,377.8975],[38.3044,-14.0204,369.7658],[38.3107,-14.0319,367.0954],[38.3201,-14.0378,368.2235],[38.3256,-14.0464,363.373],[38.337,-14.0591,362.9688],[38.3394,-14.0611,358.458],[38.3484,-14.0563,360.399],[38.3467,-14.0673,354.5167],[38.3603,-14.0868,353.2216],[38.3633,-14.1048,349.9477],[38.3769,-14.1082,348.9703],[38.3867,-14.1084,348.8153],[38.3984,-14.1271,346.4903],[38.4299,-14.1145,345.4547],[38.4406,-14.1139,341.2453],[38.4697,-14.1216,338.9105],[38.4815,-14.1269,338.0344],[38.5103,-14.1516,328.8763],[38.5224,-14.1555,333.4475],[38.5334,-14.1515,333.1233],[38.5437,-14.1451,332.7483],[38.556,-14.1441,330.2352],[38.5475,-14.1407,330.9344],[38.543,-14.136,340.9456],[38.5362,-14.1321,333.273],[38.5291,-14.1214,340.0975],[38.5158,-14.111,338.7301],[38.5151,-14.1015,343.1957],[38.5225,-14.0956,345.4319],[38.5275,-14.0885,343.0367],[38.5272,-14.0821,346.9882],[38.508,-14.058,349.0676],[38.5021,-14.0569,353.5204],[38.4954,-14.0531,348.4279],[38.4827,-14.0516,353.232],[38.4723,-14.0212,355.6972],[38.459,-13.9984,362.4657],[38.4516,-13.9976,364.1333],[38.4474,-13.9891,364.7525],[38.4434,-13.9851,365.4398],[38.4456,-13.9825,366.2273],[38.4444,-13.9804,364.5497],[38.4328,-13.9718,369.0188],[38.4326,-13.9663,371.8515],[38.4344,-13.9585,371.7506],[38.4401,-13.9479,375.7867],[38.4411,-13.9299,382.2475],[38.4462,-13.9235,382.4562],[38.447,-13.9142,384.679],[38.4614,-13.8893,393.3492],[38.4694,-13.8807,391.913],[38.47,-13.8748,394.7563],[38.4756,-13.8675,397.0701],[38.4742,-13.8644,394.7628],[38.4877,-13.8398,404.8344],[38.4877,-13.8361,410.0615],[38.4977,-13.8095,421.9922],[38.4977,-13.7887,429.9852],[38.5235,-13.7449,453.7549],[38.5177,-13.6968,489.2757],[38.5232,-13.6852,500.2738],[38.5477,-13.6499,541.0306],[38.5735,-13.6365,496.4817],[38.5902,-13.57,744.9314]]]]}}