{"type":"Feature","properties":{"GID_2":"MOZ.1.12_1","GID_0":"MOZ","country":"Mozambique","GID_1":"MOZ.1_1","province":"CaboDelgado","NL_NAME_1":"NA","county":"Nangade","VARNAME_2":"NA","NL_NAME_2":"NA","TYPE_2":"Distrito","ENGTYPE_2":"District","CC_2":"NA","HASC_2":"MZ.CD.NG","name":"Nangade.county"},
"geometry":{"type": "MultiPolygon","coordinates": [[[[40.0193,-11.3135,161.2697],[40.0182,-11.2463,152.4593],[40.0083,-11.1646,146.1111],[40.0226,-11.111,125.1788],[40.0833,-11.0666,113.7579],[40.0021,-10.9953,142.6411],[39.9827,-10.9713,147.3349],[39.993899999999996,-10.9588,134.4259],[39.969,-10.9301,154.9079],[39.9767,-10.868,148.2438],[39.9851,-10.8566,107.3147],[39.9865,-10.8521,113.2292],[39.9806,-10.837,25.8994],[39.9837,-10.8319,26.3877],[39.9891,-10.8273,25.5416],[39.9849,-10.8173,24.7635],[39.9662,-10.8253,24.0],[39.9558,-10.8259,24.5],[39.9435,-10.8296,25.0],[39.9325,-10.8298,25.5],[39.8879,-10.846,27.5],[39.8706,-10.8564,31.2689],[39.8602,-10.8682,29.0],[39.8431,-10.8798,32.8181],[39.8398,-10.8803,30.0],[39.7994,-10.9046,32.5],[39.7859,-10.9107,33.5],[39.7757,-10.9108,34.4613],[39.7248,-10.9358,37.0],[39.6945,-10.946,39.0],[39.681,-10.9473,41.1452],[39.6633,-10.946,41.7334],[39.6291,-10.9496,43.0],[39.6059,-10.9564,44.6471],[39.5935,-10.9619,45.0],[39.581,-10.9701,46.4904],[39.5584,-10.9787,47.4799],[39.5296,-10.9854,49.0],[39.5203,-10.9908,49.5],[39.5006,-11.011,51.0],[39.4963,-11.0135,51.5],[39.5032,-11.0183,53.4252],[39.5184,-11.0353,53.5474],[39.5184,-11.0588,50.0],[39.5275,-11.0835,57.4306],[39.5339,-11.1104,97.1365],[39.5458,-11.1785,129.7482],[39.5429,-11.2212,213.3551],[39.5336,-11.2707,246.5719],[39.5119,-11.3113,328.6646],[39.5022,-11.3235,384.9482],[39.5023,-11.334,530.0813],[39.5232,-11.3844,657.3964],[39.793,-11.4433,374.4476],[39.8399,-11.4073,341.1176],[39.8582,-11.3955,367.4091],[39.8816,-11.389,315.9635],[39.9046,-11.3799,275.2224],[39.947,-11.3376,211.3478],[39.9767,-11.3304,182.2674],[40.0193,-11.3135,161.2697]]]]}}