{"type": "Feature","bbox": [40.6438,-15.0929,40.7885,-15.009],"geometry": {"type": "MultiPolygon","coordinates": [[[[40.7738,-15.0754,0.0],[40.7704,-15.0768,0.5339],[40.7693,-15.0793,3.0107],[40.766,-15.0793,0.0],[40.7701,-15.0813,0.2613],[40.7726,-15.086,0.0],[40.7754,-15.0821,0.0],[40.7738,-15.0754,0.0]]],
[[[40.7863,-15.0507,0.0],[40.7818,-15.051,0.0],[40.781,-15.0551,0.0],[40.7871,-15.0554,0.0],[40.7885,-15.051,0.0],[40.7863,-15.0507,0.0]]],
[[[40.666,-15.0101,7.2632],[40.6657,-15.009,1.3874],[40.6617,-15.0117,3.2679],[40.6465,-15.032,7.439],[40.6438,-15.058,11.5175],[40.6473,-15.0825,2.4341],[40.6446,-15.0862,0.5585],[40.6596,-15.0907,1.8397],[40.6771,-15.0929,1.5017],[40.689,-15.0907,0.0],[40.7049,-15.0851,0.9721],[40.7093,-15.0807,2.5441],[40.7099,-15.0738,0.0],[40.7049,-15.0726,3.3458],[40.6937,-15.0537,2.2336],[40.6937,-15.0488,4.0014],[40.6963,-15.0437,2.7198],[40.6957,-15.0332,2.0852],[40.6926,-15.031,0.0],[40.6901,-15.0321,0.8301],[40.6849,-15.0312,0.0],[40.6832,-15.0285,0.0],[40.679,-15.0274,0.7417],[40.6782,-15.0249,1.442],[40.6743,-15.0243,1.3543],[40.6715,-15.0215,4.2391],[40.6682,-15.0118,8.6298],[40.666,-15.0101,7.2632]]],
[[[40.7449,-15.0285,0.0],[40.7365,-15.0304,3.8691],[40.7301,-15.0354,1.6965],[40.7274,-15.0401,0.0],[40.726,-15.0482,0.0],[40.7318,-15.0449,0.0],[40.7318,-15.041,9.424],[40.7351,-15.0365,1.7728],[40.7399,-15.0321,12.8304],[40.7426,-15.0321,0.0],[40.7449,-15.0285,0.0]]]]}
,"properties": {"GID_3": "MOZ.7.12.1_1","GID_0": "MOZ","country": "Mozambique","GID_1": "MOZ.7_1","province": "Nampula","NL_NAME_1": "NA","GID_2": "MOZ.7.12_1","county": "Mossuril","NL_NAME_2": "NA","city": "IlhaDeMocambique(Cidade)","VARNAME_3": "NA","NL_NAME_3": "NA","TYPE_3": "Localidad","ENGTYPE_3": "Locality","CC_3": "NA","HASC_3": "NA","name": "Ilha_De_Mocambique(Cidade).city","area_km2": 45.06378,"hist_schema_id": "Elevation0-9000","hist_area_km2": {"0": 37.36531,"25": 7.69847}}}