{"type": "Feature","bbox": [33.0207,-15.2838,34.0782,-14.1486],"geometry": {"type": "MultiPolygon","coordinates": [[[[33.186,-15.0769,511.6482],[33.1801,-15.0812,511.5156],[33.1948,-15.0891,522.1383],[33.2023,-15.0983,526.7795],[33.2074,-15.1004,529.0936],[33.2156,-15.1006,530.7435],[33.2245,-15.0946,535.8229],[33.2355,-15.1023,540.9602],[33.2466,-15.1004,547.8721],[33.2619,-15.104,558.2929],[33.27,-15.1019,563.0748],[33.3005,-15.1029,580.1777],[33.3115,-15.1082,589.7749],[33.3189,-15.1098,592.6232],[33.3268,-15.1077,596.294],[33.3489,-15.1128,619.7649],[33.355,-15.1189,603.9538],[33.4016,-15.1541,883.1472],[33.4059,-15.1557,875.2226],[33.4326,-15.1502,588.9962],[33.4477,-15.1822,566.3236],[33.4654,-15.2036,545.8425],[33.4772,-15.2057,539.1244],[33.4815,-15.2096,538.0971],[33.4971,-15.2169,522.5779],[33.511,-15.2291,515.7993],[33.5369,-15.2342,562.0574],[33.5907,-15.2378,1001.0392],[33.6468,-15.254,946.0104],[33.6665,-15.2838,1133.5687],[33.7718,-15.2585,947.83989999999994],[33.777,-15.2187,921.373],[33.7815,-15.2008,895.8898],[33.7837,-15.1834,915.1307],[33.7832,-15.1762,908.1839],[33.7631,-15.1721,913.9886],[33.7623,-15.1416,928.2187],[33.7644,-15.1211,955.6127],[33.7698,-15.1176,960.625],[33.7848,-15.0937,1080.3617],[33.7975,-15.0866,1283.0366],[33.8395,-15.1223,873.1228],[33.8495,-15.1235,837.4702],[33.8589,-15.1278,823.8771],[33.8671,-15.135,817.0656],[33.8801,-15.1397,803.0454],[33.8923,-15.1402,781.3306],[33.9135,-15.1459,787.7866],[33.9275,-15.1472,750.3335],[33.9698,-15.1567,715.1608],[33.9829,-15.2003,703.0946],[33.9835,-15.2096,698.8404],[33.9935,-15.2074,700.2622],[33.9972,-15.2086,701.1493],[33.9978,-15.218,704.1756],[34.0084,-15.2247,675.8693],[34.0137,-15.2191,719.6068],[34.0235,-15.1971,720.515],[34.0395,-15.1856,743.4949],[34.0418,-15.1685,736.1526],[34.0456,-15.1636,738.6537],[34.0586,-15.1546,742.4794],[34.0675,-15.1346,773.2731],[34.074,-15.1036,782.7048],[34.0736,-15.0907,796.0114],[34.0782,-15.0836,801.0803],[34.0775,-15.078,828.4043],[34.0672,-15.0652,813.5212],[34.0555,-15.0398,815.8447],[34.051,-15.0177,822.4762],[34.0418,-14.9854,856.1766],[34.0367,-14.9822,856.537],[34.0317,-14.9732,871.0357],[34.0335,-14.9541,877.3472],[34.0305,-14.9473,886.0685],[34.0269,-14.9459,890.8351],[34.0215,-14.9365,900.1531],[34.0208,-14.9273,924.4115],[34.0227,-14.9118,931.5745],[34.0211,-14.8906,941.3331],[34.0162,-14.8649,948.3345],[34.008,-14.854,953.0794],[33.9835,-14.8369,961.2814],[33.9742,-14.8252,968.6575],[33.9655,-14.8197,958.6139],[33.9673,-14.8111,1060.3131],[33.9719,-14.8047,999.4437],[33.9635,-14.7984,992.4276],[33.9505,-14.7935,1004.7983],[33.9472,-14.7901,1007.2227],[33.9481,-14.7836,1008.3093],[33.9464,-14.775,999.4354],[33.926,-14.7708,1017.385],[33.9195,-14.7642,1018.7832],[33.9174,-14.7567,1023.7544],[33.9078,-14.7505,1038.2957],[33.8987,-14.7349,1038.7371],[33.8887,-14.7241,1064.4971],[33.8814,-14.7233,1047.6472],[33.8796,-14.7147,1055.1531],[33.8712,-14.707,1058.3514],[33.8552,-14.6846,1074.2129],[33.8469,-14.6809,1078.8942],[33.8405,-14.6719,1108.589],[33.8179,-14.6476,1109.0968],[33.8181,-14.6373,1113.347],[33.8062,-14.6319,1132.5173],[33.788,-14.5987,1168.3011],[33.7791,-14.5964,1188.0188],[33.7788,-14.5902,1225.9614],[33.7635,-14.5536,1219.6079],[33.7554,-14.5394,1234.4065],[33.747,-14.5317,1239.1597],[33.7417,-14.5191,1263.5229],[33.7178,-14.4927,1295.1389],[33.71,-14.4987,1291.6089],[33.7061,-14.5217,1286.3899],[33.7009,-14.5341,1334.5057],[33.7025,-14.5479,1330.6484],[33.7132,-14.5718,1356.5366],[33.707,-14.5764,1331.1035],[33.7047,-14.581,1347.4835],[33.6907,-14.5917,1385.9097],[33.6805,-14.605,1333.281],[33.6449,-14.5832,1351.311],[33.6377,-14.5705,1359.028],[33.6314,-14.5633,1353.808],[33.6274,-14.555,1348.1666],[33.6298,-14.5436,1389.4578],[33.6299,-14.5316,1421.1682],[33.6189,-14.5081,1460.9041],[33.5957,-14.4846,1674.441],[33.5861,-14.4795,1605.1063],[33.5731,-14.478,1616.6896],[33.5649,-14.4711,1652.6101],[33.5572,-14.4545,1613.3779],[33.5539,-14.4517,1651.7493],[33.5448,-14.4356,1649.9652],[33.5368,-14.4273,1582.2173],[33.5246,-14.4203,1445.5251],[33.5149,-14.4191,1409.9124],[33.4806,-14.4035,1517.876],[33.4743,-14.3975,1544.311],[33.4642,-14.3777,1537.1379],[33.4483,-14.3615,1504.189],[33.4468,-14.3454,1550.8754],[33.4384,-14.3279,1599.1814],[33.4241,-14.308,1595.6306],[33.4195,-14.297,1593.265],[33.4191,-14.2898,1583.2495],[33.4142,-14.2802,1550.8076],[33.4055,-14.2702,1525.0098],[33.3967,-14.2499,1487.985],[33.3819,-14.2342,1480.6542],[33.3794,-14.2245,1408.7531],[33.3792,-14.2158,1446.6738],[33.3748,-14.211,1484.2496],[33.3649,-14.2118,1391.1613],[33.361,-14.214,1329.6458],[33.3599,-14.2172,1348.1069],[33.357,-14.2176,1317.5024],[33.3516,-14.2169,1329.4075],[33.342,-14.2124,1394.8656],[33.3379,-14.2059,1437.09],[33.3367,-14.1993,1433.1257],[33.3288,-14.1819,1317.5847],[33.315,-14.163,1337.4371],[33.3097,-14.1619,1350.609],[33.3078,-14.1521,1305.3851],[33.3008,-14.1486,1342.3193],[33.2429,-14.1728,1410.9828],[33.2445,-14.2435,1046.2561],[33.2394,-14.3027,1343.2573],[33.2144,-14.3343,1139.0227],[33.2114,-14.3441,1070.6624],[33.2179,-14.3728,945.7305],[33.2155,-14.3822,910.7895],[33.2048,-14.3942,889.4008],[33.2027,-14.4029,867.6327],[33.2033,-14.4111,849.1881],[33.1889,-14.4215,851.1202],[33.1844,-14.4349,830.1224],[33.1917,-14.445,846.6144],[33.1948,-14.4632,814.4662],[33.187,-14.464,820.8267],[33.1767,-14.4686,798.2866],[33.1739,-14.4768,809.6853],[33.1757,-14.4852,791.7474],[33.1672,-14.4931,805.5397],[33.1608,-14.5154,752.6525],[33.1532,-14.5342,728.6924],[33.1341,-14.5385,718.2336],[33.1292,-14.5348,720.215],[33.1217,-14.5327,711.1793],[33.1137,-14.5344,710.6479],[33.1056,-14.5394,706.3496],[33.0993,-14.5478,688.1296],[33.0989,-14.5545,686.5693],[33.0842,-14.5578,688.9195],[33.0587,-14.556,651.2039],[33.0563,-14.5613,644.0741],[33.0549,-14.5704,638.8212],[33.04,-14.5815,678.053],[33.0413,-14.5922,629.9103],[33.0376,-14.6073,633.6191],[33.0357,-14.6404,591.6173],[33.0395,-14.6477,588.9734],[33.0395,-14.6532,597.1438],[33.0249,-14.6645,589.0892],[33.0213,-14.6688,589.0931],[33.0207,-14.6731,578.3195],[33.022,-14.6755,576.6385],[33.0315,-14.6778,582.4307],[33.0413,-14.6829,613.6143],[33.0656,-14.6788,613.8799],[33.0992,-14.6698,639.5508],[33.1154,-14.6719,647.1219],[33.1269,-14.6717,657.2089],[33.134,-14.6673,667.3136],[33.1517,-14.6609,673.6392],[33.1612,-14.6605,678.9285],[33.1709,-14.656,689.8561],[33.1811,-14.6547,698.0551],[33.1875,-14.6505,701.9263],[33.1894,-14.6417,708.9469],[33.1901,-14.6143,746.2925],[33.2083,-14.6246,957.9436],[33.224,-14.6269,1054.2324],[33.2474,-14.6247,720.7836],[33.2471,-14.6291,707.9666],[33.2373,-14.6457,694.2905],[33.2256,-14.6607,685.6583],[33.2109,-14.6757,683.6099],[33.2014,-14.6907,688.5209],[33.1964,-14.7295,662.6873],[33.1902,-14.7404,657.2396],[33.1804,-14.7374,651.4416],[33.1783,-14.7432,641.692],[33.1834,-14.7577,635.9255],[33.1779,-14.7902,623.1859],[33.1742,-14.798,621.0217],[33.1702,-14.8034,605.7853],[33.163,-14.8057,611.652],[33.1621,-14.812,605.0656],[33.1463,-14.8264,597.7899],[33.1351,-14.834,588.5081],[33.1893,-14.9742,719.1774],[33.1895,-15.0066,593.2983],[33.1915,-15.0179,562.8137],[33.2066,-15.0434,542.7578],[33.2088,-15.0498,536.5822],[33.208,-15.0566,529.8196],[33.2017,-15.0592,529.3121],[33.1997,-15.062,522.6498],[33.2012,-15.0651,524.4233],[33.1997,-15.0687,518.8237],[33.1917,-15.07,517.6221],[33.186,-15.0769,511.6482]]]]}
,"properties": {"GID_2": "MOZ.10.6_1","GID_0": "MOZ","country": "Mozambique","GID_1": "MOZ.10_1","province": "Tete","NL_NAME_1": "NA","county": "Macanga","VARNAME_2": "NA","NL_NAME_2": "NA","TYPE_2": "Distrito","ENGTYPE_2": "District","CC_2": "NA","HASC_2": "MZ.TE.MC","name": "Macanga.county","area_km2": 7214.122,"hist_schema_id": "Elevation0-9000","hist_area_km2": {"500": 0.287,"525": 15.821,"550": 38.048,"575": 67.862,"600": 148.449,"625": 179.151,"650": 161.676,"675": 139.134,"700": 152.932,"725": 168.342,"750": 174.158,"775": 190.447,"800": 216.348,"825": 251.049,"850": 261.057,"875": 244.189,"900": 240.634,"925": 231.014,"950": 214.516,"975": 213.405,"1000": 230.294,"1025": 230.756,"1050": 233.925,"1075": 241.345,"1100": 254.339,"1125": 254.432,"1150": 252.808,"1175": 258.028,"1200": 269.697,"1225": 291.879,"1250": 289.653,"1275": 247.775,"1300": 205.183,"1325": 172.381,"1350": 133.352,"1375": 86.332,"1400": 59.008,"1425": 43.398,"1450": 33.834,"1475": 25.868,"1500": 22.091,"1525": 19.402,"1550": 14.494,"1575": 11.208,"1600": 8.498,"1625": 6.117,"1650": 5.584,"1675": 3.203,"1700": 0.698}}}