{"type": "Feature","bbox": [32.7999,-16.3609,33.5344,-15.7489],"geometry": {"type": "MultiPolygon","coordinates": [[[[32.7999,-15.9754,464.5075],[32.8086,-15.9832,458.4303],[32.815,-15.9857,457.1999],[32.8235,-15.9857,454.0939],[32.8344,-15.9945,448.4555],[32.8411,-16.0063,436.045],[32.8463,-16.01,434.5388],[32.8519,-16.0103,432.9265],[32.8643,-16.0201,425.5061],[32.8691,-16.0343,421.2715],[32.8896,-16.0653,407.2579],[32.9094,-16.0871,407.5551],[32.9112,-16.1019,392.8123],[32.9185,-16.1141,389.187],[32.927,-16.1184,458.0951],[32.9405,-16.1214,387.5685],[32.9687,-16.1434,372.3344],[32.973,-16.1539,366.4856],[32.9803,-16.161,366.9407],[33.0,-16.1743,378.4211],[33.0018,-16.1809,355.2103],[33.0105,-16.1906,364.2685],[33.0291,-16.2,336.0529],[33.0372,-16.1996,335.9593],[33.0412,-16.2023,334.9389],[33.0469,-16.2015,332.7576],[33.0537,-16.2041,331.1732],[33.0861,-16.2076,318.3782],[33.0929,-16.2059,312.388],[33.1074,-16.2065,312.1133],[33.1203,-16.2041,309.5618],[33.1289,-16.2049,317.9207],[33.1359,-16.2115,301.3773],[33.1362,-16.2367,343.4673],[33.1417,-16.2484,382.6089],[33.1393,-16.2564,394.1799],[33.1389,-16.2743,433.4403],[33.1334,-16.2794,418.5282],[33.1297,-16.2906,397.7841],[33.1318,-16.3098,361.9664],[33.1393,-16.325,329.2643],[33.1428,-16.3305,323.2106],[33.15,-16.333,317.948],[33.1646,-16.3417,311.5898],[33.1787,-16.343,304.4796],[33.1912,-16.3513,291.6801],[33.2064,-16.3553,289.387],[33.2156,-16.3557,288.7473],[33.2225,-16.3609,284.4911],[33.2336,-16.3609,286.2553],[33.2477,-16.3544,307.1991],[33.264,-16.3517,292.1672],[33.2746,-16.3435,307.5669],[33.2918,-16.3225,345.6112],[33.2986,-16.31,363.4447],[33.3166,-16.2857,407.0307],[33.3317,-16.2815,435.0218],[33.3468,-16.272,482.9764],[33.3527,-16.2703,497.9669],[33.3656,-16.2805,442.9871],[33.3735,-16.2825,446.501],[33.3975,-16.2693,440.5462],[33.4131,-16.2654,419.8627],[33.4257,-16.2592,399.9852],[33.444,-16.2461,380.4347],[33.45,-16.2368,358.0003],[33.4698,-16.2319,341.5491],[33.4783,-16.2278,330.4297],[33.4715,-16.2149,313.6894],[33.4711,-16.2011,288.4227],[33.4753,-16.1922,272.7501],[33.4873,-16.1875,300.1347],[33.4947,-16.1864,257.1618],[33.497,-16.1882,247.0352],[33.5064,-16.1862,282.6759],[33.5187,-16.1779,209.4465],[33.5294,-16.1815,180.37],[33.5344,-16.1737,212.6437],[33.5159,-16.1593,160.4655],[33.4957,-16.147,161.3718],[33.4686,-16.1367,175.4258],[33.4527,-16.1245,169.8802],[33.439,-16.1109,167.548],[33.423,-16.0833,153.553],[33.4487,-16.0761,137.934],[33.4659,-16.0681,124.0],[33.4579,-16.0574,125.0],[33.4578,-16.0191,127.0],[33.447,-16.0061,128.625],[33.4297,-15.9915,130.0],[33.4063,-15.9853,154.4147],[33.3817,-15.9684,131.5],[33.3754,-15.9545,132.0],[33.3677,-15.9435,132.0],[33.3408,-15.918,134.3658],[33.3172,-15.9045,133.0],[33.2924,-15.8866,136.2955],[33.2847,-15.8733,134.0],[33.2593,-15.8495,134.75],[33.2338,-15.8124,135.5],[33.2256,-15.8041,143.7131],[33.1867,-15.7982,136.5],[33.1638,-15.7908,137.0],[33.1551,-15.7853,138.1029],[33.1395,-15.7665,142.421],[33.1174,-15.7498,173.5453],[33.1063,-15.7489,154.0695],[33.0787,-15.7591,182.8575],[33.0704,-15.769,193.407],[33.0628,-15.7739,206.6227],[33.0541,-15.7783,234.9711],[33.0458,-15.7801,240.1872],[33.0507,-15.7849,214.2768],[33.0479,-15.7942,276.9785],[33.0404,-15.7969,269.4872],[33.0423,-15.8038,246.6275],[33.0364,-15.8141,273.0009],[33.0334,-15.8234,291.6504],[33.0366,-15.8277,280.0047],[33.0349,-15.8305,291.8806],[33.0228,-15.8297,310.9211],[33.0225,-15.8345,307.1811],[33.026,-15.839,303.7733],[33.0229,-15.8412,307.0256],[33.0168,-15.8384,309.1336],[33.0122,-15.8387,342.0811],[33.0106,-15.8427,318.4721],[33.0064,-15.8451,318.1362],[33.0047,-15.8438,330.1393],[33.0032,-15.8455,329.0795],[33.0064,-15.85,329.7851],[33.0003,-15.8524,329.994],[32.9909,-15.8611,345.2273],[32.9784,-15.8609,345.8991],[32.976,-15.8557,351.6792],[32.9629,-15.8539,365.4911],[32.9538,-15.8555,353.5847],[32.9265,-15.8694,365.9125],[32.9255,-15.8743,365.3408],[32.9139,-15.8779,372.8184],[32.9117,-15.8814,379.0337],[32.9079,-15.8829,378.329],[32.9055,-15.8876,386.1629],[32.9078,-15.8938,380.3097],[32.8981,-15.914,386.4875],[32.8965,-15.9241,395.1437],[32.8974,-15.9318,400.455],[32.8942,-15.9411,407.0891],[32.8896,-15.948,416.8876],[32.8576,-15.9542,435.0669],[32.8531,-15.9632,432.8718],[32.8276,-15.9682,452.705],[32.8222,-15.9664,455.1248],[32.7999,-15.9754,464.5075]]]]}
,"properties": {"GID_3": "MOZ.10.3.3_1","GID_0": "MOZ","country": "Mozambique","GID_1": "MOZ.10_1","province": "Tete","NL_NAME_1": "NA","GID_2": "MOZ.10.3_1","county": "Changara","NL_NAME_2": "NA","city": "Mavara(Marara)","VARNAME_3": "NA","NL_NAME_3": "NA","TYPE_3": "Localidad","ENGTYPE_3": "Locality","CC_3": "NA","HASC_3": "NA","name": "Mavara(Marara).city","area_km2": 2706.375,"hist_schema_id": "Elevation0-9000","hist_area_km2": {"125": 27.217,"150": 29.598,"175": 58.611,"200": 74.738,"225": 86.913,"250": 131.823,"275": 192.87,"300": 286.513,"325": 351.218,"350": 426.209,"375": 406.682,"400": 302.012,"425": 188.402,"450": 81.932,"475": 27.567,"500": 13.687,"525": 8.574,"550": 5.03,"575": 2.301,"600": 1.954,"625": 0.957,"650": 0.448,"675": 0.468,"700": 0.183,"725": 0.122,"750": 0.204,"775": 0.102,"800": 0.041}}}