{"type": "Feature","bbox": [33.1548,-24.8626,35.604,-20.9571],"geometry": {"type": "MultiPolygon","coordinates": [[[[35.3354,-23.9965,1.5916],[35.3326,-23.9985,3.2544],[35.329,-24.0051,1.3954],[35.3307,-23.9932,0.0],[35.3332,-23.9907,0.0],[35.3324,-23.9835,2.1804],[35.3338,-23.9807,0.0],[35.3329,-23.9746,0.0],[35.3232,-23.956,0.2552],[35.3235,-23.9526,0.6231],[35.3288,-23.9449,0.3867],[35.3343,-23.9415,0.4812],[35.3357,-23.9421,0.3588],[35.3346,-23.9312,0.0],[35.3396,-23.9246,0.0],[35.3401,-23.9199,0.0],[35.3429,-23.9201,0.0],[35.3429,-23.9165,0.0],[35.3457,-23.911,0.2785],[35.346,-23.9079,0.3497],[35.3418,-23.904,0.3641],[35.3376,-23.8932,6.2647],[35.3368,-23.8862,0.9476],[35.339,-23.8785,0.0],[35.3449,-23.871,6.6049],[35.349,-23.8688,0.0],[35.351,-23.8643,4.8643],[35.3496,-23.8579,0.0],[35.3504,-23.8501,0.0],[35.3485,-23.8457,6.4804],[35.3488,-23.8432,8.0334],[35.3507,-23.8426,5.2228],[35.3496,-23.8371,0.0],[35.3521,-23.8318,0.5588],[35.3496,-23.8232,0.0],[35.3493,-23.8115,0.0],[35.3515,-23.8026,0.9747],[35.359,-23.7935,1.6692],[35.3596,-23.7885,0.0],[35.3621,-23.7854,0.0],[35.361,-23.7824,2.8985],[35.3635,-23.7796,0.0],[35.3649,-23.7646,3.9918],[35.3621,-23.7501,1.8323],[35.366,-23.7465,0.0],[35.3646,-23.7451,2.8937],[35.3674,-23.739,0.8375],[35.3679,-23.7251,0.0],[35.371,-23.7138,5.8986],[35.3768,-23.7024,0.0],[35.3776,-23.6968,2.8233],[35.3732,-23.6896,14.422],[35.3685,-23.6876,0.0],[35.3596,-23.689,0.0],[35.3582,-23.6915,29.7147],[35.3515,-23.6932,11.002],[35.3454,-23.6924,0.0],[35.3438,-23.6935,1.1101],[35.3449,-23.6965,1.1285],[35.344,-23.704,2.3266],[35.3379,-23.7096,1.356],[35.3343,-23.7154,5.6332],[35.3304,-23.716,2.0881],[35.3279,-23.7121,1.8709],[35.3238,-23.7107,0.7267],[35.3221,-23.7154,4.0175],[35.3218,-23.7124,3.3458],[35.3235,-23.7096,0.7267],[35.3274,-23.709,1.3448],[35.329,-23.7129,0.0],[35.3318,-23.7143,1.9815],[35.3415,-23.7024,0.0],[35.3399,-23.6974,0.0],[35.3376,-23.696,1.5465],[35.3379,-23.6863,3.1152],[35.3304,-23.6857,3.1881],[35.331,-23.6846,1.8799],[35.3354,-23.6829,3.5461],[35.3357,-23.684,0.9216],[35.3407,-23.6835,0.0],[35.3429,-23.6854,1.393],[35.349,-23.6863,0.0],[35.3515,-23.6826,0.0],[35.3499,-23.6765,0.6573],[35.3518,-23.6749,0.4448],[35.3515,-23.6729,2.6034],[35.3543,-23.6726,3.1404],[35.3579,-23.6754,1.4962],[35.3635,-23.6746,0.0],[35.3615,-23.6688,0.0],[35.356,-23.6674,1.7514],[35.3549,-23.6654,13.9582],[35.3621,-23.6676,2.2257],[35.3665,-23.6729,2.5214],[35.3754,-23.6721,0.5245],[35.3838,-23.6749,0.0],[35.3899,-23.6732,0.5931],[35.3937,-23.6743,0.928],[35.394,-23.6701,2.4213],[35.3896,-23.666,7.9814],[35.3896,-23.6643,4.1676],[35.3924,-23.6626,1.311],[35.3904,-23.6654,1.0687],[35.3946,-23.6682,2.2868],[35.396,-23.6724,0.4218],[35.3949,-23.676,1.9197],[35.391,-23.6782,0.3332],[35.3963,-23.6876,2.6806],[35.3946,-23.6904,0.6192],[35.3965,-23.7007,2.6083],[35.3943,-23.7076,3.5574],[35.3937,-23.7201,0.7723],[35.3946,-23.7265,1.9242],[35.3971,-23.7296,0.0],[35.3949,-23.7318,1.4114],[35.3954,-23.7357,0.0],[35.3993,-23.7385,0.0],[35.4012,-23.7379,1.0706],[35.4093,-23.7279,0.0],[35.4135,-23.7151,0.0],[35.4149,-23.6979,6.7773],[35.4207,-23.6801,5.007],[35.4232,-23.6579,8.3101],[35.4257,-23.6487,7.0549],[35.4226,-23.6301,9.5074],[35.4235,-23.6235,2.9787],[35.4207,-23.601,6.647],[35.4221,-23.5818,0.0],[35.4207,-23.5785,8.5168],[35.4221,-23.5746,0.0],[35.4207,-23.569,3.8805],[35.4235,-23.5482,0.0],[35.4232,-23.5263,3.5721],[35.4254,-23.5193,0.0],[35.4238,-23.5096,3.8357],[35.4249,-23.5007,12.8791],[35.4287,-23.4865,4.9161],[35.4321,-23.4801,3.2949],[35.4343,-23.4796,0.0],[35.4332,-23.4785,12.7218],[35.4382,-23.471,0.0],[35.4437,-23.4557,0.0],[35.4443,-23.4496,0.0],[35.4485,-23.4376,0.0],[35.4479,-23.4296,0.0],[35.4535,-23.4101,10.0022],[35.4629,-23.389,0.0],[35.4715,-23.3626,2.5095],[35.4851,-23.3374,0.0],[35.4882,-23.3268,19.3357],[35.4882,-23.3196,15.0828],[35.4932,-23.3024,0.0],[35.4949,-23.2757,8.4125],[35.4926,-23.2732,32.0869],[35.496,-23.2493,8.6814],[35.4949,-23.2446,14.7599],[35.4957,-23.2368,0.0],[35.4907,-23.2304,6.0705],[35.4879,-23.221,7.7448],[35.4888,-23.2132,11.7711],[35.4851,-23.1768,4.1714],[35.4932,-23.1582,0.0],[35.4963,-23.1457,10.0844],[35.4976,-23.1451,0.0],[35.4965,-23.1421,14.4994],[35.5021,-23.1257,0.0],[35.504,-23.1146,5.9988],[35.5124,-23.0938,6.039],[35.5168,-23.0868,0.9298],[35.5174,-23.0832,10.0605],[35.5346,-23.0607,0.0],[35.5387,-23.0518,4.9877],[35.5624,-23.016,21.4893],[35.5746,-23.0004,3.6642],[35.5918,-22.9713,0.0],[35.6001,-22.9482,0.0],[35.6007,-22.9357,8.3523],[35.604,-22.9235,0.3242],[35.601,-22.9221,0.0],[35.5996,-22.9246,9.3338],[35.5932,-22.9243,2.9425],[35.5757,-22.9196,3.514],[35.5674,-22.9157,1.6326],[35.5507,-22.8968,0.0],[35.5568,-22.9088,0.8098],[35.5643,-22.9157,0.7774],[35.5701,-22.9243,0.7974],[35.5765,-22.9287,3.1846],[35.5779,-22.936,2.0824],[35.5768,-22.9374,0.0],[35.5729,-22.9312,0.0],[35.5676,-22.9321,1.1962],[35.5526,-22.9246,1.7978],[35.5443,-22.9279,0.0],[35.5418,-22.9343,1.3666],[35.539,-22.9365,1.8435],[35.5412,-22.9268,0.0],[35.5504,-22.9221,1.1983],[35.5479,-22.9215,0.9447],[35.5474,-22.9196,0.5073],[35.5449,-22.9204,1.0288],[35.5449,-22.9171,0.7035],[35.5471,-22.9154,0.4598],[35.5454,-22.9096,1.3005],[35.5429,-22.9068,0.5763],[35.5426,-22.903199999999998,0.0],[35.5446,-22.8993,0.0],[35.5387,-22.8926,1.6488],[35.5393,-22.8882,0.0],[35.5376,-22.8821,0.0],[35.5274,-22.8662,1.769],[35.5282,-22.8626,1.6655],[35.5229,-22.8538,19.6935],[35.5221,-22.8429,0.0],[35.5174,-22.829,0.5294],[35.5176,-22.819,0.4614],[35.5157,-22.8068,0.0],[35.5132,-22.8062,0.7784],[35.516,-22.8121,0.0],[35.5149,-22.814,0.0],[35.5121,-22.8065,0.9249],[35.5137,-22.8029,0.0],[35.5124,-22.8004,0.2899],[35.514,-22.7938,0.0],[35.5129,-22.7896,1.7286],[35.5137,-22.7685,0.0],[35.5115,-22.7607,27.6502],[35.5118,-22.7432,0.0],[35.5151,-22.6912,0.0],[35.5115,-22.6635,2.178],[35.5115,-22.6499,2.8322],[35.5043,-22.6115,0.0],[35.504,-22.6213,0.0],[35.5068,-22.6279,0.0],[35.5079,-22.6504,1.6515],[35.5093,-22.6535,1.6654],[35.5049,-22.6485,1.6627],[35.5051,-22.6457,1.4324],[35.5024,-22.6401,0.6676],[35.5035,-22.6326,0.0],[35.5015,-22.6271,0.0],[35.5004,-22.5976,2.2863],[35.5021,-22.594,1.7577],[35.5076,-22.5554,0.0],[35.5337,-22.4676,0.0],[35.5388,-22.4299,0.0],[35.5432,-22.3243,0.0],[35.5393,-22.3151,5.7666],[35.5371,-22.299,0.0],[35.5346,-22.2935,0.0],[35.5332,-22.286,2.6467],[35.5335,-22.2704,2.0569],[35.5288,-22.2615,3.9298],[35.5279,-22.2476,8.235],[35.5332,-22.2032,0.0],[35.5435,-22.1601,0.0],[35.5412,-22.1607,1.7561],[35.5393,-22.1738,0.7798],[35.5368,-22.1746,0.5544],[35.5379,-22.1779,0.0],[35.5357,-22.1863,3.3032],[35.5332,-22.1899,6.2063],[35.5304,-22.1904,0.6047],[35.5271,-22.1974,0.9983],[35.5282,-22.2015,4.712],[35.526,-22.2079,2.8968],[35.5274,-22.2118,3.6419],[35.5251,-22.2138,0.6389],[35.5265,-22.2179,3.3632],[35.5262,-22.2304,10.765],[35.5246,-22.2304,1.7946],[35.5232,-22.2354,0.0],[35.524,-22.2404,14.1583],[35.5224,-22.2435,0.0],[35.5249,-22.2546,2.9297],[35.5232,-22.2601,0.0],[35.5254,-22.2629,2.5971],[35.5232,-22.2757,0.0],[35.5243,-22.2807,4.9062],[35.5304,-22.2912,7.6994],[35.5318,-22.299,0.0],[35.5232,-22.3121,0.6979],[35.5201,-22.3118,2.9139],[35.5179,-22.3079,0.0],[35.5213,-22.2949,4.8205],[35.5213,-22.2912,2.3043],[35.519,-22.2879,2.1761],[35.519,-22.2757,10.245],[35.5213,-22.2679,1.6347],[35.516,-22.2582,0.0],[35.5146,-22.2479,0.0],[35.5154,-22.2435,1.6025],[35.5204,-22.2379,1.783],[35.5201,-22.234,1.1047],[35.5221,-22.2313,0.0],[35.5204,-22.2174,1.0081],[35.5182,-22.2132,1.0888],[35.5187,-22.2076,0.0],[35.5163,-22.2021,0.0],[35.5126,-22.1829,1.8773],[35.5026,-22.1593,0.616],[35.4976,-22.1515,0.4772],[35.4976,-22.1462,0.0],[35.494,-22.1354,0.5305],[35.4899,-22.1299,1.4355],[35.4924,-22.1157,2.2328],[35.489,-22.1087,0.0],[35.4893,-22.1057,0.0],[35.484,-22.1004,1.0716],[35.474,-22.0968,17.4286],[35.4624,-22.0971,1.8946],[35.4596,-22.0996,0.0],[35.4588,-22.1068,0.5605],[35.4543,-22.111,0.4441],[35.4546,-22.1146,5.0273],[35.4521,-22.116,0.2738],[35.449,-22.114,0.0994],[35.4496,-22.1174,0.0],[35.4482,-22.119,0.5744],[35.4457,-22.116,0.0],[35.4457,-22.1215,1.6892],[35.4426,-22.1249,0.0],[35.4418,-22.1304,2.0682],[35.4499,-22.146,2.5018],[35.4496,-22.1471,0.2691],[35.4476,-22.1465,0.0],[35.449,-22.1499,0.6197],[35.446,-22.1518,0.8821],[35.4471,-22.1537,0.9848],[35.4454,-22.1551,1.3286],[35.429,-22.1624,0.0],[35.4199,-22.1688,0.8309],[35.416,-22.1743,0.5167],[35.4129,-22.1743,0.0851],[35.4101,-22.1824,0.3639],[35.4179,-22.1846,0.0],[35.4176,-22.1868,0.3398],[35.4129,-22.1871,0.7532],[35.4121,-22.1887,0.919],[35.4126,-22.1929,0.3991],[35.4168,-22.1965,0.0],[35.4171,-22.1987,0.9625],[35.4104,-22.1971,0.0],[35.4063,-22.2001,0.9918],[35.4038,-22.1982,0.4427],[35.4035,-22.2007,1.1757],[35.3999,-22.2029,0.0],[35.3988,-22.2062,0.3177],[35.3985,-22.2149,1.5502],[35.3971,-22.2149,2.1128],[35.3951,-22.209,0.361],[35.3913,-22.2074,0.0],[35.391,-22.2096,1.4389],[35.3887,-22.2099,1.1602],[35.3876,-22.2071,0.4766],[35.3857,-22.2068,0.2903],[35.3846,-22.2093,1.6607],[35.3857,-22.2118,1.3421],[35.384,-22.2115,1.3421],[35.381,-22.2146,1.1046],[35.3807,-22.2176,0.0],[35.3787,-22.2174,0.8785],[35.3757,-22.2249,5.7884],[35.3729,-22.2262,5.329],[35.3749,-22.2199,0.0],[35.3743,-22.2193,0.644],[35.3732,-22.2201,3.9695],[35.3737,-22.2135,0.0],[35.3679,-22.2115,1.9221],[35.3682,-22.2087,0.0],[35.3635,-22.2101,2.2007],[35.3621,-22.2071,0.2786],[35.3585,-22.2082,1.8658],[35.3571,-22.2121,1.6967],[35.3515,-22.2115,1.764],[35.3526,-22.2068,3.3521],[35.3563,-22.206,3.0007],[35.3596,-22.2024,0.0],[35.3593,-22.1987,0.0],[35.3563,-22.2032,1.9151],[35.3499,-22.2068,1.8211],[35.3485,-22.2099,0.8305],[35.3387,-22.2138,0.9069],[35.339,-22.2096,0.0],[35.3363,-22.2074,2.0634],[35.3401,-22.201,0.0],[35.3404,-22.1937,0.0],[35.3379,-22.1929,2.6607],[35.3343,-22.1868,2.94],[35.3299,-22.1846,2.1106],[35.3304,-22.169,2.4191],[35.3338,-22.154,0.4305],[35.3318,-22.1465,1.9248],[35.3349,-22.1387,0.0],[35.3332,-22.1351,0.2284],[35.3326,-22.1301,0.1515],[35.3343,-22.126,2.9396],[35.3349,-22.1049,0.0],[35.3335,-22.1001,1.5801],[35.3343,-22.090699999999998,1.9034],[35.3326,-22.0837,0.0],[35.3285,-22.0765,2.7223],[35.326,-22.0643,10.8072],[35.3238,-22.0479,3.9946],[35.3246,-22.0362,0.0],[35.3232,-22.0349,2.2067],[35.3213,-22.0229,3.891],[35.3254,-21.9976,0.6747],[35.3243,-21.9846,0.0],[35.3226,-21.981,0.0],[35.3213,-21.9835,7.686],[35.3182,-21.9821,1.8604],[35.3124,-21.9735,0.0],[35.3132,-21.9574,0.9292],[35.3207,-21.9407,1.2541],[35.3204,-21.939,0.0],[35.3168,-21.9393,2.7632],[35.316,-21.9335,12.4654],[35.321,-21.9126,2.7749],[35.3196,-21.9076,0.8551],[35.3129,-21.8999,0.2923],[35.3101,-21.8987,6.9115],[35.3082,-21.8915,0.0],[35.3051,-21.8871,7.0098],[35.3013,-21.8685,26.8064],[35.3024,-21.8549,2.4208],[35.2993,-21.8476,0.2429],[35.2976,-21.8479,0.2429],[35.2954,-21.8454,13.801],[35.2946,-21.8388,4.2022],[35.2929,-21.8349,11.2406],[35.2893,-21.8326,0.0],[35.2837,-21.8165,3.1585],[35.2857,-21.7988,2.2303],[35.2826,-21.7946,20.1852],[35.2826,-21.7918,10.1168],[35.2846,-21.7849,2.5416],[35.2821,-21.7846,13.8705],[35.2801,-21.7821,4.5632],[35.2779,-21.7651,0.0],[35.2801,-21.7443,5.5567],[35.2846,-21.7337,5.4297],[35.2826,-21.7251,0.4133],[35.2743,-21.7204,1.5222],[35.2738,-21.7176,0.0],[35.2715,-21.7163,2.456],[35.2718,-21.7126,0.0],[35.2699,-21.7118,0.1656],[35.2704,-21.709,0.2519],[35.2685,-21.7082,6.3855],[35.2707,-21.6896,0.6274],[35.2696,-21.6887,0.0],[35.2732,-21.6771,0.0698],[35.274,-21.6668,0.7598],[35.2724,-21.6368,0.2844],[35.2654,-21.6293,0.548],[35.2621,-21.6232,1.8873],[35.2593,-21.6124,0.0],[35.2576,-21.6107,4.3744],[35.2557,-21.5937,1.429],[35.2501,-21.5832,4.1792],[35.2226,-21.5587,4.3572],[35.2015,-21.5307,1.6544],[35.1924,-21.5104,2.2401],[35.1465,-21.4368,5.7989],[35.1326,-21.4068,17.0033],[35.1171,-21.3604,9.3607],[35.1118,-21.3351,5.3372],[35.1107,-21.2982,0.0],[35.1154,-21.2624,0.0],[35.1151,-21.254,0.0],[35.1129,-21.2554,0.0],[35.1099,-21.2626,0.0],[35.1099,-21.2718,0.0],[35.1082,-21.2718,0.0],[35.1057,-21.2846,0.6694],[35.0976,-21.2954,0.0],[35.0982,-21.2968,3.0039],[35.0943,-21.2985,2.4763],[35.0924,-21.304,0.0],[35.0829,-21.3096,0.0],[35.0826,-21.3143,0.0],[35.0849,-21.3165,0.0],[35.089,-21.3179,3.8544],[35.0929,-21.3163,0.0],[35.0962,-21.3196,6.1415],[35.096,-21.3254,7.3297],[35.0915,-21.3296,0.5],[35.0913,-21.3321,1.8142],[35.094,-21.3349,6.4261],[35.091,-21.3393,0.5],[35.0932,-21.341,2.4856],[35.0932,-21.344,0.5],[35.0921,-21.3515,5.0069],[35.0907,-21.3521,1.5681],[35.0918,-21.3443,0.5],[35.0871,-21.340699999999998,0.5],[35.0871,-21.339,2.6872],[35.0915,-21.3351,3.6878],[35.0879,-21.3296,1.6675],[35.0879,-21.3276,0.5],[35.0926,-21.3221,3.8875],[35.0812,-21.3201,0.25],[35.0715,-21.3157,0.0],[35.0693,-21.3182,1.7679],[35.0713,-21.3207,2.9844],[35.0768,-21.3224,0.5],[35.0815,-21.3218,2.4186],[35.0815,-21.324,1.5706],[35.0765,-21.3274,0.5],[35.0774,-21.3251,0.5],[35.0796,-21.3246,3.1694],[35.0793,-21.3232,5.1801],[35.0718,-21.3224,0.5],[35.0685,-21.319,1.3437],[35.0687,-21.3168,1.0907],[35.0715,-21.3149,0.0],[35.0749,-21.3154,0.0],[35.076,-21.3171,0.0],[35.0785,-21.3165,0.0],[35.0749,-21.3049,2.6147],[35.0601,-21.3029,0.5],[35.0546,-21.3071,2.1697],[35.0554,-21.3099,1.5303],[35.0537,-21.3079,2.1697],[35.0582,-21.3015,2.2565],[35.0757,-21.3004,0.0],[35.0788,-21.2935,0.0],[35.0765,-21.2849,0.0],[35.0788,-21.2815,0.0],[35.0676,-21.278199999999998,1.2694],[35.0646,-21.2763,1.1766],[35.0663,-21.2754,0.2755],[35.066,-21.2737,0.5052],[35.0615,-21.2718,1.4447],[35.0588,-21.2729,2.928],[35.0582,-21.2776,0.5],[35.0563,-21.2793,1.9838],[35.0526,-21.279,1.5238],[35.0563,-21.278199999999998,1.9838],[35.0568,-21.2735,0.5],[35.0604,-21.2707,1.0717],[35.0685,-21.2732,0.0],[35.0726,-21.2732,0.0],[35.0774,-21.271,0.0],[35.0701,-21.269,0.2782],[35.0774,-21.264,0.0],[35.079,-21.2562,0.1981],[35.0735,-21.2529,0.0],[35.0582,-21.2543,0.9573],[35.0537,-21.2524,0.8136],[35.0529,-21.2499,0.7024],[35.049,-21.2526,0.5284],[35.0493,-21.2501,0.3],[35.0479,-21.2496,1.0639],[35.0438,-21.251,0.0],[35.0443,-21.2557,0.0],[35.0415,-21.259,2.0258],[35.0399,-21.2593,0.6098],[35.0346,-21.2529,0.8597],[35.0354,-21.2524,0.8597],[35.0374,-21.2529,1.172],[35.041,-21.2585,2.0258],[35.0429,-21.2543,0.0],[35.0418,-21.2515,0.0],[35.051,-21.2457,0.0],[35.0485,-21.2404,1.3934],[35.0501,-21.2385,0.3457],[35.0493,-21.2321,1.5859],[35.0462,-21.2265,1.988],[35.044,-21.2254,1.1904],[35.0471,-21.221,1.585],[35.0476,-21.2226,0.0],[35.046,-21.2254,0.0],[35.0504,-21.2257,0.6659],[35.0493,-21.229,0.0],[35.0526,-21.2296,0.0],[35.054,-21.2368,0.0],[35.0596,-21.2374,3.7919],[35.0576,-21.2393,0.0],[35.0596,-21.2401,4.5393],[35.056,-21.2393,0.0],[35.0557,-21.2418,0.0],[35.0607,-21.2443,0.4923],[35.0679,-21.2446,0.0],[35.0682,-21.2432,0.0],[35.0626,-21.2415,1.7102],[35.0846,-21.2363,0.0],[35.089,-21.2376,0.8334],[35.0915,-21.246,0.0],[35.0949,-21.2435,0.0],[35.0965,-21.244,0.0],[35.0982,-21.234,1.4361],[35.1037,-21.2265,0.0],[35.1032,-21.2257,0.0],[35.1012,-21.2274,0.6822],[35.0988,-21.2254,1.0839],[35.1026,-21.2249,0.0],[35.1046,-21.2099,0.0],[35.0962,-21.2049,1.4691],[35.0957,-21.2012,0.2373],[35.0968,-21.2021,0.2507],[35.0971,-21.201,0.0],[35.0949,-21.1996,0.2373],[35.0938,-21.2029,0.8533],[35.0915,-21.2024,0.0],[35.0918,-21.2101,1.6308],[35.0896,-21.2126,0.0],[35.0871,-21.2129,0.0],[35.0871,-21.2162,0.0],[35.0851,-21.2168,0.7771],[35.0843,-21.2126,2.0469],[35.0851,-21.2107,2.9887],[35.0865,-21.211,0.0],[35.086,-21.2046,0.0],[35.079,-21.2046,3.2071],[35.0826,-21.2032,0.0],[35.0818,-21.1976,0.0],[35.0754,-21.1949,0.29],[35.0738,-21.1924,0.0],[35.0707,-21.194,1.1101],[35.071,-21.1918,2.2577],[35.0738,-21.1896,0.0],[35.0768,-21.1899,0.5796],[35.0779,-21.1921,0.0],[35.0799,-21.1915,0.0],[35.0799,-21.1835,0.0],[35.0707,-21.181,0.1152],[35.0699,-21.1779,0.0],[35.0654,-21.1757,0.0],[35.0646,-21.1735,0.1017],[35.0626,-21.1735,0.4531],[35.0626,-21.1718,0.0],[35.0501,-21.1785,0.0],[35.0521,-21.1821,0.9591],[35.0507,-21.184,0.8593],[35.051,-21.1824,0.9591],[35.0476,-21.1801,3.3385],[35.0479,-21.1779,4.2355],[35.0521,-21.1751,0.0],[35.049,-21.1721,0.257],[35.0501,-21.1682,0.0],[35.041,-21.1676,0.4801],[35.0429,-21.1668,0.0],[35.0432,-21.1618,0.0],[35.0443,-21.1621,0.0],[35.044,-21.1665,0.0],[35.0488,-21.164,1.7359],[35.0543,-21.1635,0.0],[35.0563,-21.1563,0.7801],[35.0579,-21.1579,0.0],[35.0599,-21.1574,0.0],[35.0654,-21.1529,0.0],[35.0657,-21.1399,1.5866],[35.0671,-21.1385,0.0],[35.0657,-21.1326,0.0],[35.0638,-21.1315,1.3521],[35.0604,-21.1246,0.9412],[35.0537,-21.1224,0.0],[35.054,-21.1246,2.144],[35.0488,-21.1254,0.0],[35.0518,-21.1312,0.9403],[35.0499,-21.1315,0.0],[35.0474,-21.1357,0.0],[35.0443,-21.1354,0.0],[35.0429,-21.1371,1.393],[35.0421,-21.1387,0.0],[35.0443,-21.1426,0.5],[35.0412,-21.144,1.1569],[35.0424,-21.1415,0.5],[35.0404,-21.1368,0.0],[35.0443,-21.1299,0.9429],[35.0365,-21.1199,0.0],[35.0326,-21.1187,0.0],[35.0326,-21.1157,0.0],[35.0262,-21.1132,0.1088],[35.009,-21.114,0.2854],[35.0143,-21.1096,0.0],[35.0143,-21.1057,0.0],[35.0163,-21.1071,0.4755],[35.0207,-21.1068,0.0],[35.024,-21.1046,0.0],[35.0254,-21.0999,0.2726],[35.0268,-21.0996,0.0],[35.024,-21.0918,0.2092],[35.0285,-21.091,0.0712],[35.0285,-21.089,0.0],[35.0235,-21.0837,2.8062],[35.0187,-21.0746,1.0056],[35.0135,-21.0713,0.9183],[35.0079,-21.074,1.4308],[35.0032,-21.0726,1.4173],[35.0007,-21.0701,1.0489],[34.996,-21.0729,0.5614],[34.9918,-21.0732,1.3184],[34.9915,-21.0715,0.2269],[34.9954,-21.0721,0.5614],[34.9987,-21.0693,0.294],[35.0018,-21.069,0.5203],[35.0071,-21.0729,0.8451],[35.0146,-21.0696,0.0],[35.014,-21.0674,1.6884],[35.0163,-21.0657,0.9441],[35.0163,-21.0693,0.9203],[35.0238,-21.0707,0.0],[35.026,-21.0735,3.0889],[35.026,-21.0774,0.1543],[35.0288,-21.0774,0.1457],[35.0296,-21.0749,1.35],[35.0318,-21.0765,0.0],[35.031,-21.0788,0.0],[35.0326,-21.0821,1.1704],[35.0421,-21.0857,0.0],[35.046,-21.0829,0.4124],[35.0421,-21.079,0.7639],[35.0438,-21.0737,1.371],[35.049,-21.0704,0.5],[35.0468,-21.076,0.7672],[35.0507,-21.0846,3.4093],[35.0499,-21.0874,0.0],[35.0471,-21.0893,0.0],[35.0474,-21.0912,0.0],[35.0546,-21.090699999999998,0.0],[35.0565,-21.0862,2.3638],[35.0693,-21.0832,0.0],[35.0724,-21.0788,0.281],[35.0754,-21.0774,0.6661],[35.0793,-21.0793,0.0],[35.0768,-21.0799,0.0],[35.0768,-21.0857,0.0],[35.0863,-21.0868,0.0],[35.0885,-21.0837,0.0],[35.091,-21.074,0.0],[35.091,-21.064,0.8154],[35.0935,-21.0574,2.8417],[35.0929,-21.0518,0.0],[35.0882,-21.051,0.0],[35.084,-21.0476,0.0],[35.0799,-21.049,0.0],[35.0785,-21.0585,0.3102],[35.0799,-21.0637,0.4332],[35.0826,-21.0629,2.8186],[35.0824,-21.0646,2.2563],[35.079,-21.064,0.9465],[35.0768,-21.0571,0.0],[35.074,-21.0593,0.9291],[35.0762,-21.0565,0.0],[35.0782,-21.0471,0.0],[35.0824,-21.044,0.0],[35.081,-21.0354,1.3785],[35.084,-21.0321,0.0],[35.0835,-21.0293,0.0],[35.0818,-21.029,0.0],[35.0804,-21.0318,0.9033],[35.0757,-21.0343,0.5653],[35.0721,-21.0346,2.2845],[35.0632,-21.0304,0.52],[35.0596,-21.0271,0.3432],[35.0501,-21.0265,0.4463],[35.0482,-21.0279,1.1648],[35.0499,-21.0257,1.131],[35.0549,-21.0265,1.1017],[35.061,-21.0226,2.4261],[35.0663,-21.0279,0.6201],[35.074,-21.0287,0.0],[35.0746,-21.0254,0.0],[35.0826,-21.0168,0.1547],[35.0812,-21.0151,0.8356],[35.0738,-21.0165,1.5259],[35.0718,-21.0112,0.5],[35.0724,-21.0096,0.5],[35.076,-21.0143,0.5],[35.0829,-21.0121,0.5],[35.0904,-21.0171,0.0],[35.0954,-21.0088,0.5313],[35.0901,-21.0068,0.4927],[35.0871,-21.0012,0.0285],[35.0821,-21.0021,0.0],[35.0776,-20.9974,0.6365],[35.0838,-21.001,0.6837],[35.0857,-20.9982,0.885],[35.091,-20.9996,0.0],[35.089,-20.9976,2.5897],[35.0913,-20.9968,0.4174],[35.0929,-21.0029,0.0],[35.1007,-21.0046,0.0],[35.1032,-21.0074,2.748],[35.1026,-21.0171,2.461],[35.0996,-21.0226,0.0],[35.1007,-21.0257,2.176],[35.099,-21.0276,1.596],[35.0996,-21.0299,1.9206],[35.1024,-21.031,0.0],[35.1054,-21.0263,1.3687],[35.1096,-21.0024,5.2928],[35.1165,-20.9876,0.0],[35.114,-20.9862,0.034],[35.114,-20.9832,0.0],[35.1043,-20.9818,0.0],[35.111,-20.9824,0.0],[35.1154,-20.9779,0.2493],[35.116,-20.969,3.2145],[35.1149,-20.9671,1.2097],[35.1101,-20.9724,0.9378],[35.1079,-20.9724,2.5562],[35.1115,-20.9704,0.7049],[35.114,-20.964,1.0663],[35.111,-20.9615,0.3971],[35.1054,-20.9621,0.0],[35.1035,-20.9643,0.9297],[35.0971,-20.964,0.0],[35.0949,-20.9626,0.0],[35.0876,-20.9635,1.9135],[35.084,-20.9599,2.1453],[35.0807,-20.959,0.0],[35.0768,-20.9607,0.7913],[35.0743,-20.9668,4.0128],[35.0721,-20.9674,1.0581],[35.0668,-20.9735,2.1063],[35.0565,-20.9749,2.366],[35.0515,-20.9726,1.6947],[35.0422,-20.9739,0.0],[34.9997,-20.9854,4.7233],[34.9637,-20.99,2.3983],[34.9415,-20.9965,4.1918],[34.93,-21.0042,7.189],[34.869,-21.0335,8.0668],[34.8072,-21.0791,10.8837],[34.7722,-21.1127,9.9921],[34.7519,-21.1221,15.3603],[34.7216,-21.122,14.2158],[34.7043,-21.1126,12.6844],[34.6935,-21.102,13.5071],[34.6717,-21.092,14.3806],[34.6409,-21.0931,14.6101],[34.621,-21.1022,17.7981],[34.6113,-21.1081,16.8308],[34.6007,-21.1176,17.5613],[34.5783,-21.1308,16.3622],[34.5661,-21.1351,20.1368],[34.5288,-21.1385,18.0143],[34.5132,-21.1435,18.6962],[34.4982,-21.1599,19.02],[34.4843,-21.1643,19.0353],[34.4671,-21.165,20.7701],[34.4507,-21.1793,24.3574],[34.4401,-21.214,24.1237],[34.386,-21.2561,29.6228],[34.3741,-21.2737,24.0594],[34.3478,-21.2937,33.493],[34.3361,-21.3091,27.2417],[34.324,-21.3141,29.2428],[34.2999,-21.3073,32.1533],[34.2929,-21.3005,28.3156],[34.2669,-21.284,33.8764],[34.2564,-21.2732,32.9417],[34.2445,-21.265,37.8401],[34.2286,-21.2607,33.0835],[34.2094,-21.2673,36.4603],[34.2033,-21.2808,42.6652],[34.1875,-21.3079,37.8767],[34.1723,-21.3137,37.2929],[34.1428,-21.3166,39.4845],[34.1292,-21.3104,43.2035],[34.1047,-21.2901,41.5696],[34.0808,-21.2938,45.0426],[34.0508,-21.3018,42.7524],[34.0388,-21.3068,48.1552],[34.0063,-21.3111,44.3097],[33.993,-21.3029,50.7913],[33.9545,-21.3122,47.9234],[33.9258,-21.3485,50.4013],[33.926,-21.3666,51.8275],[33.9069,-21.4028,53.9522],[33.8973,-21.4119,58.1722],[33.8491,-21.4121,66.2839],[33.82,-21.3852,57.5244],[33.7622,-21.4035,62.5461],[33.7237,-21.4218,62.388],[33.6753,-21.3949,64.0164],[33.656,-21.3859,64.0906],[33.6367,-21.386,70.2312],[33.6078,-21.3951,70.8382],[33.5788,-21.3862,74.279],[33.5691,-21.3772,77.7991],[33.5498,-21.3773,69.7901],[33.492,-21.3955,72.9141],[33.4728,-21.4227,76.565],[33.415,-21.459,77.7103],[33.3957,-21.468,79.7514],[33.3668,-21.4771,84.126],[33.3475,-21.4772,86.4764],[33.3282,-21.4863,85.3839],[33.3089,-21.4863,89.636],[33.2704,-21.5225,99.1148],[33.2704,-21.5315,95.3511],[33.2607,-21.5225,105.0765],[33.2511,-21.5316,104.2223],[33.2414,-21.5316,104.0411],[33.2318,-21.5406,108.2587],[33.2318,-21.5497,109.8016],[33.2415,-21.5587,114.7553],[33.2415,-21.5677,115.4997],[33.2318,-21.5768,121.3545],[33.2125,-21.5768,127.7932],[33.2029,-21.5858,129.8318],[33.2029,-21.6129,141.9066],[33.1932,-21.613,144.0056],[33.1836,-21.622,143.1228],[33.1644,-21.7033,140.0448],[33.1934,-21.7575,133.7836],[33.1548,-21.8208,128.817],[33.2518,-21.9472,124.228],[33.2809,-21.9652,122.6877],[33.2906,-21.9742,118.9993],[33.31,-21.9832,119.2956],[33.3197,-21.9922,119.5262],[33.3488,-22.0012,118.332],[33.3346,-22.034,119.4458],[33.3296,-22.0559,121.7551],[33.3348,-22.087,115.5907],[33.3426,-22.0946,124.7962],[33.3525,-22.1004,114.2226],[33.3581,-22.108,113.7417],[33.3646,-22.1294,114.57],[33.3625,-22.151,117.8691],[33.343,-22.1625,115.6005],[33.3443,-22.178,112.6269],[33.3412,-22.2011,117.2755],[33.3299,-22.2253,108.3022],[33.3324,-22.2366,115.1981],[33.3475,-22.2519,106.3263],[33.3555,-22.2585,104.7923],[33.3665,-22.2621,104.1014],[33.3719,-22.2857,105.205],[33.3631,-22.2982,102.5298],[33.359,-22.3146,104.149],[33.3666,-22.3541,100.9429],[33.3702,-22.3636,97.5913],[33.3782,-22.3713,100.2146],[33.3862,-22.3864,110.3211],[33.3804,-22.388,103.2637],[33.3589,-22.3802,97.386],[33.3355,-22.3858,94.5547],[33.3206,-22.3846,95.102],[33.3151,-22.3987,92.8208],[33.3084,-22.4075,90.7261],[33.3061,-22.4157,89.4718],[33.3115,-22.4348,92.0075],[33.3117,-22.4414,87.8256],[33.307,-22.4624,90.1477],[33.2979,-22.4875,89.271],[33.2931,-22.4967,83.3932],[33.2946,-22.5038,83.7921],[33.2878,-22.5181,84.741],[33.287,-22.528,81.5544],[33.2788,-22.5381,79.972],[33.2802,-22.5431,83.6822],[33.2744,-22.5494,80.2847],[33.2722,-22.5638,77.8512],[33.2842,-22.5724,81.6597],[33.2822,-22.5824,78.4594],[33.2887,-22.5917,74.3931],[33.294,-22.5945,76.1104],[33.2964,-22.6077,73.3523],[33.3033,-22.6206,71.9347],[33.3141,-22.6319,72.6291],[33.3221,-22.6448,70.4044],[33.322,-22.659,68.4941],[33.3413,-22.6629,66.9565],[33.3642,-22.6643,71.4898],[33.3725,-22.6712,67.0721],[33.3868,-22.6758,68.0089],[33.3975,-22.6868,65.838],[33.4131,-22.6965,65.6937],[33.4247,-22.7018,66.1208],[33.446,-22.7082,68.6504],[33.4537,-22.7149,69.6953],[33.458,-22.7254,68.0049],[33.4599,-22.7355,66.4719],[33.4708,-22.7463,65.1839],[33.4864,-22.7544,68.7455],[33.4901,-22.7612,66.2005],[33.4868,-22.7774,65.592],[33.498,-22.7812,64.8268],[33.5019,-22.7997,64.542],[33.5131,-22.8126,62.9379],[33.533,-22.8204,62.3238],[33.5442,-22.8273,65.176],[33.5636,-22.8428,62.8451],[33.5708,-22.8508,68.943],[33.5774,-22.8636,65.5615],[33.6012,-22.8934,62.2452],[33.6079,-22.8985,62.7985],[33.6155,-22.9016,65.4821],[33.6388,-22.8945,65.6909],[33.6469,-22.8937,65.3301],[33.6483,-22.9168,60.4362],[33.6581,-22.9237,63.2501],[33.6612,-22.9354,64.609],[33.6688,-22.9406,58.5149],[33.6762,-22.9489,62.4686],[33.6791,-22.959,58.1154],[33.6838,-22.968,59.5786],[33.6846,-22.9846,60.3111],[33.6913,-23.0016,55.75],[33.6874,-23.0177,55.3987],[33.6979,-23.0259,57.7884],[33.7131,-23.0314,54.2539],[33.7358,-23.0696,51.9836],[33.7386,-23.0813,50.7952],[33.7431,-23.0868,51.3358],[33.7551,-23.0828,55.57],[33.7749,-23.0822,56.8272],[33.7803,-23.1106,50.4762],[33.793,-23.1162,51.5732],[33.8021,-23.1252,49.8155],[33.81,-23.1444,50.7744],[33.8203,-23.1479,48.7926],[33.8294,-23.153199999999998,47.986],[33.8281,-23.1761,49.6613],[33.8441,-23.179,49.0851],[33.8495,-23.1868,51.8621],[33.8459,-23.2341,46.787],[33.8563,-23.2418,48.3854],[33.8678,-23.2562,46.0785],[33.875,-23.2697,46.3316],[33.8712,-23.2813,47.0762],[33.8699,-23.298,45.3163],[33.8791,-23.3221,47.1437],[33.9013,-23.3253,44.1788],[33.9021,-23.3356,43.8621],[33.8416,-23.3582,41.8422],[33.8459,-23.3796,41.2567],[33.8429,-23.3887,41.1654],[33.8634,-23.3979,44.6625],[33.8633,-23.4177,39.9724],[33.8656,-23.4308,44.1271],[33.8709,-23.4371,39.7015],[33.8741,-23.4355,40.5952],[33.8796,-23.4399,40.0044],[33.8852,-23.467,38.3393],[33.8883,-23.4749,37.5499],[33.8953,-23.4842,41.7333],[33.9091,-23.4816,37.0095],[33.927,-23.4911,37.5402],[33.9272,-23.5027,37.7585],[33.9305,-23.5077,37.0643],[33.9403,-23.539,36.5418],[33.9473,-23.5454,35.0764],[33.9452,-23.5564,35.8291],[33.9345,-23.5652,33.8678],[33.9303,-23.5753,35.0692],[33.9355,-23.5806,34.9672],[33.9449,-23.5863,37.2111],[33.9282,-23.6091,34.4668],[33.9257,-23.6227,38.9691],[33.9164,-23.6299,33.2997],[33.9116,-23.6397,35.2457],[33.9101,-23.6472,32.6397],[33.9005,-23.6531,32.1513],[33.8935,-23.6626,29.7635],[33.8963,-23.6666,29.2713],[33.9044,-23.669,31.2994],[33.9225,-23.6603,31.165],[33.9294,-23.6551,30.7874],[33.9376,-23.6633,35.6774],[33.9419,-23.6768,34.6329],[33.9418,-23.6847,34.5659],[33.9477,-23.6859,33.3791],[33.9582,-23.7086,36.2479],[33.9338,-23.7187,33.9811],[33.9361,-23.727,34.2346],[33.9286,-23.7506,28.7852],[33.9282,-23.7627,28.4441],[33.9239,-23.7699,30.128],[33.9182,-23.774,29.0325],[33.9287,-23.7922,27.1246],[33.9308,-23.8036,26.3747],[33.9281,-23.8134,26.1836],[33.9289,-23.8227,25.7734],[33.9153,-23.8372,24.9447],[33.9263,-23.8443,27.1078],[33.9265,-23.8516,27.6434],[33.9356,-23.8574,25.733],[33.9397,-23.8623,26.6098],[33.9382,-23.8708,27.3145],[33.9196,-23.8807,26.3428],[33.9156,-23.8803,24.3242],[33.9174,-23.8921,27.0997],[33.9201,-23.8979,23.6125],[33.9198,-23.907,23.3312],[33.9266,-23.9373,26.4914],[33.9333,-23.9526,30.4575],[33.9317,-23.9628,21.583],[33.9255,-23.9793,24.8357],[33.9258,-23.985,20.5166],[33.9349,-23.9859,21.0589],[33.9377,-23.9912,29.9961],[33.9337,-23.9976,24.8353],[33.9278,-24.0032,27.038],[33.9276,-24.0068,25.6385],[33.9339,-24.0135,21.5615],[33.9319,-24.0208,24.6946],[33.9275,-24.0236,29.0593],[33.9312,-24.042,25.1539],[33.9416,-24.072,38.0719],[33.9456,-24.0776,20.8069],[33.9613,-24.072,29.7705],[33.9728,-24.0734,25.3215],[33.985,-24.0787,29.9944],[33.9918,-24.0888,28.5055],[34.0005,-24.0861,28.522],[34.0012,-24.3515,72.1993],[34.1411,-24.5359,20.0992],[34.1808,-24.5171,9.4522],[34.1959,-24.5178,10.0188],[34.2066,-24.5165,7.3511],[34.2183,-24.5079,10.8176],[34.2587,-24.4881,9.0418],[34.2735,-24.4852,29.4415],[34.2875,-24.4845,6.1135],[34.3028,-24.4791,19.4994],[34.3073,-24.4791,13.8835],[34.3145,-24.4837,11.3803],[34.3263,-24.4792,10.3149],[34.3402,-24.4678,2.4827],[34.396,-24.4595,26.2805],[34.4223,-24.4489,24.8518],[34.4285,-24.4555,1.8088],[34.3541,-24.5273,51.5274],[34.4551,-24.636,34.9185],[34.3015,-24.7071,27.6245],[34.3021,-24.7931,77.1626],[34.4361,-24.8065,75.9224],[34.4736,-24.8626,8.7577],[34.4899,-24.8596,0.0],[34.5107,-24.8532,0.0],[34.516,-24.8479,6.6208],[34.5343,-24.8421,0.0],[34.5376,-24.8382,6.9923],[34.549,-24.8335,6.4187],[34.6393,-24.8049,1.6664],[34.7201,-24.7812,3.8594],[34.8207,-24.7457,3.6889],[34.8596,-24.7265,0.0],[34.8885,-24.7151,0.0],[34.9176,-24.7001,5.4497],[34.9607,-24.6849,0.0],[35.0215,-24.6585,3.9024],[35.0285,-24.6537,3.4211],[35.0435,-24.6474,0.0],[35.0563,-24.639,9.8418],[35.0651,-24.636,0.0],[35.0788,-24.6257,16.4662],[35.0918,-24.6204,0.0],[35.0954,-24.6165,2.6723],[35.1121,-24.6079,1.6843],[35.1243,-24.5982,11.3785],[35.1271,-24.5979,4.1366],[35.1312,-24.5937,2.4495],[35.1338,-24.5937,0.0],[35.1404,-24.5871,11.8802],[35.1465,-24.5846,0.0],[35.1518,-24.5796,0.0],[35.1563,-24.5671,0.0],[35.1654,-24.5554,12.9798],[35.1776,-24.5471,0.0],[35.2004,-24.5263,0.0],[35.2026,-24.5221,9.3583],[35.1999,-24.511,0.0],[35.2007,-24.4993,14.8545],[35.2024,-24.4979,0.0],[35.2015,-24.4962,11.2684],[35.2065,-24.4874,35.3787],[35.2215,-24.4707,0.0],[35.2254,-24.4621,27.4995],[35.2651,-24.4251,0.0],[35.2682,-24.4199,14.7095],[35.2762,-24.4126,0.0],[35.276,-24.4104,11.149],[35.2793,-24.4046,0.0],[35.286,-24.3982,0.0],[35.2929,-24.3876,30.4702],[35.2957,-24.3865,0.0],[35.2979,-24.3821,1.0792],[35.306,-24.3749,0.0],[35.3063,-24.3721,2.44],[35.3082,-24.3718,0.0],[35.3143,-24.3638,1.238],[35.3182,-24.3615,0.0],[35.3226,-24.3543,6.3328],[35.3268,-24.3529,0.0],[35.3299,-24.3471,18.6276],[35.3363,-24.341,0.0],[35.3349,-24.3401,0.0],[35.3415,-24.3335,0.0],[35.3413,-24.3315,0.0],[35.3432,-24.3307,0.0],[35.3451,-24.3263,2.1416],[35.3537,-24.3199,0.0],[35.3526,-24.319,6.6122],[35.3535,-24.3171,5.334],[35.3651,-24.3043,15.3467],[35.3649,-24.3029,16.6753],[35.3726,-24.2943,15.7309],[35.3757,-24.2932,0.0],[35.3751,-24.2915,2.006],[35.3865,-24.281,0.0],[35.3865,-24.279,2.674],[35.3904,-24.2765,0.0],[35.3999,-24.2612,38.5906],[35.4074,-24.2551,1.4533],[35.4149,-24.2421,3.8507],[35.4162,-24.2435,0.0],[35.4188,-24.2399,3.8394],[35.4246,-24.2285,13.931],[35.4265,-24.216,33.3338],[35.4315,-24.2076,10.0791],[35.4535,-24.1846,16.9976],[35.4624,-24.1776,0.0],[35.4779,-24.1535,7.9439],[35.4801,-24.1471,0.0],[35.4793,-24.1454,2.8966],[35.4807,-24.1449,0.0],[35.4882,-24.1274,37.177],[35.4963,-24.1162,18.4249],[35.5001,-24.1043,0.0],[35.5001,-24.1007,0.0],[35.4974,-24.0954,0.0],[35.4974,-24.0893,0.0],[35.499,-24.0762,21.384],[35.5007,-24.0751,0.0],[35.4951,-24.0718,8.3497],[35.4926,-24.0607,21.2103],[35.4965,-24.0343,37.2972],[35.5018,-24.0201,6.337],[35.4982,-24.0088,0.0],[35.5001,-23.9921,7.7027],[35.5062,-23.9724,1.7293],[35.516,-23.9535,0.0],[35.5165,-23.9485,3.7839],[35.5268,-23.9293,10.9359],[35.5304,-23.9265,0.0],[35.5257,-23.924,15.5826],[35.5265,-23.9165,5.1648],[35.5337,-23.9015,2.1882],[35.551,-23.8779,0.0],[35.5513,-23.8735,0.0],[35.5551,-23.8688,0.0],[35.5549,-23.866,0.0],[35.5524,-23.8654,8.6735],[35.551,-23.8632,0.9042],[35.5524,-23.8574,1.69],[35.5515,-23.8535,0.8374],[35.5485,-23.8546,16.7149],[35.5429,-23.8501,0.0],[35.5376,-23.8396,8.9813],[35.5357,-23.8249,6.1207],[35.5371,-23.8221,0.0],[35.5374,-23.8035,11.5268],[35.5396,-23.7974,6.8909],[35.5388,-23.7929,0.0],[35.5193,-23.794,5.6922],[35.5143,-23.791,0.0],[35.5115,-23.7912,5.7921],[35.5046,-23.786,0.6893],[35.4932,-23.7843,2.0905],[35.4918,-23.7901,0.2463],[35.499,-23.7904,0.5307],[35.5035,-23.7954,0.4302],[35.501,-23.7968,0.9104],[35.4982,-23.7938,0.1465],[35.4901,-23.7951,0.2393],[35.4904,-23.7965,0.0],[35.4929,-23.7954,0.3557],[35.4946,-23.7968,0.28],[35.4846,-23.8079,0.0],[35.4876,-23.8207,0.0],[35.4921,-23.8229,1.3044],[35.4929,-23.8251,1.0465],[35.4926,-23.8296,1.0978],[35.4907,-23.8304,0.0],[35.4899,-23.8354,0.3498],[35.4935,-23.8418,0.5845],[35.4932,-23.8465,0.631],[35.4885,-23.8493,0.0],[35.4738,-23.8493,0.0],[35.4676,-23.8546,0.0],[35.4665,-23.8585,0.5278],[35.4682,-23.8604,0.0],[35.471,-23.8599,0.9594],[35.4735,-23.8718,0.1534],[35.4757,-23.8754,0.0],[35.4743,-23.8801,0.2957],[35.4696,-23.8826,0.0],[35.4604,-23.8807,0.2233],[35.4582,-23.879,0.0],[35.4585,-23.8751,0.1487],[35.4493,-23.8729,0.556],[35.4501,-23.8668,0.0],[35.4476,-23.8582,0.5334],[35.4463,-23.8576,0.0],[35.4468,-23.8532,0.1313],[35.4432,-23.8543,0.6979],[35.4426,-23.851,0.2204],[35.4385,-23.846,0.0],[35.4354,-23.8471,0.2484],[35.4332,-23.8451,0.0925],[35.4332,-23.8499,0.3769],[35.4354,-23.8501,0.7169],[35.4382,-23.8565,0.6119],[35.4371,-23.8593,0.4232],[35.4396,-23.8618,0.5895],[35.4429,-23.861,0.7078],[35.4435,-23.8629,0.3973],[35.446,-23.8618,1.0508],[35.4457,-23.8654,1.1379],[35.4399,-23.8674,0.1351],[35.4351,-23.866,5.1161],[35.4185,-23.8499,0.7538],[35.4135,-23.8479,0.0],[35.4104,-23.841,0.0],[35.4096,-23.8429,0.6685],[35.4068,-23.8429,0.0],[35.4018,-23.8365,0.9856],[35.3913,-23.8354,0.3155],[35.3899,-23.8399,3.3383],[35.3843,-23.841,0.2276],[35.3835,-23.8435,0.0],[35.3874,-23.8535,0.0],[35.391,-23.8554,0.0],[35.3924,-23.8551,0.2535],[35.3929,-23.8515,0.0829],[35.3946,-23.8524,3.4682],[35.394,-23.8651,0.0],[35.399,-23.8637,0.0],[35.3982,-23.866,0.0],[35.3935,-23.8676,0.1142],[35.3904,-23.866,0.8719],[35.3896,-23.8618,1.576],[35.3779,-23.8618,1.4948],[35.3812,-23.8724,0.3494],[35.3801,-23.8812,1.564],[35.3937,-23.9035,1.0546],[35.3932,-23.916,3.6014],[35.3901,-23.9201,1.1799],[35.3882,-23.9201,0.6362],[35.3868,-23.9276,1.3206],[35.3843,-23.931,6.3911],[35.3804,-23.9335,2.8753],[35.3699,-23.9357,0.0],[35.3699,-23.9376,1.4246],[35.3726,-23.9387,3.1026],[35.376,-23.9474,0.8786],[35.3613,-23.9554,0.4247],[35.3565,-23.9646,0.2844],[35.349,-23.9682,7.0414],[35.3551,-23.9746,0.0],[35.3546,-23.9821,0.1919],[35.3432,-23.9876,0.0],[35.3429,-23.9912,2.2437],[35.3404,-23.9946,3.6436],[35.3354,-23.9965,1.5916]]],
[[[35.4551,-23.8679,0.0],[35.454,-23.8682,0.0],[35.4546,-23.8662,0.0],[35.4512,-23.8674,0.0],[35.4529,-23.8696,0.0],[35.456,-23.8688,0.0],[35.4551,-23.8679,0.0]]],
[[[35.451,-23.8374,0.0],[35.4496,-23.8368,0.0],[35.4471,-23.8382,0.0],[35.4507,-23.8385,0.0],[35.451,-23.8374,0.0]]],
[[[35.446,-23.8315,0.0],[35.4468,-23.8321,0.0],[35.4485,-23.8307,0.0],[35.4471,-23.8307,0.0],[35.446,-23.8315,0.0]]],
[[[35.3278,-23.7112,3.6083],[35.3268,-23.7096,3.6083],[35.324,-23.7101,0.7267],[35.3268,-23.7112,3.6083],[35.3278,-23.7112,3.6083]]],
[[[35.3479,-22.2051,2.1216],[35.3471,-22.199,0.0],[35.3451,-22.2001,0.7903],[35.3451,-22.2062,0.4221],[35.3474,-22.2071,1.436],[35.3479,-22.2051,2.1216]]],
[[[35.3537,-22.1874,0.0],[35.3482,-22.1865,0.0],[35.3476,-22.1882,0.0],[35.3529,-22.1899,0.0],[35.3537,-22.1874,0.0]]],
[[[35.4307,-23.791,0.0],[35.4265,-23.7907,0.0],[35.4224,-23.7974,0.0],[35.4257,-23.7993,2.0831],[35.4274,-23.8029,0.1877],[35.4299,-23.8029,0.0],[35.434,-23.7996,0.0],[35.4307,-23.791,0.0]]],
[[[35.3526,-22.2035,1.077],[35.3563,-22.201,1.5709],[35.3563,-22.1987,1.0913],[35.3513,-22.2012,2.0553],[35.3526,-22.2035,1.077]]],
[[[35.359,-22.1921,0.0],[35.3596,-22.1901,0.0],[35.3576,-22.1899,0.0],[35.3563,-22.1937,0.0],[35.3576,-22.194,0.0],[35.359,-22.1921,0.0]]],
[[[35.4518,-22.1126,0.1626],[35.4524,-22.111,0.0],[35.4501,-22.111,0.0],[35.4504,-22.1143,0.0676],[35.4518,-22.1126,0.1626]]],
[[[35.4538,-23.8621,0.0],[35.4546,-23.8624,0.0],[35.4557,-23.8574,0.0],[35.4529,-23.8585,0.0],[35.4538,-23.8621,0.0]]],
[[[35.486,-23.7829,3.3803],[35.4826,-23.7821,1.1273],[35.4874,-23.7854,2.1569],[35.4912,-23.786,0.2519],[35.4888,-23.7832,5.788],[35.486,-23.7829,3.3803]]],
[[[35.4993,-23.7832,0.0],[35.4968,-23.7818,0.0],[35.494,-23.7838,2.0905],[35.5004,-23.7846,2.696],[35.4993,-23.7832,0.0]]],
[[[35.4212,-23.8246,0.0],[35.4207,-23.8237,0.4565],[35.4176,-23.8235,0.0],[35.4221,-23.8249,0.0],[35.4212,-23.8246,0.0]]],
[[[35.4479,-23.8218,0.0],[35.4446,-23.8213,0.0],[35.4432,-23.8251,0.0],[35.4457,-23.8232,0.0],[35.4457,-23.8218,0.0],[35.4468,-23.8232,0.0],[35.4479,-23.8218,0.0]]],
[[[35.4479,-23.8185,0.0],[35.4488,-23.8124,0.0],[35.4468,-23.8132,0.0],[35.4465,-23.8168,0.0],[35.4451,-23.8174,0.0],[35.446,-23.8193,0.0],[35.4479,-23.8185,0.0]]],
[[[35.4232,-23.8101,0.0],[35.4212,-23.8079,0.1567],[35.4188,-23.8101,0.0],[35.4199,-23.8171,0.0],[35.4224,-23.8149,0.5142],[35.4207,-23.8182,0.0],[35.4215,-23.8204,1.3518],[35.4271,-23.8224,0.1485],[35.4293,-23.8187,0.0],[35.429,-23.8143,0.0],[35.4232,-23.8101,0.0]]],
[[[35.5235,-22.1726,2.6646],[35.5213,-22.1715,1.0573],[35.5185,-22.1743,0.2361],[35.5174,-22.184,0.0],[35.5193,-22.1851,0.0],[35.5254,-22.1815,0.0],[35.5254,-22.1754,1.0338],[35.5235,-22.1726,2.6646]]],
[[[35.5276,-22.1351,5.3671],[35.5268,-22.1335,1.0569],[35.524,-22.134,0.8929],[35.5196,-22.1393,0.0],[35.5185,-22.1424,0.4231],[35.5193,-22.1557,0.0],[35.5204,-22.1579,0.5754],[35.5301,-22.1612,0.0],[35.529,-22.1543,2.1054],[35.5315,-22.1468,4.1341],[35.5301,-22.1382,0.5775],[35.5276,-22.1351,5.3671]]],
[[[35.5054,-22.1449,0.0],[35.5038,-22.1432,0.311],[35.5049,-22.1476,0.0],[35.5068,-22.1468,0.0],[35.5054,-22.1449,0.0]]],
[[[35.5124,-22.1446,0.0],[35.5115,-22.1424,0.0],[35.5107,-22.1424,0.0],[35.5113,-22.1446,0.0],[35.5124,-22.1446,0.0]]],
[[[35.5001,-22.1396,0.4145],[35.4968,-22.1382,0.0],[35.4993,-22.1435,0.0],[35.5004,-22.1432,0.0],[35.5001,-22.1396,0.4145]]],
[[[35.4601,-22.0429,0.0],[35.4571,-22.0415,0.0],[35.4588,-22.0443,1.8967],[35.4607,-22.0446,0.0],[35.4601,-22.0429,0.0]]],
[[[35.4538,-22.0424,0.5525],[35.456,-22.0418,0.0],[35.456,-22.041,0.0],[35.4524,-22.0415,0.5525],[35.4538,-22.0424,0.5525]]],
[[[35.4621,-21.8326,1.7055],[35.4624,-21.8301,0.0],[35.461,-21.8326,1.7055],[35.4596,-21.8318,0.9138],[35.4571,-21.8382,1.1304],[35.4582,-21.8443,1.4623],[35.4615,-21.8368,1.79],[35.4621,-21.8326,1.7055]]],
[[[35.4299,-21.9593,0.0],[35.4285,-21.9585,0.0],[35.4257,-21.9646,1.8179],[35.4201,-21.9701,0.9507],[35.4199,-21.9804,0.0],[35.4282,-21.9751,0.0],[35.4299,-21.9718,0.0],[35.4329,-21.9715,0.0],[35.4332,-21.961,2.0025],[35.4346,-21.9604,0.0],[35.4299,-21.9593,0.0]]],
[[[35.4499,-21.8446,5.9413],[35.4396,-21.844,0.4754],[35.4376,-21.8474,5.8872],[35.4329,-21.8482,1.1028],[35.4249,-21.8532,0.0],[35.4188,-21.8618,1.2982],[35.4115,-21.864,2.8233],[35.4115,-21.8679,4.3014],[35.4185,-21.8735,0.0],[35.4235,-21.8815,2.9667],[35.4226,-21.8835,0.0],[35.4243,-21.8896,1.7277],[35.4212,-21.8954,4.3126],[35.4263,-21.9054,0.0],[35.4426,-21.9076,11.0636],[35.4451,-21.9093,8.4569],[35.4471,-21.909,3.2132],[35.4499,-21.9026,0.0],[35.4585,-21.8449,0.0],[35.4499,-21.8446,5.9413]]],
[[[35.4632,-21.8096,1.3971],[35.4607,-21.8087,0.0],[35.4665,-21.8149,3.9438],[35.4635,-21.8218,3.1007],[35.4635,-21.8265,0.796],[35.4685,-21.814,0.0],[35.4665,-21.811,0.0],[35.4632,-21.8096,1.3971]]],
[[[35.4826,-21.5146,9.4633],[35.4793,-21.5137,4.6048],[35.4746,-21.5151,0.832],[35.4787,-21.5196,6.4736],[35.4796,-21.5249,6.321],[35.4724,-21.5335,1.2783],[35.4721,-21.549,2.7462],[35.4613,-21.5649,0.0],[35.4665,-21.5899,11.893],[35.4663,-21.6063,8.8807],[35.4637,-21.6079,0.5433],[35.4626,-21.6124,2.589],[35.4624,-21.6265,0.8526],[35.4643,-21.6274,2.403],[35.4637,-21.6299,1.1864],[35.4582,-21.6324,0.2306],[35.454,-21.6415,3.9161],[35.4515,-21.6437,0.0],[35.4315,-21.6582,1.3145],[35.4343,-21.6618,0.1044],[35.4338,-21.6649,0.0],[35.4426,-21.6824,0.0],[35.4435,-21.6924,0.0],[35.4468,-21.6993,2.5962],[35.4465,-21.7057,3.7666],[35.4371,-21.7179,0.0],[35.4304,-21.7229,0.0],[35.4265,-21.7232,0.0],[35.4243,-21.726,0.0],[35.4326,-21.7351,1.1176],[35.4351,-21.741,0.1113],[35.4346,-21.7468,0.0],[35.4371,-21.751,5.8705],[35.4376,-21.7599,7.4903],[35.434,-21.7624,0.0],[35.4343,-21.7657,0.4107],[35.4368,-21.7679,4.3434],[35.4362,-21.7699,1.1926],[35.4437,-21.776,21.7426],[35.4432,-21.778199999999998,0.0],[35.4446,-21.7799,4.5024],[35.4476,-21.7812,20.5511],[35.4485,-21.7854,1.1363],[35.4507,-21.7868,1.3184],[35.4512,-21.791,0.1019],[35.4543,-21.7946,0.0],[35.4568,-21.7932,0.0],[35.4615,-21.7851,8.7864],[35.4593,-21.7637,6.8804],[35.4621,-21.7415,33.9672],[35.4663,-21.7307,0.0],[35.4829,-21.7015,0.0],[35.4829,-21.6896,1.751],[35.4857,-21.6749,20.8046],[35.4957,-21.6482,10.0976],[35.4957,-21.6449,33.4963],[35.499,-21.6415,0.0],[35.4982,-21.639,0.2658],[35.4949,-21.6415,10.3376],[35.4926,-21.6413,15.0783],[35.4871,-21.6296,0.0],[35.4926,-21.6107,8.1449],[35.491,-21.5929,0.0],[35.4957,-21.5654,16.8376],[35.4921,-21.5532,18.8351],[35.4935,-21.5332,1.556],[35.4882,-21.5276,37.8746],[35.4826,-21.5146,9.4633]]],
[[[35.0924,-21.3412,2.4856],[35.0915,-21.3404,1.8623],[35.0899,-21.340699999999998,1.8623],[35.0921,-21.3429,4.1478],[35.0924,-21.3412,2.4856]]],
[[[35.0918,-21.3276,4.1534],[35.0926,-21.3257,0.5],[35.0904,-21.3254,0.5],[35.0887,-21.3296,1.6675],[35.0907,-21.3296,0.5],[35.0918,-21.3276,4.1534]]],
[[[35.0754,-21.0149,0.5],[35.0749,-21.0137,0.8665],[35.0732,-21.0137,1.9759],[35.0743,-21.016,1.0202],[35.0754,-21.0149,0.5]]],
[[[35.0982,-20.9626,0.0],[35.0988,-20.9615,0.0],[35.0957,-20.9621,0.0],[35.0962,-20.9629,0.0],[35.0982,-20.9626,0.0]]],
[[[35.3474,-22.1835,0.2991],[35.3462,-22.1812,0.0],[35.3424,-22.1843,0.0],[35.3465,-22.1843,1.0324],[35.3474,-22.1835,0.2991]]],
[[[35.3335,-22.1324,0.0],[35.3338,-22.1346,0.2284],[35.3343,-22.1346,0.2284],[35.3346,-22.131,0.0],[35.3335,-22.1324,0.0]]],
[[[35.3343,-21.6107,0.0],[35.3324,-21.6099,0.0],[35.3346,-21.6143,4.6005],[35.3401,-21.6179,4.1496],[35.3365,-21.626,0.0],[35.3399,-21.6254,1.965],[35.3421,-21.6276,0.6804],[35.3438,-21.6168,0.0],[35.3343,-21.6107,0.0]]],
[[[35.0832,-21.2562,0.4683],[35.081,-21.2551,0.0],[35.0804,-21.2599,0.0],[35.0851,-21.2582,0.0],[35.0832,-21.2562,0.4683]]],
[[[35.0726,-21.246,0.5387],[35.0726,-21.2443,0.0],[35.0704,-21.2446,0.2298],[35.0715,-21.2465,0.0],[35.0726,-21.246,0.5387]]],
[[[35.1029,-21.189,0.0],[35.1021,-21.1871,0.0],[35.1007,-21.1879,1.4792],[35.101,-21.1926,0.0],[35.1035,-21.1965,0.7193],[35.1015,-21.2029,0.0],[35.1049,-21.2051,0.0],[35.1057,-21.199,0.0],[35.1029,-21.189,0.0]]],
[[[35.0876,-21.0213,0.0],[35.0812,-21.0207,0.0],[35.0788,-21.024,0.0],[35.0851,-21.0251,0.0],[35.0876,-21.0213,0.0]]],
[[[35.1143,-21.1329,0.0],[35.1126,-21.1318,0.0],[35.1113,-21.1332,1.291],[35.1157,-21.1399,0.0],[35.1129,-21.1424,0.0],[35.1165,-21.1415,0.0],[35.1168,-21.1426,0.0],[35.1126,-21.1449,0.0],[35.1185,-21.1451,0.0],[35.1188,-21.1493,0.0],[35.1162,-21.1499,0.0],[35.1157,-21.1518,0.0],[35.1204,-21.1543,0.0],[35.121,-21.1576,0.0],[35.1188,-21.1629,0.0],[35.1226,-21.1676,0.0],[35.1237,-21.164,0.0],[35.1215,-21.1493,0.0],[35.124,-21.1496,0.0],[35.1251,-21.1482,0.0],[35.1221,-21.1476,0.0],[35.1176,-21.1349,0.0],[35.1143,-21.1329,0.0]]],
[[[35.1249,-20.9671,0.0],[35.1246,-20.9632,2.1925],[35.1282,-20.9607,1.6443],[35.1288,-20.9571,0.0],[35.1263,-20.9571,0.0],[35.119,-20.9643,0.0],[35.1193,-20.9699,4.2194],[35.1171,-20.9699,3.763],[35.1171,-20.9715,3.7349],[35.1213,-20.9724,0.6706],[35.1221,-20.9679,2.9807],[35.1243,-20.9699,0.0],[35.1249,-20.9671,0.0]]]]}
,"properties": {"GID_1": "MOZ.3_1","GID_0": "MOZ","country": "Mozambique","province": "Inhambane","VARNAME_1": "NA","NL_NAME_1": "NA","TYPE_1": "Provincia","ENGTYPE_1": "Province","CC_1": "NA","HASC_1": "MZ.IN","ISO_1": "MZ-I","name": "Inhambane.province","area_km2": 68876.2,"hist_schema_id": "Elevation0-9000","hist_area_km2": {"0": 2184.77,"25": 4686.59,"50": 8049.79,"75": 10190.66,"100": 12309.58,"125": 13537.02,"150": 9731.45,"175": 6177.25,"200": 1955.66,"225": 53.42}}}