{"type": "Feature","id": "1925","bbox": [33.14607,-24.85222,35.60613,-20.95262],"geometry": {"type": "MultiPolygon","coordinates": [[[[35.45533,-21.78135,1.3434],[35.49073,-21.64186,46.0601],[35.49684,-21.56959,3.1726],[35.49545,-21.54551,0.0],[35.49,-21.53021,3.9926],[35.48097,-21.52955,9.901],[35.46957,-21.54909,0.0],[35.43751,-21.67295,0.0264],[35.42661,-21.74896,0.0],[35.42709,-21.76881,0.0],[35.43491,-21.78289,0.0],[35.45533,-21.78135,1.3434]]],
[[[35.10768,-20.99871,4.2744],[35.11329,-20.98846,2.86],[35.12013,-20.9664,3.2981],[35.10776,-20.96413,3.7066],[35.10792,-20.95924,0.0],[35.11248,-20.95281,0.0],[35.11248,-20.95265,0.0],[35.11248,-20.95262,0.0],[35.10667,-20.95262,0.0],[35.08952,-20.95433,0.6292],[35.06849,-20.9689,5.1491],[35.05515,-20.97247,7.4822],[34.97733,-20.98368,2.4294],[34.87501,-21.02368,9.4963],[34.86416,-21.03003,10.3396],[34.85966,-21.0383,8.5272],[34.8532,-21.0459,9.9049],[34.79915,-21.08063,8.95],[34.78266,-21.1046,10.4756],[34.76122,-21.12636,9.6164],[34.72928,-21.13075,19.3336],[34.71905,-21.12605,12.4003],[34.67523,-21.09292,13.5508],[34.66629,-21.09251,14.3375],[34.65652,-21.09499,16.1193],[34.64396,-21.09664,15.552],[34.62727,-21.10192,16.3292],[34.57911,-21.13757,39.8925],[34.46304,-21.17111,26.006],[34.43509,-21.19219,46.6425],[34.39147,-21.25762,23.1935],[34.36269,-21.29121,41.9798],[34.33142,-21.3095,37.2405],[34.3138,-21.3095,28.7239],[34.29794,-21.30309,31.0179],[34.2675,-21.27818,31.754],[34.24368,-21.26847,36.1763],[34.22352,-21.27808,61.4765],[34.19552,-21.3095,42.4311],[34.17216,-21.32185,54.8396],[34.15557,-21.31777,38.1756],[34.1426,-21.30774,46.0652],[34.13035,-21.30206,39.245],[34.01568,-21.31157,49.0372],[33.96556,-21.31575,50.3055],[33.94845,-21.32526,49.9942],[33.92799,-21.34691,51.3666],[33.90008,-21.38402,73.152],[33.89672,-21.39198,73.5133],[33.89409,-21.40102,61.0526],[33.89016,-21.40831,54.632],[33.88298,-21.4113,56.3111],[33.87951,-21.41394,54.5663],[33.86882,-21.41859,56.9851],[33.85755,-21.42055,68.4235],[33.85228,-21.41502,76.8174],[33.84329,-21.39916,59.9865],[33.822,-21.39337,62.3167],[33.79709,-21.39409,79.005],[33.74087,-21.40324,72.224],[33.56739,-21.39595,83.2994],[33.52739,-21.40009,87.3124],[33.49241,-21.41161,80.8418],[33.42409,-21.46246,79.8935],[33.40306,-21.47461,83.7855],[33.36223,-21.48324,89.4752],[33.32508,-21.50086,102.7307],[33.3042,-21.5069,106.6276],[33.28048,-21.50587,91.8306],[33.27697,-21.50458,90.2626],[33.27113,-21.52613,93.1457],[33.26663,-21.53646,140.09],[33.26167,-21.5454,116.4955],[33.23206,-21.57951,122.9203],[33.2162,-21.60535,139.601],[33.20968,-21.6132,140.649],[33.20271,-21.62033,141.8535],[33.18705,-21.63346,142.5793],[33.16638,-21.65563,141.7603],[33.15863,-21.66865,141.9392],[33.15553,-21.67263,143.496],[33.15041,-21.68131,140.9435],[33.14855,-21.68627,139.6015],[33.14716,-21.6917,138.4371],[33.14638,-21.69743,137.7504],[33.14607,-21.70364,137.9315],[33.14654,-21.71004,139.03],[33.16002,-21.76224,133.783],[33.16162,-21.77366,131.6502],[33.16111,-21.78177,130.4512],[33.15754,-21.79205,130.972],[33.15522,-21.80306,129.5331],[33.15506,-21.81531,130.1444],[33.15692,-21.82239,128.5997],[33.16111,-21.82926,127.2309],[33.26322,-21.94936,124.1684],[33.33154,-21.9999,120.5117],[33.3334,-22.00284,120.1867],[33.33474,-22.00811,118.2547],[33.33464,-22.03307,119.4458],[33.33619,-22.04801,126.1729],[33.34037,-22.0632,119.2303],[33.37215,-22.10883,127.9474],[33.37401,-22.12004,125.3428],[33.37448,-22.128,121.8025],[33.37138,-22.15286,123.438],[33.35572,-22.21751,117.4923],[33.35603,-22.22397,118.0947],[33.36084,-22.24815,115.5094],[33.36208,-22.26686,109.5018],[33.36068,-22.285,105.9225],[33.36161,-22.29781,101.6934],[33.37262,-22.33817,109.3062],[33.37495,-22.35739,109.3332],[33.37432,-22.36329,98.992],[33.37262,-22.36835,98.5601],[33.3689,-22.37181,109.7309],[33.36394,-22.3744,109.4355],[33.33505,-22.38349,94.1432],[33.32606,-22.38923,98.4074],[33.32249,-22.39269,97.079],[33.32001,-22.39703,96.3644],[33.31862,-22.4024,96.9059],[33.3166,-22.43982,94.4869],[33.31567,-22.44545,93.8839],[33.30513,-22.47573,90.3811],[33.29552,-22.53258,85.9751],[33.29567,-22.53888,85.5387],[33.29629,-22.54539,85.5967],[33.29908,-22.55805,83.8474],[33.30947,-22.58203,86.1536],[33.36936,-22.66931,70.4061],[33.37572,-22.67551,70.6528],[33.38146,-22.68001,74.0014],[33.39469,-22.68833,67.8696],[33.39856,-22.69164,72.4012],[33.40538,-22.69908,92.5331],[33.41747,-22.71541,96.8515],[33.42585,-22.72936,90.9819],[33.44429,-22.75386,86.3999],[33.46295,-22.77117,84.4168],[33.49272,-22.79049,72.3544],[33.49938,-22.79334,64.2544],[33.50796,-22.79794,68.6019],[33.53168,-22.81716,65.5144],[33.54982,-22.82765,69.5692],[33.55788,-22.83411,68.8897],[33.5646,-22.84186,62.8451],[33.57033,-22.8507,68.943],[33.57684,-22.85855,68.3504],[33.58103,-22.86171,66.4852],[33.60335,-22.87519,77.7213],[33.61111,-22.88191,83.55],[33.62434,-22.89747,68.7204],[33.6403,-22.9247,78.611],[33.67555,-22.97059,66.9709],[33.68221,-22.99033,62.8151],[33.68469,-23.00841,58.0923],[33.68438,-23.02635,63.371],[33.68593,-23.0325,71.2397],[33.69245,-23.03937,70.4126],[33.69787,-23.0435,68.529],[33.7033,-23.04665,60.2195],[33.70733,-23.04976,58.2695],[33.7174,-23.06159,55.2292],[33.72113,-23.065,57.1542],[33.72955,-23.07094,54.0421],[33.74149,-23.08298,54.0556],[33.75218,-23.09616,54.6929],[33.75993,-23.10107,53.604],[33.76722,-23.10417,55.1927],[33.77249,-23.10588,49.7235],[33.77761,-23.10929,53.0292],[33.78929,-23.12133,50.872],[33.79471,-23.12541,54.336],[33.80076,-23.13218,49.3236],[33.80696,-23.14071,49.4249],[33.82959,-23.17926,49.1088],[33.83285,-23.18324,48.5291],[33.83642,-23.18685,48.0512],[33.84313,-23.19486,49.624],[33.84546,-23.19998,48.222],[33.84716,-23.20587,47.0862],[33.84716,-23.22148,46.7751],[33.84856,-23.2298,46.507],[33.85166,-23.23863,47.7192],[33.86499,-23.25967,46.7559],[33.86887,-23.26835,46.8761],[33.87042,-23.28106,45.4524],[33.87042,-23.30876,44.8129],[33.87243,-23.31589,44.7093],[33.876,-23.32266,45.2068],[33.88453,-23.33144,55.6867],[33.89078,-23.33594,54.4563],[33.90148,-23.34168,53.4822],[33.90504,-23.3454,56.9881],[33.90737,-23.34958,60.758],[33.90628,-23.35594,58.7682],[33.90334,-23.36028,61.1682],[33.89853,-23.36338,57.5958],[33.86964,-23.37175,57.2691],[33.85817,-23.37201,54.5523],[33.8529,-23.37294,47.313],[33.84902,-23.37573,45.2653],[33.84685,-23.38028,42.1053],[33.84623,-23.38601,44.6051],[33.84654,-23.39216,44.7397],[33.84794,-23.39914,41.6733],[33.85073,-23.40658,48.743],[33.86174,-23.42384,39.4175],[33.86313,-23.43211,38.8128],[33.86298,-23.43779,44.3228],[33.8636,-23.44337,51.8098],[33.86608,-23.44865,52.4427],[33.87631,-23.45712,51.8466],[33.88065,-23.4626,40.0176],[33.88391,-23.46988,37.6526],[33.88701,-23.48373,37.0484],[33.88985,-23.49195,41.2726],[33.89429,-23.49789,48.9352],[33.89605,-23.49965,51.3285],[33.89745,-23.50048,49.991],[33.90287,-23.50218,46.3623],[33.90845,-23.5028,43.1991],[33.92179,-23.50265,41.0539],[33.92892,-23.5059,37.3438],[33.93527,-23.51272,41.4074],[33.94866,-23.53712,44.8427],[33.95062,-23.54461,34.6942],[33.94814,-23.55091,34.91],[33.94457,-23.55536,38.1104],[33.94085,-23.55929,35.6041],[33.93837,-23.56342,33.6311],[33.93806,-23.56874,41.5394],[33.94054,-23.57458,40.347],[33.94649,-23.58233,34.8808],[33.94959,-23.58802,40.2221],[33.94835,-23.59505,45.9788],[33.94488,-23.59918,47.0093],[33.94008,-23.60259,45.0555],[33.93496,-23.60507,39.9307],[33.93047,-23.60786,36.1712],[33.92783,-23.61215,34.6054],[33.92613,-23.61716,42.7273],[33.92148,-23.62641,35.0231],[33.91837,-23.6305,32.3469],[33.91496,-23.63406,31.3123],[33.89807,-23.64667,37.1177],[33.89543,-23.65091,36.6219],[33.89357,-23.65587,34.2614],[33.89398,-23.66124,29.7647],[33.89636,-23.66558,31.1902],[33.90318,-23.66775,34.1225],[33.90892,-23.66698,33.5424],[33.91465,-23.66496,33.0993],[33.92442,-23.65985,29.0477],[33.92969,-23.65799,32.3202],[33.93512,-23.65757,31.7714],[33.93992,-23.65943,38.5609],[33.94426,-23.66424,43.6757],[33.95935,-23.69034,44.5784],[33.96168,-23.69731,40.321],[33.96121,-23.70455,36.8297],[33.95858,-23.70951,36.2479],[33.95145,-23.7171,36.7056],[33.94876,-23.72145,44.1552],[33.94804,-23.73292,44.2322],[33.9469,-23.73772,41.0056],[33.93527,-23.75395,34.606],[33.93326,-23.75891,33.4475],[33.93233,-23.78392,34.3587],[33.92969,-23.80144,26.4733],[33.93031,-23.81725,29.063],[33.92659,-23.82836,25.9569],[33.92566,-23.83565,32.3112],[33.92675,-23.84557,25.0277],[33.93093,-23.86412,32.1859],[33.93047,-23.87343,25.8216],[33.92892,-23.88051,25.9478],[33.92721,-23.88536,32.0671],[33.92659,-23.89105,29.5979],[33.93341,-23.95926,25.3398],[33.93078,-23.97781,28.0384],[33.93202,-23.9882,24.4349],[33.93078,-23.99425,26.0561],[33.92923,-23.99833,20.763],[33.92814,-23.99957,21.8235],[33.9269,-24.00153,23.5617],[33.91961,-24.01636,27.6758],[33.91636,-24.02649,26.7279],[33.91574,-24.03243,25.4597],[33.91605,-24.03838,28.7796],[33.92365,-24.06773,29.3101],[33.92427,-24.07517,27.2574],[33.92411,-24.08437,17.8989],[33.9252,-24.087,18.6303],[33.92752,-24.08649,20.8913],[33.9345,-24.07998,23.9452],[33.94116,-24.07734,21.8011],[33.94804,-24.07641,18.939],[33.95377,-24.07765,28.1462],[33.9592,-24.07941,38.1333],[33.96912,-24.0839,40.6075],[33.97424,-24.08576,45.322],[33.97982,-24.08633,45.282],[33.98958,-24.08468,39.9393],[33.99238,-24.08638,35.2378],[33.99703,-24.30157,97.5744],[33.9992,-24.31676,101.5963],[34.00343,-24.33273,81.3801],[34.12632,-24.5278,22.8893],[34.13361,-24.53618,23.4586],[34.14074,-24.53861,13.8438],[34.18203,-24.52563,24.8367],[34.22435,-24.51773,21.7113],[34.23618,-24.51416,13.7376],[34.24642,-24.5091,26.5226],[34.25076,-24.50605,23.2273],[34.25913,-24.50155,22.5549],[34.26114,-24.50078,23.7187],[34.26316,-24.50031,24.0105],[34.27479,-24.49861,12.7733],[34.28037,-24.49701,18.2478],[34.28548,-24.49458,19.6195],[34.29887,-24.48584,6.8572],[34.3046,-24.48398,1.8867],[34.31143,-24.48321,15.34],[34.32429,-24.48295,1.2608],[34.33018,-24.48171,1.4654],[34.34429,-24.4738,20.2715],[34.35054,-24.47241,12.5434],[34.3707,-24.47163,21.2631],[34.37705,-24.4707,17.8708],[34.38264,-24.46889,5.9335],[34.40858,-24.45737,0.9248],[34.41447,-24.45665,5.7165],[34.41989,-24.45783,0.5],[34.42486,-24.45985,7.4425],[34.42796,-24.46373,0.5],[34.42811,-24.46931,24.4763],[34.42098,-24.47975,57.4984],[34.3907,-24.50755,71.1829],[34.38279,-24.51742,70.9926],[34.37798,-24.52956,57.8079],[34.38729,-24.54434,57.8129],[34.46273,-24.61452,44.1103],[34.46645,-24.62155,55.5102],[34.46118,-24.62687,53.3115],[34.31871,-24.69467,36.0244],[34.30631,-24.70237,28.1804],[34.29763,-24.71074,28.0367],[34.29918,-24.722,27.2052],[34.3029,-24.73689,24.5],[34.30476,-24.751,24.5],[34.30879,-24.765,40.0989],[34.31468,-24.7759,67.545],[34.32367,-24.78577,87.8259],[34.34109,-24.78975,98.9932],[34.41927,-24.79213,100.4742],[34.44935,-24.80314,85.3678],[34.48016,-24.85222,7.2874],[34.48268,-24.85125,1.8751],[34.64894,-24.81276,0.0],[34.81227,-24.74139,61.8315],[35.10646,-24.59791,13.8487],[35.18067,-24.53069,23.3722],[35.1858,-24.52191,1.4139],[35.188,-24.51198,22.3717],[35.18832,-24.49896,24.7961],[35.19117,-24.48903,3.6299],[35.30437,-24.37575,0.0],[35.45875,-24.1666,40.9219],[35.47055,-24.14788,10.8958],[35.47584,-24.12811,18.1682],[35.47901,-24.12298,28.1172],[35.48634,-24.11736,7.9346],[35.4935,-24.11053,53.0685],[35.49684,-24.10133,54.6039],[35.4948,-24.0901,15.1852],[35.48536,-24.06976,40.045],[35.48325,-24.05674,16.0356],[35.48569,-24.03639,49.4677],[35.54322,-23.86321,33.9968],[35.54127,-23.85809,1.6559],[35.535,-23.85508,2.803],[35.53199,-23.84734,8.0552],[35.52735,-23.80299,26.1996],[35.51677,-23.79176,1.4332],[35.47584,-23.7824,0.0],[35.47584,-23.78981,0.0],[35.47999,-23.80104,0.0],[35.4725,-23.87119,0.5025],[35.46608,-23.88014,0.0],[35.45436,-23.87998,1.5347],[35.43539,-23.87176,8.6408],[35.40919,-23.84987,8.3131],[35.39479,-23.84189,0.7427],[35.38014,-23.84441,0.0],[35.36997,-23.8598,0.0],[35.37159,-23.87819,0.0],[35.38771,-23.91269,0.0],[35.34116,-23.96364,0.0],[35.33237,-23.96453,0.0],[35.33465,-23.95371,0.0],[35.34392,-23.93467,0.0],[35.34604,-23.92327,0.0],[35.34498,-23.91131,0.2046],[35.34051,-23.89202,0.0],[35.33985,-23.886,0.0],[35.34246,-23.87591,0.8769],[35.35011,-23.86199,3.7585],[35.35353,-23.85182,0.0],[35.35524,-23.83953,0.0],[35.35353,-23.80657,0.0],[35.35572,-23.7859,3.4559],[35.365,-23.74668,0.7492],[35.3672,-23.72772,1.585],[35.36638,-23.71673,32.2957],[35.36036,-23.69362,42.9813],[35.3545,-23.69158,0.0],[35.3436,-23.68426,3.2841],[35.34034,-23.6762,2.2452],[35.35694,-23.67254,3.5644],[35.3816,-23.67767,0.0],[35.38551,-23.69085,0.0],[35.38111,-23.70867,0.0],[35.38014,-23.72772,0.0],[35.39039,-23.74798,0.0],[35.39926,-23.73919,0.0],[35.40577,-23.71722,8.499],[35.40805,-23.69704,6.898],[35.40805,-23.61102,13.9231],[35.42408,-23.48065,12.6109],[35.48219,-23.31732,58.1287],[35.48943,-23.27532,71.8617],[35.4878,-23.25482,44.2368],[35.47804,-23.21803,77.3936],[35.47584,-23.19704,90.0531],[35.47853,-23.17685,78.3654],[35.48552,-23.1609,65.7334],[35.50367,-23.13128,0.0],[35.54249,-23.04217,34.6044],[35.56463,-23.01247,37.5839],[35.60092,-22.94362,5.9476],[35.60613,-22.91473,0.0],[35.5857,-22.90594,0.0],[35.5857,-22.9122,0.0],[35.59327,-22.92181,0.0],[35.58513,-22.92718,3.1765],[35.56886,-22.92685,0.0],[35.55144,-22.91961,0.0],[35.55047,-22.92864,1.9803],[35.54762,-22.9345,1.3011],[35.53785,-22.94695,5.6136],[35.52076,-22.90765,42.326],[35.48943,-22.69004,41.9271],[35.49269,-22.56487,32.5278],[35.54225,-22.40993,0.0],[35.54469,-22.3886,0.0],[35.53785,-22.32285,29.7228],[35.53785,-22.30267,1.4845],[35.55144,-22.17913,0.0],[35.54469,-22.17913,0.0],[35.54176,-22.1959,0.0],[35.53289,-22.21998,0.0],[35.52906,-22.27581,9.0189],[35.52516,-22.29306,0.0],[35.51734,-22.31015,3.1252],[35.49684,-22.14153,2.9287],[35.5005,-22.11777,0.0],[35.50082,-22.10605,0.0],[35.49684,-22.09661,0.0],[35.48894,-22.09254,0.0],[35.47739,-22.09149,0.0],[35.46713,-22.0958,0.0],[35.46274,-22.10752,17.6711],[35.46062,-22.1098,10.8007],[35.45558,-22.11297,1.9458],[35.44972,-22.11582,0.0],[35.44549,-22.11712,0.2936],[35.44142,-22.11956,0.0],[35.44142,-22.12558,0.0],[35.44256,-22.1325,0.5396],[35.44166,-22.13828,0.0],[35.41993,-22.16717,0.0],[35.41489,-22.17913,0.9876],[35.42408,-22.18475,3.6208],[35.44907,-22.22682,9.6176],[35.43588,-22.24277,13.8302],[35.42661,-22.23602,8.3866],[35.41489,-22.20648,1.6198],[35.40846,-22.2116,3.0278],[35.40455,-22.21795,2.0388],[35.40398,-22.22536,2.2357],[35.40805,-22.23447,1.6447],[35.39088,-22.27158,1.7575],[35.39112,-22.32057,2.2312],[35.40463,-22.3694,2.5212],[35.42799,-22.40569,26.8649],[35.40512,-22.41855,18.532],[35.3978,-22.43336,5.3323],[35.40065,-22.47715,13.5936],[35.39405,-22.48773,22.691],[35.37965,-22.47275,15.7788],[35.36036,-22.43987,12.9085],[35.3436,-22.43125,24.6733],[35.32569,-22.42474,70.026],[35.31153,-22.41302,24.6547],[35.30567,-22.3886,23.527],[35.30592,-22.34596,44.2433],[35.33579,-22.08913,0.0],[35.32691,-22.00555,0.0],[35.31658,-21.9581,0.0],[35.31186,-21.89463,0.0],[35.30779,-21.87819,0.0],[35.27784,-21.81666,17.9624],[35.26857,-21.77361,24.8318],[35.27345,-21.68678,0.0],[35.27101,-21.64414,3.7518],[35.24,-21.57586,4.1095],[35.22682,-21.56862,3.9681],[35.21225,-21.55145,12.0241],[35.15162,-21.45387,42.1135],[35.12013,-21.37721,28.5579],[35.11183,-21.28965,0.0],[35.12135,-21.26067,0.0],[35.12843,-21.19606,0.0],[35.12696,-21.17864,0.0],[35.09718,-21.29713,0.0],[35.07228,-21.32195,0.5],[35.07488,-21.27939,0.0],[35.07228,-21.268,0.0],[35.06227,-21.25945,4.307],[35.05144,-21.25677,0.9014],[35.04754,-21.25286,2.3193],[35.05795,-21.24066,0.6798],[35.06967,-21.23504,10.6242],[35.08155,-21.2326,2.5659],[35.08855,-21.22731,1.6217],[35.08595,-21.21331,0.0],[35.07765,-21.2068,2.1068],[35.06617,-21.2033,3.0161],[35.05942,-21.19793,1.211],[35.06544,-21.18613,4.0934],[35.05543,-21.17938,3.0619],[35.05323,-21.1723,0.0],[35.05356,-21.16334,0.0],[35.05193,-21.15195,2.4772],[35.05397,-21.1526,2.86],[35.05665,-21.1487,1.7808],[35.0586,-21.14284,2.6016],[35.05795,-21.13763,3.7405],[35.05437,-21.13291,3.6066],[35.05079,-21.13193,0.796],[35.04664,-21.13128,0.0],[35.03175,-21.12176,2.7596],[35.02231,-21.11793,1.295],[35.01645,-21.1111,0.0],[35.01775,-21.09661,6.1435],[35.02491,-21.08489,0.0],[35.03321,-21.0862,0.0],[35.04135,-21.09271,0.0],[35.04811,-21.09661,0.0],[35.06568,-21.09385,0.0],[35.07879,-21.08506,1.0496],[35.08579,-21.07,2.5112],[35.0857,-21.04192,0.0],[35.08692,-21.03387,0.0],[35.08595,-21.02776,0.0],[35.08229,-21.02663,0.0],[35.07537,-21.02679,0.0],[35.06853,-21.02508,2.2515],[35.06544,-21.01784,2.1936],[35.06902,-21.00555,1.8618],[35.07765,-21.00018,2.4335],[35.08872,-21.00123,0.0],[35.09962,-21.00791,0.0],[35.10768,-20.99871,4.2744]]]]}
,"properties": {"ISO3166-1-Alpha-3": "MOZ","country": "Mozambique","fill": "#FF0","name": "Inhambane","area_km2": 68252.33,"hist_schema_id": "Elevation0-9000","hist_area_km2": {"0": 1917.6,"25": 4523.85,"50": 7999.08,"75": 10090.18,"100": 12287.91,"125": 13508.46,"150": 9738.92,"175": 6177.25,"200": 1955.66,"225": 53.42}}}