{"type": "Feature","bbox": [37.2382,-17.2191,38.0666,-16.5279],"geometry": {"type": "MultiPolygon","coordinates": [[[[37.4929,-16.591,201.2508],[37.4669,-16.6069,172.128],[37.4643,-16.62,167.6043],[37.4754,-16.6258,169.5564],[37.4837,-16.6362,161.9432],[37.4841,-16.6432,152.6755],[37.4985,-16.672,136.4414],[37.502,-16.6811,140.0302],[37.5047,-16.7066,135.8365],[37.5009,-16.7199,140.8249],[37.5154,-16.7337,131.7716],[37.5206,-16.7648,116.4112],[37.5085,-16.7763,111.9202],[37.5103,-16.7841,118.1422],[37.5062,-16.7911,110.3371],[37.4954,-16.7916,115.7566],[37.4913,-16.8021,103.9991],[37.4915,-16.8057,110.6575],[37.4968,-16.8169,109.6228],[37.4923,-16.8245,111.6762],[37.4836,-16.8255,107.5041],[37.4886,-16.8339,113.6866],[37.4957,-16.8379,111.8406],[37.4963,-16.8442,100.3137],[37.491,-16.851,98.9746],[37.4877,-16.8466,105.1132],[37.4826,-16.8437,105.4255],[37.4821,-16.8481,99.8389],[37.4761,-16.8589,102.4479],[37.4777,-16.8696,92.5195],[37.4712,-16.8732,93.0727],[37.4676,-16.8815,93.0807],[37.4568,-16.8938,85.7901],[37.4601,-16.8978,92.0947],[37.4451,-16.899,88.4058],[37.4449,-16.9027,86.6701],[37.4524,-16.9045,89.1093],[37.4555,-16.9087,86.5952],[37.4557,-16.9208,88.6332],[37.4603,-16.9241,90.5827],[37.4296,-16.9506,110.0997],[37.4209,-16.9549,118.2221],[37.4148,-16.9558,114.3369],[37.4009,-16.969,78.9214],[37.3955,-16.9777,57.0103],[37.394,-16.9706,63.8219],[37.3865,-16.9614,76.3596],[37.3817,-16.9612,75.6953],[37.3207,-16.9696,113.0468],[37.2959,-16.9751,146.7294],[37.2892,-16.9968,92.9538],[37.2855,-17.0221,79.3397],[37.2771,-17.0358,71.1519],[37.2718,-17.0581,69.5546],[37.2562,-17.0912,91.119],[37.2513,-17.0982,91.7529],[37.2402,-17.1088,100.1504],[37.2382,-17.1303,111.2207],[37.2457,-17.146,106.8391],[37.265,-17.1664,138.2771],[37.2594,-17.1894,116.8605],[37.2791,-17.1875,133.6784],[37.2881,-17.178,135.4667],[37.3028,-17.186,127.0059],[37.3069,-17.177,117.9435],[37.3152,-17.1744,111.1496],[37.3308,-17.1863,97.6571],[37.3464,-17.1952,95.5228],[37.3551,-17.2063,106.0108],[37.3792,-17.2184,68.9215],[37.3995,-17.2125,43.9537],[37.3995,-17.2042,51.3869],[37.4148,-17.1933,53.1964],[37.4344,-17.1949,28.1505],[37.4472,-17.2106,53.028],[37.4619,-17.2191,27.4285],[37.471,-17.2191,31.5806],[37.4837,-17.1742,28.5142],[37.4855,-17.1607,11.2916],[37.4967,-17.1398,33.2483],[37.5057,-17.115,24.4942],[37.5446,-17.1093,57.6778],[37.5503,-17.1049,60.9597],[37.5588,-17.0968,57.193],[37.5837,-17.0581,63.116],[37.5962,-17.0342,95.0972],[37.6123,-17.0226,68.1935],[37.6454,-17.0484,69.0673],[37.6424,-17.0874,60.3074],[37.6533,-17.1063,47.1541],[37.6563,-17.1274,44.0069],[37.6384,-17.1404,61.7556],[37.6476,-17.1514,77.2084],[37.6774,-17.1535,50.7729],[37.6745,-17.1705,63.4548],[37.6893,-17.1885,34.9506],[37.7132,-17.1703,21.9157],[37.7392,-17.1532,13.1624],[37.743,-17.1451,24.4608],[37.743,-17.1416,26.7125],[37.7305,-17.1177,59.5253],[37.7368,-17.1028,32.974],[37.7541,-17.1007,40.1663],[37.7791,-17.1017,69.9414],[37.7867,-17.0938,58.5846],[37.7867,-17.0789,79.6056],[37.7901,-17.0725,65.8866],[37.8211,-17.0342,93.0227],[37.8398,-17.0342,92.8434],[37.8648,-17.0402,103.4317],[37.8898,-17.0402,67.3471],[37.9304,-17.0372,56.7985],[37.9804,-17.0372,38.0642],[38.0147,-17.0491,53.4027],[38.0666,-17.0483,24.5481],[38.0523,-17.0201,24.3068],[38.0508,-17.0129,44.6126],[38.034,-16.9985,25.962],[38.0411,-16.984,26.8502],[38.0278,-16.9747,31.1094],[38.0156,-16.9635,37.9825],[38.0031,-16.963,40.5628],[37.9983,-16.9642,40.2979],[37.9968,-16.9624,47.3525],[37.9992,-16.9576,44.1949],[38.0118,-16.9493,43.2314],[38.0155,-16.9372,58.7846],[38.0081,-16.9307,54.9141],[38.0042,-16.9228,48.638],[38.0028,-16.9107,54.4769],[37.9987,-16.8993,55.8496],[38.002,-16.8921,67.6915],[37.9943,-16.8798,61.8961],[37.9987,-16.8715,67.5259],[37.9973,-16.8661,71.483],[37.9985,-16.8609,79.6158],[37.9974,-16.858,82.5714],[37.9914,-16.8546,62.6858],[37.9882,-16.8469,73.5254],[37.9872,-16.8337,70.5728],[37.99,-16.8367,70.5135],[37.9928,-16.8351,70.0335],[37.9894,-16.824,80.0005],[37.9931,-16.8161,74.5558],[37.999,-16.8116,77.2499],[38.0044,-16.8044,89.9616],[38.0022,-16.8013,85.3367],[37.9957,-16.798,74.6952],[37.9974,-16.7838,95.7354],[37.9894,-16.7719,103.3376],[37.9849,-16.7687,91.8687],[37.9852,-16.7652,101.3483],[37.9908,-16.762,96.0979],[37.9914,-16.7593,109.7817],[37.9863,-16.7552,103.1645],[37.984,-16.7505,97.8048],[37.9784,-16.7482,110.1784],[37.9833,-16.7356,102.9132],[37.9907,-16.7296,107.3394],[37.9931,-16.7173,119.0482],[37.9857,-16.7131,117.8687],[37.9949,-16.6956,113.6959],[37.9858,-16.6886,115.3383],[37.9589,-16.6824,123.2044],[37.9434,-16.6704,136.4209],[37.9212,-16.6499,135.354],[37.9194,-16.6142,150.9935],[37.9237,-16.6069,152.3332],[37.9271,-16.5913,158.1489],[37.9179,-16.5883,173.8111],[37.9175,-16.5817,175.2299],[37.9202,-16.5711,171.0251],[37.9163,-16.5591,191.0073],[37.9023,-16.5448,188.8366],[37.9003,-16.5279,194.4095],[37.8685,-16.5489,193.8573],[37.8519,-16.5518,175.8873],[37.8457,-16.5549,172.9903],[37.8422,-16.5629,161.9756],[37.8319,-16.5662,169.4548],[37.8185,-16.5659,167.7151],[37.7956,-16.5793,123.7611],[37.7892,-16.5781,127.2728],[37.7832,-16.588,126.3687],[37.7824,-16.5959,128.9161],[37.785,-16.601,127.6998],[37.7898,-16.6051,133.7614],[37.7899,-16.62,118.3739],[37.7826,-16.6129,131.3218],[37.7794,-16.606,131.9352],[37.7794,-16.601,120.0789],[37.7731,-16.6008,134.2262],[37.7646,-16.5964,147.0055],[37.7589,-16.5971,146.685],[37.7549,-16.5934,164.0555],[37.7499,-16.6204,134.817],[37.7522,-16.6286,129.3646],[37.7536,-16.6531,112.3678],[37.7508,-16.6644,106.6568],[37.7416,-16.6609,123.2922],[37.7373,-16.6558,112.9566],[37.7379,-16.6507,119.8182],[37.7241,-16.6483,128.6385],[37.7163,-16.6387,130.2096],[37.7137,-16.6315,132.8518],[37.6967,-16.6333,134.2946],[37.6816,-16.6247,146.5172],[37.6774,-16.624,141.8215],[37.6718,-16.6302,136.822],[37.6677,-16.6305,139.6539],[37.6662,-16.6257,147.8717],[37.6537,-16.6119,150.2515],[37.6358,-16.6043,166.655],[37.6216,-16.5844,163.399],[37.6195,-16.5756,165.3652],[37.5927,-16.5825,185.2014],[37.5754,-16.5832,191.5725],[37.5597,-16.5807,210.2491],[37.552,-16.5824,230.6591],[37.5375,-16.5739,272.3046],[37.536,-16.5845,265.0193],[37.4929,-16.591,201.2508]]]]}
,"properties": {"GID_3": "MOZ.11.8.3_1","GID_0": "MOZ","country": "Mozambique","GID_1": "MOZ.11_1","province": "Zambezia","NL_NAME_1": "NA","GID_2": "MOZ.11.8_1","county": "MaganjadaCosta","NL_NAME_2": "NA","city": "Mocubela","VARNAME_3": "NA","NL_NAME_3": "NA","TYPE_3": "Localidad","ENGTYPE_3": "Locality","CC_3": "NA","HASC_3": "NA","name": "Mocubela.city","area_km2": 3544.083,"hist_schema_id": "Elevation0-9000","hist_area_km2": {"0": 1.904,"25": 130.602,"50": 431.588,"75": 632.012,"100": 702.867,"125": 581.306,"150": 478.114,"175": 318.338,"200": 191.698,"225": 62.02,"250": 13.329,"275": 0.305}}}