{"type": "Feature","bbox": [36.6449,-16.5912,36.9597,-16.0495],"geometry": {"type": "MultiPolygon","coordinates": [[[[36.9587,-16.1543,342.4408],[36.9597,-16.1416,353.5536],[36.956,-16.1363,342.3452],[36.9333,-16.1358,363.084],[36.9274,-16.1401,346.7958],[36.918,-16.1332,349.636],[36.9086,-16.1315,350.9636],[36.8972,-16.1337,365.2926],[36.8822,-16.1417,355.6787],[36.871,-16.144,363.7849],[36.8647,-16.1409,370.8629],[36.8622,-16.1291,383.7827],[36.8523,-16.1255,379.9589],[36.8391,-16.1297,388.1392],[36.82,-16.1259,389.7827],[36.8083,-16.0947,395.2135],[36.8075,-16.0826,410.1077],[36.801,-16.0811,419.7469],[36.7967,-16.0651,438.6992],[36.7898,-16.0634,458.1229],[36.7804,-16.064,446.8295],[36.7777,-16.0525,468.2287],[36.7715,-16.0531,470.8122],[36.7637,-16.0495,466.6522],[36.7551,-16.0527,481.9254],[36.7453,-16.0691,471.6692],[36.7361,-16.0753,485.1948],[36.7176,-16.0808,498.1255],[36.7008,-16.0803,497.3385],[36.6922,-16.0783,504.8647],[36.6993,-16.0991,552.7933],[36.7169,-16.1399,504.7806],[36.7469,-16.1905,575.3229],[36.7394,-16.2215,428.4049],[36.7451,-16.2409,387.0545],[36.7521,-16.254,385.5288],[36.755,-16.2628,370.3617],[36.7556,-16.2686,370.2451],[36.7504,-16.2883,360.7368],[36.7509,-16.3001,377.4647],[36.7605,-16.3144,364.252],[36.7563,-16.3162,415.0908],[36.7558,-16.3188,365.1422],[36.7617,-16.3172,377.1459],[36.7664,-16.3208,353.0701],[36.6901,-16.3782,891.649],[36.7029,-16.404,386.1397],[36.6892,-16.4346,274.0545],[36.6865,-16.4379,268.3428],[36.6644,-16.4524,270.0661],[36.6547,-16.4524,271.1229],[36.648,-16.4634,256.4755],[36.6449,-16.4902,240.8878],[36.6473,-16.4952,245.9818],[36.679,-16.5141,243.3242],[36.6961,-16.528,231.7736],[36.6867,-16.5453,243.1165],[36.6821,-16.5588,211.5505],[36.6747,-16.565,206.8386],[36.6781,-16.579,211.099],[36.6761,-16.5903,199.0147],[36.6871,-16.5912,201.8456],[36.7752,-16.5412,277.7357],[36.8058,-16.5304,304.894],[36.825,-16.5152,280.5968],[36.8373,-16.5126,257.0292],[36.8568,-16.5151,237.5485],[36.8649,-16.5135,235.3114],[36.8694,-16.5076,225.4536],[36.8852,-16.3144,324.3785],[36.8946,-16.3002,336.4053],[36.8965,-16.2876,352.5062],[36.9061,-16.2747,386.9724],[36.8993,-16.2487,386.3071],[36.907,-16.2423,383.841],[36.8981,-16.2386,404.6167],[36.8813,-16.2379,957.0884],[36.8793,-16.2337,814.8361],[36.896,-16.2096,934.1069],[36.9105,-16.1698,357.8785],[36.9391,-16.1632,358.9487],[36.9587,-16.1543,342.4408]]]]}
,"properties": {"GID_3": "MOZ.11.7.1_1","GID_0": "MOZ","country": "Mozambique","GID_1": "MOZ.11_1","province": "Zambezia","NL_NAME_1": "NA","GID_2": "MOZ.11.7_1","county": "Lugela","NL_NAME_2": "NA","city": "Lugela","VARNAME_3": "NA","NL_NAME_3": "NA","TYPE_3": "Localidad","ENGTYPE_3": "Locality","CC_3": "NA","HASC_3": "NA","name": "Lugela.city","area_km2": 944.444,"hist_schema_id": "Elevation0-9000","hist_area_km2": {"200": 5.3853,"225": 24.3933,"250": 68.9407,"275": 104.2449,"300": 116.0077,"325": 79.3378,"350": 50.8055,"375": 61.0643,"400": 77.1138,"425": 78.8289,"450": 69.1223,"475": 58.9668,"500": 48.8313,"525": 31.7672,"550": 16.7777,"575": 10.3018,"600": 6.4528,"625": 5.1495,"650": 4.1516,"675": 4.1924,"700": 3.6835,"725": 3.3372,"750": 3.3173,"775": 2.6047,"800": 1.6483,"825": 1.5059,"850": 1.2006,"875": 0.9971,"900": 0.5901,"925": 0.6106,"950": 0.4477,"975": 0.3459,"1000": 0.2849,"1025": 0.4273,"1050": 0.2035,"1075": 0.3662,"1100": 0.4272,"1125": 0.4679,"1150": 0.1424}}}