{"type":"Feature","properties":{"GID_3":"MOZ.1.3.2_1","GID_0":"MOZ","country":"Mozambique","GID_1":"MOZ.1_1","province":"CaboDelgado","NL_NAME_1":"NA","GID_2":"MOZ.1.3_1","county":"Chiúre","NL_NAME_2":"NA","city":"Katapua","VARNAME_3":"NA","NL_NAME_3":"NA","TYPE_3":"Localidad","ENGTYPE_3":"Locality","CC_3":"NA","HASC_3":"NA","name":"Katapua.city"},
"geometry":{"type": "MultiPolygon","coordinates": [[[[39.6536,-13.2256,282.6654],[39.6524,-13.2224,289.2882],[39.6461,-13.2256,294.5731],[39.626,-13.216,294.091],[39.6244,-13.2116,294.5631],[39.6173,-13.206,307.3367],[39.6107,-13.2044,313.1816],[39.6027,-13.2103,304.5364],[39.5924,-13.2131,311.2723],[39.5809,-13.2127,321.1251],[39.5694,-13.2148,315.2554],[39.5599,-13.2131,318.4955],[39.5369,-13.2046,328.1006],[39.5188,-13.1944,323.9543],[39.4768,-13.2095,341.6087],[39.4597,-13.2008,334.2864],[39.4452,-13.2039,352.8272],[39.3988,-13.2004,351.4491],[39.3896,-13.2073,340.2596],[39.3835,-13.2285,352.4874],[39.3757,-13.226,376.2367],[39.3683,-13.2403,363.9899],[39.3279,-13.2496,364.8996],[39.3095,-13.2496,366.9008],[39.2892,-13.2457,377.5244],[39.2862,-13.2361,393.497],[39.2758,-13.2405,377.7404],[39.2691,-13.2472,384.1915],[39.261,-13.2475,397.6118],[39.2464,-13.2559,392.7775],[39.2192,-13.2786,390.5469],[39.1995,-13.2913,397.5048],[39.1861,-13.3032,403.6837],[39.1977,-13.3312,437.1342],[39.2208,-13.3686,469.2416],[39.2244,-13.379,475.9465],[39.2426,-13.4041,423.3069],[39.2482,-13.4082,415.4328],[39.2566,-13.4096,428.4164],[39.2733,-13.4338,393.2412],[39.2719,-13.4531,375.1193],[39.2634,-13.4619,371.5782],[39.2675,-13.4735,357.2125],[39.2732,-13.4837,361.7914],[39.2808,-13.4868,357.4963],[39.2862,-13.4928,359.2503],[39.295,-13.4925,344.6121],[39.3014,-13.4958,340.0667],[39.3054,-13.5068,347.2616],[39.3042,-13.5165,342.874],[39.3071,-13.5255,344.4414],[39.3233,-13.5393,329.3712],[39.3326,-13.5391,322.8618],[39.3605,-13.6003,306.2424],[39.366,-13.604,311.5117],[39.3666,-13.6067,304.7996],[39.377,-13.5963,311.9648],[39.3951,-13.5871,329.1115],[39.4002,-13.5817,333.66],[39.4017,-13.5737,342.1575],[39.406,-13.5647,363.5829],[39.438,-13.5446,356.2276],[39.4565,-13.5521,343.9664],[39.468,-13.5505,341.943],[39.4805,-13.5437,334.04],[39.4907,-13.5359,327.9462],[39.5238,-13.5257,324.566],[39.5378,-13.5236,314.4987],[39.5506,-13.5188,312.6825],[39.5605,-13.518,309.9012],[39.5763,-13.5076,302.4839],[39.6278,-13.4955,282.2337],[39.6443,-13.4943,294.8708],[39.6772,-13.4844,324.6277],[39.693,-13.4815,301.9597],[39.715,-13.4722,281.0382],[39.7277,-13.4635,264.7052],[39.7408,-13.4601,263.5676],[39.7566,-13.4638,249.9706],[39.744,-13.4499,253.3662],[39.7403,-13.44,256.2348],[39.7303,-13.422,267.3406],[39.7229,-13.4149,273.6375],[39.7121,-13.4096,283.3848],[39.7005,-13.4099,284.0267],[39.6925,-13.4026,294.5761],[39.6905,-13.3957,293.6963],[39.6964,-13.3923,297.8271],[39.6939,-13.383,303.5363],[39.6766,-13.368,315.7413],[39.6717,-13.3618,319.5847],[39.6692,-13.3418,335.1347],[39.6788,-13.3251,366.6216],[39.6646,-13.3122,386.9663],[39.6618,-13.3061,393.6562],[39.6665,-13.3026,396.4919],[39.6691,-13.2888,357.6837],[39.6689,-13.2678,333.3859],[39.6536,-13.2256,282.6654]]]]}}