{"type": "Feature","bbox": [40.0038,-14.4685,40.4527,-14.2243],"geometry": {"type": "MultiPolygon","coordinates": [[[[40.1095,-14.4685,190.2072],[40.1245,-14.4627,188.9815],[40.1368,-14.4478,188.1401],[40.1769,-14.4269,159.5841],[40.1856,-14.417,159.1402],[40.1899,-14.4076,144.5143],[40.1933,-14.4038,148.1519],[40.2199,-14.3889,140.9057],[40.2596,-14.3918,127.2414],[40.2686,-14.3905,120.4874],[40.2706,-14.3888,118.3048],[40.3237,-14.3937,101.6692],[40.325,-14.3911,107.1855],[40.3404,-14.3881,106.2367],[40.3466,-14.3851,101.6558],[40.3466,-14.3706,92.1398],[40.3598,-14.3607,84.4547],[40.3631,-14.3521,81.5282],[40.3746,-14.3502,90.7401],[40.3767,-14.3423,77.7344],[40.3758,-14.3284,74.4548],[40.3776,-14.3166,71.3436],[40.3842,-14.3127,80.8204],[40.3915,-14.3116,71.2333],[40.398,-14.307,71.1082],[40.4145,-14.3019,64.0964],[40.4162,-14.2996,60.1006],[40.4164,-14.2946,79.2343],[40.4119,-14.2859,57.5556],[40.4223,-14.2816,61.2569],[40.4296,-14.276,85.6189],[40.4332,-14.2664,56.6442],[40.4388,-14.2642,46.7342],[40.4527,-14.2634,37.7531],[40.4454,-14.2386,29.5106],[40.4341,-14.2372,43.9862],[40.4277,-14.2402,29.1161],[40.419,-14.2513,36.3069],[40.3954,-14.2588,41.3919],[40.3702,-14.2736,47.8779],[40.3536,-14.2853,49.9274],[40.3454,-14.2862,72.3584],[40.3397,-14.2829,59.7901],[40.3267,-14.271,65.6352],[40.29,-14.2742,61.7733],[40.2797,-14.2726,82.8617],[40.2727,-14.266,84.0888],[40.2678,-14.2488,83.045],[40.2608,-14.2435,93.7403],[40.243899999999996,-14.2473,104.645],[40.2316,-14.2455,96.1986],[40.2194,-14.2512,105.8185],[40.1994,-14.2576,103.3256],[40.1922,-14.2555,94.9308],[40.187,-14.2485,102.5267],[40.1685,-14.2492,119.5391],[40.1646,-14.2315,113.6482],[40.1616,-14.2293,113.7764],[40.1426,-14.2243,115.6942],[40.1358,-14.2246,108.22],[40.1298,-14.2274,127.2218],[40.1241,-14.2342,128.267],[40.1173,-14.2371,127.1653],[40.1132,-14.2429,125.133],[40.0991,-14.2423,143.5107],[40.0927,-14.2464,126.3553],[40.0884,-14.2438,145.3234],[40.077,-14.2473,144.3393],[40.0701,-14.2539,138.4105],[40.0699,-14.275,142.296],[40.0527,-14.2874,201.2863],[40.0406,-14.2933,161.1397],[40.0353,-14.3033,165.6248],[40.034,-14.3149,167.0288],[40.0361,-14.3305,169.5749],[40.035,-14.3441,185.995],[40.0395,-14.3563,179.9732],[40.0413,-14.3662,192.2468],[40.0331,-14.3883,196.3452],[40.0283,-14.396,209.7403],[40.02,-14.4037,223.8247],[40.0077,-14.4117,209.7843],[40.004,-14.4164,217.7407],[40.0038,-14.4331,242.3214],[40.0223,-14.4462,284.1144],[40.0255,-14.4501,282.6832],[40.0416,-14.446,264.7511],[40.048,-14.4458,269.2252],[40.0627,-14.4578,254.5823],[40.0675,-14.4586,237.4979],[40.0763,-14.4548,252.933],[40.0891,-14.4641,220.8602],[40.106,-14.4661,207.0754],[40.1095,-14.4685,190.2072]]]]}
,"properties": {"GID_3": "MOZ.7.2.1_1","GID_0": "MOZ","country": "Mozambique","GID_1": "MOZ.7_1","province": "Nampula","NL_NAME_1": "NA","GID_2": "MOZ.7.2_1","county": "Erati","NL_NAME_2": "NA","city": "Intete","VARNAME_3": "NA","NL_NAME_3": "NA","TYPE_3": "Localidad","ENGTYPE_3": "Locality","CC_3": "NA","HASC_3": "NA","name": "Intete.city","area_km2": 691.7669,"hist_schema_id": "Elevation0-9000","hist_area_km2": {"25": 2.0961,"50": 14.1989,"75": 36.0182,"100": 61.6764,"125": 83.1859,"150": 97.6048,"175": 109.039,"200": 111.2033,"225": 95.1334,"250": 58.6944,"275": 21.3762,"300": 1.5195,"325": 0.0205}}}