{"type":"Feature","properties":{"GID_3":"MOZ.2.8.4_1","GID_0":"MOZ","country":"Mozambique","GID_1":"MOZ.2_1","province":"Gaza","NL_NAME_1":"NA","GID_2":"MOZ.2.8_1","county":"Mandlakazi","NL_NAME_2":"NA","city":"Macuacua","VARNAME_3":"NA","NL_NAME_3":"NA","TYPE_3":"Localidad","ENGTYPE_3":"Locality","CC_3":"NA","HASC_3":"NA","name":"Macuacua.city"},
"geometry":{"type": "MultiPolygon","coordinates": [[[[33.8327,-24.5004,67.7037],[33.8292,-24.51,66.6529],[33.8372,-24.5289,66.4029],[33.8527,-24.5415,100.1434],[33.8567,-24.5467,97.6599],[33.8608,-24.5693,56.3795],[33.8751,-24.5736,49.2995],[33.8831,-24.5732,49.4179],[33.9106,-24.5648,44.785],[33.9366,-24.5649,45.6298],[33.9421,-24.5669,44.8772],[33.953,-24.5657,43.1248],[33.9626,-24.5603,37.9307],[34.002,-24.5601,31.1815],[34.0058,-24.5582,29.7571],[34.0141,-24.5591,29.2903],[34.0259,-24.5559,28.6184],[34.0353,-24.5553,28.0278],[34.0801,-24.5572,22.2991],[34.0937,-24.5478,22.4428],[34.0999,-24.5469,23.1809],[34.1085,-24.5496,20.3623],[34.1328,-24.5424,16.9596],[34.1411,-24.5359,20.0992],[34.0012,-24.3515,72.1993],[34.0005,-24.0861,28.522],[33.9918,-24.0888,28.5055],[33.985,-24.0787,29.9944],[33.9728,-24.0734,25.3215],[33.9613,-24.072,29.7705],[33.9456,-24.0776,20.8069],[33.938,-24.0848,24.1039],[33.9306,-24.0879,22.0465],[33.921,-24.0825,18.2141],[33.9089,-24.0814,21.4675],[33.9048,-24.0912,18.7609],[33.8955,-24.1001,21.034],[33.8841,-24.0936,20.003],[33.8671,-24.0973,18.6439],[33.8509,-24.0963,19.5342],[33.8433,-24.1062,16.0069],[33.8406,-24.1136,21.2521],[33.8399,-24.1457,40.9793],[33.8367,-24.1655,41.7198],[33.8313,-24.272,56.8537],[33.8303,-24.4045,73.763],[33.8368,-24.4483,99.25],[33.8328,-24.4859,82.2985],[33.8341,-24.4951,73.5125],[33.8327,-24.5004,67.7037]]]]}}