{"type":"Feature","properties":{"GID_3":"MOZ.1.4.2_1","GID_0":"MOZ","country":"Mozambique","GID_1":"MOZ.1_1","province":"CaboDelgado","NL_NAME_1":"NA","GID_2":"MOZ.1.4_1","county":"Macomia","NL_NAME_2":"NA","city":"Macomia-Sede","VARNAME_3":"NA","NL_NAME_3":"NA","TYPE_3":"Localidad","ENGTYPE_3":"Locality","CC_3":"NA","HASC_3":"NA","name":"Macomia-Sede.city"},
"geometry":{"type": "MultiPolygon","coordinates": [[[[39.8602,-12.0077,75.0869],[39.8285,-12.0348,82.3581],[39.7956,-12.0478,86.941],[39.7799,-12.0574,88.585],[39.7669,-12.0685,91.385],[39.756,-12.0753,95.3556],[39.7353,-12.0736,95.5317],[39.7417,-12.1059,126.1694],[39.7368,-12.1161,119.7141],[39.7246,-12.1285,145.1879],[39.7248,-12.1359,151.0166],[39.7211,-12.1515,157.6347],[39.7207,-12.1628,164.2197],[39.7243,-12.1946,199.8392],[39.7181,-12.2049,233.5985],[39.7286,-12.2176,243.9751],[39.7351,-12.2284,252.0485],[39.7588,-12.2398,309.2056],[39.8487,-12.2695,296.0396],[39.8879,-12.2733,282.1529],[39.9042,-12.2794,282.7845],[39.9257,-12.2911,247.1095],[39.9397,-12.3057,225.8354],[39.9852,-12.2614,350.8198],[40.0005,-12.2525,371.8873],[40.0738,-12.2854,318.1526],[40.1266,-12.3672,383.4727],[40.1321,-12.3578,286.108],[40.1606,-12.324,340.0399],[40.1683,-12.3209,289.6525],[40.2016,-12.3273,221.2933],[40.2179,-12.3168,181.5229],[40.2271,-12.3134,165.2021],[40.2508,-12.3113,158.0128],[40.2619,-12.3134,160.1257],[40.275,-12.3214,150.3202],[40.2858,-12.3069,116.1812],[40.2807,-12.2334,93.2961],[40.3002,-12.128,61.598],[40.2305,-12.1006,85.9137],[40.2153,-12.1186,104.9724],[40.1969,-12.1454,120.5584],[40.1786,-12.1364,127.8676],[40.1477,-12.1629,139.0512],[40.1024,-12.1659,170.0209],[40.0756,-12.1236,184.4705],[40.0684,-12.0954,298.5771],[40.0381,-12.0887,310.1382],[40.0167,-12.1394,299.9501],[40.011,-12.145,348.1967],[39.9862,-12.1454,495.1539],[39.9774,-12.144,578.3447],[39.9676,-12.1411,619.2546],[39.9648,-12.1246,649.6318],[39.921,-12.1226,284.7081],[39.9128,-12.0924,221.5163],[39.8983,-12.0833,219.2748],[39.8602,-12.0077,75.0869]]]]}}