{"type":"Feature","properties":{"GID_3":"MOZ.1.13.1_1","GID_0":"MOZ","country":"Mozambique","GID_1":"MOZ.1_1","province":"CaboDelgado","NL_NAME_1":"NA","GID_2":"MOZ.1.13_1","county":"Palma","NL_NAME_2":"NA","city":"Olumbe","VARNAME_3":"NA","NL_NAME_3":"NA","TYPE_3":"Localidad","ENGTYPE_3":"Locality","CC_3":"NA","HASC_3":"NA","name":"Olumbe.city"},
"geometry":{"type": "MultiPolygon","coordinates": [[[[40.4326,-11.2326,3.2911],[40.434,-11.2296,4.3132],[40.4346,-11.2346,0.0],[40.4371,-11.2326,4.7348],[40.4443,-11.2326,1.2108],[40.4876,-11.2063,0.0],[40.4982,-11.2026,1.5714],[40.5062,-11.1979,6.8685],[40.5079,-11.1935,0.0],[40.4985,-11.1882,3.8625],[40.4921,-11.181,2.104],[40.4899,-11.1699,0.0],[40.4904,-11.1646,0.0],[40.489,-11.1626,2.7951],[40.489,-11.1546,2.2279],[40.491,-11.1474,5.5374],[40.4935,-11.1432,1.9777],[40.501,-11.1379,1.4758],[40.5001,-11.1351,2.4676],[40.5029,-11.1318,4.2216],[40.5254,-11.1104,0.0],[40.5321,-11.0985,2.4731],[40.5474,-11.0829,3.5826],[40.5599,-11.0621,0.0],[40.5601,-11.0532,0.6697],[40.5632,-11.0449,1.6135],[40.5621,-11.0351,0.7501],[40.5646,-11.0324,2.5567],[40.5646,-11.0299,2.0086],[40.5513,-11.0268,1.4689],[40.5376,-11.0207,0.0],[40.5351,-11.0215,1.0639],[40.534,-11.0185,0.3054],[40.5265,-11.0162,0.0],[40.5226,-11.0115,0.0],[40.519,-11.0113,0.2661],[40.5176,-11.0126,0.222],[40.516,-11.0107,0.0],[40.5093,-11.009,0.4226],[40.5071,-11.0057,0.0],[40.5032,-11.0079,0.0],[40.5046,-11.016,1.4757],[40.5082,-11.0204,3.5671],[40.506,-11.0237,2.7168],[40.5049,-11.0226,1.7974],[40.5062,-11.021,1.0],[40.5021,-11.0157,1.009],[40.5001,-11.006,2.0647],[40.5046,-11.0007,0.0],[40.5037,-10.9937,0.0],[40.5021,-10.9929,0.0],[40.496,-10.9954,1.004],[40.491,-10.9951,0.2203],[40.4904,-10.9937,0.2759],[40.4918,-10.9929,0.0],[40.4885,-10.9904,0.0],[40.4896,-10.9876,0.8144],[40.4982,-10.9796,0.0],[40.4946,-10.9738,3.939],[40.4943,-10.9671,0.5628],[40.4924,-10.9663,2.1184],[40.494,-10.9621,0.0],[40.4915,-10.9557,0.735],[40.4963,-10.9554,0.0],[40.4982,-10.9496,0.0],[40.4968,-10.9468,0.0],[40.4946,-10.9462,3.0102],[40.4946,-10.9443,3.8949],[40.4963,-10.9437,0.0],[40.4996,-10.9365,0.0],[40.5068,-10.9304,0.0],[40.5062,-10.9279,0.0],[40.5093,-10.9246,0.0],[40.511,-10.9162,4.7625],[40.5224,-10.9085,0.0],[40.5249,-10.9046,0.0],[40.5407,-10.8907,0.7159],[40.5554,-10.8815,0.7272],[40.571,-10.876,1.5739],[40.5871,-10.8676,3.0303],[40.5437,-10.8539,8.9148],[40.5098,-10.8539,17.501],[40.4805,-10.8817,26.6611],[40.4485,-10.8755,45.6072],[40.4247,-10.8871,54.3193],[40.3451,-10.8889,96.6015],[40.313,-10.8835,110.8108],[40.2871,-10.8556,105.5463],[40.2535,-10.8683,131.1582],[40.2206,-10.8728,136.1435],[40.1684,-10.8557,144.034],[40.1601,-10.8719,133.8098],[40.1356,-10.9047,133.7304],[40.1356,-10.9178,125.897],[40.1416,-10.9387,127.8394],[40.1538,-10.9536,123.1269],[40.1599,-10.9745,107.2102],[40.1919,-11.0059,94.6859],[40.1933,-11.0103,118.0776],[40.1933,-11.0222,122.4968],[40.2067,-11.0456,115.5709],[40.2268,-11.058,112.1811],[40.2329,-11.0699,86.1762],[40.2511,-11.0938,78.5548],[40.2663,-11.1057,72.4019],[40.2754,-11.1206,47.1109],[40.2754,-11.1325,92.9475],[40.2785,-11.1445,87.7455],[40.2937,-11.1472,67.8256],[40.3035,-11.1438,85.0529],[40.3264,-11.1527,65.5872],[40.3405,-11.1779,56.0966],[40.3454,-11.1931,43.6045],[40.3568,-11.1969,60.9159],[40.3665,-11.2068,54.2176],[40.3762,-11.2241,57.041],[40.3869,-11.2343,46.5521],[40.3982,-11.2424,39.9739],[40.4168,-11.2419,2.6061],[40.4253,-11.2331,3.6863],[40.4326,-11.2326,3.2911]]]]}}