{"type": "Feature","bbox": [33.3642,-25.087,33.6696,-24.8018],"geometry": {"type": "MultiPolygon","coordinates": [[[[33.3763,-25.025,14.9687],[33.3806,-25.0306,2.1816],[33.3828,-25.0375,1.6088],[33.3877,-25.0406,1.4398],[33.3874,-25.0454,1.7012],[33.3956,-25.0567,2.1095],[33.4141,-25.0597,1.4957],[33.4223,-25.0585,1.695],[33.4254,-25.0611,2.0472],[33.4343,-25.0608,2.2594],[33.4427,-25.0631,1.9844],[33.4483,-25.0613,1.8611],[33.464,-25.061,2.6857],[33.4736,-25.0629,1.6648],[33.4835,-25.0607,1.7923],[33.5067,-25.0679,1.6814],[33.5236,-25.0775,1.8369],[33.5313,-25.0849,1.6352],[33.5389,-25.0835,0.7416],[33.5474,-25.0841,2.0703],[33.5599,-25.087,2.1173],[33.5754,-25.0864,1.4322],[33.5812,-25.0843,2.1733],[33.5837,-25.0781,1.7163],[33.5759,-25.0694,2.3061],[33.5714,-25.0604,0.0],[33.5852,-25.0672,2.0959],[33.6011,-25.0657,2.6543],[33.5918,-25.0605,2.6622],[33.5802,-25.0583,0.4456],[33.5844,-25.0564,0.9299],[33.6082,-25.0556,0.3234],[33.6101,-25.0508,1.7185],[33.6073,-25.0479,2.2614],[33.5834,-25.0481,2.5464],[33.5816,-25.0419,1.6521],[33.5845,-25.0318,2.3745],[33.5836,-24.9978,2.7354],[33.6221,-24.9841,2.2697],[33.6222,-24.9801,3.2863],[33.626,-24.9767,4.0285],[33.6313,-24.957,4.3181],[33.6389,-24.9557,4.4469],[33.6462,-24.9476,2.3556],[33.6472,-24.941,1.6268],[33.6504,-24.9361,4.2991],[33.6665,-24.9243,2.2167],[33.6696,-24.9169,3.9904],[33.6633,-24.9164,5.5339],[33.652,-24.9217,4.7874],[33.646,-24.9175,3.2911],[33.6503,-24.908,4.0314],[33.6501,-24.9012,3.3699],[33.6425,-24.9116,4.7973],[33.6342,-24.9176,4.3852],[33.6305,-24.9223,2.1658],[33.6251,-24.9366,5.4089],[33.6201,-24.9263,5.9036],[33.6226,-24.9186,4.0554],[33.6223,-24.8982,1.7766],[33.6137,-24.89,0.5],[33.6159,-24.8718,6.3135],[33.5963,-24.8644,7.5298],[33.5866,-24.8503,3.9682],[33.5837,-24.8193,4.7764],[33.5353,-24.8071,9.3909],[33.5229,-24.8018,5.5986],[33.4858,-24.8229,8.639],[33.4646,-24.8248,10.1816],[33.4543,-24.8424,7.819],[33.4577,-24.8454,7.6092],[33.4592,-24.8522,7.2385],[33.4528,-24.8759,12.7681],[33.4535,-24.8994,16.0173],[33.4589,-24.9125,34.7584],[33.4459,-24.9195,44.8834],[33.4223,-24.9258,48.2694],[33.371,-24.9332,54.74],[33.3642,-24.9399,42.8552],[33.3673,-24.9609,13.0686],[33.3723,-24.9717,13.6299],[33.3715,-24.9892,6.1182],[33.3748,-25.0042,7.175],[33.3741,-25.0125,14.546],[33.3763,-25.025,14.9687]]]]}
,"properties": {"GID_3": "MOZ.2.11.1_1","GID_0": "MOZ","country": "Mozambique","GID_1": "MOZ.2_1","province": "Gaza","NL_NAME_1": "NA","GID_2": "MOZ.2.11_1","county": "Xai-Xai","NL_NAME_2": "NA","city": "Chicunbane","VARNAME_3": "NA","NL_NAME_3": "NA","TYPE_3": "Localidad","ENGTYPE_3": "Locality","CC_3": "NA","HASC_3": "NA","name": "Chicunbane.city","area_km2": 562.8889,"hist_schema_id": "Elevation0-9000","hist_area_km2": {"0": 298.3822,"25": 105.1984,"50": 158.5972,"75": 0.7111}}}