{"type": "Feature","bbox": [37.6738,-14.8136,38.0969,-14.2487],"geometry": {"type": "MultiPolygon","coordinates": [[[[37.928,-14.3164,391.2741],[37.9128,-14.3092,399.6208],[37.8793,-14.2743,407.1441],[37.8677,-14.2563,412.3185],[37.8575,-14.2506,408.5317],[37.8403,-14.2532,408.8484],[37.8235,-14.2531,410.6174],[37.7965,-14.2487,416.3814],[37.7855,-14.2552,415.8941],[37.7787,-14.2651,415.2092],[37.7721,-14.2711,422.7705],[37.7245,-14.2949,424.4707],[37.7178,-14.3014,417.1083],[37.7108,-14.3037,429.2265],[37.6985,-14.3156,432.7585],[37.6931,-14.3182,434.5457],[37.6862,-14.3425,453.6591],[37.6862,-14.3544,461.8363],[37.6831,-14.3634,477.3467],[37.6738,-14.3723,471.994],[37.6738,-14.3962,512.3755],[37.6761,-14.4134,483.0711],[37.6804,-14.4301,474.3576],[37.7015,-14.4886,580.6518],[37.6985,-14.5095,591.8226],[37.6985,-14.5693,638.0114],[37.7152,-14.5829,505.1801],[37.7286,-14.5847,495.1347],[37.7477,-14.5721,486.6177],[37.7662,-14.587,495.2688],[37.7724,-14.6109,501.6967],[37.7761,-14.617,511.522],[37.7813,-14.6509,515.1422],[37.7785,-14.6616,519.8234],[37.7662,-14.6735,527.1917],[37.7662,-14.6914,552.031],[37.7707,-14.6997,573.3804],[37.7847,-14.708,565.84],[37.7934,-14.7442,590.1874],[37.799,-14.757,606.0421],[37.8062,-14.757,634.3304],[37.8185,-14.763,708.0964],[37.8401,-14.763,642.9707],[37.8493,-14.76,723.3835],[37.8555,-14.769,616.0336],[37.8577,-14.7778,599.5339],[37.8711,-14.7928,564.2654],[37.8821,-14.7928,559.6418],[37.9111,-14.8115,536.2279],[37.9197,-14.8136,529.7096],[37.9465,-14.8077,512.371],[37.9576,-14.79,506.8419],[37.9713,-14.7815,502.7218],[37.9855,-14.7668,494.3204],[37.9988,-14.7587,493.4682],[38.0034,-14.7492,490.6831],[38.0124,-14.7446,483.5366],[38.0424,-14.7191,480.9395],[38.0487,-14.7166,482.1468],[38.0557,-14.7044,479.5162],[38.0639,-14.6973,477.4208],[38.0645,-14.6951,479.1776],[38.0845,-14.6791,464.1011],[38.0969,-14.6799,465.8431],[38.0883,-14.6695,495.0824],[38.0863,-14.6582,478.4924],[38.0838,-14.6551,478.1593],[38.0574,-14.6487,508.1385],[38.0335,-14.649,534.1456],[38.0037,-14.6527,551.8972],[37.9912,-14.6611,552.8445],[37.9783,-14.6508,628.368],[37.9813,-14.6237,568.0123],[37.9975,-14.6105,944.9611],[37.99,-14.5852,529.0012],[37.9763,-14.5659,517.1037],[37.987,-14.5514,506.5942],[37.9987,-14.5503,496.8768],[38.0087,-14.537,480.7757],[38.0136,-14.5166,470.6472],[38.0261,-14.5153,471.0867],[38.041,-14.5093,476.0924],[38.0508,-14.4925,454.2866],[38.0541,-14.467,478.5462],[38.0376,-14.4543,530.0113],[38.0113,-14.4415,476.5676],[37.9322,-14.3841,430.622],[37.9203,-14.3648,422.2502],[37.9278,-14.3552,423.5498],[37.928,-14.3164,391.2741]]]]}
,"properties": {"GID_3": "MOZ.7.3.2_1","GID_0": "MOZ","country": "Mozambique","GID_1": "MOZ.7_1","province": "Nampula","NL_NAME_1": "NA","GID_2": "MOZ.7.3_1","county": "Lalaua","NL_NAME_2": "NA","city": "Meti","VARNAME_3": "NA","NL_NAME_3": "NA","TYPE_3": "Localidad","ENGTYPE_3": "Locality","CC_3": "NA","HASC_3": "NA","name": "Meti.city","area_km2": 1639.677,"hist_schema_id": "Elevation0-9000","hist_area_km2": {"400": 14.361,"425": 127.205,"450": 211.59,"475": 288.98,"500": 311.226,"525": 233.504,"550": 166.604,"575": 104.626,"600": 73.034,"625": 43.89,"650": 20.04,"675": 10.36,"700": 6.647,"725": 6.175,"750": 4.37,"775": 3.569,"800": 3.61,"825": 2.625,"850": 1.846,"875": 1.621,"900": 1.128,"925": 1.19,"950": 0.656,"975": 0.246,"1000": 0.328,"1025": 0.144,"1050": 0.082,"1100": 0.021}}}