{"type":"Feature","properties":{"GID_3":"MOZ.2.7.3_1","GID_0":"MOZ","country":"Mozambique","GID_1":"MOZ.2_1","province":"Gaza","NL_NAME_1":"NA","GID_2":"MOZ.2.7_1","county":"Mabalane","NL_NAME_2":"NA","city":"Ntlavane","VARNAME_3":"NA","NL_NAME_3":"NA","TYPE_3":"Localidad","ENGTYPE_3":"Locality","CC_3":"NA","HASC_3":"NA","name":"Ntlavane.city"},
"geometry":{"type": "MultiPolygon","coordinates": [[[[32.2466,-23.5726,177.2855],[32.2507,-23.5924,175.4049],[32.2599,-23.6128,173.9144],[32.2704,-23.6303,174.1493],[32.2754,-23.637,173.0753],[32.2893,-23.6436,172.3252],[32.3029,-23.6578,165.958],[32.3307,-23.6959,160.52],[32.3522,-23.7317,153.0896],[32.3993,-23.7896,133.784],[32.4214,-23.8589,138.5008],[32.4636,-23.9529,121.2847],[32.5226,-23.9981,100.6871],[32.5221,-24.0009,100.176],[32.5438,-24.0163,89.7986],[32.5497,-24.0281,85.3702],[32.5592,-24.0339,82.972],[32.5815,-24.0359,66.0769],[32.5993,-24.0479,51.653],[32.606,-24.0492,56.2048],[32.6117,-24.0525,51.3734],[32.6134,-24.0376,46.6093],[32.6092,-24.0185,47.5292],[32.6047,-24.0107,47.5056],[32.5903,-23.9949,52.9777],[32.5763,-23.9849,48.6386],[32.5714,-23.9688,53.2327],[32.5744,-23.9575,54.4876],[32.5907,-23.9286,53.6074],[32.5553,-23.8339,60.7918],[32.5364,-23.8316,59.3449],[32.5364,-23.8285,55.5],[32.5563,-23.817,102.6296],[32.6174,-23.7907,93.921],[32.7905,-23.752,84.6178],[32.7936,-23.7482,84.2184],[32.7701,-23.7293,87.7875],[32.7638,-23.718,90.3274],[32.7523,-23.7048,91.4742],[32.7361,-23.6914,93.5534],[32.7341,-23.6844,94.651],[32.7669,-23.6775,91.8164],[32.7995,-23.6671,93.3543],[32.8165,-23.6601,92.6963],[32.8424,-23.6335,91.2164],[32.8616,-23.6038,89.8075],[32.8786,-23.5828,84.6942],[32.853,-23.5853,90.3396],[32.8174,-23.5773,93.8067],[32.7891,-23.5571,99.8038],[32.7817,-23.5458,99.1873],[32.7547,-23.523,102.8781],[32.7244,-23.5128,108.7373],[32.708,-23.4974,109.9261],[32.5655,-23.4993,124.7057],[32.5304,-23.5085,123.7424],[32.5198,-23.5069,120.2232],[32.4939,-23.5249,99.4742],[32.4819,-23.5261,91.3251],[32.4661,-23.5247,75.1877],[32.4609,-23.5428,78.3057],[32.4592,-23.5725,73.6795],[32.45,-23.5837,88.3559],[32.4279,-23.5819,102.5925],[32.4093,-23.5774,122.6953],[32.3914,-23.5822,162.6239],[32.2951,-23.5657,174.3889],[32.2466,-23.5726,177.2855]]]]}}