{"type": "Feature","bbox": [40.0467,-15.956,40.331,-15.6141],"geometry": {"type": "MultiPolygon","coordinates": [[[[40.1232,-15.9485,0.0],[40.1213,-15.9485,0.0],[40.1204,-15.9529,0.0],[40.1224,-15.9518,0.0],[40.1232,-15.9485,0.0]]],
[[[40.131,-15.9446,0.0],[40.1324,-15.9432,1.0663],[40.1324,-15.9415,1.8617],[40.131,-15.9424,0.0],[40.131,-15.9446,0.0]]],
[[[40.1365,-15.9379,1.8849],[40.1346,-15.9376,2.9686],[40.1332,-15.9399,0.0],[40.1376,-15.9393,0.0],[40.1365,-15.9379,1.8849]]],
[[[40.1375,-15.914,6.2678],[40.1429,-15.9121,1.7621],[40.1429,-15.9199,1.8514],[40.1451,-15.9235,0.0],[40.1432,-15.9376,0.0],[40.1368,-15.9412,0.0],[40.1324,-15.9468,2.1374],[40.126,-15.9485,0.2136],[40.1204,-15.954,0.0],[40.1207,-15.956,0.0],[40.1485,-15.9429,6.013],[40.1538,-15.9443,0.0],[40.1565,-15.9382,1.0729],[40.1643,-15.9321,0.0],[40.1646,-15.9285,2.7496],[40.1693,-15.9207,8.4206],[40.1763,-15.914,2.2207],[40.181,-15.906,0.0],[40.1985,-15.889,5.1754],[40.2085,-15.8826,1.2394],[40.2199,-15.8682,0.0],[40.2343,-15.8582,0.0],[40.2374,-15.8551,0.0],[40.2374,-15.8532,0.6908],[40.2346,-15.8538,0.5],[40.2326,-15.8576,0.9611],[40.2299,-15.8588,1.5796],[40.2276,-15.8582,3.4934],[40.2271,-15.854,0.9044],[40.2207,-15.8546,1.8728],[40.2257,-15.8529,4.4081],[40.2313,-15.8543,3.9231],[40.2388,-15.8504,0.0],[40.2496,-15.8382,6.5536],[40.2593,-15.8313,0.0],[40.2649,-15.824,4.4209],[40.2713,-15.8201,0.0],[40.2888,-15.8038,3.3817],[40.3032,-15.7929,1.7936],[40.3121,-15.7843,11.2159],[40.3199,-15.7732,7.3936],[40.3218,-15.7592,48.7193],[40.331,-15.7339,19.2535],[40.3299,-15.7303,23.1397],[40.3201,-15.7255,38.4721],[40.3085,-15.7331,22.5816],[40.2972,-15.7303,37.2411],[40.2936,-15.7242,30.1229],[40.3043,-15.6976,59.3459],[40.3053,-15.6903,60.9639],[40.2916,-15.673,75.9454],[40.2839,-15.6662,62.2582],[40.2748,-15.64,25.9701],[40.2652,-15.6289,44.8521],[40.2557,-15.6215,30.2252],[40.248,-15.6187,31.516],[40.2375,-15.6183,30.263],[40.2126,-15.6313,32.4716],[40.2012,-15.6326,37.8998],[40.188,-15.6228,54.642],[40.1627,-15.6149,84.9765],[40.1415,-15.6141,83.241],[40.1361,-15.6258,63.3864],[40.1374,-15.6325,62.2269],[40.129,-15.638,60.4279],[40.1183,-15.6503,84.2195],[40.1059,-15.6686,78.7121],[40.1032,-15.6783,63.7509],[40.1044,-15.6954,61.8204],[40.1011,-15.7317,44.7172],[40.1096,-15.7595,27.0064],[40.1066,-15.7627,26.9724],[40.1008,-15.7614,27.4193],[40.0946,-15.7629,32.2944],[40.0891,-15.7681,38.0788],[40.0829,-15.7708,49.5104],[40.0641,-15.7747,80.4273],[40.0568,-15.7914,81.8405],[40.0467,-15.8204,38.1765],[40.055,-15.8496,13.7161],[40.0551,-15.8584,10.7096],[40.0539,-15.8601,13.1682],[40.0516,-15.8595,12.6129],[40.0516,-15.9013,13.0403],[40.0547,-15.9011,11.7231],[40.0605,-15.9043,6.7689],[40.0725,-15.9144,5.2715],[40.0864,-15.9172,4.6284],[40.1124,-15.915,3.8832],[40.1163,-15.9184,2.2178],[40.1264,-15.9209,5.0704],[40.1297,-15.9171,4.1318],[40.1329,-15.9174,5.981],[40.1375,-15.914,6.2678]]]]}
,"properties": {"GID_3": "MOZ.7.11.4_1","GID_0": "MOZ","country": "Mozambique","GID_1": "MOZ.7_1","province": "Nampula","NL_NAME_1": "NA","GID_2": "MOZ.7.11_1","county": "Mongincual","NL_NAME_2": "NA","city": "Quinga","VARNAME_3": "NA","NL_NAME_3": "NA","TYPE_3": "Localidad","ENGTYPE_3": "Locality","CC_3": "NA","HASC_3": "NA","name": "Quinga.city","area_km2": 676.6422,"hist_schema_id": "Elevation0-9000","hist_area_km2": {"0": 69.4582,"25": 154.3656,"50": 210.5673,"75": 165.1513,"100": 77.0999}}}