{"type": "Feature","bbox": [38.5238,-15.7755,38.8855,-15.4997],"geometry": {"type": "MultiPolygon","coordinates": [[[[38.8548,-15.5792,293.7661],[38.8281,-15.5852,305.5814],[38.8082,-15.5858,325.6035],[38.7895,-15.5601,369.4159],[38.7825,-15.5441,355.8653],[38.7734,-15.5325,380.8839],[38.7579,-15.5235,378.0157],[38.7463,-15.5212,381.1099],[38.7416,-15.5176,383.2205],[38.727,-15.5176,408.8303],[38.7207,-15.5206,423.1444],[38.7146,-15.5265,433.437],[38.7084,-15.5384,422.179],[38.7026,-15.544,408.0606],[38.702,-15.5474,414.5335],[38.693,-15.5474,417.5764],[38.6899,-15.5384,403.5563],[38.6815,-15.5331,400.4172],[38.6651,-15.5265,407.5178],[38.6558,-15.5146,419.4272],[38.6435,-15.5086,401.4606],[38.6373,-15.4997,410.3385],[38.6311,-15.4997,413.1183],[38.6249,-15.5146,414.738],[38.6042,-15.5289,444.0742],[38.5997,-15.5414,420.4472],[38.5719,-15.5683,453.7471],[38.5565,-15.5743,425.3512],[38.5344,-15.5863,384.8819],[38.5238,-15.5879,362.3365],[38.5406,-15.6177,349.1049],[38.5643,-15.6466,340.3376],[38.5838,-15.659,331.5563],[38.6002,-15.6744,326.4696],[38.6187,-15.6756,288.3675],[38.6253,-15.6789,277.4745],[38.6537,-15.6789,263.4184],[38.6806,-15.6756,249.3704],[38.693,-15.6925,235.9845],[38.6973,-15.7072,230.5453],[38.6973,-15.7186,222.1467],[38.7008,-15.727,219.6966],[38.727,-15.7443,232.5181],[38.7363,-15.7562,212.0162],[38.7517,-15.7711,215.2503],[38.7605,-15.7719,207.3668],[38.7765,-15.7681,203.183],[38.7855,-15.7675,212.0376],[38.7891,-15.7755,212.8597],[38.8002,-15.7612,212.7584],[38.8005,-15.7539,215.8854],[38.8048,-15.7517,222.5671],[38.8115,-15.7514,220.6841],[38.8125,-15.7363,249.2706],[38.8179,-15.7174,245.4844],[38.8158,-15.7081,258.5556],[38.817,-15.6985,262.0854],[38.8239,-15.6881,281.3545],[38.8296,-15.6837,284.452],[38.8382,-15.667,294.8219],[38.8412,-15.6513,323.3912],[38.8412,-15.6415,355.0958],[38.8265,-15.6285,360.3253],[38.8279,-15.6198,356.9297],[38.8445,-15.61,346.9872],[38.8464,-15.6126,338.034],[38.8548,-15.6018,330.4042],[38.8726,-15.592,299.8112],[38.8815,-15.5907,290.6173],[38.8855,-15.5874,290.276],[38.8785,-15.582,286.5402],[38.8548,-15.5792,293.7661]]]]}
,"properties": {"GID_3": "MOZ.7.14.3_1","GID_0": "MOZ","country": "Mozambique","GID_1": "MOZ.7_1","province": "Nampula","NL_NAME_1": "NA","GID_2": "MOZ.7.14_1","county": "Murrupula","NL_NAME_2": "NA","city": "Nehessine","VARNAME_3": "NA","NL_NAME_3": "NA","TYPE_3": "Localidad","ENGTYPE_3": "Locality","CC_3": "NA","HASC_3": "NA","name": "Nehessine.city","area_km2": 584.0711,"hist_schema_id": "Elevation0-9000","hist_area_km2": {"200": 0.8774,"225": 21.4068,"250": 48.0651,"275": 53.0939,"300": 53.2849,"325": 69.3601,"350": 75.3482,"375": 98.0005,"400": 87.4719,"425": 64.827,"450": 11.641,"475": 0.5309,"500": 0.1225,"525": 0.0408}}}