{"type":"Feature","properties":{"GID_3":"MOZ.11.13.1_1","GID_0":"MOZ","country":"Mozambique","GID_1":"MOZ.11_1","province":"Zambezia","NL_NAME_1":"NA","GID_2":"MOZ.11.13_1","county":"Namacurra","NL_NAME_2":"NA","city":"Mucuse(Macuze)","VARNAME_3":"NA","NL_NAME_3":"NA","TYPE_3":"Localidad","ENGTYPE_3":"Locality","CC_3":"NA","HASC_3":"NA","name":"Mucuse(Macuze).city"},
"geometry":{"type": "MultiPolygon","coordinates": [[[[37.331,-17.6754,0.0],[37.3293,-17.6762,0.0],[37.3299,-17.6779,0.0],[37.3312,-17.6768,0.0],[37.331,-17.6754,0.0]]],
[[[37.3365,-17.6754,0.0],[37.3343,-17.6751,0.0],[37.334,-17.6762,0.0],[37.3368,-17.6774,0.0],[37.3365,-17.6754,0.0]]],
[[[37.3374,-17.6718,0.0],[37.336,-17.6715,0.0],[37.3357,-17.6721,0.0],[37.3379,-17.6732,0.0],[37.3374,-17.6718,0.0]]],
[[[37.3643,-17.6626,2.9327],[37.3677,-17.6591,6.5315],[37.3635,-17.6525,12.0319],[37.3658,-17.6463,5.3421],[37.3626,-17.6335,5.6072],[37.3583,-17.5977,3.5242],[37.3726,-17.5989,4.2242],[37.3439,-17.5634,3.8316],[37.3377,-17.5689,4.1915],[37.3334,-17.5654,7.396],[37.3358,-17.5376,9.2959],[37.307,-17.525,7.6786],[37.2988,-17.5114,9.919],[37.3059,-17.5062,5.5],[37.3044,-17.491,10.8846],[37.2769,-17.4513,13.384],[37.2556,-17.4435,12.9209],[37.238,-17.4304,13.2695],[37.2242,-17.3973,17.5757],[37.2134,-17.3863,17.1016],[37.2161,-17.4047,18.5438],[37.212,-17.4209,14.8996],[37.2037,-17.4333,13.3],[37.1611,-17.4343,34.9135],[37.1494,-17.4418,34.8594],[37.1293,-17.4612,22.4955],[37.1372,-17.4789,16.1901],[37.1507,-17.4913,8.6754],[37.1655,-17.5006,7.8087],[37.1635,-17.5139,4.7925],[37.1719,-17.5262,6.4151],[37.1745,-17.54,5.6064],[37.1544,-17.5596,3.2025],[37.1286,-17.5709,2.6634],[37.1083,-17.5829,3.0321],[37.095,-17.5934,2.488],[37.0853,-17.5935,2.8178],[37.0309,-17.5668,2.2653],[37.0202,-17.5745,2.3231],[37.0163,-17.591,2.4801],[37.0186,-17.6022,2.1537],[37.0105,-17.6082,2.4162],[37.01,-17.6185,2.5536],[37.0129,-17.6264,1.7487],[37.0267,-17.6258,2.4831],[37.0262,-17.6459,3.3765],[37.0237,-17.65,2.9549],[37.0416,-17.6558,2.5336],[37.0465,-17.6597,1.8594],[37.0387,-17.6704,2.3387],[37.0418,-17.6842,2.7258],[37.0505,-17.6814,10.5559],[37.0588,-17.6706,8.779],[37.0787,-17.6615,2.2085],[37.0839,-17.665,3.8534],[37.0938,-17.6649,2.2884],[37.0993,-17.6682,3.3034],[37.0925,-17.6765,1.5124],[37.1119,-17.6728,2.2652],[37.1166,-17.6623,2.0997],[37.1419,-17.649,2.3643],[37.145,-17.6597,1.7883],[37.1406,-17.6668,2.6757],[37.1599,-17.674,2.5562],[37.1596,-17.6777,0.0],[37.1477,-17.6822,0.0],[37.1514,-17.6918,4.9306],[37.1835,-17.7062,3.1571],[37.1879,-17.7138,0.4295],[37.1879,-17.7226,0.0],[37.1904,-17.7246,1.978],[37.1901,-17.7279,1.7638],[37.1999,-17.7396,1.2974],[37.2062,-17.7524,0.0],[37.2082,-17.7615,0.7112],[37.2126,-17.7629,4.9737],[37.2201,-17.7599,0.0],[37.2332,-17.7457,4.3302],[37.2526,-17.729,3.8441],[37.2954,-17.7001,4.0511],[37.2974,-17.6963,0.0],[37.2957,-17.6929,0.0],[37.2888,-17.7004,2.2313],[37.2776,-17.7018,5.0633],[37.2751,-17.706,1.2108],[37.2751,-17.7029,2.7538],[37.2771,-17.7004,0.5],[37.2882,-17.6987,1.1187],[37.2899,-17.691,1.555],[37.2957,-17.6849,0.808],[37.2938,-17.6782,1.0249],[37.2985,-17.6754,0.6649],[37.2996,-17.6724,2.9677],[37.3068,-17.6665,0.0],[37.3124,-17.6676,7.9742],[37.306,-17.6685,2.9711],[37.3035,-17.6721,0.731],[37.3007,-17.6732,1.8251],[37.2993,-17.6768,2.2426],[37.296,-17.6782,4.3893],[37.2957,-17.6804,4.0656],[37.2996,-17.6885,0.0],[37.3135,-17.6921,2.0507],[37.3274,-17.6846,0.0],[37.329,-17.6815,0.0],[37.3276,-17.6771,0.0],[37.3288,-17.6726,0.0],[37.341,-17.6646,0.0],[37.3462,-17.6696,1.6422],[37.3454,-17.6712,1.6422],[37.3476,-17.6715,0.7856],[37.3643,-17.6626,2.9327]]]]}}