{"type": "Feature","bbox": [32.5397,-25.9545,32.5741,-25.9156],"geometry": {"type": "MultiPolygon","coordinates": [[[[32.5643,-25.9525,39.4259],[32.573,-25.9365,32.8962],[32.5741,-25.9277,38.6344],[32.5738,-25.926,38.1859],[32.5697,-25.927,35.7024],[32.5624,-25.9252,33.6551],[32.5638,-25.9156,32.6293],[32.5477,-25.9336,29.8975],[32.5397,-25.9369,27.3526],[32.544,-25.9438,34.1363],[32.5474,-25.9435,32.9568],[32.5525,-25.949,26.8818],[32.5538,-25.9531,16.2782],[32.5576,-25.9545,30.0756],[32.5643,-25.9525,39.4259]]]]}
,"properties": {"GID_3": "MOZ.5.2.3_1","GID_0": "MOZ","country": "Mozambique","GID_1": "MOZ.5_1","province": "MaputoCity","NL_NAME_1": "NA","GID_2": "MOZ.5.2_1","county": "Maputo","NL_NAME_2": "NA","city": "Maputo2","VARNAME_3": "NA","NL_NAME_3": "NA","TYPE_3": "Localidad","ENGTYPE_3": "Locality","CC_3": "NA","HASC_3": "NA","name": "Maputo2.city","area_km2": 7.169009,"hist_schema_id": "Elevation0-9000","hist_area_km2": {"25": 7.035544,"50": 0.133465}}}