{"type": "Feature","bbox": [39.8057,-14.893,40.2047,-14.5342],"geometry": {"type": "MultiPolygon","coordinates": [[[[39.8309,-14.5681,337.0462],[39.8253,-14.5877,353.6794],[39.8222,-14.6058,348.958],[39.8222,-14.6267,336.6703],[39.8253,-14.6386,310.6953],[39.8253,-14.6469,306.5636],[39.8239,-14.6522,298.9146],[39.8098,-14.6685,266.4232],[39.8058,-14.6781,258.9333],[39.8057,-14.6886,255.2259],[39.8129,-14.7072,257.6524],[39.8315,-14.749,242.9756],[39.8405,-14.7624,227.6009],[39.8443,-14.7807,226.1349],[39.8528,-14.7909,215.7292],[39.8638,-14.7962,215.5485],[39.8746,-14.8056,214.5],[39.8901,-14.8116,214.5],[39.8983,-14.8143,214.5],[39.9171,-14.8121,195.6401],[39.9151,-14.8179,196.0739],[39.924,-14.8265,195.2245],[39.9425,-14.8235,188.8873],[39.9641,-14.8265,169.0799],[39.9579,-14.8444,175.4016],[39.9579,-14.8832,168.2906],[39.9695,-14.893,162.2876],[39.9764,-14.8802,167.4762],[39.9673,-14.867,159.6651],[39.9685,-14.8662,161.6082],[39.9857,-14.8623,165.8346],[39.998,-14.8563,155.358],[40.018,-14.8635,145.1398],[40.0429,-14.8571,132.6159],[40.0488,-14.8542,136.4564],[40.0597,-14.8295,128.8091],[40.069,-14.8385,144.1776],[40.0971,-14.8378,141.3747],[40.1122,-14.8116,123.7819],[40.1495,-14.8221,132.4824],[40.1657,-14.8449,133.0968],[40.2047,-14.8444,112.5946],[40.2016,-14.8146,130.0527],[40.1837,-14.7901,144.6502],[40.18,-14.7818,166.0125],[40.18,-14.7549,156.7961],[40.1893,-14.74,166.3833],[40.1862,-14.7311,184.4039],[40.1677,-14.7162,235.3749],[40.1649,-14.7,234.1303],[40.1584,-14.6953,247.3867],[40.1307,-14.6804,245.891],[40.1065,-14.6862,215.7808],[40.0917,-14.678,191.8639],[40.0659,-14.6088,280.8123],[40.0505,-14.576,298.0204],[40.0536,-14.5342,248.3923],[40.0491,-14.5342,246.6755],[40.0279,-14.5487,259.2485],[40.0042,-14.5462,286.9712],[39.9814,-14.5554,292.9471],[39.9681,-14.5578,292.9497],[39.9506,-14.5669,308.1096],[39.9104,-14.5757,323.737],[39.8981,-14.5732,342.4489],[39.8855,-14.5593,305.7905],[39.8805,-14.5492,312.3304],[39.8531,-14.5492,321.7732],[39.8407,-14.5641,337.5465],[39.8309,-14.5681,337.0462]]]]}
,"properties": {"GID_3": "MOZ.7.10.3_1","GID_0": "MOZ","country": "Mozambique","GID_1": "MOZ.7_1","province": "Nampula","NL_NAME_1": "NA","GID_2": "MOZ.7.10_1","county": "Monapo","NL_NAME_2": "NA","city": "Netia","VARNAME_3": "NA","NL_NAME_3": "NA","TYPE_3": "Localidad","ENGTYPE_3": "Locality","CC_3": "NA","HASC_3": "NA","name": "Netia.city","area_km2": 1003.3822,"hist_schema_id": "Elevation0-9000","hist_area_km2": {"100": 7.6452,"125": 41.61,"150": 87.6745,"175": 127.29,"200": 132.024,"225": 115.6316,"250": 119.3141,"275": 105.98,"300": 108.563,"325": 87.9739,"350": 63.973,"375": 3.5698,"400": 0.8819,"425": 0.4922,"450": 0.3487,"475": 0.2256,"500": 0.1436,"525": 0.041}}}