{"type":"Feature","properties":{"GID_3":"MOZ.4.8.4_1","GID_0":"MOZ","country":"Mozambique","GID_1":"MOZ.4_1","province":"Manica","NL_NAME_1":"NA","GID_2":"MOZ.4.8_1","county":"Sussundenga","NL_NAME_2":"NA","city":"Sussundenga","VARNAME_3":"NA","NL_NAME_3":"NA","TYPE_3":"Localidad","ENGTYPE_3":"Locality","CC_3":"NA","HASC_3":"NA","name":"Sussundenga.city"},
"geometry":{"type": "MultiPolygon","coordinates": [[[[33.3429,-19.3748,537.1531],[33.329,-19.3595,543.3636],[33.2999,-19.3454,549.7144],[33.3003,-19.3341,542.8129],[33.2916,-19.3007,566.4315],[33.2791,-19.2908,563.2188],[33.2875,-19.2779,565.0279],[33.2795,-19.2739,558.8073],[33.2566,-19.292,578.5598],[33.2406,-19.3071,593.8767],[33.2073,-19.3721,643.095],[33.1946,-19.4276,579.7435],[33.2089,-19.4581,560.4921],[33.2225,-19.5031,595.8289],[33.2195,-19.525,685.4969],[33.2145,-19.5316,713.9931],[33.215,-19.5382,742.1317],[33.2192,-19.5511,728.8245],[33.2179,-19.5624,639.1481],[33.2195,-19.5865,453.4863],[33.2179,-19.5917,413.4091],[33.2076,-19.6044,440.0228],[33.2015,-19.6051,372.3513],[33.2064,-19.6199,357.4754],[33.215,-19.6312,357.9091],[33.2345,-19.6488,393.6042],[33.2559,-19.6422,347.7095],[33.2696,-19.6451,366.6996],[33.2779,-19.678,271.759],[33.2783,-19.6904,305.29],[33.2825,-19.7164,244.1817],[33.2893,-19.7222,309.3575],[33.3082,-19.7171,431.46],[33.3163,-19.7095,439.863],[33.3943,-19.705,417.3913],[33.4259,-19.7012,298.9627],[33.4619,-19.7092,196.2443],[33.4932,-19.7121,178.7598],[33.5034,-19.7059,171.1182],[33.536,-19.7012,153.2424],[33.5396,-19.7059,149.3229],[33.556,-19.7081,147.5567],[33.5667,-19.7022,148.3835],[33.5788,-19.7016,139.5382],[33.5889,-19.699,138.0705],[33.5992,-19.6914,132.0125],[33.6242,-19.6899,137.096],[33.6428,-19.666,126.8189],[33.6465,-19.658,119.51],[33.6716,-19.6517,119.6446],[33.672,-19.6595,109.3615],[33.6992,-19.6631,109.7234],[33.713,-19.6604,104.7006],[33.7316,-19.6735,110.4194],[33.7508,-19.6738,95.2998],[33.7588,-19.6829,87.8926],[33.775,-19.687,88.8744],[33.7912,-19.6888,79.5079],[33.7942,-19.6858,71.543],[33.7685,-19.6548,79.1873],[33.7637,-19.6446,84.8164],[33.7492,-19.6306,87.3046],[33.7422,-19.6179,92.2699],[33.7362,-19.6204,97.1623],[33.7209,-19.6194,96.5562],[33.702,-19.6051,94.682],[33.6709,-19.6058,96.0447],[33.6598,-19.6017,92.4056],[33.649,-19.5799,93.9236],[33.6312,-19.5822,103.4158],[33.6242,-19.594,96.1228],[33.6162,-19.599,97.9423],[33.6068,-19.596,100.9365],[33.6001,-19.5854,120.5914],[33.5893,-19.5769,110.2051],[33.5527,-19.5795,102.0078],[33.5419,-19.5831,105.644],[33.5279,-19.5792,112.3188],[33.5256,-19.5609,137.9437],[33.5194,-19.5581,153.5605],[33.5117,-19.5502,179.2937],[33.5125,-19.5332,219.7059],[33.5073,-19.5274,365.794],[33.4915,-19.5221,348.212],[33.4776,-19.5207,347.3022],[33.4556,-19.5266,397.1828],[33.449,-19.5227,390.8475],[33.4428,-19.512,371.6239],[33.4381,-19.4677,469.1342],[33.4319,-19.4563,469.3436],[33.4187,-19.4461,469.0858],[33.4055,-19.4427,514.1838],[33.404,-19.429,497.5934],[33.3943,-19.4268,493.6856],[33.3879,-19.421,500.1304],[33.369,-19.3965,523.4673],[33.3617,-19.3816,511.7531],[33.3457,-19.3792,531.1529],[33.3429,-19.3748,537.1531]]]]}}