{"type": "Feature","bbox": [32.1665,-15.4273,33.3196,-13.9982],"geometry": {"type": "MultiPolygon","coordinates": [[[[33.022,-14.6755,576.6385],[33.0207,-14.6731,578.3195],[33.0213,-14.6688,589.0931],[33.0395,-14.6532,597.1438],[33.0395,-14.6477,588.9734],[33.0357,-14.6404,591.6173],[33.0376,-14.6073,633.6191],[33.0413,-14.5922,629.9103],[33.04,-14.5815,678.053],[33.0549,-14.5704,638.8212],[33.0563,-14.5613,644.0741],[33.0587,-14.556,651.2039],[33.0842,-14.5578,688.9195],[33.0989,-14.5545,686.5693],[33.0993,-14.5478,688.1296],[33.1056,-14.5394,706.3496],[33.1137,-14.5344,710.6479],[33.1217,-14.5327,711.1793],[33.1292,-14.5348,720.215],[33.1341,-14.5385,718.2336],[33.1532,-14.5342,728.6924],[33.1608,-14.5154,752.6525],[33.1672,-14.4931,805.5397],[33.1757,-14.4852,791.7474],[33.1739,-14.4768,809.6853],[33.1767,-14.4686,798.2866],[33.187,-14.464,820.8267],[33.1948,-14.4632,814.4662],[33.1917,-14.445,846.6144],[33.1844,-14.4349,830.1224],[33.1889,-14.4215,851.1202],[33.2033,-14.4111,849.1881],[33.2027,-14.4029,867.6327],[33.2048,-14.3942,889.4008],[33.2155,-14.3822,910.7895],[33.2179,-14.3728,945.7305],[33.2114,-14.3441,1070.6624],[33.2144,-14.3343,1139.0227],[33.2394,-14.3027,1343.2573],[33.2445,-14.2435,1046.2561],[33.2429,-14.1728,1410.9828],[33.3008,-14.1486,1342.3193],[33.298,-14.1465,1338.7594],[33.2968,-14.1407,1343.0337],[33.3014,-14.1314,1302.5074],[33.3008,-14.1264,1294.2173],[33.31,-14.1215,1272.3906],[33.3103,-14.1178,1225.1781],[33.3052,-14.1092,1201.64],[33.3049,-14.1055,1195.698],[33.3173,-14.0896,1170.1996],[33.3196,-14.0831,1169.0363],[33.3171,-14.077,1174.2206],[33.3052,-14.0614,1154.8085],[33.3032,-14.0546,1163.3932],[33.3036,-14.048,1162.0605],[33.2981,-14.0342,1168.7335],[33.2959,-14.0318,1166.0569],[33.2888,-14.0299,1150.5364],[33.2814,-14.0226,1147.9934],[33.2678,-14.0246,1145.8677],[33.2603,-14.0229,1136.9194],[33.2568,-14.0193,1133.5249],[33.2544,-14.0076,1140.5618],[33.2478,-14.0047,1141.8252],[33.2403,-13.9982,1151.5803],[33.2302,-13.9997,1108.641],[33.2003,-14.0085,1108.2302],[33.1626,-14.0243,1000.2849],[33.1299,-14.031,1006.3394],[33.0845,-14.0458,1073.8223],[33.0701,-14.0528,1122.9817],[32.9479,-14.0978,881.1752],[32.9343,-14.1012,889.108],[32.9217,-14.1064,856.7336],[32.9142,-14.1074,893.8796],[32.843,-14.1331,835.0059],[32.7941,-14.1487,967.6556],[32.6901,-14.1869,1290.4886],[32.6781,-14.1898,1071.4475],[32.6549,-14.1995,753.1588],[32.6107,-14.2145,751.908],[32.5357,-14.2464,877.2034],[32.5272,-14.2484,865.6858],[32.4512,-14.2828,1151.65],[32.3959,-14.2945,929.696],[32.3581,-14.2996,908.2444],[32.3345,-14.3046,919.7023],[32.3214,-14.3054,926.5189],[32.3151,-14.3079,912.6179],[32.2423,-14.323,932.3549],[32.2054,-14.3359,931.5583],[32.1827,-14.3419,915.3079],[32.1665,-14.3489,890.8269],[32.1848,-14.3655,866.5659],[32.1884,-14.3805,860.9439],[32.1859,-14.3878,883.4341],[32.2018,-14.4165,847.143],[32.2101,-14.4286,843.3667],[32.2162,-14.4359,845.5538],[32.2355,-14.4485,836.6266],[32.2439,-14.4729,816.151],[32.2464,-14.5108,814.2273],[32.254,-14.5297,793.5208],[32.2597,-14.5286,794.5184],[32.2642,-14.5309,788.7914],[32.2661,-14.5428,774.1318],[32.3089,-14.6001,660.6688],[32.3193,-14.6029,664.2237],[32.3903,-14.5954,615.1127],[32.4006,-14.6028,622.2856],[32.4077,-14.619,609.8771],[32.4178,-14.6334,608.3505],[32.4433,-14.6605,627.3512],[32.4538,-14.683,555.7223],[32.4542,-14.6923,554.2778],[32.4589,-14.7045,569.5349],[32.4811,-14.7322,553.4351],[32.49,-14.7496,534.8041],[32.521,-14.7543,517.0264],[32.5312,-14.7632,521.5905],[32.5375,-14.7742,521.4564],[32.5606,-14.7743,503.4109],[32.5629,-14.7789,496.5112],[32.5604,-14.7875,499.0465],[32.5663,-14.8291,499.0573],[32.5739,-14.8417,476.9592],[32.5889,-14.8497,477.0972],[32.5961,-14.8701,474.5798],[32.6072,-14.8798,462.5654],[32.6138,-14.8912,463.9923],[32.6127,-14.9012,467.4535],[32.6169,-14.9103,464.675],[32.61,-14.9345,422.6606],[32.6303,-14.9661,423.2649],[32.6415,-15.0003,440.2075],[32.6404,-15.0204,401.5612],[32.6459,-15.0383,389.7891],[32.6657,-15.0647,385.4796],[32.6746,-15.0862,387.017],[32.6933,-15.1211,354.4613],[32.714,-15.1551,365.9066],[32.7294,-15.1723,348.085],[32.7358,-15.177,345.9585],[32.7474,-15.1804,351.0869],[32.7555,-15.1882,347.4552],[32.7876,-15.2395,373.5924],[32.8071,-15.3084,313.1835],[32.8176,-15.3225,310.9288],[32.8289,-15.3291,291.196],[32.8594,-15.3419,267.2548],[32.8735,-15.3693,287.8375],[32.8985,-15.3972,269.0582],[32.9119,-15.4185,227.1664],[32.9197,-15.4273,237.0268],[32.918,-15.4155,234.6711],[32.9205,-15.4111,238.0651],[32.9434,-15.3921,325.0711],[32.9459,-15.386,290.4347],[32.9619,-15.3722,329.5294],[32.9686,-15.3632,330.1952],[32.9748,-15.34,332.9914],[32.976,-15.3266,346.1513],[32.9791,-15.3145,359.8022],[32.991,-15.3049,355.3971],[32.9901,-15.2994,372.3842],[32.9842,-15.2931,373.7242],[32.9802,-15.2832,377.5587],[32.981,-15.2749,393.3337],[32.9833,-15.264,406.881],[32.9884,-15.2561,403.6864],[32.9929,-15.2554,416.0594],[32.9995,-15.2321,405.4837],[32.9959,-15.2277,409.1957],[32.9963,-15.2207,412.6044],[33.0017,-15.2067,406.6039],[33.0049,-15.2029,421.2188],[33.037,-15.2035,425.7055],[33.0396,-15.2018,426.5317],[33.0381,-15.1922,425.6825],[33.0404,-15.1881,424.8628],[33.0506,-15.1791,433.6276],[33.0548,-15.1702,438.3105],[33.0614,-15.1636,439.7888],[33.0535,-15.1554,445.1773],[33.0631,-15.1438,457.4761],[33.0711,-15.1398,456.5176],[33.1009,-15.1323,472.2721],[33.1047,-15.1279,471.5193],[33.1062,-15.1223,474.5664],[33.1097,-15.1173,481.0318],[33.1156,-15.1171,480.6426],[33.1184,-15.115,477.8484],[33.1168,-15.1104,479.9584],[33.1185,-15.1074,480.9656],[33.1256,-15.1055,482.6484],[33.1348,-15.1056,491.2267],[33.1733,-15.0862,506.4812],[33.186,-15.0769,511.6482],[33.1917,-15.07,517.6221],[33.1997,-15.0687,518.8237],[33.2012,-15.0651,524.4233],[33.1997,-15.062,522.6498],[33.2017,-15.0592,529.3121],[33.208,-15.0566,529.8196],[33.2088,-15.0498,536.5822],[33.2066,-15.0434,542.7578],[33.1915,-15.0179,562.8137],[33.1895,-15.0066,593.2983],[33.1893,-14.9742,719.1774],[33.1351,-14.834,588.5081],[33.1463,-14.8264,597.7899],[33.1621,-14.812,605.0656],[33.163,-14.8057,611.652],[33.1702,-14.8034,605.7853],[33.1742,-14.798,621.0217],[33.1779,-14.7902,623.1859],[33.1834,-14.7577,635.9255],[33.1783,-14.7432,641.692],[33.1804,-14.7374,651.4416],[33.1902,-14.7404,657.2396],[33.1964,-14.7295,662.6873],[33.2014,-14.6907,688.5209],[33.2109,-14.6757,683.6099],[33.2256,-14.6607,685.6583],[33.2373,-14.6457,694.2905],[33.2471,-14.6291,707.9666],[33.2474,-14.6247,720.7836],[33.224,-14.6269,1054.2324],[33.2083,-14.6246,957.9436],[33.1901,-14.6143,746.2925],[33.1894,-14.6417,708.9469],[33.1875,-14.6505,701.9263],[33.1811,-14.6547,698.0551],[33.1709,-14.656,689.8561],[33.1612,-14.6605,678.9285],[33.1517,-14.6609,673.6392],[33.134,-14.6673,667.3136],[33.1269,-14.6717,657.2089],[33.1154,-14.6719,647.1219],[33.0992,-14.6698,639.5508],[33.0656,-14.6788,613.8799],[33.0413,-14.6829,613.6143],[33.0315,-14.6778,582.4307],[33.022,-14.6755,576.6385]]]]}
,"properties": {"GID_2": "MOZ.10.4_1","GID_0": "MOZ","country": "Mozambique","GID_1": "MOZ.10_1","province": "Tete","NL_NAME_1": "NA","county": "Chifunde","VARNAME_2": "NA","NL_NAME_2": "NA","TYPE_2": "Distrito","ENGTYPE_2": "District","CC_2": "NA","HASC_2": "MZ.TE.CF","name": "Chifunde.county","area_km2": 9446.628,"hist_schema_id": "Elevation0-9000","hist_area_km2": {"225": 0.879,"250": 4.661,"275": 11.571,"300": 26.969,"325": 46.131,"350": 66.406,"375": 127.447,"400": 188.78,"425": 228.308,"450": 286.957,"475": 365.133,"500": 441.829,"525": 502.406,"550": 504.887,"575": 471.586,"600": 430.105,"625": 352.444,"650": 343.525,"675": 321.304,"700": 324.039,"725": 312.483,"750": 284.163,"775": 269.75,"800": 268.408,"825": 283.971,"850": 307.105,"875": 330.139,"900": 319.923,"925": 298.244,"950": 264.866,"975": 230.081,"1000": 210.128,"1025": 179.141,"1050": 147.102,"1075": 131.525,"1100": 123.412,"1125": 119.385,"1150": 88.385,"1175": 59.523,"1200": 46.331,"1225": 34.806,"1250": 27.634,"1275": 19.313,"1300": 14.937,"1325": 10.518,"1350": 7.683,"1375": 4.067,"1400": 2.67,"1425": 1.643,"1450": 1.479,"1475": 1.068,"1500": 0.822,"1525": 0.329,"1550": 0.123}}}