{"type":"Feature","properties":{"GID_3":"MOZ.9.1.1_1","GID_0":"MOZ","country":"Mozambique","GID_1":"MOZ.9_1","province":"Sofala","NL_NAME_1":"NA","GID_2":"MOZ.9.1_1","county":"Buzi","NL_NAME_2":"NA","city":"Buzi","VARNAME_3":"NA","NL_NAME_3":"NA","TYPE_3":"Localidad","ENGTYPE_3":"Locality","CC_3":"NA","HASC_3":"NA","name":"Buzi.city"},
"geometry":{"type": "MultiPolygon","coordinates": [[[[33.7408,-19.5987,108.1946],[33.7431,-19.6089,102.3668],[33.7422,-19.6179,92.2699],[33.7492,-19.6306,87.3046],[33.7637,-19.6446,84.8164],[33.7685,-19.6548,79.1873],[33.83,-19.7291,69.3249],[33.833,-19.7431,67.8862],[33.8481,-19.77,50.9546],[33.8518,-19.7707,64.7366],[33.8594,-19.776,60.5292],[33.8679,-19.777,55.3904],[33.8925,-19.7629,55.8657],[33.9084,-19.7686,54.8273],[33.9199,-19.7891,45.5797],[33.938,-19.7955,45.3176],[33.9544,-19.7987,36.2165],[33.962,-19.8075,40.2187],[33.9648,-19.8219,36.298],[33.9729,-19.832,31.7253],[33.9844,-19.8298,34.3184],[33.9995,-19.8157,37.5675],[34.0262,-19.8226,32.6253],[34.0329,-19.8195,31.4232],[34.0422,-19.8216,26.5908],[34.0463,-19.8272,26.1355],[34.0595,-19.8603,28.8974],[34.0659,-19.8683,26.5043],[34.0592,-19.8788,28.1518],[34.0434,-19.9323,31.5183],[34.0445,-19.9407,35.3044],[34.0861,-19.9212,62.4575],[34.0961,-19.9385,50.3158],[34.0992,-19.9563,30.184],[34.1175,-19.9592,75.3512],[34.1482,-19.9533,21.3939],[34.2064,-19.9474,23.6614],[34.2439,-19.9568,16.8138],[34.2517,-19.9574,21.253],[34.2645,-19.9473,15.8242],[34.2849,-19.9494,22.8842],[34.2892,-19.9987,52.4424],[34.2962,-20.0046,67.4657],[34.3013,-20.0066,64.6565],[34.2799,-20.0421,86.0874],[34.2737,-20.0598,72.0634],[34.2737,-20.0805,64.6992],[34.2584,-20.1012,79.561],[34.3343,-20.1357,57.3782],[34.3402,-20.1403,57.5543],[34.3413,-20.1101,74.6242],[34.3654,-20.1065,57.0339],[34.3788,-20.0798,44.709],[34.4022,-20.0688,29.5864],[34.485,-20.0717,5.8572],[34.4938,-20.0773,5.0439],[34.5218,-20.0598,5.3164],[34.5539,-20.0711,4.7178],[34.6003,-20.0677,3.7231],[34.6045,-20.0598,3.7835],[34.6412,-20.0539,3.7026],[34.6534,-20.048,3.7074],[34.7405,-20.0558,7.0909],[34.7463,-20.0251,1.0],[34.7457,-20.0221,2.7954],[34.7465,-20.0193,1.2741],[34.7487,-20.0182,0.375],[34.7496,-20.0054,3.735],[34.7521,-20.0065,3.471],[34.7499,-20.0121,3.6422],[34.7507,-20.014,0.0],[34.7549,-20.0074,0.0],[34.7551,-20.0015,0.5557],[34.7574,-19.9982,0.0],[34.7574,-19.9746,0.6712],[34.7599,-19.9718,2.003],[34.7632,-19.9549,0.0],[34.7626,-19.9465,0.0],[34.7651,-19.9329,0.0],[34.7637,-19.926,0.0],[34.7612,-19.9229,0.7293],[34.7621,-19.9029,0.0],[34.7576,-19.8913,1.0749],[34.7743,-19.8557,0.0],[34.8338,-19.849,0.0],[34.8279,-19.8424,0.0],[34.8271,-19.8388,0.0],[34.8344,-19.8143,0.0],[34.8339,-19.8069,2.5903],[34.8094,-19.7978,0.0],[34.7951,-19.7813,0.0],[34.7894,-19.7692,0.0],[34.7843,-19.7625,0.0],[34.7706,-19.7515,0.0],[34.7472,-19.7393,0.0],[34.7303,-19.7333,4.6186],[34.7091,-19.734,6.1925],[34.6986,-19.726,0.5],[34.6986,-19.719,0.5],[34.696,-19.7167,0.5],[34.6934,-19.699,0.5],[34.6893,-19.6908,0.5],[34.666,-19.6719,0.5],[34.6561,-19.6537,5.2833],[34.6505,-19.6504,5.9038],[34.6385,-19.6599,0.5],[34.5883,-19.6594,4.358],[34.5341,-19.6137,1.6321],[34.526,-19.6011,2.3129],[34.5181,-19.6041,4.9573],[34.5013,-19.6019,5.3158],[34.4579,-19.6061,4.3126],[34.4507,-19.622,14.1321],[34.41,-19.6367,34.367],[34.362,-19.6401,62.2526],[34.1528,-19.6625,66.7813],[34.1476,-19.6504,67.2174],[34.129,-19.6216,73.4751],[34.1246,-19.6067,77.2051],[34.1153,-19.5941,80.7272],[34.0921,-19.5909,83.0917],[34.0802,-19.593,81.9104],[34.0716,-19.5801,87.8467],[34.0498,-19.5902,88.2167],[34.0448,-19.5865,94.828],[34.0365,-19.5908,95.4076],[34.0204,-19.5875,112.6011],[34.0092,-19.5954,104.797],[34.0015,-19.5983,109.0155],[33.9934,-19.5989,110.7651],[33.9702,-19.5997,125.0068],[33.9641,-19.5969,130.8971],[33.9552,-19.5989,132.2223],[33.945,-19.597,142.6876],[33.7408,-19.5987,108.1946]]]]}}