{"type":"Feature","properties":{"GID_3":"MOZ.7.4.3_1","GID_0":"MOZ","country":"Mozambique","GID_1":"MOZ.7_1","province":"Nampula","NL_NAME_1":"NA","GID_2":"MOZ.7.4_1","county":"Malema","NL_NAME_2":"NA","city":"Mutuali(Canhunha)","VARNAME_3":"NA","NL_NAME_3":"NA","TYPE_3":"Localidad","ENGTYPE_3":"Locality","CC_3":"NA","HASC_3":"NA","name":"Mutuali(Canhunha).city"},
"geometry":{"type": "MultiPolygon","coordinates": [[[[37.2305,-14.6088,482.0981],[37.2001,-14.6088,491.149],[37.1817,-14.5909,496.2352],[37.1648,-14.5938,497.9412],[37.1202,-14.6147,495.1473],[37.0957,-14.6386,501.6541],[37.0826,-14.6423,505.8239],[37.0789,-14.642,499.6337],[37.0527,-14.6635,505.5503],[37.0431,-14.6682,509.9267],[37.0302,-14.6674,508.387],[37.0198,-14.6719,510.8824],[37.0057,-14.6734,514.5979],[36.9983,-14.6773,507.5281],[36.9852,-14.6953,502.3128],[36.9736,-14.7045,501.1041],[36.9639,-14.7071,510.4403],[36.9611,-14.7106,516.6107],[36.9526,-14.7121,506.3142],[36.9462,-14.7178,504.8896],[36.9426,-14.7257,506.4431],[36.9435,-14.7342,518.4948],[36.9372,-14.7445,518.4292],[36.9081,-14.7567,517.8055],[36.9019,-14.7621,508.7949],[36.8945,-14.7655,514.1989],[36.8862,-14.7671,512.6263],[36.884,-14.7699,515.5472],[36.8837,-14.7796,514.8966],[36.8688,-14.7887,523.9474],[36.8656,-14.7887,524.7581],[36.8502,-14.8026,527.1982],[36.8397,-14.8171,533.2078],[36.8381,-14.8238,530.3007],[36.84,-14.8287,541.2787],[36.8456,-14.8328,539.0386],[36.8467,-14.8363,534.0864],[36.8418,-14.8398,531.4333],[36.8353,-14.8389,537.7443],[36.8317,-14.8407,536.4201],[36.8291,-14.8491,533.9603],[36.8295,-14.8557,535.6937],[36.834,-14.8581,537.1191],[36.8354,-14.8616,534.7939],[36.814,-14.8684,542.0635],[36.8005,-14.8812,551.0943],[36.7973,-14.8892,547.3414],[36.7917,-14.893,548.567],[36.7852,-14.9028,548.425],[36.7717,-14.9069,547.0497],[36.7665,-14.9112,547.381],[36.7687,-14.9158,551.7222],[36.7663,-14.9285,550.176],[36.7571,-14.9398,553.4744],[36.7462,-14.9494,559.9798],[36.7312,-14.9692,561.9082],[36.7141,-14.9858,562.4123],[36.6973,-14.9992,561.2633],[37.003,-14.9959,616.1622],[37.192,-14.9973,1653.4681],[37.2016,-15.0051,1389.0027],[37.2123,-15.005,953.5238],[37.2202,-15.0075,849.5629],[37.2216,-15.0138,828.9099],[37.215,-15.0252,733.7779],[37.2178,-15.0291,716.5925],[37.2244,-15.032,703.1271],[37.2355,-15.0209,687.1439],[37.2419,-15.0208,679.9869],[37.2442,-15.0148,677.9882],[37.2767,-14.9747,679.7064],[37.2767,-14.936,658.3827],[37.2829,-14.9091,663.9036],[37.2983,-14.9032,646.0023],[37.3081,-14.896,642.4724],[37.3284,-14.8884,629.9365],[37.3708,-14.8672,605.6226],[37.3876,-14.8525,628.8536],[37.3997,-14.8318,627.8676],[37.351,-14.8128,672.958],[37.3475,-14.8107,677.0433],[37.3433,-14.7997,656.9858],[37.3401,-14.7868,629.0514],[37.3679,-14.7726,632.8853],[37.3737,-14.7642,622.9941],[37.3737,-14.7345,611.8418],[37.3536,-14.6705,521.8572],[37.3137,-14.6705,551.7894],[37.2948,-14.6653,530.7168],[37.2788,-14.6541,545.7356],[37.2481,-14.6555,538.5043],[37.2291,-14.6456,537.3368],[37.2218,-14.6329,514.8176],[37.2301,-14.6201,502.5067],[37.2305,-14.6088,482.0981]]]]}}