{"type": "Feature","bbox": [32.6995,-25.1044,32.9208,-24.9807],"geometry": {"type": "MultiPolygon","coordinates": [[[[32.9186,-24.9828,14.466],[32.9072,-24.9826,13.9362],[32.9052,-24.9855,14.2231],[32.9059,-24.9918,13.257],[32.9023,-24.9924,12.8452],[32.8875,-24.984,14.0649],[32.8746,-24.9832,14.3209],[32.868,-24.9873,13.7843],[32.8575,-24.9873,13.9115],[32.8526,-24.9936,14.9504],[32.8399,-25.0031,16.6314],[32.8367,-25.0031,16.666],[32.8318,-24.9967,18.1222],[32.8133,-24.9857,14.066],[32.805,-24.9816,15.0635],[32.7917,-24.9807,14.4332],[32.7764,-24.9925,21.1306],[32.7698,-25.012,29.6203],[32.765,-25.021,20.5],[32.7571,-25.0195,22.6216],[32.7494,-25.0128,22.9647],[32.7413,-25.0088,23.8732],[32.7277,-25.0091,24.6592],[32.7164,-25.0114,27.5377],[32.7067,-25.0151,25.4283],[32.7073,-25.0236,25.054],[32.6995,-25.0382,24.8217],[32.7067,-25.0379,24.2129],[32.7258,-25.0466,21.2719],[32.7378,-25.0547,21.9628],[32.7427,-25.0726,19.6208],[32.7504,-25.0872,16.9955],[32.7632,-25.1036,17.2463],[32.7725,-25.1044,17.4152],[32.7871,-25.0752,16.0012],[32.7905,-25.0634,18.6429],[32.7907,-25.0501,19.6573],[32.8154,-25.0404,19.8481],[32.8189,-25.0404,21.0106],[32.8331,-25.0532,16.4303],[32.8332,-25.0596,17.0593],[32.8474,-25.0661,14.4283],[32.8719,-25.0661,17.226],[32.876,-25.0564,14.6665],[32.8904,-25.0531,14.683],[32.8924,-25.0543,14.5281],[32.9153,-25.0328,10.5],[32.9208,-25.0112,10.5],[32.9186,-24.9828,14.466]]]]}
,"properties": {"GID_3": "MOZ.6.3.6_1","GID_0": "MOZ","country": "Mozambique","GID_1": "MOZ.6_1","province": "Maputo","NL_NAME_1": "NA","GID_2": "MOZ.6.3_1","county": "Manhiça","NL_NAME_2": "NA","city": "Xinavane","VARNAME_3": "NA","NL_NAME_3": "NA","TYPE_3": "Localidad","ENGTYPE_3": "Locality","CC_3": "NA","HASC_3": "NA","name": "Xinavane.city","area_km2": 153.6308,"hist_schema_id": "Elevation0-9000","hist_area_km2": {"0": 6.1672,"25": 147.4636}}}