{"type": "Feature","bbox": [40.0159,-14.2488,40.6382,-13.7101],"geometry": {"type": "MultiPolygon","coordinates": [[[[40.6271,-14.0843,0.0],[40.6254,-14.0843,0.0],[40.626,-14.086,0.0],[40.6293,-14.0871,0.0],[40.6287,-14.0851,1.1123],[40.6271,-14.0843,0.0]]],
[[[40.2661,-14.2476,76.8373],[40.2678,-14.2488,83.045],[40.2726,-14.2401,83.9722],[40.2778,-14.238,91.9491],[40.2783,-14.231,109.9639],[40.2679,-14.2151,127.3515],[40.2689,-14.2066,126.9584],[40.2564,-14.1872,152.9083],[40.2519,-14.1577,180.9636],[40.2528,-14.1429,159.8216],[40.2546,-14.1388,146.8477],[40.2707,-14.1338,149.1948],[40.276,-14.1382,136.4283],[40.2808,-14.1384,134.3262],[40.2878,-14.1356,130.6316],[40.2912,-14.1306,125.7902],[40.2963,-14.1332,121.2143],[40.2994,-14.1293,130.1982],[40.3053,-14.1308,119.2101],[40.3102,-14.127,116.8123],[40.3204,-14.1024,91.4282],[40.3301,-14.0969,91.0768],[40.3372,-14.0966,83.8242],[40.3395,-14.0899,89.7893],[40.3493,-14.089,85.3667],[40.3587,-14.0942,74.499],[40.368,-14.0968,89.0084],[40.3733,-14.0929,85.6422],[40.3635,-14.0715,101.0853],[40.3658,-14.0567,135.4458],[40.3698,-14.0482,128.4984],[40.367,-14.0325,178.4903],[40.3695,-14.0279,212.2806],[40.4078,-14.0239,125.6456],[40.4344,-14.0309,131.5499],[40.4448,-14.0362,141.4998],[40.4531,-14.045,146.2924],[40.4656,-14.0531,108.7783],[40.4807,-14.053,90.2085],[40.4977,-14.0476,77.6579],[40.5072,-14.047,60.7149],[40.5318,-14.0629,42.1795],[40.5445,-14.0607,34.3737],[40.5607,-14.0529,26.0453],[40.5701,-14.0511,23.2442],[40.5778,-14.0575,11.1774],[40.583,-14.0746,3.2997],[40.5888,-14.086,3.5668],[40.5848,-14.0914,3.0272],[40.5865,-14.0942,0.0],[40.5932,-14.0893,3.1279],[40.6024,-14.0937,0.0],[40.6043,-14.0893,9.7217],[40.6115,-14.0901,0.0],[40.6143,-14.086,13.3936],[40.6215,-14.0829,0.0],[40.6232,-14.0799,0.0],[40.6276,-14.0813,0.0],[40.6254,-14.0779,4.0008],[40.6268,-14.0704,12.8425],[40.6288,-14.0699,0.0],[40.6318,-14.0635,0.0],[40.6307,-14.0588,5.7499],[40.6321,-14.0532,0.0],[40.6304,-14.0532,9.8179],[40.6296,-14.051,0.0],[40.6329,-14.0479,6.7738],[40.6338,-14.0426,0.0],[40.6321,-14.0349,3.1659],[40.6343,-14.0299,3.1732],[40.6382,-14.0271,0.0],[40.6365,-14.0179,0.0],[40.6312,-14.0176,0.8844],[40.6263,-14.0137,7.1341],[40.6224,-13.9982,2.9309],[40.6196,-13.9988,2.299],[40.6171,-13.9968,1.4194],[40.6124,-13.999,1.2373],[40.6101,-13.9976,0.0],[40.6074,-14.0013,0.0],[40.6085,-14.0071,2.8604],[40.604,-14.0085,3.1758],[40.5976,-14.006,0.0],[40.591,-14.0085,4.9962],[40.5843,-14.0024,0.0],[40.5779,-14.0007,0.5699],[40.5751,-13.9949,4.9956],[40.5757,-13.9862,0.719],[40.5801,-13.9824,0.0],[40.5804,-13.9799,1.6006],[40.5821,-13.9801,0.0],[40.5863,-13.9765,0.0],[40.5915,-13.9765,0.0],[40.594,-13.979,0.0],[40.5962,-13.9782,2.6865],[40.5974,-13.9812,0.6379],[40.5957,-13.9835,1.0306],[40.5993,-13.9851,0.0],[40.6121,-13.9801,0.9119],[40.6179,-13.9846,0.0],[40.6226,-13.9846,0.0],[40.6229,-13.9807,8.075],[40.621,-13.9693,0.0],[40.6174,-13.9665,7.964],[40.6196,-13.9535,0.0],[40.6176,-13.9463,6.2786],[40.6162,-13.9271,3.499],[40.6065,-13.916,1.3818],[40.6026,-13.9085,0.0],[40.5929,-13.8996,3.0746],[40.5882,-13.8888,1.0384],[40.589,-13.8712,1.461],[40.5876,-13.8707,3.1398],[40.5882,-13.8496,1.091],[40.5854,-13.834,1.9125],[40.5857,-13.8182,3.771],[40.5826,-13.8107,6.0818],[40.5838,-13.7976,9.9035],[40.581,-13.7951,9.8343],[40.5793,-13.7871,1.6767],[40.5762,-13.784,0.0],[40.5732,-13.7687,12.0093],[40.5746,-13.759,5.1918],[40.5735,-13.7388,17.3902],[40.5746,-13.7229,6.0236],[40.5743,-13.716,0.0],[40.5715,-13.7101,0.2253],[40.537,-13.739,20.7223],[40.5027,-13.7707,48.0241],[40.4852,-13.7595,59.1026],[40.4814,-13.7771,57.2396],[40.4699,-13.7938,72.1747],[40.4478,-13.8054,90.0545],[40.4018,-13.8036,127.8391],[40.3705,-13.8187,185.7219],[40.3193,-13.8277,248.9991],[40.3187,-13.8356,223.956],[40.3342,-13.8356,218.9931],[40.3245,-13.8423,236.5001],[40.3283,-13.8547,191.5409],[40.3386,-13.868,169.5206],[40.3767,-13.8604,161.9143],[40.3983,-13.8604,122.7613],[40.4106,-13.8753,164.4054],[40.4291,-13.8843,92.7466],[40.4383,-13.8965,70.9747],[40.4414,-13.9111,64.478],[40.4353,-13.9201,50.7733],[40.4106,-13.932,68.6007],[40.3397,-13.932,89.8452],[40.3212,-13.9171,108.9174],[40.2996,-13.9111,133.4042],[40.2688,-13.9111,142.0737],[40.2564,-13.9201,162.9212],[40.2348,-13.9231,178.9551],[40.2194,-13.9111,146.9668],[40.1948,-13.9082,164.7104],[40.1762,-13.9111,177.2569],[40.1639,-13.9082,199.118],[40.1468,-13.8756,191.3486],[40.1177,-13.8801,231.0831],[40.0732,-13.8779,249.0689],[40.053,-13.8817,252.5181],[40.0437,-13.8855,243.2261],[40.0363,-13.8855,262.5706],[40.0285,-13.9223,315.2722],[40.0248,-13.9311,323.1806],[40.0201,-13.9354,309.5367],[40.019,-13.9437,288.8534],[40.0159,-13.9497,275.9357],[40.0216,-13.9554,283.7737],[40.0369,-13.9796,262.3362],[40.05,-13.9826,252.8262],[40.064,-13.9979,248.2548],[40.0618,-14.0076,234.2475],[40.065,-14.0156,232.4483],[40.0796,-14.0189,231.6681],[40.0857,-14.0236,224.2861],[40.0967,-14.0202,209.7094],[40.1112,-14.0193,201.8686],[40.1182,-14.0245,214.9382],[40.1326,-14.0303,203.0335],[40.138,-14.0347,186.687],[40.1433,-14.0491,188.9559],[40.1473,-14.0505,178.4526],[40.1527,-14.0488,175.3299],[40.1519,-14.0548,179.7145],[40.1485,-14.0594,177.9226],[40.1341,-14.0645,192.2729],[40.1335,-14.0694,215.7622],[40.1353,-14.0752,244.117],[40.1312,-14.0827,207.1215],[40.1153,-14.0988,249.4542],[40.1121,-14.1047,277.2161],[40.1426,-14.1258,258.2908],[40.1513,-14.1396,253.9331],[40.1605,-14.1481,244.7782],[40.1778,-14.1574,218.1738],[40.2041,-14.1811,216.2006],[40.2085,-14.1868,181.2675],[40.2163,-14.2086,162.9645],[40.22,-14.2116,145.8012],[40.2308,-14.2289,119.0599],[40.2316,-14.2455,96.1986],[40.243899999999996,-14.2473,104.645],[40.2608,-14.2435,93.7403],[40.2661,-14.2476,76.8373]]]]}
,"properties": {"GID_3": "MOZ.7.7.2_1","GID_0": "MOZ","country": "Mozambique","GID_1": "MOZ.7_1","province": "Nampula","NL_NAME_1": "NA","GID_2": "MOZ.7.7_1","county": "Memba","NL_NAME_2": "NA","city": "Mazua","VARNAME_3": "NA","NL_NAME_3": "NA","TYPE_3": "Localidad","ENGTYPE_3": "Locality","CC_3": "NA","HASC_3": "NA","name": "Mazua.city","area_km2": 1580.516,"hist_schema_id": "Elevation0-9000","hist_area_km2": {"0": 58.441,"25": 154.449,"50": 194.452,"75": 123.339,"100": 107.987,"125": 114.009,"150": 129.039,"175": 154.34,"200": 157.922,"225": 140.422,"250": 99.741,"275": 75.921,"300": 44.671,"325": 14.425,"350": 4.733,"375": 1.832,"400": 1.358,"425": 1.029,"450": 0.679,"475": 0.35,"500": 0.391,"525": 0.226,"550": 0.268,"575": 0.206,"600": 0.144,"625": 0.123,"650": 0.021}}}