{"type":"Feature","properties":{"GID_3":"MOZ.5.2.2_1","GID_0":"MOZ","country":"Mozambique","GID_1":"MOZ.5_1","province":"MaputoCity","NL_NAME_1":"NA","GID_2":"MOZ.5.2_1","county":"Maputo","NL_NAME_2":"NA","city":"Maputo1","VARNAME_3":"NA","NL_NAME_3":"NA","TYPE_3":"Localidad","ENGTYPE_3":"Locality","CC_3":"NA","HASC_3":"NA","name":"Maputo1.city"},
"geometry":{"type": "MultiPolygon","coordinates": [[[[32.9924,-25.9696,13.1514],[32.9868,-25.9721,4.8908],[32.9796,-25.9701,0.5353],[32.9763,-25.9771,0.0],[32.9757,-25.9857,0.0],[32.9715,-25.9893,0.0],[32.9618,-25.9926,0.0],[32.9601,-25.9963,1.9373],[32.9549,-25.9976,0.0],[32.9529,-25.9938,0.2478],[32.9496,-25.9949,1.7399],[32.9482,-25.9887,0.5986],[32.9446,-25.9882,2.6128],[32.9424,-25.986,0.0],[32.9301,-25.9918,0.6525],[32.9229,-26.0004,1.5139],[32.9138,-26.0037,3.9911],[32.9124,-26.0124,5.4508],[32.9029,-26.0254,20.8103],[32.901,-26.0307,31.205],[32.901,-26.0354,20.3795],[32.9029,-26.0382,17.1804],[32.9024,-26.0443,14.1494],[32.8963,-26.0515,3.3996],[32.899,-26.0549,0.8896],[32.8987,-26.0582,0.0],[32.904,-26.0615,2.3984],[32.9043,-26.0704,0.0],[32.9099,-26.0613,2.1613],[32.9207,-26.0546,0.0],[32.9265,-26.0471,2.799],[32.926,-26.0418,1.397],[32.921,-26.0337,0.0],[32.9179,-26.0312,0.0],[32.9151,-26.0335,1.7148],[32.9107,-26.0315,0.0],[32.9096,-26.0268,11.7006],[32.9138,-26.0243,1.8815],[32.9151,-26.0274,0.3658],[32.9357,-26.0312,6.4568],[32.9385,-26.0332,0.5492],[32.9418,-26.0401,8.9259],[32.9424,-26.0488,0.8824],[32.9446,-26.054,0.0],[32.9482,-26.0585,1.3597],[32.9535,-26.0607,0.0],[32.9551,-26.0649,5.0285],[32.9554,-26.0685,7.3482],[32.9526,-26.0754,0.0],[32.9543,-26.0788,1.1863],[32.9554,-26.0785,1.1863],[32.9624,-26.0657,0.0],[32.9699,-26.0329,38.7658],[32.9701,-26.0257,21.1575],[32.9749,-26.0107,0.0],[32.9821,-25.9954,11.0695],[32.994,-25.9774,0.0],[32.9929,-25.974,0.0],[32.994,-25.9713,0.0],[32.9924,-25.9696,13.1514]]],
[[[32.9199,-25.9693,0.0],[32.9118,-25.9715,5.8069],[32.9051,-25.9707,0.0],[32.9024,-25.9735,5.3776],[32.9024,-25.9757,6.7729],[32.9085,-25.9807,4.0358],[32.9138,-25.9826,3.5484],[32.916,-25.9746,4.2292],[32.9218,-25.971,1.9308],[32.9199,-25.9693,0.0]]],
[[[32.4626,-26.0847,1.6918],[32.5212,-26.0549,40.2639],[32.6199,-26.0579,5.8867],[32.6113,-26.0449,18.6388],[32.606,-26.0312,0.0],[32.6021,-26.026,0.0],[32.594,-26.0263,15.4673],[32.591,-26.0243,0.0],[32.5854,-26.0251,8.951],[32.5796,-26.0226,0.0],[32.5701,-26.0143,3.2392],[32.5607,-25.9954,4.5436],[32.5601,-25.9807,0.6528],[32.5568,-25.9782,2.4462],[32.5565,-25.974,0.0],[32.5518,-25.9746,2.2463],[32.5488,-25.9785,2.371],[32.5426,-25.9787,1.5404],[32.5399,-25.9754,0.3239],[32.5357,-25.9774,1.3194],[32.5249,-25.9715,0.9913],[32.5121,-25.9674,0.0],[32.5065,-25.9676,0.0],[32.506,-25.966,0.0],[32.5,-25.9695,0.0],[32.4917,-25.9859,2.0262],[32.4918,-25.9932,0.0],[32.4987,-26.0133,0.0],[32.4912,-26.0352,0.0],[32.484,-26.0472,0.0],[32.4765,-26.0535,0.0],[32.4629,-26.0566,0.2832],[32.4476,-26.0569,2.2491],[32.4458,-26.0588,1.731],[32.4449,-26.0655,1.7576],[32.4434,-26.0613,0.4921],[32.4439,-26.0562,0.0],[32.4413,-26.0561,1.6373],[32.4424,-26.0678,1.9455],[32.4539,-26.0886,1.6694],[32.4626,-26.0847,1.6918]]],
[[[32.6082,-25.9571,0.7662],[32.6045,-25.9537,26.7505],[32.6042,-25.9512,31.4724],[32.6064,-25.9435,29.8767],[32.6031,-25.9468,41.3799],[32.5965,-25.9424,47.1864],[32.5891,-25.9453,49.2245],[32.5877,-25.9482,51.8894],[32.5858,-25.9468,46.7089],[32.5866,-25.9453,46.2255],[32.577,-25.9427,28.1442],[32.573,-25.9515,27.5294],[32.5576,-25.9545,30.0756],[32.5536,-25.953,16.2782],[32.5587,-25.9625,14.4051],[32.5635,-25.9651,11.3611],[32.5628,-25.9673,7.9361],[32.5701,-25.9717,7.2748],[32.5693,-25.9779,0.0],[32.5718,-25.9774,6.6534],[32.5776,-25.9813,0.0],[32.584,-25.9821,2.4204],[32.5879,-25.9846,0.0],[32.5946,-25.9832,0.0],[32.5965,-25.9743,6.1926],[32.6082,-25.9571,0.7662]]],
[[[32.6976,-25.9093,0.0],[32.6965,-25.909,0.0],[32.6965,-25.9124,0.0],[32.6926,-25.9185,0.0],[32.6824,-25.9226,2.3747],[32.6793,-25.9218,0.0],[32.6813,-25.9251,0.0],[32.6796,-25.9371,0.8784],[32.6843,-25.9376,1.1269],[32.6874,-25.9351,0.0],[32.6979,-25.911,0.0],[32.6976,-25.9093,0.0]]]]}}