{"type": "Feature","bbox": [38.8448,-16.9107,39.8082,-15.8899],"geometry": {"type": "MultiPolygon","coordinates": [[[[39.1321,-16.9082,1.4025],[39.1324,-16.9065,0.0],[39.1315,-16.9065,0.0],[39.1312,-16.9093,1.4025],[39.1321,-16.9082,1.4025]]],
[[[39.2249,-16.7735,0.5],[39.2207,-16.7726,0.5],[39.2243,-16.7765,1.8584],[39.2279,-16.7765,0.1762],[39.226,-16.7754,0.381],[39.2249,-16.7735,0.5]]],
[[[39.2182,-16.7704,0.5],[39.2168,-16.7707,2.3649],[39.2196,-16.7721,0.5],[39.2193,-16.771,0.5],[39.2182,-16.7704,0.5]]],
[[[39.2399,-16.681,0.7969],[39.2379,-16.6804,0.0],[39.2379,-16.6826,0.0],[39.241,-16.6857,0.8789],[39.2404,-16.6818,0.3865],[39.2399,-16.681,0.7969]]],
[[[39.2487,-16.7357,2.9457],[39.2485,-16.7343,0.4683],[39.2474,-16.7349,0.0],[39.2474,-16.7379,0.8201],[39.2482,-16.7379,0.8201],[39.2487,-16.7357,2.9457]]],
[[[39.7251,-16.6437,13.2007],[39.7268,-16.6421,8.1194],[39.7224,-16.6426,1.1861],[39.7235,-16.6446,0.0],[39.7251,-16.6437,13.2007]]],
[[[39.8082,-16.564,0.8195],[39.8065,-16.5637,2.9465],[39.806,-16.5662,0.0],[39.8079,-16.5662,3.4219],[39.8082,-16.564,0.8195]]],
[[[39.6637,-16.3584,14.5661],[39.6363,-16.3476,14.4248],[39.6251,-16.3396,16.7426],[39.6075,-16.3195,19.5856],[39.5916,-16.2959,22.967],[39.5886,-16.2857,22.1734],[39.5836,-16.2776,23.6706],[39.5836,-16.2537,26.2741],[39.5864,-16.2352,26.3054],[39.5761,-16.2208,29.7467],[39.5634,-16.1987,30.2146],[39.5541,-16.1915,28.6341],[39.528,-16.1781,34.713],[39.5116,-16.1506,39.5721],[39.4851,-16.1196,43.9325],[39.4658,-16.1013,40.3146],[39.4356,-16.0945,48.481],[39.4109,-16.0779,52.8323],[39.407,-16.0723,54.3304],[39.4134,-16.058,47.9095],[39.4148,-16.0447,57.4214],[39.4086,-16.0288,49.8358],[39.4068,-16.0154,53.8433],[39.3764,-16.0018,54.2727],[39.3655,-16.0011,66.053],[39.3567,-16.0075,60.11],[39.3446,-16.0129,73.4608],[39.3351,-16.0119,69.8278],[39.3079,-16.0031,68.9268],[39.3022,-15.9979,70.8027],[39.306399999999996,-15.9811,69.1561],[39.3048,-15.977,71.8476],[39.2987,-15.9747,78.4522],[39.2768,-15.9601,75.8183],[39.2625,-15.9576,76.9686],[39.2481,-15.9652,85.3319],[39.2424,-15.9633,82.8209],[39.2344,-15.9656,80.8572],[39.2263,-15.9636,84.8421],[39.2081,-15.9533,84.0596],[39.2007,-15.9525,86.9388],[39.1943,-15.9481,88.1335],[39.1972,-15.9413,92.514],[39.1956,-15.9354,92.6739],[39.1727,-15.9243,99.7177],[39.1636,-15.9114,101.6119],[39.1568,-15.9145,104.7605],[39.1519,-15.9194,107.9784],[39.1324,-15.9204,125.5404],[39.1275,-15.9246,114.1003],[39.1265,-15.9288,114.8225],[39.1205,-15.9291,114.937],[39.1191,-15.9353,119.1233],[39.1075,-15.9335,130.6379],[39.0991,-15.9376,127.6228],[39.0935,-15.938,129.6885],[39.0847,-15.9267,133.5405],[39.0789,-15.9258,139.6143],[39.0593,-15.9297,138.1907],[39.049,-15.9275,144.9461],[39.0415,-15.9193,151.1529],[39.0274,-15.9158,151.7596],[39.0179,-15.8956,182.3104],[39.0143,-15.8946,172.9274],[39.0075,-15.8959,190.0717],[38.9991,-15.8905,188.1627],[38.9745,-15.8899,200.5087],[38.9512,-15.9022,217.6173],[38.9224,-15.9101,263.8593],[38.9102,-15.9165,262.1924],[38.9043,-15.9229,258.371],[38.8994,-15.9238,241.3573],[38.8808,-15.9162,183.9695],[38.8727,-15.9149,188.3051],[38.8597,-15.9174,219.7649],[38.8448,-15.9148,168.7317],[38.852,-15.9245,169.4491],[38.8599,-15.9268,159.1202],[38.8715,-15.9417,163.5398],[38.8739,-15.954,156.1667],[38.8691,-15.9826,146.378],[38.8708,-15.9979,138.8999],[38.8841,-16.0046,135.6093],[38.8959,-16.0203,137.5116],[38.8973,-16.0294,128.6959],[38.915,-16.0478,137.0042],[38.9118,-16.0653,121.6024],[38.9134,-16.0751,124.3999],[38.9225,-16.0912,115.5945],[38.9268,-16.1087,111.613],[38.9375,-16.1192,114.7146],[38.9345,-16.1239,115.4701],[38.9248,-16.1322,118.58],[38.9179,-16.146,109.3543],[38.9235,-16.1622,105.3284],[38.9178,-16.1707,108.4812],[38.9179,-16.1849,100.9858],[38.9212,-16.2038,104.0313],[38.9288,-16.221,95.2346],[38.9323,-16.239,82.9234],[38.9463,-16.2628,73.9052],[38.957,-16.2747,65.6223],[38.9622,-16.2767,62.9649],[38.9794,-16.2744,67.6902],[38.9859,-16.2784,61.5562],[38.9867,-16.2882,59.8076],[38.9971,-16.3221,50.8476],[39.0051,-16.3316,44.6853],[39.0038,-16.3457,45.0653],[39.0149,-16.3778,48.3967],[39.0162,-16.3925,37.5687],[39.0231,-16.4005,52.5623],[39.029,-16.4119,35.0973],[39.0351,-16.418,48.4078],[39.0281,-16.4732,32.7364],[39.0215,-16.4829,33.2179],[39.0291,-16.5,27.9899],[39.0398,-16.5139,26.992],[39.0407,-16.5209,26.598],[39.0096,-16.532,33.8233],[39.005,-16.5344,31.5713],[39.0002,-16.5401,23.6003],[39.0003,-16.5607,31.203],[38.9966,-16.5737,25.4777],[38.9945,-16.5946,19.9909],[38.9851,-16.6199,18.4359],[38.9861,-16.6287,18.1585],[38.9889,-16.6361,17.6126],[39.0,-16.6495,22.1325],[39.0281,-16.6593,16.6317],[39.0356,-16.6628,14.4475],[39.0444,-16.67,14.2726],[39.0482,-16.6787,12.6731],[39.0495,-16.691,13.1222],[39.0479,-16.7108,11.2377],[39.0512,-16.7213,10.4873],[39.0698,-16.7309,12.6511],[39.0738,-16.7394,9.2325],[39.0747,-16.7599,8.3476],[39.0793,-16.7734,7.8331],[39.1132,-16.7984,5.2559],[39.1159,-16.8102,4.6045],[39.1208,-16.8197,6.4964],[39.1294,-16.8518,1.485],[39.1266,-16.8606,2.4033],[39.1297,-16.8724,1.4825],[39.137,-16.8856,0.8476],[39.1268,-16.8968,3.1907],[39.1288,-16.8987,0.9293],[39.1288,-16.9015,1.916],[39.124,-16.9068,0.0],[39.126,-16.9107,0.7198],[39.1274,-16.9107,0.0],[39.129,-16.9065,2.2642],[39.1365,-16.899,0.0],[39.1371,-16.8951,1.98],[39.1407,-16.8929,0.0],[39.1418,-16.8946,0.0],[39.1446,-16.8918,2.5037],[39.1574,-16.8712,6.0205],[39.1735,-16.8563,0.0],[39.1735,-16.8529,3.5625],[39.1757,-16.8499,2.5076],[39.1743,-16.8493,0.5024],[39.1743,-16.8465,0.5073],[39.1782,-16.8446,1.5761],[39.1796,-16.8482,0.0],[39.1813,-16.8482,0.0],[39.2085,-16.8279,3.4805],[39.2185,-16.8229,0.0],[39.2254,-16.8168,0.0],[39.2418,-16.8074,1.7217],[39.2429,-16.8051,0.8699],[39.2613,-16.7968,0.0],[39.269,-16.7896,0.0],[39.2687,-16.7874,0.0],[39.2651,-16.7865,2.2491],[39.2621,-16.7901,0.7363],[39.2568,-16.791,0.5374],[39.2549,-16.7926,2.4593],[39.2554,-16.7968,2.3233],[39.2518,-16.8004,1.176],[39.2485,-16.801,1.4908],[39.2535,-16.7954,1.5051],[39.2521,-16.7951,2.2166],[39.2526,-16.7935,0.4711],[39.2501,-16.789,8.0096],[39.2412,-16.7838,2.783],[39.2426,-16.7818,1.0817],[39.2404,-16.7804,0.0],[39.2285,-16.789,1.4072],[39.221,-16.7887,1.0752],[39.2171,-16.7946,5.557],[39.2113,-16.7951,2.3561],[39.2107,-16.7938,1.756],[39.2154,-16.7929,3.8286],[39.2193,-16.7879,4.4095],[39.2268,-16.7882,0.8901],[39.2296,-16.7868,0.8261],[39.2357,-16.7799,0.3187],[39.2249,-16.7787,0.6308],[39.2168,-16.7718,1.1523],[39.2129,-16.7729,2.9981],[39.2129,-16.7701,1.7359],[39.2054,-16.7746,0.8548],[39.1946,-16.7749,2.3644],[39.1943,-16.7729,1.0],[39.191,-16.7726,1.0],[39.1832,-16.7763,4.9583],[39.1746,-16.7746,3.5632],[39.1751,-16.774,3.1977],[39.1815,-16.7757,1.5903],[39.1918,-16.7712,4.187],[39.2021,-16.7732,0.5],[39.2068,-16.7721,0.5],[39.2124,-16.7679,1.8789],[39.211,-16.7635,2.3241],[39.206,-16.7593,1.3863],[39.1915,-16.7557,1.0672],[39.1888,-16.7535,1.3018],[39.1865,-16.7476,3.2788],[39.1879,-16.7454,3.6428],[39.1838,-16.7385,1.5002],[39.1885,-16.7429,0.5],[39.189,-16.749,2.0498],[39.1915,-16.7546,1.0672],[39.1957,-16.7543,1.728],[39.2074,-16.7579,2.3486],[39.2179,-16.7671,2.2566],[39.2388,-16.769,0.3223],[39.2432,-16.7665,0.0],[39.2435,-16.7635,0.3623],[39.2385,-16.7579,0.0],[39.2363,-16.7496,0.6114],[39.2374,-16.7404,1.0862],[39.2363,-16.7376,0.911],[39.239,-16.7315,0.3535],[39.2388,-16.7254,0.3901],[39.2357,-16.7162,0.0],[39.2318,-16.715699999999998,2.3051],[39.2335,-16.7146,1.3597],[39.2332,-16.7074,0.0],[39.2307,-16.6993,0.555],[39.229,-16.6968,1.3825],[39.226,-16.6971,2.1675],[39.2301,-16.696,3.7215],[39.234,-16.6999,0.0],[39.2412,-16.6926,3.368],[39.2418,-16.6885,3.1985],[39.2363,-16.6818,0.0],[39.2363,-16.6751,0.0],[39.2379,-16.6749,0.0],[39.2371,-16.6785,0.5647],[39.2401,-16.6801,0.7969],[39.2446,-16.6879,4.1629],[39.2463,-16.6882,0.0],[39.2788,-16.6765,0.0],[39.2851,-16.676,2.7979],[39.299,-16.6651,1.0683],[39.2882,-16.676,1.9831],[39.264,-16.6837,0.975],[39.2543,-16.6896,4.7612],[39.2457,-16.6924,0.7532],[39.2371,-16.7024,0.774],[39.2379,-16.7107,0.0],[39.2418,-16.7185,0.0],[39.2471,-16.7246,0.0],[39.2487,-16.724,2.4119],[39.2476,-16.7276,0.0],[39.2493,-16.7296,0.5544],[39.2501,-16.7365,2.4849],[39.2454,-16.7426,0.8868],[39.2457,-16.7521,0.0],[39.2557,-16.7651,0.3471],[39.2585,-16.7654,1.8008],[39.261,-16.7632,2.976],[39.261,-16.7649,4.9408],[39.2571,-16.7679,0.0],[39.2593,-16.7729,3.0618],[39.2649,-16.7749,0.0],[39.2713,-16.7732,2.4907],[39.2762,-16.774,2.4498],[39.2818,-16.7707,6.5587],[39.2962,-16.7704,0.0],[39.3063,-16.7637,3.7881],[39.311,-16.7632,1.0016],[39.3265,-16.7493,6.5308],[39.334,-16.7451,5.5142],[39.3976,-16.719,3.5592],[39.4604,-16.6904,0.0],[39.471,-16.6843,1.932],[39.5054,-16.6618,11.1557],[39.5174,-16.6557,4.791],[39.5254,-16.6482,9.0498],[39.5354,-16.6437,3.7593],[39.5407,-16.6362,0.0],[39.5412,-16.6332,0.0],[39.5401,-16.6326,0.0],[39.5438,-16.6254,1.9807],[39.5499,-16.6201,0.6934],[39.554,-16.619,0.0],[39.564,-16.6121,6.7994],[39.5793,-16.6087,2.6799],[39.6063,-16.5976,6.7249],[39.6101,-16.5954,5.3468],[39.614,-16.5904,7.0708],[39.6176,-16.5901,4.1826],[39.6226,-16.5868,1.8376],[39.629,-16.5765,1.89],[39.6329,-16.5732,3.3784],[39.6749,-16.5557,0.0],[39.6937,-16.5412,9.7481],[39.7099,-16.5318,0.0],[39.7143,-16.5257,0.0],[39.7243,-16.519,0.0],[39.7546,-16.5026,7.8079],[39.7768,-16.4929,5.5725],[39.7893,-16.4849,3.4281],[39.791,-16.4771,0.0],[39.7887,-16.4787,2.7222],[39.7871,-16.476,0.534],[39.7835,-16.4776,0.5],[39.7779,-16.484,1.2449],[39.7726,-16.4846,4.6494],[39.7621,-16.4813,2.8969],[39.7615,-16.4768,0.9679],[39.764,-16.474,0.9744],[39.7632,-16.4721,0.9783],[39.7646,-16.4735,0.9744],[39.7632,-16.476,1.6196],[39.764,-16.4804,1.1275],[39.7738,-16.4821,0.5],[39.7765,-16.4804,2.1304],[39.7876,-16.4662,0.5],[39.7785,-16.4668,2.3416],[39.7743,-16.4649,1.3828],[39.7813,-16.4654,0.7662],[39.786,-16.4624,1.9492],[39.7907,-16.4632,0.5],[39.7935,-16.4587,2.8597],[39.7896,-16.459,1.0122],[39.789,-16.4579,2.0222],[39.7926,-16.4575,2.7699],[39.7884,-16.4566,2.0222],[39.7818,-16.4605,4.8401],[39.764,-16.4573,2.0963],[39.7418,-16.4452,3.4019],[39.7406,-16.4375,3.8957],[39.7363,-16.4263,5.678],[39.7373,-16.4104,6.6253],[39.7354,-16.3992,7.8438],[39.718,-16.3866,8.5166],[39.7016,-16.389,11.0006],[39.6751,-16.365,11.5886],[39.6637,-16.3584,14.5661]]]]}
,"properties": {"GID_2": "MOZ.7.9_1","GID_0": "MOZ","country": "Mozambique","GID_1": "MOZ.7_1","province": "Nampula","NL_NAME_1": "NA","county": "Moma","VARNAME_2": "NA","NL_NAME_2": "NA","TYPE_2": "Distrito","ENGTYPE_2": "District","CC_2": "NA","HASC_2": "MZ.NM.MO","name": "Moma.county","area_km2": 5799.73,"hist_schema_id": "Elevation0-9000","hist_area_km2": {"0": 675.987,"25": 902.98,"50": 1188.418,"75": 1223.424,"100": 756.626,"125": 414.534,"150": 316.694,"175": 170.18,"200": 81.188,"225": 40.691,"250": 19.205,"275": 4.383,"300": 1.875,"325": 0.876,"350": 0.611,"375": 0.571,"400": 0.408,"425": 0.183,"450": 0.285,"475": 0.163,"500": 0.204,"525": 0.143}}}