{"type":"Feature","properties":{"GID_3":"MOZ.4.1.2_1","GID_0":"MOZ","country":"Mozambique","GID_1":"MOZ.4_1","province":"Manica","NL_NAME_1":"NA","GID_2":"MOZ.4.1_1","county":"Barue","NL_NAME_2":"NA","city":"Choa","VARNAME_3":"NA","NL_NAME_3":"NA","TYPE_3":"Localidad","ENGTYPE_3":"Locality","CC_3":"NA","HASC_3":"NA","name":"Choa.city"},
"geometry":{"type": "MultiPolygon","coordinates": [[[[33.0968,-17.8272,1200.0854],[33.0908,-17.8217,1169.0625],[33.0714,-17.8202,1124.5533],[33.0571,-17.8316,1108.2314],[33.0457,-17.8304,976.0475],[33.0102,-17.7952,810.957],[33.0101,-17.8015,799.1546],[32.9904,-17.8051,813.4529],[32.9753,-17.8016,804.2601],[32.9693,-17.802,814.1616],[32.9601,-17.8175,807.6675],[32.9613,-17.855,824.9139],[32.953,-17.8776,823.8521],[32.9538,-17.907,850.3434],[32.9561,-17.9108,849.5402],[32.9725,-17.9136,852.3229],[32.9772,-17.9173,867.4464],[32.9768,-17.9232,871.5782],[32.9714,-17.9333,860.53],[32.9691,-17.9535,851.8167],[32.9625,-17.9629,1035.6252],[32.9515,-17.9601,1006.9222],[32.9476,-17.963,898.6486],[32.9428,-17.9743,1008.9778],[32.9422,-17.9889,876.2412],[32.949,-18.0113,1042.8599],[32.948,-18.0161,1040.226],[32.9491,-18.0324,991.1888],[32.9553,-18.043,1000.628],[32.9586,-18.0524,990.6956],[32.9594,-18.0717,1014.9866],[32.9741,-18.1083,1007.4079],[32.974,-18.1168,1052.3027],[32.9701,-18.1281,1134.7024],[32.9719,-18.1423,1172.563],[32.9783,-18.155,1219.344],[32.9875,-18.1566,1128.1766],[32.9932,-18.162,1093.6914],[32.9976,-18.1689,1139.9202],[32.9961,-18.1921,1250.1074],[33.0022,-18.2169,1043.829],[33.0084,-18.2287,981.5999],[33.0088,-18.2404,912.8568],[33.0005,-18.2589,809.5261],[32.9976,-18.2727,756.3273],[33.0021,-18.3048,677.3198],[33.0129,-18.3183,668.692],[33.0314,-18.3248,646.3385],[33.04,-18.3338,692.9847],[33.0395,-18.3376,680.5056],[33.0867,-18.3502,566.1475],[33.0868,-18.3617,563.2067],[33.0952,-18.3867,556.1161],[33.1048,-18.3894,558.3036],[33.1051,-18.4006,543.2292],[33.1127,-18.4102,547.7854],[33.123,-18.4124,534.3652],[33.1642,-18.3834,548.5953],[33.1835,-18.3626,603.2063],[33.1908,-18.3428,586.4144],[33.1871,-18.3064,586.4912],[33.1663,-18.293,733.1909],[33.1655,-18.2805,639.764],[33.1714,-18.2691,621.5361],[33.187,-18.2512,580.5162],[33.2058,-18.2422,595.6686],[33.2071,-18.23,569.8533],[33.1876,-18.2134,575.9163],[33.1735,-18.1798,592.3866],[33.1711,-18.1493,612.4484],[33.1727,-18.1197,775.932],[33.1707,-18.0821,638.8456],[33.1635,-18.0739,660.7004],[33.154,-18.0682,744.2556],[33.1446,-18.0513,1044.8928],[33.1234,-17.9802,1373.6467],[33.1218,-17.9393,1383.4934],[33.1035,-17.8878,1208.123],[33.0952,-17.8596,1335.3745],[33.0937,-17.8412,1333.1678],[33.0968,-17.8272,1200.0854]]]]}}