{"type": "Feature","bbox": [34.5163,-19.9546,35.3343,-19.1675],"geometry": {"type": "MultiPolygon","coordinates": [[[[34.9874,-19.7862,2.8969],[34.9865,-19.7849,3.8287],[34.9857,-19.7874,3.2234],[34.9865,-19.7874,3.2234],[34.9874,-19.7862,2.8969]]],
[[[35.0999,-19.7135,0.0],[35.0893,-19.716,0.1615],[35.0887,-19.7174,2.0633],[35.0932,-19.7168,1.7804],[35.0999,-19.7135,0.0]]],
[[[34.6907,-19.6938,0.5],[34.6934,-19.699,0.5],[34.696,-19.7167,0.5],[34.6986,-19.719,0.5],[34.6986,-19.726,0.5],[34.7091,-19.734,6.1925],[34.7303,-19.7333,4.6186],[34.7472,-19.7393,0.0],[34.7706,-19.7515,0.0],[34.7843,-19.7625,0.0],[34.7894,-19.7692,0.0],[34.7951,-19.7813,0.0],[34.8094,-19.7978,0.0],[34.8339,-19.8069,2.5903],[34.8344,-19.8143,0.0],[34.8271,-19.8388,0.0],[34.8279,-19.8424,0.0],[34.8338,-19.8487,0.0],[34.8549,-19.8487,1.7726],[34.8774,-19.8524,3.1749],[34.8838,-19.8518,1.8717],[34.9021,-19.8426,4.6463],[34.9329,-19.816,1.4841],[34.9451,-19.8099,0.0],[34.9596,-19.7999,2.9738],[34.9643,-19.7996,0.4],[34.9646,-19.7965,2.0877],[34.9685,-19.7915,0.0],[34.9807,-19.7893,1.8622],[34.9799,-19.7921,3.1779],[34.9815,-19.7921,0.7217],[34.9826,-19.7904,3.9884],[34.981,-19.7887,1.8622],[34.9829,-19.7854,2.9835],[34.9893,-19.7807,1.3374],[34.9946,-19.781,2.1374],[34.9996,-19.776,1.1286],[35.0024,-19.7801,3.2396],[34.9996,-19.7821,3.4273],[35.0029,-19.7807,3.2396],[35.0346,-19.7515,0.843],[35.0401,-19.7485,1.8589],[35.0407,-19.7454,0.0],[35.0443,-19.7457,0.0],[35.059,-19.7337,0.0],[35.0618,-19.7287,3.5581],[35.079,-19.721,0.0],[35.0818,-19.7182,0.2026],[35.0838,-19.7121,0.427],[35.0882,-19.7132,0.0],[35.0938,-19.7104,2.5436],[35.0965,-19.7129,6.0332],[35.1037,-19.7085,1.8539],[35.1049,-19.7054,4.2367],[35.1057,-19.7071,2.7844],[35.1049,-19.709,0.7412],[35.1063,-19.709,0.0],[35.1218,-19.6965,0.0],[35.1271,-19.6899,0.0],[35.1387,-19.686,3.4322],[35.1793,-19.6504,3.7134],[35.1793,-19.6485,8.2732],[35.1824,-19.6482,0.0],[35.1988,-19.6324,2.0543],[35.226,-19.6121,0.0],[35.2271,-19.609,4.202],[35.2324,-19.6051,1.1365],[35.2296,-19.6043,2.3668],[35.2313,-19.6001,2.85],[35.2346,-19.5999,4.1845],[35.2307,-19.604,2.3668],[35.236,-19.6049,0.0],[35.2513,-19.590699999999998,3.4911],[35.2501,-19.5876,4.2746],[35.2521,-19.5882,2.2337],[35.2565,-19.5849,0.0],[35.2604,-19.5796,2.5354],[35.269,-19.574,0.0],[35.2685,-19.5724,2.956],[35.2713,-19.5724,0.8012],[35.2768,-19.5685,3.0839],[35.2776,-19.5663,4.0807],[35.2782,-19.5676,4.0807],[35.2765,-19.5699,0.375],[35.2665,-19.5779,0.0],[35.2624,-19.5835,0.4753],[35.2637,-19.5826,0.0],[35.2996,-19.5487,0.7086],[35.3265,-19.5274,0.6835],[35.3271,-19.5257,0.9115],[35.3218,-19.5279,4.0185],[35.3185,-19.526,2.4605],[35.326,-19.5237,1.9107],[35.3293,-19.5195,3.319],[35.3194,-19.5246,2.4605],[35.3132,-19.5296,6.2918],[35.3101,-19.5268,7.2302],[35.2964,-19.5268,5.3001],[35.2792,-19.5297,5.7669],[35.2605,-19.5252,7.0623],[35.2557,-19.5146,10.9199],[35.2436,-19.5079,9.0081],[35.2238,-19.4911,12.2523],[35.2157,-19.4916,14.1277],[35.1958,-19.4964,11.5754],[35.1799,-19.4927,18.9346],[35.1626,-19.4802,18.243],[35.1589,-19.4826,18.2151],[35.1565,-19.4902,22.437],[35.1488,-19.4937,21.7783],[35.1362,-19.4915,19.8005],[35.1139,-19.4798,24.4844],[35.1161,-19.4752,25.3158],[35.1148,-19.4577,26.0186],[35.0883,-19.4308,27.7775],[35.0834,-19.4214,29.1688],[35.0832,-19.4123,31.4973],[35.08,-19.4064,29.5803],[35.0751,-19.4042,34.7542],[35.0693,-19.4053,34.7328],[35.0637,-19.4025,33.9702],[35.0592,-19.4064,36.315],[35.0436,-19.4026,34.5663],[35.0393,-19.4043,35.9405],[35.0279,-19.4002,39.8198],[35.0258,-19.3965,46.262],[35.0167,-19.3983,39.5258],[34.9996,-19.3861,43.3893],[34.9897,-19.3852,46.2311],[34.9758,-19.3872,46.8094],[34.9598,-19.3858,49.7564],[34.948,-19.39,46.971],[34.9396,-19.3854,51.4666],[34.9268,-19.3814,48.0265],[34.9093,-19.3866,50.3794],[34.8701,-19.3786,53.3088],[34.8573,-19.3813,55.5073],[34.8358,-19.3822,60.2432],[34.8307,-19.3792,62.9965],[34.8156,-19.3759,62.8724],[34.7681,-19.3794,84.7975],[34.75,-19.3696,90.3378],[34.719,-19.3649,110.8751],[34.7069,-19.3609,121.5747],[34.6898,-19.3263,119.5339],[34.6908,-19.2933,125.8081],[34.6859,-19.2801,131.1324],[34.6702,-19.2546,118.1477],[34.6453,-19.2377,93.5822],[34.6048,-19.1852,38.8034],[34.5953,-19.1819,34.0546],[34.5865,-19.1754,32.5043],[34.5772,-19.1745,29.133],[34.5729,-19.1701,27.5658],[34.5676,-19.1718,25.6491],[34.5623,-19.1714,25.4145],[34.5563,-19.1681,24.4206],[34.5514,-19.1675,20.7043],[34.5342,-19.17,16.4874],[34.5343,-19.176,14.4863],[34.5233,-19.1879,15.8588],[34.5163,-19.2004,14.4196],[34.522,-19.2067,16.4479],[34.5262,-19.2154,13.5172],[34.5286,-19.2336,14.82],[34.5266,-19.2392,14.3149],[34.5278,-19.2428,15.0927],[34.55,-19.2461,12.6744],[34.5529,-19.2509,14.8269],[34.5432,-19.2625,12.9168],[34.5577,-19.2787,11.4856],[34.5502,-19.2755,10.6603],[34.5492,-19.2814,9.9909],[34.5593,-19.3029,10.5169],[34.5536,-19.309,10.0631],[34.5503,-19.3164,9.4264],[34.55,-19.3251,9.1674],[34.5582,-19.3253,8.956],[34.5547,-19.3302,8.3311],[34.5574,-19.3583,7.792],[34.5546,-19.3765,6.1832],[34.5542,-19.4038,5.3215],[34.5459,-19.3997,6.613],[34.534,-19.4088,4.5112],[34.5305,-19.4131,5.4742],[34.5279,-19.4219,4.4835],[34.5296,-19.4242,3.9779],[34.5359,-19.423,4.5927],[34.5356,-19.4323,4.3125],[34.5255,-19.4337,6.0762],[34.5228,-19.4388,5.3699],[34.5305,-19.4431,3.8711],[34.5394,-19.4433,4.456],[34.54,-19.4475,4.2707],[34.5225,-19.4534,3.9656],[34.526,-19.4605,3.8127],[34.5313,-19.4605,4.1183],[34.5447,-19.453,3.5363],[34.5424,-19.459,5.412],[34.5322,-19.4661,3.5472],[34.5279,-19.4717,5.44],[34.5272,-19.4798,5.6636],[34.5234,-19.4857,3.631],[34.5295,-19.494,4.2746],[34.5361,-19.4997,2.8842],[34.5388,-19.5067,2.8173],[34.5365,-19.5105,4.2353],[34.5243,-19.5035,4.4476],[34.5234,-19.507,4.5497],[34.537,-19.5245,3.5677],[34.5466,-19.5149,3.7901],[34.5532,-19.5166,4.58],[34.5547,-19.528,2.1708],[34.5451,-19.5358,2.8119],[34.5388,-19.5444,4.123],[34.5375,-19.5539,3.8882],[34.527,-19.5556,4.9937],[34.5216,-19.5619,5.2158],[34.5244,-19.5985,0.5],[34.5341,-19.6137,1.6321],[34.5883,-19.6594,4.358],[34.6385,-19.6599,0.5],[34.6505,-19.6504,5.9038],[34.6561,-19.6537,5.2833],[34.666,-19.6719,0.5],[34.6893,-19.6908,0.5],[34.6907,-19.6938,0.5]]],
[[[35.3274,-19.5251,0.9115],[35.3293,-19.5251,1.5958],[35.3343,-19.5201,0.0],[35.3288,-19.5232,0.9247],[35.3274,-19.5251,0.9115]]],
[[[34.8043,-19.9468,0.0],[34.8026,-19.9463,0.0],[34.8024,-19.9476,0.0],[34.8051,-19.9485,0.0],[34.8115,-19.9546,0.0],[34.8082,-19.949,0.0],[34.8043,-19.9468,0.0]]],
[[[34.9899,-19.786,2.5108],[34.9871,-19.7871,2.1645],[34.9849,-19.7938,3.3751],[34.9768,-19.7968,2.6046],[34.9749,-19.8001,3.3565],[34.9715,-19.8007,1.2089],[34.9724,-19.8054,0.8617],[34.9821,-19.7999,0.0],[34.9915,-19.791,0.0],[34.9924,-19.7887,1.758],[34.9899,-19.786,2.5108]]]]}
,"properties": {"GID_2": "MOZ.9.6_1","GID_0": "MOZ","country": "Mozambique","GID_1": "MOZ.9_1","province": "Sofala","NL_NAME_1": "NA","county": "Dondo","VARNAME_2": "NA","NL_NAME_2": "NA","TYPE_2": "Distrito","ENGTYPE_2": "District","CC_2": "NA","HASC_2": "MZ.SO.DO","name": "Dondo.county","area_km2": 3001.293,"hist_schema_id": "Elevation0-9000","hist_area_km2": {"0": 1004.295,"25": 1039.245,"50": 611.307,"75": 253.415,"100": 82.807,"125": 10.183,"150": 0.04}}}