{"type":"Feature","properties":{"GID_1":"MOZ.4_1","GID_0":"MOZ","country":"Mozambique","province":"Manica","VARNAME_1":"NA","NL_NAME_1":"NA","TYPE_1":"Provincia","ENGTYPE_1":"Province","CC_1":"NA","HASC_1":"MZ.MN","ISO_1":"MZ-B","name":"Manica.province"},
"geometry":{"type": "MultiPolygon","coordinates": [[[[33.479,-20.323,138.3599],[33.476,-20.3181,128.7567],[33.4742,-20.3081,124.4008],[33.4784,-20.2931,119.053],[33.4948,-20.2778,122.4942],[33.5114,-20.2708,108.6821],[33.5073,-20.2637,115.6745],[33.4975,-20.255,121.2178],[33.4912,-20.2325,128.5887],[33.4832,-20.2184,140.0612],[33.4787,-20.2057,139.5447],[33.4631,-20.1801,160.4482],[33.4594,-20.1673,171.4811],[33.4425,-20.1485,187.2858],[33.4055,-20.1144,167.728],[33.3891,-20.0892,157.3919],[33.391,-20.0795,156.3403],[33.3992,-20.0755,155.9086],[33.4096,-20.0735,158.7463],[33.4155,-20.0698,160.1034],[33.4187,-20.0614,154.6752],[33.4263,-20.0545,150.6843],[33.4378,-20.0499,150.1749],[33.4486,-20.0517,150.2146],[33.4568,-20.0502,155.4819],[33.4694,-20.0339,148.1714],[33.4768,-20.0038,144.8898],[33.4796,-19.9984,142.9624],[33.4854,-19.9937,140.7597],[33.5038,-20.0087,141.6817],[33.5103,-19.9886,138.7684],[33.5179,-19.9852,140.8869],[33.5301,-19.9883,138.0642],[33.5372,-19.9827,137.4321],[33.5546,-19.9594,131.3022],[33.5982,-19.9362,126.4115],[33.6009,-19.9188,135.5604],[33.6123,-19.9363,131.6436],[33.631,-19.9448,129.3191],[33.6647,-19.9328,131.3928],[33.6847,-19.9471,121.5176],[33.7324,-19.9877,68.2814],[33.7609,-19.9889,62.2582],[33.7721,-19.9699,47.652],[33.7857,-19.9511,52.8645],[33.8286,-19.9265,39.4294],[33.827,-19.8123,119.1167],[33.8481,-19.77,50.9546],[33.833,-19.7431,67.8862],[33.83,-19.7291,69.3249],[33.7685,-19.6548,79.1873],[33.7637,-19.6446,84.8164],[33.7492,-19.6306,87.3046],[33.7422,-19.6179,92.2699],[33.7431,-19.6089,102.3668],[33.7408,-19.5987,108.1946],[33.9363,-19.597,147.6802],[33.9382,-19.2428,179.8384],[34.0319,-18.9995,218.773],[34.0444,-18.9632,259.3723],[34.0543,-18.9467,150.2984],[34.0391,-18.9211,213.2628],[34.0282,-18.9209,164.928],[34.0229,-18.917,132.6731],[34.0162,-18.9167,148.3866],[34.0145,-18.9215,145.8142],[34.0104,-18.9257,141.1087],[34.0056,-18.9199,151.5615],[33.951,-18.8863,168.8741],[33.9359,-18.8741,216.3896],[33.9294,-18.8677,210.8027],[33.9256,-18.8598,212.2503],[33.9217,-18.848,217.8001],[33.9201,-18.8347,226.4898],[33.8904,-18.7869,239.0784],[33.872,-18.7845,282.4728],[33.8475,-18.7855,249.3653],[33.8363,-18.7834,296.7726],[33.8161,-18.7657,300.0814],[33.8041,-18.7441,284.9637],[33.7619,-18.7152,332.9942],[33.7522,-18.7166,323.2892],[33.7465,-18.7191,338.6258],[33.7411,-18.7154,341.5791],[33.7222,-18.6958,356.1276],[33.7197,-18.6844,370.8843],[33.7219,-18.6758,378.8062],[33.7283,-18.6657,384.3767],[33.7295,-18.6377,413.2056],[33.7723,-18.601,447.1941],[33.7739,-18.522,510.0569],[33.7854,-18.5258,488.8312],[33.8098,-18.5296,457.2556],[33.836,-18.5267,433.1424],[33.8379,-18.5225,437.4596],[33.8458,-18.5152,425.7344],[33.8627,-18.5137,408.0808],[33.8745,-18.5221,408.0725],[33.8821,-18.5173,407.6431],[33.8714,-18.5004,417.0674],[33.8681,-18.4914,411.1287],[33.8668,-18.4699,420.3717],[33.8701,-18.4622,421.3287],[33.8582,-18.4518,445.7431],[33.8556,-18.4443,431.949],[33.8588,-18.4058,435.9662],[33.8505,-18.4083,437.6094],[33.8412,-18.4202,438.3511],[33.8334,-18.4171,446.0607],[33.8315,-18.4074,446.6712],[33.8426,-18.3745,459.6101],[33.8236,-18.344,470.5081],[33.8199,-18.3256,471.487],[33.8237,-18.3175,462.2663],[33.8263,-18.3057,470.0833],[33.8237,-18.2921,477.0243],[33.8125,-18.2932,477.8727],[33.8062,-18.2897,470.0861],[33.8065,-18.2825,473.4238],[33.814,-18.2766,482.726],[33.8268,-18.2706,500.3814],[33.837,-18.2624,503.7094],[33.8468,-18.2366,524.6511],[33.8585,-18.2321,533.8845],[33.8673,-18.2253,550.3442],[33.9235,-18.1684,502.4866],[33.952,-18.1259,431.0618],[33.9992,-18.1323,410.8896],[34.0078,-18.1233,416.5219],[34.0138,-18.1206,425.1751],[34.0261,-18.127,416.9459],[34.0277,-18.1313,409.4312],[34.026,-18.1391,400.0023],[34.0273,-18.1544,415.3786],[34.0325,-18.1602,400.9132],[34.0439,-18.1656,391.1505],[34.0487,-18.1706,388.7576],[34.0456,-18.1778,396.2482],[34.045,-18.1865,392.686],[34.0502,-18.1973,388.8404],[34.0567,-18.2049,387.1039],[34.0584,-18.2143,386.4448],[34.0637,-18.2194,380.5878],[34.0693,-18.2151,385.148],[34.0725,-18.2145,391.3723],[34.1035,-18.2426,439.3963],[34.1119,-18.2523,365.7003],[34.1241,-18.2582,412.5114],[34.1368,-18.2587,332.7931],[34.1497,-18.253,330.1078],[34.1896,-18.1844,370.5789],[34.196,-18.1842,364.1736],[34.23,-18.2099,318.6812],[34.2458,-18.2106,295.1254],[34.2822,-18.0792,225.8391],[34.2892,-18.0716,246.4329],[34.2902,-18.0671,335.3583],[34.2785,-17.9988,433.7843],[34.2651,-17.9766,395.2136],[34.2741,-17.9599,387.6405],[34.2793,-17.9539,328.6069],[34.2881,-17.9334,295.0992],[34.2787,-17.9205,264.5167],[34.2769,-17.9149,267.2556],[34.2718,-17.9077,282.0931],[34.2629,-17.9035,293.8641],[34.2538,-17.8966,304.805],[34.2394,-17.8776,325.6593],[34.2324,-17.8769,319.8269],[34.2144,-17.87,351.3932],[34.194,-17.8716,361.8837],[34.1926,-17.8452,349.2096],[34.1996,-17.8222,360.9056],[34.2086,-17.7449,401.9001],[34.2027,-17.7144,404.8038],[34.1718,-17.6996,437.3807],[34.161,-17.6903,464.5283],[34.1628,-17.6286,405.4287],[34.1404,-17.5927,453.9521],[34.1768,-17.5162,393.1235],[34.2037,-17.422,303.1297],[34.202,-17.4118,340.9278],[34.1878,-17.3848,430.98],[34.2076,-17.2905,275.1368],[34.2255,-17.2754,240.5273],[34.2292,-17.2688,233.2339],[34.2304,-17.2609,226.7504],[34.2247,-17.2432,219.3344],[34.2068,-17.239,229.7724],[34.1748,-17.2225,262.2729],[34.2632,-17.0604,330.7361],[34.3042,-17.0316,306.2115],[34.4496,-16.999,209.2107],[34.4662,-16.9931,223.1731],[34.5349,-16.8664,103.9698],[34.5074,-16.8639,96.005],[34.5074,-16.8528,87.8498],[34.5142,-16.837,76.9176],[34.5308,-16.8188,78.6416],[34.534,-16.8084,78.4889],[34.5335,-16.783,78.1742],[34.4798,-16.7612,79.6275],[34.4724,-16.7476,80.5629],[34.4606,-16.736,81.206],[34.4182,-16.7201,83.0206],[34.4028,-16.7168,84.2652],[34.3582,-16.7162,86.3994],[34.3239,-16.7131,87.8333],[34.3072,-16.7083,86.5],[34.2879,-16.6986,89.0139],[34.2674,-16.6938,89.9218],[34.2094,-16.694,95.854],[34.1983,-16.6917,93.8629],[34.172,-16.6801,95.8824],[34.1491,-16.6546,93.0],[34.1334,-16.6273,94.5],[34.1237,-16.6207,95.0],[34.0832,-16.6117,188.1056],[34.0681,-16.6048,97.0],[34.0362,-16.6144,104.7133],[34.0182,-16.6154,113.9414],[34.0082,-16.6138,104.969],[33.9982,-16.6064,100.0],[33.9954,-16.6014,100.0],[33.9959,-16.5784,100.0],[33.9897,-16.5735,100.0],[33.9675,-16.5746,100.0],[33.9619,-16.5777,102.1668],[33.9458,-16.5623,100.875],[33.9114,-16.5369,102.5],[33.9032,-16.5283,103.0],[33.8867,-16.4992,104.0],[33.8789,-16.4897,104.5],[33.8486,-16.461,106.5],[33.8323,-16.4309,108.0],[33.8121,-16.407,109.0],[33.8047,-16.3958,117.7774],[33.7924,-16.3871,121.8275],[33.7847,-16.3853,110.5],[33.7563,-16.3965,116.1369],[33.7248,-16.4121,125.5956],[33.7166,-16.4268,124.1791],[33.709,-16.4307,123.3709],[33.6848,-16.4201,149.6425],[33.6171,-16.4294,131.7361],[33.6053,-16.4293,134.0619],[33.5937,-16.4247,135.7662],[33.569,-16.4256,138.7201],[33.5425,-16.4321,144.7719],[33.5291,-16.4391,145.0087],[33.52,-16.4469,145.1603],[33.5009,-16.4696,149.6709],[33.4719,-16.4848,152.6371],[33.461,-16.5048,156.207],[33.4508,-16.5161,203.995],[33.4368,-16.5269,155.8397],[33.4353,-16.5382,196.4176],[33.4389,-16.5488,165.9805],[33.4431,-16.5804,185.3555],[33.44,-16.5898,168.6593],[33.4203,-16.6118,189.9913],[33.3963,-16.6342,196.1637],[33.3934,-16.6399,196.3484],[33.3926,-16.6552,194.4903],[33.3887,-16.6624,195.1719],[33.3812,-16.6667,183.9555],[33.3751,-16.6813,187.2828],[33.3685,-16.6897,196.0482],[33.3599,-16.694,200.4674],[33.3355,-16.7002,194.8021],[33.3268,-16.7124,194.875],[33.3139,-16.7394,202.8731],[33.2975,-16.7614,205.303],[33.2916,-16.7873,235.6],[33.2843,-16.8073,215.8272],[33.2841,-16.8314,217.2368],[33.2789,-16.8573,224.1727],[33.254,-16.8805,249.6163],[33.2475,-16.8883,259.3756],[33.2397,-16.9021,279.722],[33.2264,-16.9338,298.3426],[33.2238,-16.9468,314.9149],[33.2165,-16.9563,334.7495],[33.2153,-16.9656,317.9614],[33.2166,-16.9759,357.797],[33.2134,-16.9837,334.3069],[33.2,-16.9964,345.5056],[33.1506,-17.0306,387.259],[33.1429,-17.0387,395.0348],[33.1402,-17.0709,416.4437],[33.1312,-17.0754,431.3293],[33.1271,-17.083,436.3819],[33.125,-17.0918,426.4617],[33.1129,-17.101,435.8024],[33.1058,-17.104,433.8055],[33.1051,-17.1103,445.5517],[33.1123,-17.1242,452.7922],[33.1159,-17.1289,451.5562],[33.1234,-17.1324,455.8656],[33.1235,-17.1374,464.2438],[33.111,-17.1502,463.4871],[33.1066,-17.1562,459.9479],[33.1057,-17.1626,474.2065],[33.1027,-17.1681,473.1443],[33.0948,-17.1752,463.2201],[33.0928,-17.1795,465.8199],[33.0903,-17.1952,471.1352],[33.091,-17.2204,479.9287],[33.0893,-17.2328,488.7999],[33.087,-17.2367,489.7043],[33.0757,-17.2468,483.0614],[33.0653,-17.2789,495.8719],[33.0495,-17.301,504.4781],[33.0489,-17.3136,507.6992],[33.051,-17.3377,518.5381],[33.0411,-17.3428,529.5878],[33.0453,-17.347,531.7054],[33.0344,-17.3577,518.9296],[33.0296,-17.3666,513.629],[33.02,-17.3773,528.1597],[33.0074,-17.4007,539.7874],[33.0019,-17.4154,546.1575],[32.9968,-17.4447,546.9241],[32.9981,-17.4531,552.936],[32.9836,-17.4559,569.0231],[32.9734,-17.4719,586.6115],[32.9623,-17.4814,578.1082],[32.9591,-17.4945,619.3261],[32.9602,-17.5156,624.364],[32.9627,-17.5271,606.7891],[32.9737,-17.5423,606.2737],[32.976,-17.5518,653.4132],[32.9814,-17.5628,646.6828],[32.99,-17.5668,818.1147],[33.0092,-17.5687,695.8657],[33.0342,-17.5914,804.9582],[33.0432,-17.6034,770.5533],[33.0415,-17.6126,904.4257],[33.0421,-17.6266,853.4164],[33.039,-17.636,907.0748],[33.0262,-17.6474,804.5109],[33.0179,-17.6712,767.8683],[33.012,-17.7021,944.2104],[33.0143,-17.7139,869.305],[33.0202,-17.7203,803.0781],[33.0125,-17.7235,819.92],[33.0033,-17.7196,962.2532],[33.002,-17.725,953.0746],[33.0017,-17.7383,817.6431],[33.0069,-17.7456,806.7234],[33.0161,-17.75,791.9169],[33.0265,-17.758,803.5541],[33.0267,-17.7628,795.4818],[33.0137,-17.7694,865.5544],[33.0155,-17.7811,804.3177],[33.0102,-17.7949,810.957],[33.0101,-17.8015,799.1546],[32.9904,-17.8051,813.4529],[32.9753,-17.8016,804.2601],[32.9693,-17.802,814.1616],[32.9601,-17.8175,807.6675],[32.9613,-17.855,824.9139],[32.953,-17.8776,823.8521],[32.9538,-17.907,850.3434],[32.9561,-17.9108,849.5402],[32.9725,-17.9136,852.3229],[32.9772,-17.9173,867.4464],[32.9768,-17.9232,871.5782],[32.9714,-17.9333,860.53],[32.9691,-17.9535,851.8167],[32.9625,-17.9629,1035.6252],[32.9515,-17.9601,1006.9222],[32.9476,-17.963,898.6486],[32.9428,-17.9743,1008.9778],[32.9422,-17.9889,876.2412],[32.949,-18.0113,1042.8599],[32.948,-18.0161,1040.226],[32.9491,-18.0324,991.1888],[32.9553,-18.043,1000.628],[32.9586,-18.0524,990.6956],[32.9594,-18.0717,1014.9866],[32.9741,-18.1083,1007.4079],[32.974,-18.1168,1052.3027],[32.9701,-18.1281,1134.7024],[32.9719,-18.1423,1172.563],[32.9783,-18.155,1219.344],[32.9875,-18.1566,1128.1766],[32.9932,-18.162,1093.6914],[32.9976,-18.1689,1139.9202],[32.9961,-18.1921,1250.1074],[33.0022,-18.2169,1043.829],[33.0084,-18.2287,981.5999],[33.0088,-18.2404,912.8568],[33.0005,-18.2589,809.5261],[32.9976,-18.2727,756.3273],[33.0021,-18.3048,677.3198],[33.0129,-18.3183,668.692],[33.0314,-18.3248,646.3385],[33.04,-18.3338,692.9847],[33.0388,-18.3434,684.2936],[33.0543,-18.3578,649.1463],[33.055,-18.3619,629.9346],[33.0467,-18.3796,601.6384],[33.0416,-18.3827,593.2228],[33.0339,-18.3836,612.0461],[33.0238,-18.3911,608.218],[33.0174,-18.417,644.6061],[33.0163,-18.4313,633.1639],[33.0227,-18.4442,704.7108],[33.0229,-18.4575,770.7197],[33.0211,-18.4655,747.9047],[33.0144,-18.4737,682.3383],[32.9979,-18.4828,653.8071],[32.9791,-18.4896,662.6843],[32.9743,-18.4893,690.8305],[32.964,-18.478,677.8199],[32.9604,-18.478,706.5961],[32.9446,-18.4905,690.3386],[32.9361,-18.4939,678.354],[32.9311,-18.4941,700.2426],[32.92,-18.5018,714.2458],[32.9149,-18.5025,695.3819],[32.9041,-18.4994,847.7649],[32.8992,-18.5061,699.2433],[32.8917,-18.5067,708.6923],[32.8881,-18.5115,715.3336],[32.8845,-18.5223,740.4022],[32.8946,-18.5427,1163.8978],[32.8956,-18.5578,1362.7271],[32.8928,-18.5679,1428.5272],[32.8859,-18.5791,1488.611],[32.8988,-18.5911,1562.1945],[32.9029,-18.601,1391.3275],[32.9028,-18.6062,1265.4351],[32.9092,-18.6215,974.1525],[32.9369,-18.6616,699.059],[32.9541,-18.6902,1289.8448],[32.955,-18.698,1178.5165],[32.9487,-18.7143,1012.02],[32.9333,-18.7443,1032.7307],[32.9325,-18.753,1116.238],[32.9278,-18.7663,1264.6685],[32.9207,-18.7759,1290.8079],[32.9091,-18.7868,1418.1525],[32.8924,-18.7963,1243.3806],[32.8776,-18.7972,1184.2511],[32.843,-18.779,1587.303],[32.836,-18.7776,1576.6406],[32.827,-18.7775,1728.1642],[32.8137,-18.7813,1789.3485],[32.7973,-18.7896,1821.2921],[32.7895,-18.7965,1742.2993],[32.7772,-18.7998,1790.0847],[32.7589,-18.8142,1786.1844],[32.7483,-18.8171,1697.894],[32.7396,-18.8164,1843.3839],[32.734,-18.8182,1716.4078],[32.7119,-18.8336,1661.557],[32.7041,-18.8444,1645.9485],[32.7047,-18.8568,1483.4634],[32.7186,-18.8769,1423.6057],[32.724,-18.8911,1389.2946],[32.7307,-18.9254,1498.9215],[32.7297,-18.9293,1541.4563],[32.7024,-18.936,1597.0719],[32.7004,-18.9406,1535.3246],[32.7078,-18.9785,1130.5253],[32.7096,-19.0018,915.3167],[32.7155,-19.0183,1093.0631],[32.7227,-19.0248,1063.1819],[32.7398,-19.0291,1035.824],[32.757,-19.029,1306.3359],[32.765,-19.0281,1457.7637],[32.7798,-19.0214,1392.0902],[32.8013,-19.0169,1307.49],[32.8334,-19.0164,1218.4557],[32.8453,-19.0248,1181.9568],[32.8487,-19.0554,1017.7126],[32.8513,-19.0648,1123.0107],[32.858,-19.0768,995.4934],[32.8712,-19.0822,909.3349],[32.8774,-19.0979,787.2916],[32.8775,-19.1128,850.8966],[32.8719,-19.1259,721.0748],[32.8666,-19.1483,913.1115],[32.8636,-19.1715,646.9792],[32.8488,-19.2337,1173.5111],[32.8489,-19.2553,1098.1064],[32.8526,-19.2787,1032.3508],[32.8498,-19.2936,1043.7389],[32.832,-19.3126,1408.2255],[32.8245,-19.3171,1528.5735],[32.8091,-19.3351,1691.6661],[32.7764,-19.3613,1654.386],[32.7756,-19.3705,1777.9377],[32.7857,-19.3867,2178.354],[32.7854,-19.3945,2167.2266],[32.7782,-19.4087,2094.9568],[32.7802,-19.4312,1801.3463],[32.7765,-19.4498,1544.4158],[32.7766,-19.4576,1483.8711],[32.7824,-19.4668,1567.8915],[32.7935,-19.4754,1727.8243],[32.8033,-19.4773,1917.1458],[32.8291,-19.478,1879.0006],[32.8352,-19.4759,1888.2651],[32.8449,-19.4765,1779.125],[32.8453,-19.4836,1753.8226],[32.8402,-19.5189,1494.7654],[32.8413,-19.5279,1559.4252],[32.8512,-19.5413,1363.7892],[32.8523,-19.5525,1343.8615],[32.8475,-19.6095,1784.1333],[32.8528,-19.6238,1729.1965],[32.8342,-19.6693,1970.3373],[32.8351,-19.6772,1839.3977],[32.8385,-19.6809,1826.5559],[32.8501,-19.6846,2140.5068],[32.8727,-19.6829,1860.5524],[32.8764,-19.6853,1649.0433],[32.8897,-19.6847,1614.8594],[32.9026,-19.6806,1619.3021],[32.9165,-19.6789,1541.2407],[32.9498,-19.6642,1469.3374],[32.9627,-19.6546,1501.6915],[32.9688,-19.6549,1462.5557],[32.9727,-19.6583,1456.7961],[32.9784,-19.6724,1439.8296],[32.9808,-19.685,1485.6143],[32.9793,-19.6917,1486.1726],[32.9629,-19.7084,1227.0962],[32.9573,-19.7118,1341.4153],[32.9555,-19.7166,1105.5875],[32.9587,-19.723,1108.4824],[32.9925,-19.7474,1714.2997],[33.0199,-19.7563,1785.5656],[33.0388,-19.7669,1725.0692],[33.0528,-19.7806,1999.9666],[33.0563,-19.7992,2141.2622],[33.0474,-19.821,1931.928],[33.0481,-19.8334,1793.6445],[33.0356,-19.8878,1556.2932],[33.0247,-19.9642,1594.6318],[33.014,-20.011,412.1029],[33.0109,-20.0188,410.4355],[33.0009,-20.024,403.3703],[33.0002,-20.0265,356.9608],[32.9812,-20.0308,389.6838],[32.9719,-20.0344,439.9156],[32.9695,-20.0374,369.2089],[32.9263,-20.044,418.678],[32.9205,-20.0476,416.6309],[32.9122,-20.063,677.7405],[32.9185,-20.0735,700.7665],[32.9203,-20.0913,747.0323],[32.9198,-20.1152,723.0148],[32.9098,-20.1202,718.262],[32.8942,-20.1157,917.4907],[32.8899,-20.1103,983.5134],[32.8875,-20.1028,1046.2166],[32.8807,-20.1027,1129.3066],[32.878,-20.1064,1062.6544],[32.8682,-20.1116,1130.4849],[32.8557,-20.1561,1082.2806],[32.8559,-20.1607,1102.8118],[32.8708,-20.1803,1093.5391],[32.8713,-20.1895,1076.2795],[32.8698,-20.1927,1050.0295],[32.8468,-20.2003,1004.8614],[32.8427,-20.2054,932.5748],[32.8389,-20.2193,833.2343],[32.8401,-20.2235,860.5353],[32.8488,-20.2311,953.7621],[32.8627,-20.2358,892.7733],[32.8665,-20.24,881.0539],[32.8662,-20.2517,937.944],[32.8607,-20.2742,799.284],[32.864,-20.2871,941.6151],[32.807,-20.3393,879.5548],[32.8004,-20.353,875.5151],[32.7993,-20.3587,816.0621],[32.8007,-20.3714,941.9638],[32.781,-20.3951,604.045],[32.7645,-20.4108,911.3114],[32.734,-20.4485,917.2928],[32.7219,-20.467,825.0353],[32.6835,-20.5366,690.5391],[32.6771,-20.5468,676.1449],[32.6687,-20.555,826.5671],[32.6584,-20.5616,776.5214],[32.6459,-20.5599,727.317],[32.6152,-20.5594,860.9657],[32.6037,-20.5609,867.8159],[32.5671,-20.5609,806.7516],[32.5573,-20.5656,616.4388],[32.5275,-20.5883,504.1818],[32.524,-20.5924,481.8766],[32.5118,-20.5997,399.4731],[32.4921,-20.6185,480.4532],[32.4885,-20.6275,460.5871],[32.4846,-20.661,509.0786],[32.4856,-20.6745,525.7067],[32.4947,-20.7008,556.0369],[32.4978,-20.8074,461.7624],[32.5029,-20.8334,456.0304],[32.5153,-20.8721,377.6711],[32.5186,-20.8889,380.6424],[32.5168,-20.9144,400.0584],[32.4811,-20.9926,403.7767],[32.4684,-21.0118,376.0473],[32.4498,-21.0371,325.1582],[32.4394,-21.0462,297.7686],[32.402,-21.0872,324.6978],[32.3879,-21.0985,315.1089],[32.3807,-21.1086,293.0871],[32.3762,-21.1218,284.8862],[32.3667,-21.1367,271.6255],[32.3701,-21.1422,286.555],[32.3854,-21.1545,247.1935],[32.4,-21.1632,241.905],[32.4058,-21.1699,216.0964],[32.4063,-21.1759,220.9543],[32.3958,-21.1889,221.4425],[32.3951,-21.1928,202.7282],[32.3993,-21.2066,191.1127],[32.4222,-21.227,176.5086],[32.4267,-21.2355,174.7262],[32.4312,-21.2507,169.8434],[32.4577,-21.2824,157.3067],[32.476,-21.3113,156.5803],[32.4799,-21.321,153.6986],[32.48,-21.326,155.2502],[32.5019,-21.3484,150.4512],[32.5138,-21.3648,149.7927],[32.5232,-21.3738,152.3069],[32.5442,-21.3826,146.8167],[32.62,-21.3904,143.1853],[32.6609,-21.398,134.5],[32.6914,-21.4124,132.7702],[32.7307,-21.4372,132.5923],[32.7552,-21.4477,129.8903],[32.769,-21.4603,126.4669],[32.7805,-21.4753,125.3458],[32.8498,-21.5066,121.0948],[32.8722,-21.5004,115.75],[32.8904,-21.4869,118.6157],[32.9116,-21.484,112.5],[32.932,-21.4902,116.0686],[32.9507,-21.5051,115.4941],[32.9605,-21.5197,113.4367],[32.9625,-21.5274,112.9155],[32.9571,-21.5555,107.0622],[32.9616,-21.5627,109.6974],[32.97,-21.5678,110.3104],[32.9843,-21.5705,104.0],[33.0,-21.5679,108.4309],[33.0193,-21.5679,108.7176],[33.029,-21.5769,105.5291],[33.0483,-21.586,104.212],[33.0676,-21.586,103.3226],[33.0676,-21.5679,110.7991],[33.1062,-21.5317,101.4008],[33.1641,-21.5046,94.9094],[33.1931,-21.4865,93.8828],[33.2317,-21.4774,91.6424],[33.2703,-21.4954,88.665],[33.28,-21.4954,93.7831],[33.3089,-21.4863,89.636],[33.3282,-21.4863,85.3839],[33.3475,-21.4772,86.4764],[33.3668,-21.4771,84.126],[33.3957,-21.468,79.7514],[33.415,-21.459,77.7103],[33.4728,-21.4227,76.565],[33.492,-21.3955,72.9141],[33.5498,-21.3773,69.7901],[33.5691,-21.3772,77.7991],[33.5788,-21.3862,74.279],[33.6078,-21.3951,70.8382],[33.6367,-21.386,70.2312],[33.656,-21.3859,64.0906],[33.6753,-21.3949,64.0164],[33.7237,-21.4218,62.388],[33.7622,-21.4035,62.5461],[33.82,-21.3852,57.5244],[33.8491,-21.4121,66.2839],[33.8973,-21.4119,58.1722],[33.9069,-21.4028,53.9522],[33.926,-21.3666,51.8275],[33.9258,-21.3485,50.4013],[33.9545,-21.3122,47.9234],[33.993,-21.3029,50.7913],[34.0063,-21.3111,44.3097],[34.0052,-21.2686,88.9683],[34.0123,-21.2436,121.4048],[34.0319,-21.2234,113.1516],[34.0399,-21.1666,103.6084],[34.0936,-21.1299,92.7208],[34.1082,-21.0751,83.1916],[33.9947,-21.0066,72.8706],[33.8967,-21.0021,85.454],[33.9106,-20.8048,72.1318],[33.8675,-20.7608,97.0656],[33.8549,-20.7511,102.969],[33.8463,-20.7381,108.9448],[33.8329,-20.7377,113.144],[33.8197,-20.7397,117.4162],[33.7967,-20.7288,126.0711],[33.7802,-20.7276,131.3302],[33.7529,-20.7194,141.6902],[33.7297,-20.7087,160.1652],[33.7241,-20.7024,170.1387],[33.7178,-20.6446,198.1054],[33.6824,-20.6272,219.1397],[33.6674,-20.6178,232.1126],[33.6577,-20.6043,236.0433],[33.647,-20.5969,241.3049],[33.6487,-20.5819,261.4808],[33.6552,-20.5543,268.4812],[33.6612,-20.5402,259.7737],[33.661,-20.5285,250.5706],[33.6453,-20.5375,264.8774],[33.634,-20.5389,266.6163],[33.6199,-20.5366,269.9075],[33.6087,-20.5417,270.7093],[33.4768,-20.4171,195.7546],[33.4934,-20.3554,165.0304],[33.4958,-20.3532,163.5327],[33.4961,-20.3477,160.1831],[33.4932,-20.3411,161.4745],[33.479,-20.323,138.3599]]]]}}