{"type": "Feature","id": "1192","bbox": [32.33981,-21.59636,34.59616,-16.40236],"geometry": {"type": "Polygon","coordinates": [[[34.03361,-16.63263,181.8095],[34.01739,-16.62891,323.7352],[34.00979,-16.61811,104.8444],[34.00612,-16.60431,202.9926],[34.00116,-16.59242,253.7717],[33.98943,-16.58731,143.82],[33.97191,-16.58607,252.9206],[33.95997,-16.58261,100.0],[33.93481,-16.56994,108.8938],[33.91564,-16.55449,106.2353],[33.8853,-16.50747,104.0],[33.85125,-16.46675,106.0],[33.82272,-16.42277,108.5],[33.80448,-16.40236,109.5],[33.802,-16.40572,110.3237],[33.76438,-16.40572,117.9213],[33.75208,-16.4082,124.0985],[33.70712,-16.42401,169.7809],[33.69079,-16.42572,129.4335],[33.59013,-16.41719,168.7104],[33.55664,-16.42143,148.7027],[33.52982,-16.4315,153.3984],[33.50501,-16.44706,188.1474],[33.48383,-16.46716,192.9568],[33.4507,-16.51501,203.995],[33.44264,-16.52101,224.2491],[33.44491,-16.54395,211.3914],[33.4445,-16.55108,179.5957],[33.44171,-16.56591,181.4706],[33.44233,-16.57139,179.0294],[33.4476,-16.57987,189.1472],[33.44915,-16.58467,194.3735],[33.4476,-16.59242,192.4737],[33.44274,-16.60167,190.0377],[33.38549,-16.67144,209.7011],[33.38208,-16.67753,213.0065],[33.38053,-16.68529,211.1392],[33.37805,-16.69113,232.0321],[33.37215,-16.69557,209.1843],[33.36053,-16.69934,214.7542],[33.35588,-16.70151,216.3612],[33.34332,-16.71019,216.9734],[33.32621,-16.72869,202.6451],[33.32311,-16.73402,202.6093],[33.32094,-16.74094,204.3242],[33.32001,-16.75221,225.3221],[33.32094,-16.76637,237.9978],[33.32048,-16.77174,240.8691],[33.31629,-16.78812,242.3364],[33.31614,-16.79375,244.6987],[33.31691,-16.79897,249.4476],[33.31521,-16.80729,255.9059],[33.3104,-16.81768,265.9328],[33.27707,-16.86429,235.5101],[33.27376,-16.87091,252.3207],[33.2409,-16.96336,362.4868],[33.23547,-16.9864,383.5012],[33.23439,-16.99808,397.3077],[33.23237,-17.00211,385.7653],[33.22834,-17.00775,402.0249],[33.21961,-17.01534,390.0022],[33.21309,-17.01937,386.8559],[33.20658,-17.0217,403.9651],[33.17155,-17.02723,402.7332],[33.16607,-17.02904,392.9384],[33.16142,-17.03152,402.6414],[33.15785,-17.03508,428.3419],[33.1515,-17.04304,450.7283],[33.14793,-17.04656,413.3143],[33.13956,-17.05209,422.3502],[33.12902,-17.06154,445.1041],[33.12111,-17.0709,446.838],[33.10871,-17.08945,516.9148],[33.09672,-17.12025,473.3947],[33.09517,-17.14221,499.6436],[33.09331,-17.15043,499.8411],[33.0885,-17.15988,503.7243],[33.08649,-17.16784,511.1897],[33.08711,-17.17869,505.7566],[33.09548,-17.20252,486.9619],[33.09517,-17.20861,477.5125],[33.09284,-17.21683,472.8903],[33.05564,-17.28783,524.3342],[33.04721,-17.30008,518.8052],[33.03729,-17.31207,549.6752],[33.03621,-17.31755,559.0693],[33.03931,-17.32623,560.0775],[33.0421,-17.33222,537.4583],[33.04396,-17.33992,524.3535],[33.04473,-17.34566,536.008],[33.0376,-17.37382,562.3181],[33.01165,-17.38399,556.3173],[32.99745,-17.40498,565.2563],[32.95817,-17.47847,623.2224],[32.95166,-17.48622,634.7349],[32.94298,-17.49159,703.6797],[32.93657,-17.49831,674.678],[32.93668,-17.50937,701.5913],[32.94722,-17.54317,640.8823],[32.95166,-17.55143,652.323],[32.96913,-17.56456,672.9993],[33.00665,-17.58099,917.0949],[33.02039,-17.59856,1209.2241],[33.02453,-17.61923,1084.9377],[33.0206,-17.63846,944.1622],[33.00406,-17.67556,1050.1418],[33.00024,-17.7139,1159.9791],[33.00318,-17.75773,852.0968],[32.9991,-17.79431,824.3994],[32.97357,-17.81064,823.4193],[32.95704,-17.81798,855.9012],[32.94608,-17.83472,1207.3236],[32.93967,-17.8555,840.4913],[32.93688,-17.87503,849.1916],[32.93843,-17.89457,929.126],[32.95027,-17.92257,1036.4033],[32.95213,-17.94025,1186.8694],[32.94815,-17.95327,1182.9456],[32.9404,-17.95999,1193.5842],[32.93244,-17.96495,899.0883],[32.92737,-17.97291,923.9285],[32.92898,-17.98231,973.5851],[32.94122,-17.99626,1086.9785],[32.94029,-18.00484,1023.6971],[32.93492,-18.02458,1028.4001],[32.93709,-18.04711,1149.958],[32.97228,-18.15026,1095.3513],[32.97554,-18.18333,1410.0779],[32.97487,-18.19077,1476.3108],[32.96593,-18.21217,1493.1917],[32.95817,-18.2254,1492.7404],[32.95228,-18.23305,1490.1379],[32.95053,-18.24131,1462.6633],[32.95497,-18.2563,1259.7421],[32.97016,-18.27749,1092.2225],[33.01688,-18.31366,692.5279],[33.03497,-18.33289,676.3805],[33.04277,-18.35201,616.3309],[33.03807,-18.36306,681.6309],[33.00923,-18.38394,686.5714],[32.9882,-18.41319,640.3227],[32.98536,-18.41247,657.1377],[32.9868,-18.42229,671.3427],[32.99952,-18.43665,681.445],[33.00303,-18.44688,667.5782],[32.99641,-18.46714,686.9972],[32.97859,-18.48006,678.6512],[32.95662,-18.48988,696.0367],[32.93714,-18.50104,687.8826],[32.91931,-18.51003,704.9393],[32.9003,-18.5153,728.4827],[32.88314,-18.52212,752.0306],[32.87074,-18.53577,780.2905],[32.86826,-18.55261,816.1196],[32.87167,-18.57318,975.9905],[32.88448,-18.60904,1540.475],[32.91456,-18.66589,842.5719],[32.92231,-18.69317,709.0986],[32.92024,-18.72625,875.7219],[32.91327,-18.75301,1021.2485],[32.90252,-18.77451,1174.7043],[32.88521,-18.78784,989.397],[32.85885,-18.79001,985.4628],[32.81792,-18.78702,1642.8344],[32.78764,-18.79125,1681.853],[32.69142,-18.83425,1424.9065],[32.68987,-18.84324,1387.9514],[32.69679,-18.89719,1346.4987],[32.7032,-18.91187,1306.3464],[32.71576,-18.91983,1355.5688],[32.70506,-18.92747,1425.7048],[32.69225,-18.9343,1689.9133],[32.68253,-18.94267,1515.7198],[32.68108,-18.95497,1189.0461],[32.68863,-18.97729,1146.8555],[32.69028,-18.98825,1004.8331],[32.68863,-19.00096,970.6574],[32.69106,-19.01429,1136.1599],[32.69896,-19.02225,969.9889],[32.71028,-19.02597,1068.114],[32.72387,-19.02659,1036.5536],[32.78599,-19.0177,1425.6021],[32.80335,-19.01956,1261.9623],[32.8142,-19.0238,1144.4816],[32.81999,-19.02835,1094.3167],[32.82299,-19.03517,1101.0295],[32.82526,-19.04685,1317.1343],[32.83022,-19.05915,1187.0308],[32.83813,-19.0669,1118.8083],[32.84748,-19.07393,1076.4386],[32.85591,-19.08374,962.0087],[32.86226,-19.11806,695.5411],[32.83322,-19.24198,953.3857],[32.83219,-19.26668,1043.6779],[32.82867,-19.28456,1015.2296],[32.82071,-19.3013,1150.1704],[32.80614,-19.32342,1473.5742],[32.76883,-19.36362,1588.0333],[32.76645,-19.37344,1729.7885],[32.76852,-19.40279,1678.1486],[32.76222,-19.44341,1483.7954],[32.76335,-19.46398,1360.4269],[32.77395,-19.47586,1558.9166],[32.79312,-19.47669,1728.9353],[32.81131,-19.47452,1680.252],[32.82537,-19.47917,1842.3105],[32.83219,-19.50088,1499.316],[32.8325,-19.51927,1365.0625],[32.82537,-19.59162,1465.7173],[32.82568,-19.60082,1492.9788],[32.82816,-19.61064,1797.2075],[32.8296,-19.62366,1530.1892],[32.82537,-19.63327,1571.8365],[32.81947,-19.64195,1603.6998],[32.81627,-19.65208,1784.9827],[32.81963,-19.6743,1556.8667],[32.83105,-19.68515,1619.6835],[32.84914,-19.68908,2110.0811],[32.87218,-19.69022,1553.09],[32.89472,-19.68433,1734.8452],[32.92458,-19.65528,1094.594],[32.94319,-19.64929,1126.915],[32.96096,-19.6588,1455.9447],[32.96241,-19.67906,1326.1526],[32.95414,-19.71781,1105.5875],[32.96241,-19.73538,1354.7231],[32.97905,-19.7514,1348.5458],[33.0006,-19.76432,1785.074],[33.02277,-19.77311,1627.1599],[33.03279,-19.78417,1645.5267],[33.02964,-19.80339,1501.425],[33.02287,-19.82685,1473.0288],[33.02132,-19.86809,1376.4264],[33.002,-19.927,715.9671],[32.99838,-20.0009,763.9524],[33.00437,-20.02425,405.3571],[33.00727,-20.03201,354.1821],[32.95373,-20.03025,492.3037],[32.94009,-20.04151,386.5649],[32.9343,-20.07211,617.3718],[32.92655,-20.08647,734.384],[32.91068,-20.09112,843.2634],[32.89441,-20.09402,1187.9557],[32.88531,-20.10301,1080.5543],[32.87787,-20.15169,957.4323],[32.87291,-20.16719,1083.5334],[32.85927,-20.19086,1092.8536],[32.85709,-20.20057,1001.5595],[32.85834,-20.2075,834.7011],[32.86505,-20.22094,808.2923],[32.86557,-20.22889,965.337],[32.85844,-20.25949,848.9785],[32.85296,-20.27385,846.5811],[32.84521,-20.28667,764.7097],[32.80077,-20.33855,1030.1637],[32.73586,-20.41421,982.6375],[32.70444,-20.47177,948.0138],[32.67178,-20.53182,699.3762],[32.64646,-20.55797,715.3043],[32.60367,-20.56479,824.6645],[32.55654,-20.55931,669.9971],[32.51314,-20.56458,493.5406],[32.48161,-20.60303,569.7603],[32.47107,-20.64551,530.0183],[32.46911,-20.68685,622.3282],[32.48347,-20.79423,490.8402],[32.49722,-20.8981,392.8866],[32.49102,-20.93634,429.6985],[32.46766,-20.98017,417.7136],[32.41712,-21.04094,350.8803],[32.33981,-21.13406,436.5751],[32.34534,-21.14284,379.0953],[32.35986,-21.15142,353.0742],[32.36886,-21.163,320.2349],[32.37335,-21.16362,316.2357],[32.37774,-21.16341,298.8345],[32.38064,-21.16548,302.8319],[32.38053,-21.17219,298.1416],[32.37687,-21.1785,304.4541],[32.37299,-21.18398,301.3062],[32.37175,-21.1879,292.0557],[32.44461,-21.30469,171.1578],[32.44585,-21.30899,160.7177],[32.4889,-21.34438,158.4548],[32.54523,-21.37771,148.3455],[32.56094,-21.38402,143.9327],[32.62553,-21.38138,144.0975],[32.64564,-21.38402,142.7397],[32.6846,-21.39983,144.8268],[32.79725,-21.48107,123.0172],[32.81229,-21.48758,125.6019],[32.82914,-21.49218,125.0134],[32.84831,-21.49388,124.4179],[32.90562,-21.48665,117.8416],[32.92061,-21.48706,113.6736],[32.93451,-21.49218,116.154],[32.95275,-21.50241,120.041],[32.96846,-21.51605,122.0011],[32.97523,-21.53109,120.2373],[32.97766,-21.56029,122.2819],[32.98561,-21.56876,107.3593],[33.00055,-21.56804,109.3804],[33.02365,-21.56959,107.799],[33.03171,-21.57718,105.2519],[33.05083,-21.59083,105.8297],[33.07005,-21.59636,112.5941],[33.07889,-21.57951,105.3055],[33.0854,-21.56246,106.6544],[33.10147,-21.54328,99.9723],[33.12142,-21.52613,94.6134],[33.13971,-21.51497,96.8575],[33.20018,-21.49001,94.7953],[33.21826,-21.48706,96.9049],[33.24095,-21.49083,94.2458],[33.27697,-21.50458,90.2626],[33.28048,-21.50587,91.8306],[33.3042,-21.5069,106.6276],[33.32508,-21.50086,102.7307],[33.36223,-21.48324,89.4752],[33.40306,-21.47461,83.7855],[33.42409,-21.46246,79.8935],[33.49241,-21.41161,80.8418],[33.52739,-21.40009,87.3124],[33.56739,-21.39595,83.2994],[33.74087,-21.40324,72.224],[33.79709,-21.39409,79.005],[33.822,-21.39337,62.3167],[33.84329,-21.39916,59.9865],[33.85228,-21.41502,76.8174],[33.85755,-21.42055,68.4235],[33.86882,-21.41859,56.9851],[33.87951,-21.41394,54.5663],[33.88298,-21.4113,56.3111],[33.89016,-21.40831,54.632],[33.89409,-21.40102,61.0526],[33.89672,-21.39198,73.5133],[33.90008,-21.38402,73.152],[33.92799,-21.34691,51.3666],[33.94845,-21.32526,49.9942],[33.96556,-21.31575,50.3055],[34.01568,-21.31157,49.0372],[34.02111,-21.24134,118.244],[34.02359,-21.22832,115.3618],[34.0287,-21.21416,110.6639],[34.03335,-21.20982,109.577],[34.04839,-21.20206,104.5068],[34.05211,-21.19855,107.0338],[34.05397,-21.19292,104.1686],[34.05444,-21.18553,101.027],[34.05242,-21.17431,101.1394],[34.05211,-21.16506,101.4137],[34.05366,-21.15607,102.728],[34.05945,-21.14522,101.4275],[34.06441,-21.13943,102.6059],[34.06999,-21.13571,106.6462],[34.08085,-21.13163,101.133],[34.10084,-21.12191,86.7939],[34.10922,-21.11582,84.7816],[34.11278,-21.1123,84.9079],[34.11588,-21.10832,84.7886],[34.11857,-21.10398,85.3378],[34.12431,-21.08936,84.7588],[34.12539,-21.08326,83.6661],[34.12524,-21.07608,83.4698],[34.12213,-21.0659,81.0871],[34.11764,-21.05939,80.7788],[34.11108,-21.05246,81.0429],[34.01041,-20.97918,73.6379],[34.00028,-20.97608,75.42],[33.91946,-20.96968,79.328],[33.9069,-20.96761,82.8379],[33.89884,-20.96332,84.262],[33.89553,-20.95293,86.1511],[33.89109,-20.74742,88.543],[33.88933,-20.73424,90.8752],[33.88515,-20.72246,97.2684],[33.87429,-20.71403,101.3293],[33.75528,-20.67362,188.2985],[33.74133,-20.66649,200.0119],[33.49086,-20.41979,195.2047],[33.48744,-20.40671,186.5348],[33.48667,-20.39348,183.298],[33.48744,-20.38129,178.9886],[33.48698,-20.37219,174.7795],[33.48543,-20.36579,173.6859],[33.48574,-20.35581,176.618],[33.48884,-20.34201,158.017],[33.50874,-20.29168,132.0281],[33.50967,-20.2861,123.5506],[33.50843,-20.27912,121.1184],[33.50641,-20.27365,116.0103],[33.50093,-20.26414,116.9736],[33.48853,-20.24801,125.0452],[33.48574,-20.24331,126.2897],[33.48279,-20.23163,131.8138],[33.48078,-20.21169,144.6148],[33.47938,-20.20569,139.5447],[33.47737,-20.20068,148.4709],[33.47427,-20.19665,149.9795],[33.4659,-20.19076,153.022],[33.44011,-20.18156,182.0895],[33.43623,-20.1783,176.9343],[33.43344,-20.17407,182.4347],[33.40848,-20.09004,173.2791],[33.4091,-20.08399,166.8518],[33.41267,-20.07826,167.9016],[33.50501,-20.00586,138.1481],[33.50998,-19.99893,138.3356],[33.5199,-19.98984,137.1928],[33.52408,-19.98689,142.3621],[33.52889,-19.98426,143.2486],[33.53401,-19.98204,141.0082],[33.54548,-19.97847,143.9464],[33.55571,-19.97403,140.8517],[33.56026,-19.97134,137.9626],[33.57064,-19.96059,125.9234],[33.57483,-19.95749,133.5455],[33.57964,-19.95496,130.2658],[33.59111,-19.95175,133.2855],[33.59777,-19.95124,133.5415],[33.6172,-19.9516,130.0732],[33.62325,-19.95062,130.3363],[33.62883,-19.94881,125.1494],[33.65193,-19.93548,132.0845],[33.65705,-19.93382,133.2538],[33.66232,-19.93367,133.016],[33.66712,-19.93532,125.0604],[33.67074,-19.93868,132.4864],[33.67353,-19.94302,135.6081],[33.67803,-19.96059,133.1252],[33.68051,-19.96524,138.4504],[33.68485,-19.96793,138.1568],[33.69477,-19.97201,123.9938],[33.69927,-19.97444,109.2283],[33.70717,-19.98069,113.7818],[33.72624,-20.00043,107.1293],[33.72738,-20.00126,105.0158],[33.72986,-20.0026,96.5067],[33.73435,-20.00353,105.3701],[33.74598,-20.00384,83.738],[33.75001,-20.00431,101.592],[33.75296,-20.00219,84.7901],[33.77916,-19.95966,44.157],[33.7804,-19.95857,46.6852],[33.78247,-19.95733,47.7236],[33.79611,-19.9517,64.3759],[33.8206,-19.94741,83.2244],[33.82727,-19.94504,70.4219],[33.83037,-19.94323,69.8052],[33.83223,-19.94193,66.1572],[33.84344,-19.93191,72.5914],[33.84902,-19.92834,113.2437],[33.85662,-19.92447,89.3268],[33.88964,-19.91253,90.4279],[33.89807,-19.90659,102.834],[33.90132,-19.90375,91.2353],[33.90458,-19.89961,82.3064],[33.91248,-19.88442,54.3028],[33.91651,-19.87868,52.3193],[33.92132,-19.87408,46.6834],[33.94618,-19.86039,35.9628],[33.94928,-19.85791,31.99],[33.95486,-19.85073,35.8814],[33.95641,-19.8498,35.3884],[33.95889,-19.84933,34.7036],[33.97145,-19.84887,33.2289],[33.98183,-19.84716,30.1431],[33.99889,-19.84049,37.5617],[34.00292,-19.83817,33.9352],[34.00044,-19.83672,36.3626],[33.98416,-19.8299,34.3184],[33.98059,-19.82747,36.3408],[33.97827,-19.8253,36.9543],[33.96959,-19.81559,40.0546],[33.96524,-19.81218,34.1428],[33.96059,-19.8098,41.1741],[33.95532,-19.80825,42.9334],[33.94318,-19.8084,49.1973],[33.93713,-19.80783,45.0309],[33.93186,-19.80592,47.9032],[33.92737,-19.80272,50.4822],[33.92411,-19.79895,47.5123],[33.91729,-19.78494,47.1016],[33.91372,-19.78163,38.2469],[33.90907,-19.77915,48.1864],[33.90334,-19.77781,54.5616],[33.88189,-19.77812,53.2986],[33.87507,-19.7776,53.4917],[33.87367,-19.76732,69.9298],[33.87321,-19.74794,93.2844],[33.87926,-19.69962,125.9631],[33.87941,-19.67942,126.7546],[33.87817,-19.66665,131.3287],[33.85352,-19.62888,151.4919],[33.8512,-19.62371,156.5296],[33.84949,-19.61844,149.9378],[33.84701,-19.60738,168.6901],[33.84809,-19.60087,173.1724],[33.8512,-19.59462,176.5664],[33.86127,-19.58821,180.719],[33.86964,-19.58557,171.0183],[33.88034,-19.58423,171.0357],[33.90597,-19.58356,158.528],[33.91775,-19.58082,168.0825],[33.92458,-19.57493,172.3905],[33.9269,-19.55834,187.0315],[33.92721,-19.30828,154.3688],[34.02762,-18.95445,232.4563],[34.03304,-18.92226,100.6259],[34.02534,-18.92319,119.1118],[34.0132,-18.91884,215.1972],[34.00385,-18.90934,300.4641],[33.99827,-18.89952,276.4662],[33.99175,-18.89068,336.1984],[33.97982,-18.88412,303.8358],[33.95594,-18.88009,239.5713],[33.94618,-18.87611,255.7891],[33.93708,-18.86593,253.4948],[33.93197,-18.85461,289.3455],[33.92514,-18.83172,313.4981],[33.91884,-18.82097,258.1299],[33.90938,-18.81265,274.4864],[33.89936,-18.80867,280.9427],[33.88866,-18.80598,320.297],[33.87719,-18.80164,339.6133],[33.86701,-18.79317,317.2622],[33.86215,-18.78309,294.426],[33.85833,-18.77239,345.3655],[33.85151,-18.7617,356.7089],[33.84148,-18.75467,345.748],[33.80587,-18.74413,285.1239],[33.77136,-18.7234,319.0845],[33.75725,-18.7201,354.0679],[33.72521,-18.71813,361.8755],[33.71415,-18.69426,383.3274],[33.71554,-18.68217,374.7448],[33.72562,-18.64667,430.9747],[33.73094,-18.63592,418.2168],[33.74536,-18.61845,438.3657],[33.77528,-18.58936,462.8597],[33.79161,-18.5644,478.687],[33.79688,-18.55799,478.5826],[33.80184,-18.55318,502.9436],[33.81053,-18.5476,501.6085],[33.82091,-18.5367,466.2194],[33.82866,-18.52543,438.1412],[33.83476,-18.52161,441.6563],[33.84045,-18.52001,422.256],[33.84577,-18.51939,414.8534],[33.85104,-18.51598,426.8997],[33.86794,-18.49417,412.8247],[33.8715,-18.48771,427.4615],[33.87166,-18.47794,448.2456],[33.8698,-18.47179,439.1836],[33.86716,-18.46631,426.3222],[33.86127,-18.45794,437.7834],[33.85879,-18.45314,450.2947],[33.85709,-18.44766,437.0694],[33.85476,-18.43541,435.5502],[33.85244,-18.43076,448.9986],[33.84747,-18.42906,461.9858],[33.83735,-18.42735,473.5567],[33.83507,-18.42358,452.3696],[33.83456,-18.41841,441.9463],[33.83538,-18.41298,457.023],[33.84561,-18.38275,467.4852],[33.84747,-18.37149,460.8386],[33.84763,-18.36544,482.8029],[33.84701,-18.35929,486.4221],[33.8453,-18.35381,501.3121],[33.84112,-18.34379,482.7195],[33.8175,-18.30281,497.1059],[33.81533,-18.29785,475.2986],[33.81456,-18.29227,478.4272],[33.81611,-18.28576,495.2163],[33.84391,-18.25728,516.2354],[33.85538,-18.24106,548.555],[33.85879,-18.23744,538.2203],[33.87507,-18.22514,552.1348],[33.899,-18.21274,525.1663],[33.91155,-18.20369,504.5338],[33.92225,-18.19336,510.3391],[33.92535,-18.1883,512.9285],[33.92799,-18.18189,528.4766],[33.93419,-18.15052,486.0553],[33.94054,-18.13688,464.3231],[33.95155,-18.13832,464.3143],[33.95734,-18.14013,453.2742],[33.98695,-18.14463,443.8752],[33.99656,-18.14773,452.9456],[33.99966,-18.14959,448.4303],[34.00219,-18.15155,448.1027],[34.01599,-18.16447,415.0895],[34.01925,-18.16835,410.8884],[34.02932,-18.18685,413.4453],[34.03289,-18.19786,398.623],[34.03506,-18.21041,412.4932],[34.03677,-18.21584,401.4489],[34.03925,-18.22049,405.0448],[34.04607,-18.22772,403.6716],[34.0501,-18.23093,396.0193],[34.06297,-18.23883,400.925],[34.06705,-18.24194,402.9312],[34.07681,-18.25175,400.7525],[34.09077,-18.26023,397.3952],[34.10084,-18.2641,444.5276],[34.11108,-18.267,378.88],[34.11609,-18.26767,359.9304],[34.12368,-18.26612,339.897],[34.12694,-18.26457,326.3085],[34.12849,-18.26395,326.3085],[34.13051,-18.26255,340.21],[34.16105,-18.2223,346.171],[34.1719,-18.21367,357.0304],[34.18513,-18.21176,377.6725],[34.2273,-18.21734,327.3925],[34.24347,-18.20204,320.4108],[34.25634,-18.17098,295.774],[34.28021,-18.0835,233.6105],[34.28476,-18.04324,351.6248],[34.28507,-18.01513,358.5323],[34.27897,-18.00133,402.9825],[34.27851,-17.99844,433.7843],[34.28393,-17.95487,347.9908],[34.28192,-17.94459,297.5155],[34.27835,-17.93823,275.2076],[34.27045,-17.93343,270.5786],[34.26549,-17.92893,289.4829],[34.25293,-17.91451,313.6217],[34.25014,-17.91002,314.5115],[34.24642,-17.90583,320.989],[34.24084,-17.90149,336.6211],[34.15826,-17.87152,413.1534],[34.14864,-17.86423,419.3948],[34.14616,-17.85292,449.1892],[34.14647,-17.83994,419.5973],[34.15996,-17.74295,426.7125],[34.1581,-17.72925,434.6682],[34.12896,-17.6228,438.3635],[34.12787,-17.60864,454.6352],[34.1302,-17.59588,461.6415],[34.17056,-17.5027,368.3575],[34.17428,-17.48942,350.1609],[34.17407,-17.43713,333.4667],[34.18187,-17.38674,370.0023],[34.19614,-17.34442,301.413],[34.21412,-17.3067,284.621],[34.22172,-17.28566,267.8238],[34.22435,-17.26696,245.3341],[34.22094,-17.21042,226.3263],[34.22141,-17.2036,223.8358],[34.22249,-17.19678,221.9547],[34.22482,-17.18908,233.6577],[34.28414,-17.0709,318.1778],[34.2905,-17.06314,310.982],[34.30615,-17.05178,298.3094],[34.33608,-17.03617,269.8],[34.3445,-17.03307,258.1578],[34.39462,-17.02087,230.328],[34.46785,-16.98775,209.7296],[34.47436,-16.9833,205.9341],[34.49467,-16.96656,183.3545],[34.50599,-16.95509,178.8309],[34.51751,-16.93762,161.6156],[34.53642,-16.89664,141.7964],[34.59616,-16.83024,72.5],[34.40796,-16.73117,83.6361],[34.3538,-16.71459,87.1123],[34.28734,-16.70239,87.8235],[34.22032,-16.69888,92.7619],[34.20259,-16.69237,95.8169],[34.18668,-16.68219,94.4925],[34.13598,-16.64084,95.3119],[34.12818,-16.63666,131.2378],[34.11764,-16.63335,136.2264],[34.09583,-16.62917,153.8556],[34.08534,-16.6255,117.9903],[34.06911,-16.62395,194.6882],[34.03361,-16.63263,181.8095]]]}
,"properties": {"ISO3166-1-Alpha-3": "MOZ","country": "Mozambique","fill": "#00F","name": "Manica","area_km2": 63938.4,"hist_schema_id": "Elevation0-9000","hist_area_km2": {"25": 14.12,"50": 145.77,"75": 965.76,"100": 1935.49,"125": 2061.64,"150": 2915.82,"175": 2811.71,"200": 2576.32,"225": 2407.13,"250": 2393.73,"275": 2331.44,"300": 2135.71,"325": 1965.07,"350": 1854.14,"375": 1849.56,"400": 1822.51,"425": 1803.5,"450": 1845.04,"475": 2187.18,"500": 2605.69,"525": 2848.4,"550": 2933.44,"575": 2804.57,"600": 2487.66,"625": 2184.61,"650": 1971.42,"675": 1708.08,"700": 1317.53,"725": 994.55,"750": 755.96,"775": 577.88,"800": 484.28,"825": 369.54,"850": 317.16,"875": 275.8,"900": 247.84,"925": 216.04,"950": 191.28,"975": 173.69,"1000": 158.67,"1025": 149.27,"1050": 135.45,"1075": 123.99,"1100": 117.34,"1125": 113.45,"1150": 111.78,"1175": 104.48,"1200": 94.64,"1225": 86.96,"1250": 81.29,"1275": 78.82,"1300": 79.96,"1325": 79.07,"1350": 76.7,"1375": 74.7,"1400": 73.9,"1425": 69.75,"1450": 65.29,"1475": 56.63,"1500": 52.48,"1525": 45.53,"1550": 40.67,"1575": 37.54,"1600": 32.34,"1625": 32.16,"1650": 28.98,"1675": 26.34,"1700": 23.1,"1725": 22.42,"1750": 21.1,"1775": 21.53,"1800": 17.29,"1825": 14.56,"1850": 10.99,"1875": 10.78,"1900": 8.97,"1925": 8.29,"1950": 7.05,"1975": 6.91,"2000": 8.09,"2025": 6.67,"2050": 6.29,"2075": 5.71,"2100": 5.31,"2125": 3.9,"2150": 3.78,"2175": 3.7,"2200": 2.0,"2225": 1.92,"2250": 1.28}}}