{"type":"Feature","properties":{"GID_3":"MOZ.4.3.5_1","GID_0":"MOZ","country":"Mozambique","GID_1":"MOZ.4_1","province":"Manica","NL_NAME_1":"NA","GID_2":"MOZ.4.3_1","county":"Guro","NL_NAME_2":"NA","city":"Nhamassonge","VARNAME_3":"NA","NL_NAME_3":"NA","TYPE_3":"Localidad","ENGTYPE_3":"Locality","CC_3":"NA","HASC_3":"NA","name":"Nhamassonge.city"},
"geometry":{"type": "MultiPolygon","coordinates": [[[[33.4363,-16.5939,170.1512],[33.4203,-16.6118,189.9913],[33.3963,-16.6342,196.1637],[33.3934,-16.6399,196.3484],[33.3926,-16.6552,194.4903],[33.3887,-16.6624,195.1719],[33.3812,-16.6667,183.9555],[33.3751,-16.6813,187.2828],[33.3685,-16.6897,196.0482],[33.3599,-16.694,200.4674],[33.3355,-16.7002,194.8021],[33.3268,-16.7124,194.875],[33.3139,-16.7394,202.8731],[33.3224,-16.7446,214.0812],[33.333,-16.7631,238.0053],[33.332,-16.7714,241.2983],[33.3372,-16.7732,237.9355],[33.3422,-16.7793,255.9743],[33.3489,-16.782,256.8519],[33.3527,-16.7869,257.484],[33.3561,-16.7975,267.9081],[33.3669,-16.8065,283.2111],[33.3893,-16.8199,317.6149],[33.3962,-16.827,331.0999],[33.4184,-16.8353,376.8718],[33.4443,-16.8394,408.9741],[33.4643,-16.8965,406.585],[33.4683,-16.9023,417.7201],[33.4691,-16.9089,412.5852],[33.4851,-16.9208,430.6551],[33.4946,-16.934,441.5172],[33.5028,-16.937,450.8445],[33.5111,-16.9431,456.2596],[33.5155,-16.95,469.9792],[33.5245,-16.9538,476.8039],[33.5471,-16.9515,504.1056],[33.5806,-16.9382,524.6072],[33.6029,-16.9352,500.9949],[33.6168,-16.931,482.3784],[33.6439,-16.9191,454.679],[33.735,-16.9122,437.1656],[33.7526,-16.8992,409.2635],[33.7672,-16.8818,388.4565],[33.7928,-16.8749,393.262],[33.8047,-16.8522,399.9884],[33.8219,-16.8121,338.6233],[33.8162,-16.8048,319.0908],[33.813,-16.7975,308.9102],[33.8162,-16.7868,296.2276],[33.8166,-16.7756,292.0992],[33.8098,-16.7612,264.8323],[33.8134,-16.7513,265.2438],[33.8204,-16.7432,249.6163],[33.8186,-16.7369,245.8774],[33.8252,-16.7246,243.7697],[33.8269,-16.7129,227.8972],[33.8502,-16.6818,210.5486],[33.8777,-16.658,176.7202],[33.8888,-16.6374,164.0863],[33.8743,-16.6455,173.628],[33.8615,-16.6591,183.0271],[33.8259,-16.653,219.9413],[33.7974,-16.645,255.6079],[33.7779,-16.6434,259.7842],[33.7512,-16.6452,292.6066],[33.7353,-16.6438,310.9526],[33.7184,-16.6344,339.7815],[33.704,-16.6314,356.185],[33.6145,-16.6325,400.9601],[33.6026,-16.6362,410.6817],[33.5895,-16.644,428.734],[33.5639,-16.6633,398.6415],[33.5536,-16.668,376.5388],[33.5267,-16.6791,342.2248],[33.5001,-16.6816,310.0586],[33.4869,-16.6722,289.1626],[33.4681,-16.6533,256.1956],[33.4506,-16.6414,244.8966],[33.4454,-16.6336,221.0558],[33.4363,-16.5939,170.1512]]]]}}