{"type": "Feature","bbox": [40.1174,-11.1974,40.7254,-10.6644],"geometry": {"type": "MultiPolygon","coordinates": [[[[40.6707,-11.1749,0.0],[40.6682,-11.1746,0.0],[40.6671,-11.1768,0.0],[40.6682,-11.1768,0.0],[40.6707,-11.1749,0.0]]],
[[[40.6829,-11.1451,0.0],[40.6757,-11.1451,1.5401],[40.6715,-11.1488,1.6772],[40.671,-11.1535,7.6233],[40.6668,-11.1587,3.7234],[40.6668,-11.1637,4.5863],[40.6604,-11.1743,0.9059],[40.6493,-11.1871,0.0],[40.6579,-11.1832,0.8301],[40.6576,-11.1807,1.8719],[40.6601,-11.1785,0.0],[40.6651,-11.1782,0.0],[40.6671,-11.1729,4.785],[40.676,-11.1724,3.2433],[40.679,-11.1701,0.0],[40.6818,-11.1738,0.0],[40.6899,-11.1674,0.0],[40.6976,-11.1649,0.0],[40.6943,-11.1526,3.1911],[40.6943,-11.1463,0.1428],[40.6865,-11.1465,5.9937],[40.6829,-11.1451,0.0]]],
[[[40.7004,-11.1512,0.8201],[40.7007,-11.149,0.0],[40.6996,-11.1488,0.0],[40.699,-11.1504,0.0],[40.7004,-11.1512,0.8201]]],
[[[40.6982,-11.1385,0.0],[40.6963,-11.1382,0.0],[40.6979,-11.1421,0.0],[40.6988,-11.1415,0.0],[40.6982,-11.1385,0.0]]],
[[[40.5871,-11.176,0.0],[40.5832,-11.1754,0.0],[40.5863,-11.1815,0.0],[40.6012,-11.1879,7.9726],[40.6079,-11.1921,1.3552],[40.6107,-11.1957,3.8378],[40.6154,-11.1974,0.6656],[40.6293,-11.1971,0.0],[40.6354,-11.1932,0.0],[40.6474,-11.1899,0.0],[40.646,-11.189,0.0],[40.631,-11.1926,0.0],[40.6218,-11.1918,4.3173],[40.6126,-11.189,2.7697],[40.5999,-11.181,1.3242],[40.5871,-11.176,0.0]]],
[[[40.601,-11.1335,0.5867],[40.5979,-11.1329,0.0],[40.5968,-11.1343,1.4942],[40.5999,-11.1368,0.0],[40.6037,-11.1371,0.0],[40.6043,-11.1354,1.3636],[40.601,-11.1335,0.5867]]],
[[[40.7071,-10.9976,0.0],[40.7054,-10.9971,0.0],[40.7038,-11.0007,0.0],[40.7004,-11.0004,0.0],[40.7012,-11.0021,0.3441],[40.6993,-11.0018,0.0],[40.6985,-11.0071,1.0853],[40.6954,-11.0115,3.9839],[40.6915,-11.0135,1.11],[40.6888,-11.0124,0.0],[40.6871,-11.0154,0.0],[40.6818,-11.0171,0.0],[40.6771,-11.0212,1.1061],[40.671,-11.0221,2.3994],[40.6632,-11.0268,6.1512],[40.6446,-11.0321,2.8619],[40.6279,-11.0307,1.2165],[40.6143,-11.024,0.0],[40.6035,-11.0235,2.5593],[40.601,-11.0249,5.7087],[40.5968,-11.024,0.0],[40.5965,-11.0254,0.4414],[40.6018,-11.0279,4.8208],[40.6071,-11.0346,0.0],[40.6154,-11.039,0.0],[40.624,-11.0374,0.0],[40.6274,-11.0399,0.0],[40.634,-11.0379,3.2096],[40.636,-11.0393,3.4602],[40.6363,-11.0432,0.0],[40.6454,-11.0432,0.0],[40.6543,-11.036,4.2104],[40.6565,-11.0365,0.0],[40.6615,-11.0343,1.3809],[40.6621,-11.036,0.8057],[40.6638,-11.036,0.8057],[40.6732,-11.0329,3.6239],[40.6874,-11.0312,2.9343],[40.701,-11.0268,0.0],[40.7079,-11.0204,0.0],[40.7107,-11.0207,0.0],[40.7174,-11.0124,0.0],[40.716,-11.0087,0.0],[40.7168,-11.0035,0.0],[40.7154,-11.0007,1.2265],[40.7085,-10.9993,0.0],[40.7071,-10.9976,0.0]]],
[[[40.621,-10.9065,0.0],[40.6196,-10.906,0.0],[40.6196,-10.909,0.4261],[40.6218,-10.9132,1.7922],[40.6215,-10.9171,1.115],[40.6237,-10.919,0.9909],[40.624,-10.9249,0.0],[40.6251,-10.9249,0.0],[40.6307,-10.9157,0.0],[40.6282,-10.9121,0.0],[40.624,-10.9112,0.0],[40.621,-10.9065,0.0]]],
[[[40.7238,-10.999,0.0],[40.7224,-10.9985,0.0],[40.7224,-11.0004,0.0],[40.7243,-11.0018,0.0],[40.7254,-10.9999,0.258],[40.7238,-10.999,0.0]]],
[[[40.6532,-10.8235,0.0],[40.6515,-10.8229,0.0],[40.6535,-10.8254,0.0],[40.6521,-10.8274,0.0],[40.656,-10.8332,2.4816],[40.6543,-10.8343,0.0],[40.6574,-10.8351,0.0],[40.6593,-10.8404,0.0],[40.6601,-10.851,0.0],[40.6624,-10.8518,4.0875],[40.6654,-10.859,2.0728],[40.6615,-10.8601,8.3206],[40.6593,-10.8529,1.6132],[40.6557,-10.849,2.1412],[40.6499,-10.8357,0.0],[40.6476,-10.8332,2.4176],[40.6446,-10.8343,0.0],[40.6437,-10.8354,0.0],[40.6496,-10.8401,0.0],[40.6482,-10.8424,0.0],[40.6499,-10.8437,0.0],[40.6479,-10.8471,0.0],[40.6501,-10.849,0.0],[40.6457,-10.854,0.0],[40.6446,-10.8629,0.0],[40.6463,-10.8676,0.7213],[40.6426,-10.8785,0.0],[40.6437,-10.8804,0.346],[40.6515,-10.8796,0.0],[40.6604,-10.8746,0.0],[40.6635,-10.8724,0.0],[40.6654,-10.8654,1.2897],[40.6679,-10.8651,0.0],[40.6712,-10.8676,0.0],[40.6707,-10.8657,0.0],[40.6671,-10.864,0.0],[40.6704,-10.8601,0.0],[40.6738,-10.859,1.0448],[40.679,-10.8612,0.0],[40.6835,-10.8568,0.0],[40.6835,-10.8471,0.0],[40.6813,-10.8435,0.0],[40.6721,-10.8362,0.0],[40.6674,-10.8365,0.0],[40.6662,-10.834,0.0],[40.6587,-10.8304,0.0],[40.6532,-10.8235,0.0]]],
[[[40.6415,-10.7676,0.0],[40.639,-10.7668,0.0],[40.6321,-10.7707,0.0],[40.6293,-10.7707,0.0],[40.6285,-10.776,0.0],[40.6429,-10.7812,3.7583],[40.6429,-10.7837,0.0],[40.6451,-10.7849,0.0],[40.6482,-10.7901,2.7234],[40.6507,-10.804,0.0],[40.6535,-10.8049,0.0],[40.6546,-10.7954,0.0],[40.6582,-10.796,0.0],[40.6579,-10.7887,5.3985],[40.6613,-10.7754,0.0],[40.6574,-10.7707,0.0],[40.654,-10.7693,0.0],[40.6471,-10.7704,3.0838],[40.6415,-10.7676,0.0]]],
[[[40.4805,-10.8817,26.6611],[40.5098,-10.8539,17.501],[40.5437,-10.8539,8.9148],[40.5876,-10.8676,3.0303],[40.6082,-10.8476,2.8265],[40.6096,-10.8432,1.0428],[40.6046,-10.8457,0.9902],[40.6015,-10.8435,1.1079],[40.6176,-10.8321,3.435],[40.6176,-10.8304,1.5729],[40.6132,-10.8268,0.0],[40.5876,-10.8237,2.234],[40.5713,-10.819,2.9804],[40.564,-10.8132,0.7782],[40.5599,-10.8121,0.9055],[40.5549,-10.8071,1.6411],[40.5499,-10.8051,2.5692],[40.5479,-10.8024,0.0],[40.5457,-10.8026,0.5995],[40.5265,-10.7893,0.0],[40.5187,-10.7865,2.5431],[40.5171,-10.7837,0.0],[40.5088,-10.7818,2.5488],[40.5043,-10.7782,0.0],[40.501,-10.7779,0.9795],[40.4987,-10.7754,0.9739],[40.4938,-10.7738,1.9566],[40.4912,-10.7693,0.0],[40.4901,-10.7696,0.0],[40.4896,-10.7757,0.9205],[40.4921,-10.781,2.0169],[40.4921,-10.789,4.6114],[40.4813,-10.7982,1.6409],[40.4899,-10.7874,0.5],[40.4896,-10.7818,0.0],[40.4879,-10.7812,0.0],[40.4876,-10.7846,1.8714],[40.486,-10.7837,1.9189],[40.4826,-10.7735,2.8458],[40.4843,-10.7704,0.8633],[40.4893,-10.7671,0.0],[40.4893,-10.7651,0.0],[40.4851,-10.7629,0.8942],[40.4854,-10.7576,0.4496],[40.4835,-10.7551,4.7932],[40.4971,-10.7471,0.0],[40.4987,-10.7449,0.0],[40.4985,-10.7399,0.3079],[40.5007,-10.7413,0.0],[40.5007,-10.7393,0.3314],[40.5043,-10.7382,0.3359],[40.5062,-10.7407,0.0],[40.5054,-10.7376,1.3601],[40.5076,-10.7379,1.096],[40.5085,-10.7365,0.0],[40.5126,-10.7387,0.0],[40.5143,-10.7346,0.0],[40.5199,-10.7321,2.215],[40.5365,-10.7182,3.8877],[40.541,-10.7165,0.0],[40.5435,-10.7129,3.7609],[40.5612,-10.6982,3.287],[40.5724,-10.691,5.1605],[40.5793,-10.6885,2.3971],[40.5874,-10.6904,0.5993],[40.589,-10.6962,0.0],[40.6121,-10.6968,0.0],[40.6179,-10.6985,0.0],[40.631,-10.7085,0.0],[40.6335,-10.7085,0.0],[40.6335,-10.7062,0.0],[40.6382,-10.7029,0.0],[40.6401,-10.6971,0.0],[40.6404,-10.691,0.0],[40.6376,-10.686,0.0],[40.5965,-10.6852,8.1194],[40.5887,-10.6823,6.4499],[40.5786,-10.6719,10.0305],[40.5683,-10.6667,10.3555],[40.5447,-10.6687,14.5722],[40.5141,-10.6662,22.1337],[40.5112,-10.6644,26.0297],[40.4011,-10.6676,50.0429],[40.2888,-10.6939,109.8241],[40.1824,-10.6854,14.7252],[40.1903,-10.7031,56.3092],[40.2085,-10.715,47.4995],[40.2105,-10.7244,89.3449],[40.2036,-10.7329,118.9275],[40.1933,-10.7329,74.8775],[40.1702,-10.7387,134.6309],[40.1638,-10.7558,134.225],[40.1325,-10.7836,137.7019],[40.1174,-10.7895,141.3871],[40.1293,-10.8527,137.0125],[40.1386,-10.879,139.5774],[40.1356,-10.8939,136.9641],[40.1356,-10.9047,133.7304],[40.1601,-10.8719,133.8098],[40.1684,-10.8557,144.034],[40.2206,-10.8728,136.1435],[40.2535,-10.8683,131.1582],[40.2871,-10.8556,105.5463],[40.313,-10.8835,110.8108],[40.3451,-10.8889,96.6015],[40.4247,-10.8871,54.3193],[40.4485,-10.8755,45.6072],[40.4805,-10.8817,26.6611]]],
[[[40.6376,-10.6654,0.0],[40.6365,-10.6649,0.0],[40.6393,-10.6699,0.0],[40.6387,-10.676,0.0],[40.6504,-10.6974,0.0],[40.6504,-10.7057,0.0],[40.6518,-10.706,0.0],[40.651,-10.6932,0.0],[40.6463,-10.6876,0.0],[40.6454,-10.6829,0.0],[40.6404,-10.6737,0.0],[40.6407,-10.6696,0.0],[40.6376,-10.6654,0.0]]]]}
,"properties": {"GID_3": "MOZ.1.13.2_1","GID_0": "MOZ","country": "Mozambique","GID_1": "MOZ.1_1","province": "CaboDelgado","NL_NAME_1": "NA","GID_2": "MOZ.1.13_1","county": "Palma","NL_NAME_2": "NA","city": "Palma","VARNAME_3": "NA","NL_NAME_3": "NA","TYPE_3": "Localidad","ENGTYPE_3": "Locality","CC_3": "NA","HASC_3": "NA","name": "Palma.city","area_km2": 1004.8943,"hist_schema_id": "Elevation0-9000","hist_area_km2": {"0": 156.7642,"25": 104.8286,"50": 139.6947,"75": 112.7474,"100": 185.0127,"125": 243.7693,"150": 62.0773}}}