{"type": "Feature","bbox": [31.1239,-16.42,32.0901,-15.6502],"geometry": {"type": "MultiPolygon","coordinates": [[[[32.0391,-16.057,434.2667],[32.0333,-16.0551,445.9652],[32.0293,-16.0487,444.7658],[32.0077,-16.0549,453.2427],[31.9999,-16.055,453.2456],[31.9786,-16.0593,467.384],[31.9653,-16.0563,475.3849],[31.9573,-16.046,490.6952],[31.9466,-16.0381,507.2918],[31.9366,-16.0203,622.8152],[31.9003,-16.0019,711.8326],[31.8154,-15.951599999999999,735.0072],[31.7536,-15.9817,737.9492],[31.7445,-15.982,563.5526],[31.7165,-15.972,491.6082],[31.7106,-15.9666,483.814],[31.6968,-15.9633,469.5637],[31.6874,-15.959,459.7786],[31.6749,-15.9434,444.4335],[31.6703,-15.9411,439.7031],[31.641,-15.938,419.0187],[31.6191,-15.9102,392.4523],[31.6152,-15.8895,380.5688],[31.6084,-15.8767,374.8621],[31.6062,-15.8653,368.201],[31.6214,-15.8374,353.0236],[31.6153,-15.8312,350.3762],[31.6198,-15.8254,346.8932],[31.6115,-15.7993,333.5447],[31.6045,-15.7937,331.54],[31.6088,-15.7841,327.0623],[31.6093,-15.7766,321.0],[31.5975,-15.747,321.0],[31.6332,-15.6884,321.0],[31.6072,-15.6792,321.0],[31.5837,-15.6681,321.0],[31.5542,-15.6587,321.0],[31.5293,-15.6555,321.0],[31.5043,-15.6558,321.0],[31.4817,-15.6585,321.0],[31.4287,-15.6572,321.0],[31.384,-15.6502,321.0],[31.3633,-15.6535,321.0],[31.3313,-15.6653,321.0],[31.296,-15.6898,321.0],[31.2735,-15.7002,321.0],[31.233,-15.7151,321.0],[31.231,-15.7424,321.0],[31.225,-15.7689,321.0],[31.2135,-15.7847,321.0],[31.1803,-15.8194,321.0],[31.1684,-15.8379,321.0],[31.159,-15.8544,321.0],[31.1352,-15.9078,321.0],[31.1279,-15.926,321.0],[31.1242,-15.9429,321.0],[31.1239,-15.9545,325.2278],[31.1351,-15.9604,328.5266],[31.1341,-15.977,329.2178],[31.1355,-15.984,328.9185],[31.1405,-15.9823,328.8154],[31.1514,-15.9886,330.0711],[31.1783,-15.9904,335.8111],[31.1845,-16.0,337.5959],[31.1899,-16.0042,338.3509],[31.202,-16.0046,339.9513],[31.2154,-16.0076,341.4751],[31.2447,-16.0,352.7813],[31.247,-16.0014,350.501],[31.2469,-16.0085,348.1954],[31.2497,-16.0097,345.7329],[31.2678,-16.0098,347.7337],[31.2835,-16.0199,355.5844],[31.3073,-16.0272,356.6872],[31.3171,-16.0367,359.4773],[31.3389,-16.0531,364.1334],[31.3418,-16.0685,368.4396],[31.3487,-16.0801,371.1117],[31.364,-16.0911,379.0704],[31.3733,-16.1032,379.1048],[31.3873,-16.1156,385.4083],[31.3943,-16.1267,386.1796],[31.4045,-16.1371,386.7683],[31.4205,-16.1324,389.4257],[31.4266,-16.1352,390.0464],[31.4306,-16.1415,390.4087],[31.4278,-16.1508,391.6304],[31.4306,-16.1564,394.1967],[31.4463,-16.1534,397.8502],[31.456,-16.1542,404.5988],[31.4659,-16.159,398.7041],[31.4814,-16.1569,402.9149],[31.4993,-16.1707,406.5952],[31.5451,-16.1842,419.0314],[31.588,-16.1913,429.7844],[31.6182,-16.1901,436.3335],[31.6352,-16.1972,443.1061],[31.6917,-16.2017,454.6914],[31.7028,-16.2066,458.8598],[31.7331,-16.2284,479.8511],[31.758,-16.237,479.8477],[31.7708,-16.2367,483.9012],[31.7857,-16.2564,495.2501],[31.7907,-16.2583,494.2769],[31.7978,-16.2579,495.8129],[31.8032,-16.2702,500.2104],[31.8161,-16.2774,506.9886],[31.8182,-16.2821,507.7873],[31.8149,-16.2949,514.2765],[31.8254,-16.2943,513.5977],[31.8298,-16.2994,516.0151],[31.8307,-16.3084,520.6358],[31.834,-16.3111,522.2415],[31.8359,-16.3126,523.2936],[31.84,-16.3076,524.3238],[31.8485,-16.3095,525.9889],[31.8519,-16.3178,531.8081],[31.8579,-16.319,532.4003],[31.8628,-16.3241,535.1646],[31.8728,-16.3259,540.1868],[31.8834,-16.3329,545.3984],[31.8938,-16.3365,551.7061],[31.9022,-16.3476,562.9808],[31.9055,-16.3676,577.88],[31.9111,-16.3732,579.4827],[31.9073,-16.3977,604.4067],[31.9135,-16.4129,625.8593],[31.9437,-16.42,632.681],[31.956,-16.3993,601.0316],[31.9619,-16.3965,596.979],[31.9851,-16.3912,580.6606],[31.9897,-16.387,579.6552],[32.0026,-16.368,570.038],[32.0222,-16.3772,553.4346],[32.0247,-16.374,556.9602],[32.0359,-16.3737,547.7361],[32.0468,-16.3696,543.5076],[32.0533,-16.3711,534.7932],[32.0604,-16.3647,534.6554],[32.0663,-16.3647,531.1784],[32.0694,-16.3593,534.8004],[32.0726,-16.3608,527.0786],[32.0901,-16.3579,530.5801],[32.0875,-16.3538,535.6453],[32.0864,-16.3454,538.8427],[32.0627,-16.3313,583.7389],[32.052,-16.3078,590.8663],[32.0293,-16.3036,596.2788],[32.0262,-16.3011,607.8936],[32.0196,-16.2883,611.0115],[32.0142,-16.2876,619.5007],[32.0044,-16.2902,628.3527],[32.0028,-16.2875,627.4355],[32.0044,-16.2778,645.4804],[32.0024,-16.2741,639.4223],[32.0037,-16.2661,645.1078],[32.0014,-16.2625,640.9747],[32.0078,-16.2598,641.9987],[32.0046,-16.247,662.0031],[32.0046,-16.2388,687.5609],[32.007,-16.2305,680.2965],[32.0112,-16.2252,689.5072],[32.0156,-16.211,725.3524],[32.0257,-16.196,737.1354],[32.0033,-16.1898,733.5316],[31.9883,-16.1909,703.814],[31.9755,-16.1855,663.3384],[31.9254,-16.1781,560.5612],[31.9205,-16.1745,548.9408],[31.9188,-16.1675,539.7837],[31.9215,-16.1597,534.3159],[31.9276,-16.155,528.3244],[31.9282,-16.1087,493.8392],[31.9292,-16.0997,487.2903],[31.937,-16.095,485.1247],[31.9339,-16.0905,488.5249],[31.9515,-16.0927,479.7532],[31.9556,-16.0901,476.7985],[31.9586,-16.0821,476.2085],[31.9627,-16.0787,472.3745],[31.967,-16.0803,471.0914],[31.9679,-16.0863,472.3804],[31.9737,-16.0894,469.0236],[31.9808,-16.0815,464.4116],[31.9914,-16.0796,461.2077],[31.9977,-16.0824,458.9021],[32.0011,-16.0754,463.214],[32.0051,-16.0827,459.5875],[32.0143,-16.0728,468.0497],[32.0334,-16.0753,554.9889],[32.0379,-16.0728,444.657],[32.0399,-16.0686,438.0099],[32.0371,-16.0593,434.9037],[32.0391,-16.057,434.2667]]]]}
,"properties": {"GID_3": "MOZ.10.7.3_1","GID_0": "MOZ","country": "Mozambique","GID_1": "MOZ.10_1","province": "Tete","NL_NAME_1": "NA","GID_2": "MOZ.10.7_1","county": "Magoe","NL_NAME_2": "NA","city": "Mukumbura","VARNAME_3": "NA","NL_NAME_3": "NA","TYPE_3": "Localidad","ENGTYPE_3": "Locality","CC_3": "NA","HASC_3": "NA","name": "Mukumbura.city","area_km2": 3639.294,"hist_schema_id": "Elevation0-9000","hist_area_km2": {"325": 484.281,"350": 395.004,"375": 398.082,"400": 383.094,"425": 281.401,"450": 272.42,"475": 274.054,"500": 239.672,"525": 259.371,"550": 173.657,"575": 111.575,"600": 98.091,"625": 79.579,"650": 65.541,"675": 37.864,"700": 20.912,"725": 50.474,"750": 14.222}}}