{"type":"Feature","properties":{"GID_3":"MOZ.2.1.5_1","GID_0":"MOZ","country":"Mozambique","GID_1":"MOZ.2_1","province":"Gaza","NL_NAME_1":"NA","GID_2":"MOZ.2.1_1","county":"Bilene","NL_NAME_2":"NA","city":"Messano","VARNAME_3":"NA","NL_NAME_3":"NA","TYPE_3":"Localidad","ENGTYPE_3":"Locality","CC_3":"NA","HASC_3":"NA","name":"Messano.city"},
"geometry":{"type": "MultiPolygon","coordinates": [[[[33.0953,-24.9797,87.6211],[33.0779,-24.9131,46.8284],[33.0967,-24.9024,43.9148],[33.0852,-24.886,37.5766],[33.0462,-24.8815,18.8421],[33.0367,-24.8771,25.1102],[33.0087,-24.8704,23.7625],[32.9985,-24.8623,22.6543],[32.9093,-24.8532,21.0974],[32.9089,-24.858,17.7793],[32.9054,-24.8661,17.8164],[32.9058,-24.8681,16.6963],[32.9126,-24.8721,17.0184],[32.9099,-24.8759,17.65],[32.9155,-24.8827,16.7818],[32.9155,-24.89,16.1191],[32.9247,-24.8977,15.7851],[32.9375,-24.8982,15.3274],[32.9401,-24.903199999999998,14.3616],[32.9393,-24.9086,13.9519],[32.9405,-24.9123,14.4955],[32.9381,-24.9156,14.2359],[32.9319,-24.9157,14.5351],[32.9189,-24.9257,12.5502],[32.9139,-24.926,15.5354],[32.9145,-24.9296,11.9033],[32.9125,-24.934,12.4478],[32.9029,-24.943,11.2867],[32.9034,-24.9561,12.0329],[32.9018,-24.9609,11.0],[32.9053,-24.9666,11.0],[32.9117,-24.9708,15.6315],[32.9199,-24.9716,13.6971],[32.9232,-24.974,13.977],[32.9217,-24.979,11.0],[32.9186,-24.9828,14.466],[32.9208,-25.0112,10.5],[32.915,-25.033,10.5],[32.915,-25.0388,10.5],[32.9244,-25.0529,10.5],[32.9232,-25.0623,12.0501],[32.9254,-25.0696,11.3828],[32.9355,-25.0699,11.0375],[32.9468,-25.0763,10.2765],[32.9552,-25.0788,12.735],[32.9991,-25.086,11.2769],[32.9958,-25.0949,10.2316],[33.0134,-25.0906,10.7374],[33.0528,-25.0712,21.0327],[33.061,-25.0648,21.7338],[33.0694,-25.0543,23.6714],[33.058,-25.0398,74.6203],[33.0576,-25.0346,76.7726],[33.0574,-25.0302,80.0526],[33.0661,-25.0114,97.297],[33.0807,-24.9892,77.904],[33.0868,-24.9829,81.0973],[33.0953,-24.9797,87.6211]]]]}}