{"type": "Feature","bbox": [34.5081,-22.7912,35.5435,-21.8053],"geometry": {"type": "MultiPolygon","coordinates": [[[[34.8525,-22.044,110.3257],[34.6361,-22.0392,163.2076],[34.625,-22.0951,166.2679],[34.546,-22.2025,148.9116],[34.5081,-22.2311,153.2435],[34.5383,-22.3154,147.5689],[34.5246,-22.3304,152.1279],[34.545,-22.3461,153.0221],[34.9237,-22.3465,93.0436],[34.933,-22.3518,93.9922],[34.9378,-22.3568,94.2104],[34.9503,-22.3515,94.0066],[34.9601,-22.3557,92.0452],[34.9989,-22.3584,83.7066],[35.1002,-22.7912,91.029],[35.3359,-22.788,63.6186],[35.3325,-22.7667,60.577],[35.3371,-22.7331,57.2465],[35.3493,-22.7081,62.1072],[35.3592,-22.6942,66.7258],[35.4001,-22.6633,48.2094],[35.4301,-22.6618,52.4741],[35.4456,-22.6574,51.079],[35.4612,-22.6507,12.9901],[35.4705,-22.6451,43.4861],[35.4855,-22.6258,37.8284],[35.4927,-22.6208,37.0254],[35.5015,-22.6179,0.0],[35.5004,-22.5976,2.2863],[35.5021,-22.594,1.7577],[35.5076,-22.5554,0.0],[35.5335,-22.4687,0.0],[35.5388,-22.4299,0.0],[35.5432,-22.3243,0.0],[35.5393,-22.3151,5.7666],[35.5371,-22.299,0.0],[35.5346,-22.2935,0.0],[35.5332,-22.286,2.6467],[35.5335,-22.2704,2.0569],[35.5288,-22.2615,3.9298],[35.5279,-22.2476,8.235],[35.5332,-22.2032,0.0],[35.5435,-22.1601,0.0],[35.5412,-22.1607,1.7561],[35.5393,-22.1738,0.7798],[35.5368,-22.1746,0.5544],[35.5379,-22.1779,0.0],[35.5357,-22.1863,3.3032],[35.5332,-22.1899,6.2063],[35.5304,-22.1904,0.6047],[35.5271,-22.1974,0.9983],[35.5282,-22.2015,4.712],[35.526,-22.2079,2.8968],[35.5274,-22.2118,3.6419],[35.5251,-22.2138,0.6389],[35.5265,-22.2179,3.3632],[35.5262,-22.2304,10.765],[35.5246,-22.2304,1.7946],[35.5232,-22.2354,0.0],[35.524,-22.2404,14.1583],[35.5224,-22.2435,0.0],[35.5249,-22.2546,2.9297],[35.5232,-22.2601,0.0],[35.5254,-22.2629,2.5971],[35.5232,-22.2757,0.0],[35.5243,-22.2807,4.9062],[35.5304,-22.2912,7.6994],[35.5318,-22.299,0.0],[35.5232,-22.3121,0.6979],[35.5201,-22.3118,2.9139],[35.5179,-22.3079,0.0],[35.5213,-22.2949,4.8205],[35.5213,-22.2912,2.3043],[35.519,-22.2879,2.1761],[35.519,-22.2757,10.245],[35.5213,-22.2679,1.6347],[35.516,-22.2582,0.0],[35.5146,-22.2479,0.0],[35.5154,-22.2435,1.6025],[35.5204,-22.2379,1.783],[35.5201,-22.234,1.1047],[35.5221,-22.2313,0.0],[35.5204,-22.2174,1.0081],[35.5182,-22.2132,1.0888],[35.5187,-22.2076,0.0],[35.5163,-22.2021,0.0],[35.5126,-22.1829,1.8773],[35.5026,-22.1593,0.616],[35.4976,-22.1515,0.4772],[35.4976,-22.1462,0.0],[35.494,-22.1354,0.5305],[35.4899,-22.1299,1.4355],[35.4924,-22.1157,2.2328],[35.489,-22.1087,0.0],[35.4893,-22.1057,0.0],[35.484,-22.1004,1.0716],[35.474,-22.0968,17.4286],[35.4624,-22.0971,1.8946],[35.4596,-22.0996,0.0],[35.4588,-22.1068,0.5605],[35.4543,-22.111,0.4441],[35.4546,-22.1146,5.0273],[35.4521,-22.116,0.2738],[35.449,-22.114,0.0994],[35.4496,-22.1174,0.0],[35.4482,-22.119,0.5744],[35.4457,-22.116,0.0],[35.4457,-22.1215,1.6892],[35.4426,-22.1249,0.0],[35.4418,-22.1304,2.0682],[35.4499,-22.146,2.5018],[35.4496,-22.1471,0.2691],[35.4476,-22.1465,0.0],[35.449,-22.1499,0.6197],[35.446,-22.1518,0.8821],[35.4471,-22.1537,0.9848],[35.4454,-22.1551,1.3286],[35.429,-22.1624,0.0],[35.4199,-22.1688,0.8309],[35.416,-22.1743,0.5167],[35.4129,-22.1743,0.0851],[35.4101,-22.1824,0.3639],[35.4179,-22.1846,0.0],[35.4176,-22.1868,0.3398],[35.4129,-22.1871,0.7532],[35.4121,-22.1887,0.919],[35.4126,-22.1929,0.3991],[35.4168,-22.1965,0.0],[35.4171,-22.1987,0.9625],[35.4104,-22.1971,0.0],[35.4063,-22.2001,0.9918],[35.4038,-22.1982,0.4427],[35.4035,-22.2007,1.1757],[35.3999,-22.2029,0.0],[35.3988,-22.2062,0.3177],[35.3985,-22.2149,1.5502],[35.3971,-22.2149,2.1128],[35.3951,-22.209,0.361],[35.3913,-22.2074,0.0],[35.391,-22.2096,1.4389],[35.3887,-22.2099,1.1602],[35.3876,-22.2071,0.4766],[35.3857,-22.2068,0.2903],[35.3846,-22.2093,1.6607],[35.3857,-22.2118,1.3421],[35.384,-22.2115,1.3421],[35.381,-22.2146,1.1046],[35.3807,-22.2176,0.0],[35.3787,-22.2174,0.8785],[35.3757,-22.2249,5.7884],[35.3729,-22.2262,5.329],[35.3749,-22.2199,0.0],[35.3743,-22.2193,0.644],[35.3732,-22.2201,3.9695],[35.3737,-22.2135,0.0],[35.3679,-22.2115,1.9221],[35.3682,-22.2087,0.0],[35.3635,-22.2101,2.2007],[35.3621,-22.2071,0.2786],[35.3585,-22.2082,1.8658],[35.3571,-22.2121,1.6967],[35.3515,-22.2115,1.764],[35.3526,-22.2068,3.3521],[35.3563,-22.206,3.0007],[35.3596,-22.2024,0.0],[35.3593,-22.1987,0.0],[35.3563,-22.2032,1.9151],[35.3499,-22.2068,1.8211],[35.3485,-22.2099,0.8305],[35.3387,-22.2138,0.9069],[35.339,-22.2096,0.0],[35.3363,-22.2074,2.0634],[35.3401,-22.201,0.0],[35.3404,-22.1937,0.0],[35.3379,-22.1929,2.6607],[35.3343,-22.1868,2.94],[35.3299,-22.1846,2.1106],[35.3304,-22.169,2.4191],[35.3338,-22.154,0.4305],[35.3318,-22.1465,1.9248],[35.3349,-22.1387,0.0],[35.3332,-22.1351,0.2284],[35.3326,-22.1301,0.1515],[35.3343,-22.126,2.9396],[35.3349,-22.1049,0.0],[35.3335,-22.1001,1.5801],[35.3343,-22.090699999999998,1.9034],[35.3326,-22.0837,0.0],[35.3285,-22.0765,2.7223],[35.326,-22.0643,10.8072],[35.3238,-22.0479,3.9946],[35.3246,-22.0362,0.0],[35.3232,-22.0349,2.2067],[35.3213,-22.0229,3.891],[35.3254,-21.9976,0.6747],[35.3243,-21.9846,0.0],[35.3226,-21.981,0.0],[35.3213,-21.9835,7.686],[35.3182,-21.9821,1.8604],[35.3124,-21.9735,0.0],[35.3132,-21.9574,0.9292],[35.3207,-21.9407,1.2541],[35.3204,-21.939,0.0],[35.3168,-21.9393,2.7632],[35.316,-21.9335,12.4654],[35.321,-21.9126,2.7749],[35.3196,-21.9076,0.8551],[35.3129,-21.8999,0.2923],[35.3101,-21.8987,6.9115],[35.3082,-21.8915,0.0],[35.3051,-21.8871,7.0098],[35.3013,-21.8685,26.8064],[35.3024,-21.8549,2.4208],[35.2993,-21.8476,0.2429],[35.2976,-21.8479,0.2429],[35.2954,-21.8454,13.801],[35.2929,-21.8349,11.2406],[35.2896,-21.8332,12.6708],[35.2888,-21.8282,0.9368],[35.2851,-21.8218,7.7157],[35.2835,-21.8137,5.9617],[35.2851,-21.8056,20.7459],[35.1608,-21.8053,10.8252],[35.1714,-21.8414,12.0471],[35.1669,-21.8531,12.0785],[35.1566,-21.8591,13.7123],[35.1454,-21.8719,19.5267],[35.1308,-21.8693,13.1584],[35.1274,-21.874,14.9301],[35.1297,-21.8917,14.343],[35.1285,-21.9026,23.8637],[35.1214,-21.9086,14.0822],[35.1023,-21.9077,20.7753],[35.1047,-21.9192,26.7839],[35.0277,-21.9989,56.3882],[34.9607,-22.0465,69.0123],[34.8525,-22.044,110.3257]]],
[[[35.3485,-22.204,2.4915],[35.3471,-22.199,0.0],[35.3451,-22.2001,0.7903],[35.3451,-22.2062,0.4221],[35.3474,-22.2071,1.436],[35.3485,-22.204,2.4915]]],
[[[35.3537,-22.2032,0.3295],[35.3563,-22.201,1.5709],[35.3563,-22.1987,1.0913],[35.3513,-22.2012,2.0553],[35.351,-22.2026,0.2373],[35.3537,-22.2032,0.3295]]],
[[[35.3535,-22.1871,0.0],[35.3482,-22.1865,0.0],[35.3476,-22.1882,0.0],[35.3529,-22.1899,0.0],[35.3535,-22.1871,0.0]]],
[[[35.3476,-22.1818,0.2726],[35.3462,-22.1812,0.0],[35.3424,-22.1843,0.0],[35.3465,-22.1843,1.0324],[35.3476,-22.1818,0.2726]]],
[[[35.3338,-22.1324,0.0],[35.3338,-22.1346,0.2284],[35.3343,-22.1346,0.2284],[35.3346,-22.131,0.0],[35.3338,-22.1324,0.0]]],
[[[35.3593,-22.1921,0.0],[35.3596,-22.1901,0.0],[35.3576,-22.1899,0.0],[35.3563,-22.1937,0.0],[35.3576,-22.194,0.0],[35.3593,-22.1921,0.0]]],
[[[35.4521,-22.1126,0.0768],[35.4521,-22.1107,0.0],[35.4501,-22.111,0.0],[35.4504,-22.1143,0.0676],[35.4521,-22.1126,0.0768]]],
[[[35.4596,-22.0426,0.0],[35.4571,-22.0415,0.0],[35.4588,-22.0443,1.8967],[35.4607,-22.0446,0.0],[35.4596,-22.0426,0.0]]],
[[[35.454,-22.0421,0.0],[35.456,-22.041,0.0],[35.4524,-22.0415,0.5525],[35.4524,-22.0426,0.5525],[35.454,-22.0421,0.0]]],
[[[35.5232,-22.1721,2.6646],[35.5213,-22.1715,1.0573],[35.5185,-22.1743,0.2361],[35.5174,-22.184,0.0],[35.5193,-22.1851,0.0],[35.5254,-22.1815,0.0],[35.5254,-22.1754,1.0338],[35.5232,-22.1721,2.6646]]],
[[[35.5274,-22.1343,1.0569],[35.524,-22.134,0.8929],[35.5196,-22.1393,0.0],[35.5185,-22.1424,0.4231],[35.5193,-22.1557,0.0],[35.5204,-22.1579,0.5754],[35.5301,-22.1612,0.0],[35.529,-22.1543,2.1054],[35.5315,-22.1468,4.1341],[35.5301,-22.1382,0.5775],[35.5274,-22.1343,1.0569]]],
[[[35.5051,-22.1443,0.311],[35.5038,-22.1432,0.311],[35.5038,-22.1468,0.0],[35.506,-22.1476,0.0],[35.5068,-22.1462,0.0],[35.5051,-22.1443,0.311]]],
[[[35.5121,-22.1432,0.0],[35.5115,-22.1424,0.0],[35.5107,-22.1424,0.0],[35.5113,-22.1446,0.0],[35.5121,-22.1432,0.0]]],
[[[35.4996,-22.139,0.0],[35.4968,-22.1382,0.0],[35.4999,-22.1435,0.0],[35.5007,-22.1399,0.4145],[35.4996,-22.139,0.0]]],
[[[35.4632,-21.809,0.6131],[35.4607,-21.8087,0.0],[35.4665,-21.8149,3.9438],[35.4635,-21.8218,3.1007],[35.4635,-21.8265,0.796],[35.4685,-21.814,0.0],[35.4632,-21.809,0.6131]]],
[[[35.4299,-21.9588,0.0],[35.4285,-21.9585,0.0],[35.4257,-21.9646,1.8179],[35.4201,-21.9701,0.9507],[35.4199,-21.9804,0.0],[35.4282,-21.9751,0.0],[35.4299,-21.9718,0.0],[35.4329,-21.9715,0.0],[35.4332,-21.961,2.0025],[35.4346,-21.9604,0.0],[35.4304,-21.9601,0.6325],[35.4299,-21.9588,0.0]]],
[[[35.4499,-21.8446,5.9413],[35.4396,-21.844,0.4754],[35.4376,-21.8474,5.8872],[35.4329,-21.8482,1.1028],[35.4249,-21.8532,0.0],[35.4188,-21.8618,1.2982],[35.4115,-21.864,2.8233],[35.4115,-21.8679,4.3014],[35.4185,-21.8735,0.0],[35.4235,-21.8815,2.9667],[35.4226,-21.8835,0.0],[35.4243,-21.8896,1.7277],[35.4212,-21.8954,4.3126],[35.4263,-21.9054,0.0],[35.4426,-21.9076,11.0636],[35.4451,-21.9093,8.4569],[35.4471,-21.909,3.2132],[35.4499,-21.9026,0.0],[35.4585,-21.8449,0.0],[35.4499,-21.8446,5.9413]]],
[[[35.4624,-21.8324,0.0],[35.4624,-21.8301,0.0],[35.461,-21.8326,1.7055],[35.4596,-21.8318,0.9138],[35.4571,-21.8382,1.1304],[35.4582,-21.8443,1.4623],[35.4613,-21.8376,1.79],[35.4624,-21.8324,0.0]]]]}
,"properties": {"GID_2": "MOZ.3.11_1","GID_0": "MOZ","country": "Mozambique","GID_1": "MOZ.3_1","province": "Inhambane","NL_NAME_1": "NA","county": "Vilanculos","VARNAME_2": "Vilankulo","NL_NAME_2": "NA","TYPE_2": "Distrito","ENGTYPE_2": "District","CC_2": "NA","HASC_2": "MZ.IN.VI","name": "Vilanculos.county","area_km2": 5828.321,"hist_schema_id": "Elevation0-9000","hist_area_km2": {"0": 464.054,"25": 1372.504,"50": 2000.372,"75": 753.917,"100": 372.073,"125": 324.785,"150": 438.357,"175": 102.261}}}