{"type":"Feature","properties":{"GID_3":"MOZ.3.4.1_1","GID_0":"MOZ","country":"Mozambique","GID_1":"MOZ.3_1","province":"Inhambane","NL_NAME_1":"NA","GID_2":"MOZ.3.4_1","county":"Inharrime","NL_NAME_2":"NA","city":"Inharrime-Sede","VARNAME_3":"NA","NL_NAME_3":"NA","TYPE_3":"Localidad","ENGTYPE_3":"Locality","CC_3":"NA","HASC_3":"NA","name":"Inharrime-Sede.city"},
"geometry":{"type": "MultiPolygon","coordinates": [[[[34.9374,-24.2076,53.5191],[34.9069,-24.2026,52.2922],[34.8803,-24.2111,51.25],[34.8626,-24.2371,49.2087],[34.8523,-24.2417,50.7711],[34.8398,-24.2366,48.9425],[34.8272,-24.2344,47.7125],[34.8065,-24.2411,43.9261],[34.7971,-24.2461,48.0032],[34.7756,-24.2474,43.7366],[34.7535,-24.2467,45.2398],[34.7591,-24.3074,81.1348],[34.7988,-24.3235,118.2158],[34.8332,-24.3186,109.4397],[34.8586,-24.3804,112.617],[34.8754,-24.3841,112.9022],[34.883,-24.3879,105.6945],[34.9,-24.3898,105.2142],[34.9124,-24.3873,107.4981],[34.9204,-24.3908,110.3566],[34.9469,-24.4151,65.3039],[34.9637,-24.4151,55.9444],[34.9681,-24.4239,66.2652],[34.9655,-24.4296,70.5129],[34.9689,-24.4443,72.1396],[34.9679,-24.4526,58.1663],[34.9651,-24.4582,40.2826],[34.9565,-24.468,31.4939],[34.9545,-24.4765,18.7647],[34.9546,-24.4892,0.5],[34.9685,-24.4871,0.5],[35.0004,-24.4938,0.5],[35.0168,-24.4916,0.5],[35.032,-24.5013,0.5],[35.09,-24.5501,0.5],[35.1048,-24.5646,0.5],[35.1021,-24.5727,0.5],[35.0934,-24.5848,0.5],[35.1049,-24.6112,10.5646],[35.1121,-24.6079,1.6843],[35.1243,-24.5982,11.3785],[35.1271,-24.5979,4.1366],[35.1307,-24.594,16.9237],[35.1338,-24.5937,0.0],[35.1346,-24.5915,5.8478],[35.1443,-24.5846,4.0741],[35.1465,-24.5846,0.0],[35.1518,-24.5796,0.0],[35.1563,-24.5671,0.0],[35.1654,-24.5554,12.9798],[35.1776,-24.5471,0.0],[35.1862,-24.5379,24.3657],[35.1999,-24.5271,0.0],[35.2026,-24.5221,9.3583],[35.1999,-24.511,0.0],[35.2007,-24.4993,14.8545],[35.2024,-24.4979,0.0],[35.2015,-24.4962,11.2684],[35.2065,-24.4874,35.3787],[35.2215,-24.4707,0.0],[35.2254,-24.4621,27.4995],[35.2624,-24.4282,0.0],[35.2682,-24.4199,14.7095],[35.2762,-24.4126,0.0],[35.276,-24.4104,11.149],[35.2793,-24.4046,0.0],[35.286,-24.3982,0.0],[35.2929,-24.3876,30.4702],[35.2957,-24.3865,0.0],[35.2979,-24.3821,1.0792],[35.306,-24.3749,0.0],[35.3063,-24.3721,2.44],[35.3082,-24.3718,0.0],[35.3143,-24.3638,1.238],[35.3182,-24.3615,0.0],[35.3226,-24.3543,6.3328],[35.3268,-24.3529,0.0],[35.3299,-24.3471,18.6276],[35.3363,-24.341,0.0],[35.3349,-24.3401,0.0],[35.3415,-24.3335,0.0],[35.3413,-24.3315,0.0],[35.3432,-24.3307,0.0],[35.3451,-24.3263,2.1416],[35.3537,-24.3199,0.0],[35.3526,-24.319,6.6122],[35.3535,-24.3171,5.334],[35.3651,-24.3043,15.3467],[35.3649,-24.3029,16.6753],[35.3726,-24.2943,15.7309],[35.3757,-24.2932,0.0],[35.3751,-24.2915,2.006],[35.3887,-24.2774,2.6908],[35.2296,-24.2772,47.09],[35.2117,-24.2778,31.1598],[35.1885,-24.3062,30.7673],[35.1778,-24.3167,35.9423],[35.1682,-24.3245,37.2278],[35.1493,-24.3345,42.4211],[35.1285,-24.352,41.2297],[35.11,-24.3627,58.9839],[35.101,-24.3716,45.0918],[35.0558,-24.3557,138.3595],[35.0444,-24.3631,135.9807],[35.0444,-24.3519,91.8723],[35.0048,-24.3344,59.5],[35.0165,-24.2657,114.864],[35.003,-24.2156,55.6969],[34.9772,-24.2209,54.7009],[34.9592,-24.2207,54.0041],[34.9461,-24.2163,53.5709],[34.9374,-24.2076,53.5191]]]]}}