{"type": "Feature","bbox": [32.7094,-25.6584,32.9732,-25.4729],"geometry": {"type": "MultiPolygon","coordinates": [[[[32.8072,-25.4729,1.6052],[32.7867,-25.4929,1.7266],[32.7822,-25.4995,2.5445],[32.7716,-25.5047,2.1189],[32.7594,-25.5074,2.2975],[32.7627,-25.5168,2.7705],[32.7592,-25.5223,2.7088],[32.7481,-25.5239,16.6018],[32.7445,-25.5329,1.4813],[32.744,-25.5455,1.0],[32.7352,-25.5553,1.8007],[32.7206,-25.5626,1.9423],[32.7117,-25.571,1.8199],[32.7094,-25.5936,1.6822],[32.7214,-25.5982,1.4983],[32.7257,-25.6069,1.5925],[32.7261,-25.635,1.7755],[32.7246,-25.6433,1.4714],[32.7187,-25.6503,2.726],[32.7264,-25.6524,1.6484],[32.7813,-25.6584,0.0],[32.7918,-25.6435,0.0],[32.8126,-25.6065,9.1093],[32.8429,-25.5726,1.7445],[32.9001,-25.5246,1.8128],[32.9099,-25.519,0.0],[32.9157,-25.5135,1.5605],[32.9193,-25.5129,0.0],[32.9238,-25.5076,8.1068],[32.9304,-25.5046,0.0],[32.9301,-25.5032,0.0],[32.9351,-25.501,2.3657],[32.9371,-25.4979,11.6139],[32.9401,-25.4976,0.0],[32.9412,-25.4954,3.5657],[32.9485,-25.4924,0.0],[32.9515,-25.4885,8.1027],[32.9551,-25.4879,0.0],[32.9732,-25.4757,0.0],[32.8072,-25.4729,1.6052]]]]}
,"properties": {"GID_3": "MOZ.6.4.1_1","GID_0": "MOZ","country": "Mozambique","GID_1": "MOZ.6_1","province": "Maputo","NL_NAME_1": "NA","GID_2": "MOZ.6.4_1","county": "Marracuene","NL_NAME_2": "NA","city": "Machubo","VARNAME_3": "NA","NL_NAME_3": "NA","TYPE_3": "Localidad","ENGTYPE_3": "Locality","CC_3": "NA","HASC_3": "NA","name": "Machubo.city","area_km2": 245.4022,"hist_schema_id": "Elevation0-9000","hist_area_km2": {"0": 180.5125,"25": 57.3303,"50": 7.1575,"75": 0.4019}}}