{"type":"Feature","properties":{"GID_3":"MOZ.1.3.5_1","GID_0":"MOZ","country":"Mozambique","GID_1":"MOZ.1_1","province":"CaboDelgado","NL_NAME_1":"NA","GID_2":"MOZ.1.3_1","county":"Chiúre","NL_NAME_2":"NA","city":"Ocua","VARNAME_3":"NA","NL_NAME_3":"NA","TYPE_3":"Localidad","ENGTYPE_3":"Locality","CC_3":"NA","HASC_3":"NA","name":"Ocua.city"},
"geometry":{"type": "MultiPolygon","coordinates": [[[[39.7566,-13.4638,249.9706],[39.7408,-13.4601,263.5676],[39.7277,-13.4635,264.7052],[39.715,-13.4722,281.0382],[39.693,-13.4815,301.9597],[39.6772,-13.4844,324.6277],[39.6443,-13.4943,294.8708],[39.6278,-13.4955,282.2337],[39.5763,-13.5076,302.4839],[39.5605,-13.518,309.9012],[39.5506,-13.5188,312.6825],[39.5378,-13.5236,314.4987],[39.5238,-13.5257,324.566],[39.4907,-13.5359,327.9462],[39.4897,-13.5671,356.8664],[39.4727,-13.5762,366.406],[39.457,-13.5971,327.2142],[39.453,-13.6063,315.0891],[39.4554,-13.6166,303.2953],[39.4999,-13.6527,285.4349],[39.5161,-13.6627,272.8389],[39.526,-13.666,275.1649],[39.5415,-13.674,270.4104],[39.543,-13.6812,268.1303],[39.5491,-13.6891,270.3752],[39.5514,-13.6976,259.6901],[39.565,-13.7134,252.4969],[39.5719,-13.7159,250.1776],[39.5826,-13.7255,239.8521],[39.587,-13.7395,230.3084],[39.6091,-13.7342,228.2519],[39.6312,-13.7314,226.9797],[39.6599,-13.72,225.7477],[39.6697,-13.712,230.9187],[39.6891,-13.7007,222.8581],[39.7058,-13.6936,226.4973],[39.7192,-13.6841,224.0162],[39.7581,-13.6637,214.2458],[39.7686,-13.6623,217.9071],[39.7751,-13.6636,210.4633],[39.8125,-13.6754,198.0571],[39.8423,-13.6737,201.0868],[39.8671,-13.6671,189.9875],[39.8964,-13.6399,191.0081],[39.9097,-13.6312,185.5131],[39.9225,-13.6129,186.1528],[39.9375,-13.584,177.4327],[39.9469,-13.577,176.3279],[39.9725,-13.565,168.6521],[39.9761,-13.561,166.9911],[39.9979,-13.5291,157.6583],[40.0101,-13.5057,154.6111],[40.0331,-13.4978,135.5697],[40.0261,-13.4966,165.6732],[39.9916,-13.4793,207.3636],[39.9697,-13.4732,232.5217],[39.9634,-13.4732,242.2601],[39.9453,-13.4644,257.3595],[39.9231,-13.4855,230.7177],[39.9026,-13.4883,260.025],[39.8615,-13.4901,225.4955],[39.8554,-13.4968,216.2401],[39.8489,-13.4963,214.316],[39.8435,-13.4885,221.0394],[39.8398,-13.4874,223.0591],[39.8333,-13.4928,230.3141],[39.8076,-13.49,226.6449],[39.784,-13.4806,233.1859],[39.7797,-13.4849,241.048],[39.7774,-13.4778,248.4101],[39.7773,-13.4713,250.091],[39.7619,-13.4695,252.5824],[39.7566,-13.4638,249.9706]]]]}}