{"type": "Feature","bbox": [32.4231,-21.2425,33.9623,-20.2905],"geometry": {"type": "MultiPolygon","coordinates": [[[[33.4784,-20.2931,119.053],[33.4753,-20.2917,120.2141],[33.4675,-20.2931,114.7368],[33.4559,-20.2905,129.8128],[33.4477,-20.293,127.1871],[33.4319,-20.3086,128.9948],[33.4232,-20.3147,127.0875],[33.3944,-20.3175,131.7995],[33.3907,-20.3278,136.3408],[33.384,-20.3365,134.0318],[33.3808,-20.3377,127.1839],[33.3572,-20.3388,132.0244],[33.3352,-20.3255,138.2912],[33.3225,-20.3245,137.8904],[33.313,-20.3284,145.1046],[33.299,-20.3204,138.9918],[33.2859,-20.3169,132.7567],[33.277,-20.3214,143.0155],[33.2651,-20.3471,140.8464],[33.2571,-20.3571,148.582],[33.2593,-20.3687,154.188],[33.2647,-20.3758,147.9501],[33.258,-20.3902,153.9467],[33.2498,-20.3999,145.8575],[33.2351,-20.4013,149.7571],[33.2314,-20.4038,141.1652],[33.2295,-20.412,162.8323],[33.2238,-20.4235,156.9806],[33.1904,-20.4574,161.2338],[33.1806,-20.4821,162.3352],[33.1696,-20.4941,153.1192],[33.1584,-20.5036,170.3423],[33.1435,-20.5044,187.202],[33.1355,-20.5068,162.4532],[33.1216,-20.5413,184.9788],[33.1194,-20.555,173.2475],[33.1073,-20.5685,178.5089],[33.0986,-20.5737,173.0412],[33.1001,-20.5792,205.4588],[33.1127,-20.5946,203.0755],[33.1146,-20.6063,200.9523],[33.126,-20.6167,217.5066],[33.1314,-20.6282,223.5942],[33.1373,-20.6544,231.0563],[33.1416,-20.6513,236.0851],[33.1503,-20.6513,241.6122],[33.154,-20.6609,241.6372],[33.1546,-20.6745,246.9698],[33.1603,-20.6868,249.4322],[33.1603,-20.6971,259.8248],[33.1641,-20.708,261.6444],[33.1679,-20.7149,266.9937],[33.1779,-20.7253,272.6155],[33.1879,-20.7403,290.3727],[33.2009,-20.7538,289.7319],[33.2285,-20.7984,325.8169],[33.2349,-20.8096,338.9772],[33.2367,-20.8187,348.2712],[33.2341,-20.8241,348.3027],[33.2257,-20.8277,357.6664],[33.2128,-20.8287,384.7755],[33.1978,-20.8276,389.0966],[33.1768,-20.8185,347.4001],[33.1633,-20.8151,333.6613],[33.111,-20.8178,294.1815],[33.0875,-20.8554,346.9225],[33.0779,-20.8518,344.597],[33.0684,-20.8459,326.7676],[32.9991,-20.875,337.8288],[32.9153,-20.8927,384.758],[32.8494,-20.8825,379.5967],[32.8467,-20.8781,368.3982],[32.8346,-20.8673,357.1357],[32.8239,-20.8633,353.8169],[32.8168,-20.8575,344.3644],[32.8102,-20.8482,334.8829],[32.8009,-20.8395,326.2465],[32.7939,-20.8405,325.2352],[32.7758,-20.8645,358.2647],[32.7718,-20.8732,377.5423],[32.6686,-20.8872,379.3365],[32.6017,-20.9158,444.5204],[32.517,-20.9102,401.7999],[32.5168,-20.9144,400.0584],[32.4811,-20.9926,403.7767],[32.4498,-21.0371,325.1582],[32.4231,-21.0637,343.5121],[32.449,-21.0709,285.298],[32.455,-21.0755,288.9778],[32.4624,-21.0753,267.7085],[32.4621,-21.0792,266.7916],[32.4638,-21.0823,267.0097],[32.4696,-21.0824,261.8405],[32.4679,-21.0939,267.1528],[32.4721,-21.0994,260.5745],[32.4823,-21.1048,252.358],[32.4863,-21.113,246.144],[32.498,-21.1156,233.5722],[32.5028,-21.1207,230.0487],[32.511,-21.123,226.2169],[32.5152,-21.1285,222.8554],[32.5193,-21.1305,223.8441],[32.5517,-21.188,209.4384],[32.563,-21.1874,201.0671],[32.5675,-21.1811,199.8317],[32.5726,-21.1828,206.7976],[32.5796,-21.1805,214.4614],[32.6355,-21.1486,265.5236],[32.6471,-21.1477,257.976],[32.6739,-21.1423,227.9798],[32.6878,-21.1599,212.8678],[32.7137,-21.1571,258.9133],[32.7404,-21.1714,218.1005],[32.7522,-21.1744,206.3816],[32.7683,-21.1767,195.3256],[32.7832,-21.173,207.1431],[32.787,-21.1706,200.8835],[32.8985,-21.1895,255.2398],[32.9173,-21.2053,276.5593],[32.9216,-21.2129,271.5615],[32.9235,-21.2225,261.6017],[32.9434,-21.2223,265.1186],[32.9528,-21.2208,272.4106],[32.9623,-21.212,324.0553],[32.9665,-21.2044,337.6116],[33.0004,-21.1877,338.0747],[33.0096,-21.1794,306.0644],[33.0193,-21.1794,282.2538],[33.0385,-21.1613,265.747],[33.0385,-21.1523,239.6649],[33.0578,-21.1432,216.5542],[33.0674,-21.1523,216.0953],[33.077,-21.1432,211.3262],[33.0867,-21.1432,223.3591],[33.0867,-21.1523,213.7906],[33.0963,-21.1613,205.4049],[33.106,-21.1613,207.4378],[33.106,-21.1703,194.6803],[33.1156,-21.1793,196.5825],[33.1156,-21.1703,198.3967],[33.1252,-21.1793,189.2409],[33.1349,-21.1793,199.1064],[33.1349,-21.1884,189.1283],[33.1638,-21.1883,205.4007],[33.1638,-21.1974,179.9369],[33.1734,-21.1974,181.8234],[33.1831,-21.2064,177.7571],[33.1831,-21.2154,177.6304],[33.1927,-21.2154,174.448],[33.2024,-21.2244,178.1266],[33.1927,-21.2244,175.1113],[33.1927,-21.2335,178.7662],[33.2024,-21.2335,168.1398],[33.2024,-21.2425,182.7036],[33.2217,-21.2425,185.3736],[33.2313,-21.2244,223.2295],[33.2986,-21.1701,215.5023],[33.366,-21.1699,200.4328],[33.3757,-21.179,196.6464],[33.4046,-21.1879,187.286],[33.4239,-21.1879,182.9969],[33.4816,-21.1516,180.455],[33.5105,-21.1605,163.1252],[33.5298,-21.1695,158.6891],[33.5298,-21.1786,151.7216],[33.5491,-21.1785,152.5905],[33.5781,-21.2055,135.5114],[33.607,-21.2054,131.7536],[33.6262,-21.1963,125.7182],[33.6359,-21.1963,122.5915],[33.6649,-21.2232,110.0572],[33.6938,-21.2231,101.2127],[33.7035,-21.2321,98.0879],[33.761,-21.1777,88.3515],[33.7899,-21.1685,87.2934],[33.7995,-21.1594,91.0704],[33.8765,-21.159,76.3283],[33.8957,-21.1409,73.1635],[33.9051,-21.1137,76.4697],[33.9242,-21.0865,72.5905],[33.9338,-21.0774,71.4985],[33.9337,-21.0684,71.1819],[33.9432,-21.0503,70.1644],[33.9528,-21.0412,71.0065],[33.9623,-21.0231,66.2021],[33.9622,-21.0051,73.5901],[33.8967,-21.0021,85.454],[33.9106,-20.8048,72.1318],[33.8675,-20.7608,97.0656],[33.8549,-20.7511,102.969],[33.8463,-20.7381,108.9448],[33.8329,-20.7377,113.144],[33.8197,-20.7397,117.4162],[33.7967,-20.7288,126.0711],[33.7802,-20.7276,131.3302],[33.7529,-20.7194,141.6902],[33.7297,-20.7087,160.1652],[33.7241,-20.7024,170.1387],[33.7178,-20.6446,198.1054],[33.6824,-20.6272,219.1397],[33.6674,-20.6178,232.1126],[33.6577,-20.6043,236.0433],[33.647,-20.5969,241.3049],[33.6487,-20.5819,261.4808],[33.6552,-20.5543,268.4812],[33.6612,-20.5402,259.7737],[33.661,-20.5285,250.5706],[33.6453,-20.5375,264.8774],[33.634,-20.5389,266.6163],[33.6199,-20.5366,269.9075],[33.6087,-20.5417,270.7093],[33.4768,-20.4171,195.7546],[33.4934,-20.3554,165.0304],[33.4958,-20.3532,163.5327],[33.4961,-20.3477,160.1831],[33.4932,-20.3411,161.4745],[33.476,-20.3181,128.7567],[33.4742,-20.3081,124.4008],[33.4784,-20.2931,119.053]]]]}
,"properties": {"GID_3": "MOZ.4.4.1_1","GID_0": "MOZ","country": "Mozambique","GID_1": "MOZ.4_1","province": "Manica","NL_NAME_1": "NA","GID_2": "MOZ.4.4_1","county": "Machaze","NL_NAME_2": "NA","city": "Machaze(ChitobeSede)","VARNAME_3": "NA","NL_NAME_3": "NA","TYPE_3": "Localidad","ENGTYPE_3": "Locality","CC_3": "NA","HASC_3": "NA","name": "Machaze(Chitobe_Sede).city","area_km2": 8200.758,"hist_schema_id": "Elevation0-9000","hist_area_km2": {"75": 156.987,"100": 476.122,"125": 471.623,"150": 509.315,"175": 570.682,"200": 773.223,"225": 1016.471,"250": 1023.93,"275": 926.099,"300": 764.326,"325": 595.851,"350": 443.653,"375": 278.341,"400": 151.931,"425": 38.897,"450": 3.168,"475": 0.139}}}