{"type": "Feature","bbox": [33.7112,-19.5987,33.9882,-19.0852],"geometry": {"type": "MultiPolygon","coordinates": [[[[33.7195,-19.2886,213.3098],[33.7162,-19.2896,214.7782],[33.7112,-19.2994,208.408],[33.7207,-19.315,207.913],[33.728,-19.3234,182.6968],[33.7271,-19.3337,198.1402],[33.719,-19.3392,191.8149],[33.7156,-19.3467,186.4635],[33.7222,-19.3548,188.5364],[33.7219,-19.3636,170.7845],[33.7259,-19.3682,173.2283],[33.7279,-19.3736,179.4737],[33.7371,-19.3742,181.8023],[33.7602,-19.382,165.1232],[33.7613,-19.387,158.2005],[33.7588,-19.399,159.664],[33.7715,-19.4118,154.994],[33.7727,-19.4227,148.7107],[33.7783,-19.4384,168.092],[33.775,-19.4527,154.9616],[33.7667,-19.4745,144.5113],[33.7747,-19.4785,145.6092],[33.7863,-19.4815,141.4901],[33.7912,-19.489,146.423],[33.7873,-19.5066,134.8776],[33.7747,-19.5162,133.9639],[33.7742,-19.5271,126.8929],[33.7834,-19.5231,125.3085],[33.7794,-19.5429,138.5289],[33.7711,-19.5452,131.5779],[33.7655,-19.5437,122.8866],[33.7631,-19.547,122.8986],[33.7627,-19.5522,127.3768],[33.7653,-19.5572,113.5563],[33.7572,-19.5639,103.3054],[33.7463,-19.5806,108.2865],[33.7396,-19.5921,100.6929],[33.7408,-19.5987,108.1946],[33.9363,-19.597,147.6802],[33.9382,-19.2428,179.8384],[33.9882,-19.1136,154.2466],[33.9768,-19.1103,141.5978],[33.9801,-19.1026,145.8575],[33.9793,-19.0986,164.588],[33.9693,-19.1003,174.5297],[33.9719,-19.0932,186.9955],[33.9561,-19.0852,221.567],[33.9481,-19.0965,190.6247],[33.9277,-19.0928,228.8376],[33.9201,-19.0998,252.6965],[33.9082,-19.1048,300.6492],[33.8869,-19.1093,332.6593],[33.8687,-19.1097,382.8451],[33.8625,-19.1327,343.9931],[33.841,-19.1526,295.4474],[33.8275,-19.1609,283.5465],[33.7942,-19.198,364.6516],[33.7876,-19.2136,314.0529],[33.7716,-19.2409,236.3362],[33.7652,-19.2481,214.3504],[33.7326,-19.2621,267.238],[33.7256,-19.267,260.8352],[33.7221,-19.2671,246.0881],[33.7192,-19.28,236.0799],[33.7195,-19.2886,213.3098]]]]}
,"properties": {"GID_3": "MOZ.4.2.4_1","GID_0": "MOZ","country": "Mozambique","GID_1": "MOZ.4_1","province": "Manica","NL_NAME_1": "NA","GID_2": "MOZ.4.2_1","county": "Gondola","NL_NAME_2": "NA","city": "Inchope","VARNAME_3": "NA","NL_NAME_3": "NA","TYPE_3": "Localidad","ENGTYPE_3": "Locality","CC_3": "NA","HASC_3": "NA","name": "Inchope.city","area_km2": 1001.8687,"hist_schema_id": "Elevation0-9000","hist_area_km2": {"100": 2.5968,"125": 28.8062,"150": 153.4184,"175": 244.2741,"200": 257.0219,"225": 148.7797,"250": 80.0414,"275": 43.6709,"300": 22.0686,"325": 11.5564,"350": 6.8099,"375": 2.5438,"400": 0.2804}}}