{"type":"Feature","properties":{"GID_3":"MOZ.11.10.2_1","GID_0":"MOZ","country":"Mozambique","GID_1":"MOZ.11_1","province":"Zambezia","NL_NAME_1":"NA","GID_2":"MOZ.11.10_1","county":"Mocuba","NL_NAME_2":"NA","city":"Mugeba","VARNAME_3":"NA","NL_NAME_3":"NA","TYPE_3":"Localidad","ENGTYPE_3":"Locality","CC_3":"NA","HASC_3":"NA","name":"Mugeba.city"},
"geometry":{"type": "MultiPolygon","coordinates": [[[[37.132,-16.3582,252.2166],[37.1224,-16.3932,238.3688],[37.1182,-16.4019,255.2298],[37.1116,-16.4122,233.1694],[37.0963,-16.427,213.75],[37.0938,-16.438,210.463],[37.0938,-16.447,208.5091],[37.0991,-16.4571,224.1781],[37.1252,-16.4777,212.7517],[37.1338,-16.483,214.8081],[37.1463,-16.4847,201.25],[37.1512,-16.5029,204.0623],[37.1399,-16.5146,193.1133],[37.1371,-16.5305,183.1824],[37.123,-16.5525,162.8413],[37.1207,-16.5583,162.9384],[37.1081,-16.5658,167.7534],[37.0891,-16.5729,162.8387],[37.0718,-16.5866,162.5333],[37.0556,-16.6064,160.6195],[37.0406,-16.621,154.3097],[37.0266,-16.6245,153.6148],[37.0178,-16.6334,144.4604],[37.0414,-16.6439,183.7993],[37.1004,-16.6634,248.6756],[37.1066,-16.6829,265.4896],[37.1129,-16.7127,183.8654],[37.1164,-16.7216,174.3726],[37.1378,-16.7216,165.9844],[37.1411,-16.7247,157.5382],[37.1531,-16.7275,159.1837],[37.1612,-16.7272,152.0694],[37.1802,-16.7433,145.1701],[37.2108,-16.7475,138.6142],[37.2167,-16.7545,128.1268],[37.2131,-16.7804,124.5698],[37.2287,-16.788,124.7678],[37.2378,-16.7874,132.4572],[37.2431,-16.7915,119.2647],[37.2355,-16.7995,115.0665],[37.2426,-16.8032,118.3994],[37.2524,-16.8167,116.4314],[37.2567,-16.8185,122.4528],[37.2621,-16.8323,117.3073],[37.2709,-16.8329,118.3473],[37.2747,-16.8396,113.0951],[37.2796,-16.8379,117.1237],[37.2864,-16.8318,115.94],[37.2907,-16.8337,120.1178],[37.2941,-16.8432,106.288],[37.2841,-16.8693,104.0257],[37.2987,-16.8765,103.0939],[37.2972,-16.8938,104.3127],[37.3103,-16.8997,100.733],[37.3163,-16.8953,99.4529],[37.3329,-16.8895,98.6334],[37.3282,-16.9035,95.249],[37.3287,-16.9055,96.0459],[37.3368,-16.9038,94.3115],[37.3429,-16.9493,89.4796],[37.3733,-16.9534,84.8774],[37.3822,-16.9618,70.1247],[37.3865,-16.9614,76.3596],[37.394,-16.9706,63.8219],[37.3955,-16.9777,57.0103],[37.4009,-16.969,78.9214],[37.4148,-16.9558,114.3369],[37.4209,-16.9549,118.2221],[37.4296,-16.9506,110.0997],[37.4603,-16.9241,90.5827],[37.4557,-16.9208,88.6332],[37.4555,-16.9087,86.5952],[37.4524,-16.9045,89.1093],[37.4449,-16.9027,86.6701],[37.4451,-16.899,88.4058],[37.4601,-16.8978,92.0947],[37.4568,-16.8938,85.7901],[37.4676,-16.8815,93.0807],[37.4712,-16.8732,93.0727],[37.4777,-16.8696,92.5195],[37.4761,-16.8589,102.4479],[37.4821,-16.8481,99.8389],[37.4826,-16.8437,105.4255],[37.4877,-16.8466,105.1132],[37.491,-16.851,98.9746],[37.4963,-16.8442,100.3137],[37.4957,-16.8379,111.8406],[37.4886,-16.8339,113.6866],[37.4836,-16.8255,107.5041],[37.4923,-16.8245,111.6762],[37.4968,-16.8169,109.6228],[37.4915,-16.8057,110.6575],[37.4913,-16.8021,103.9991],[37.4954,-16.7916,115.7566],[37.5062,-16.7911,110.3371],[37.5103,-16.7841,118.1422],[37.5085,-16.7763,111.9202],[37.5206,-16.7648,116.4112],[37.5154,-16.7337,131.7716],[37.5009,-16.7199,140.8249],[37.5047,-16.7066,135.8365],[37.502,-16.6811,140.0302],[37.4985,-16.672,136.4414],[37.4841,-16.6432,152.6755],[37.4837,-16.6362,161.9432],[37.4754,-16.6258,169.5564],[37.4643,-16.62,167.6043],[37.4669,-16.6069,172.128],[37.4929,-16.591,201.2508],[37.471,-16.5744,202.0419],[37.4671,-16.5616,216.9715],[37.4659,-16.5497,219.7976],[37.4663,-16.5285,244.3526],[37.4684,-16.5182,238.634],[37.4215,-16.4861,298.5154],[37.3997,-16.4796,319.3074],[37.3901,-16.4688,358.6566],[37.3782,-16.4358,407.6432],[37.3296,-16.4228,342.264],[37.3155,-16.4256,362.4276],[37.3149,-16.412,332.4983],[37.3075,-16.4081,356.3748],[37.3004,-16.4012,358.1528],[37.2872,-16.3732,380.1257],[37.297,-16.362,406.8752],[37.2971,-16.3535,429.1973],[37.2903,-16.3405,398.0765],[37.2886,-16.3255,373.781],[37.2807,-16.3171,371.8457],[37.2658,-16.3099,346.3345],[37.25,-16.299,333.0208],[37.2476,-16.2983,332.1657],[37.241,-16.3038,346.3016],[37.2313,-16.3154,322.401],[37.2205,-16.3176,324.2051],[37.2135,-16.3316,287.158],[37.1964,-16.3317,302.7437],[37.192,-16.3387,280.809],[37.1875,-16.3362,302.6656],[37.1798,-16.3375,282.8254],[37.1439,-16.3534,259.0708],[37.1361,-16.3602,253.2173],[37.132,-16.3582,252.2166]]]]}}