{"type": "Feature","bbox": [34.1497,-18.4173,34.8658,-17.8999],"geometry": {"type": "MultiPolygon","coordinates": [[[[34.1497,-18.253,330.1078],[34.2564,-18.2569,333.7247],[34.2681,-18.2586,329.5544],[34.2949,-18.2867,262.8884],[34.3117,-18.2894,234.0318],[34.3288,-18.286,212.9894],[34.3548,-18.3029,180.0419],[34.3637,-18.3109,166.8864],[34.3795,-18.3416,136.097],[34.3807,-18.3262,143.3904],[34.3963,-18.3127,162.3187],[34.4283,-18.3029,191.5921],[34.4525,-18.3029,169.2702],[34.4738,-18.293,146.9189],[34.5236,-18.305,107.9796],[34.5405,-18.3021,88.415],[34.553,-18.3181,86.311],[34.5556,-18.3272,88.3396],[34.5563,-18.3406,77.6719],[34.7063,-18.4173,55.5762],[34.7407,-18.3819,53.2257],[34.7615,-18.3549,56.7484],[34.7737,-18.344,51.9944],[34.7864,-18.336,51.7295],[34.8052,-18.3154,50.1988],[34.8116,-18.3036,49.5865],[34.8658,-18.2333,42.5466],[34.832,-18.1222,59.1689],[34.8214,-18.1234,66.4938],[34.8189,-18.1211,67.4935],[34.7765,-17.9987,108.8557],[34.7688,-17.9616,136.4117],[34.7693,-17.9511,145.9787],[34.7628,-17.9459,152.5568],[34.7601,-17.9391,170.3652],[34.7532,-17.9027,199.6622],[34.7477,-17.8999,207.6979],[34.7419,-17.8999,199.8591],[34.7329,-17.9201,202.4261],[34.7216,-17.9272,189.989],[34.6955,-17.9368,176.0501],[34.6827,-17.9434,161.7096],[34.6545,-17.968,153.8489],[34.6461,-17.9696,149.6549],[34.629,-17.983,172.6779],[34.6004,-17.9811,200.6293],[34.5585,-17.9916,216.2907],[34.5432,-17.9935,233.0574],[34.539,-17.996,234.7509],[34.5048,-17.9991,213.9055],[34.4966,-18.0027,200.7726],[34.485,-18.0007,211.8101],[34.4754,-18.0052,215.8895],[34.4648,-18.0228,266.8631],[34.4422,-18.0144,252.7361],[34.4253,-18.0378,193.676],[34.4255,-18.0502,179.756],[34.4094,-18.0518,170.3786],[34.4028,-18.0467,172.7375],[34.395,-18.0487,164.0063],[34.3863,-18.0466,166.3048],[34.3814,-18.0417,167.1686],[34.3728,-18.037,168.6237],[34.3698,-18.0321,172.6538],[34.3555,-18.0331,184.1077],[34.3475,-18.0317,187.5595],[34.3264,-18.0349,209.5918],[34.3088,-18.0308,244.9515],[34.284,-18.0306,400.4415],[34.2902,-18.0671,335.3583],[34.2892,-18.0716,246.4329],[34.2822,-18.0792,225.8391],[34.2458,-18.2106,295.1254],[34.23,-18.2099,318.6812],[34.196,-18.1842,364.1736],[34.1896,-18.1844,370.5789],[34.1497,-18.253,330.1078]]]]}
,"properties": {"GID_3": "MOZ.9.9.3_1","GID_0": "MOZ","country": "Mozambique","GID_1": "MOZ.9_1","province": "Sofala","NL_NAME_1": "NA","GID_2": "MOZ.9.9_1","county": "Maringue","NL_NAME_2": "NA","city": "Subui(Subwe)","VARNAME_3": "NA","NL_NAME_3": "NA","TYPE_3": "Localidad","ENGTYPE_3": "Locality","CC_3": "NA","HASC_3": "NA","name": "Subui(Subwe).city","area_km2": 2277.449,"hist_schema_id": "Elevation0-9000","hist_area_km2": {"50": 239.742,"75": 409.017,"100": 285.533,"125": 181.109,"150": 274.74,"175": 315.56,"200": 236.501,"225": 122.878,"250": 68.42,"275": 45.889,"300": 31.944,"325": 21.83,"350": 29.805,"375": 14.078,"400": 0.403}}}