{"type":"Feature","properties":{"GID_3":"MOZ.6.2.3_1","GID_0":"MOZ","country":"Mozambique","GID_1":"MOZ.6_1","province":"Maputo","NL_NAME_1":"NA","GID_2":"MOZ.6.2_1","county":"Magude","NL_NAME_2":"NA","city":"Mapulanguene","VARNAME_3":"NA","NL_NAME_3":"NA","TYPE_3":"Localidad","ENGTYPE_3":"Locality","CC_3":"NA","HASC_3":"NA","name":"Mapulanguene.city"},
"geometry":{"type": "MultiPolygon","coordinates": [[[[31.9489,-24.2463,348.5293],[31.9813,-24.2973,312.619],[31.9871,-24.3022,310.5925],[32.0131,-24.4546,157.9758],[32.0089,-24.5751,288.8507],[31.9983,-24.6897,362.5546],[32.0071,-24.8104,206.6502],[32.031,-24.8151,178.0402],[32.0409,-24.8101,191.8903],[32.084,-24.7975,143.4301],[32.0945,-24.807,136.1968],[32.1044,-24.8082,128.7402],[32.1092,-24.7989,133.5762],[32.1091,-24.7927,123.8765],[32.118,-24.787,128.9315],[32.125,-24.7999,121.1663],[32.1275,-24.817,121.9922],[32.1345,-24.8293,121.7457],[32.1447,-24.8344,117.8298],[32.1653,-24.8352,113.5145],[32.1728,-24.8322,113.2734],[32.1816,-24.833,110.5656],[32.2345,-24.8074,131.9703],[32.2584,-24.8024,150.8542],[32.2575,-24.7938,165.545],[32.2466,-24.7813,155.6636],[32.262,-24.7684,192.3003],[32.2811,-24.7762,217.8129],[32.2909,-24.773,219.0747],[32.3092,-24.7505,195.0512],[32.3124,-24.7449,193.6132],[32.3126,-24.7361,189.3153],[32.3178,-24.7293,188.7321],[32.3336,-24.7217,168.0167],[32.3416,-24.7273,163.7619],[32.3731,-24.7393,144.6927],[32.4094,-24.7419,117.7469],[32.4348,-24.7388,101.1941],[32.4544,-24.7311,77.4567],[32.4692,-24.7321,72.5529],[32.4794,-24.7268,76.7737],[32.4728,-24.7176,71.2617],[32.4872,-24.7033,75.9765],[32.4852,-24.6959,79.1225],[32.4812,-24.6931,79.6637],[32.4762,-24.6944,74.1496],[32.4666,-24.6903,80.1555],[32.4641,-24.6847,80.1744],[32.452,-24.687,80.0538],[32.4454,-24.6847,76.2861],[32.4474,-24.6819,78.0925],[32.4641,-24.6722,84.6682],[32.4637,-24.656,90.1837],[32.4461,-24.65,83.9413],[32.4324,-24.653199999999998,84.1308],[32.4219,-24.6453,86.652],[32.4249,-24.6356,87.3047],[32.4205,-24.6166,89.2401],[32.4251,-24.6097,89.7969],[32.4236,-24.6056,88.5111],[32.4115,-24.5995,90.9633],[32.3858,-24.5925,94.7833],[32.3747,-24.586,96.158],[32.3698,-24.5777,92.9732],[32.3733,-24.5689,95.2143],[32.3608,-24.5606,100.7103],[32.3563,-24.5532,102.1006],[32.3382,-24.5407,105.9801],[32.3345,-24.5319,117.0153],[32.3727,-24.5062,118.3001],[32.3877,-24.4933,109.6226],[32.4027,-24.4618,97.0736],[32.4225,-24.4397,108.732],[32.4266,-24.4329,105.3664],[32.4465,-24.3851,102.3798],[32.4599,-24.3699,107.2753],[32.4774,-24.3354,97.3029],[32.4806,-24.3271,94.2083],[32.4757,-24.3248,94.2151],[32.4638,-24.308,97.299],[32.4491,-24.3023,100.0074],[32.4476,-24.2937,101.6157],[32.4397,-24.2802,103.927],[32.4331,-24.2803,106.7279],[32.3957,-24.2674,119.7785],[32.3865,-24.261,124.2837],[32.3573,-24.2476,136.5854],[32.3425,-24.2462,140.5695],[32.3212,-24.2526,147.5583],[32.312,-24.2502,149.4532],[32.3007,-24.2496,153.5132],[32.2934,-24.2511,155.6822],[32.2756,-24.2486,163.0844],[32.2691,-24.2427,173.0744],[32.2564,-24.2361,179.6506],[32.2333,-24.2349,177.3126],[32.2293,-24.2399,179.4306],[32.2147,-24.2335,188.377],[32.208,-24.2333,186.0453],[32.1918,-24.2164,193.8022],[32.1654,-24.2138,217.5654],[32.1274,-24.2127,234.0218],[32.0819,-24.2036,256.7262],[32.0748,-24.2032,262.65],[32.0448,-24.209,277.7128],[31.9704,-24.2458,329.0201],[31.9489,-24.2463,348.5293]]]]}}