{"type": "Feature","bbox": [32.3655,-26.3246,32.6924,-26.0549],"geometry": {"type": "MultiPolygon","coordinates": [[[[32.4627,-26.0847,1.6918],[32.4697,-26.0859,2.6954],[32.477,-26.0896,2.3351],[32.4801,-26.0929,1.2137],[32.4778,-26.1011,1.7324],[32.4738,-26.1062,1.611],[32.4087,-26.1505,1.372],[32.3948,-26.1437,1.6875],[32.3878,-26.1468,5.2648],[32.3981,-26.1703,2.0673],[32.3896,-26.1721,3.2134],[32.3934,-26.1777,2.4202],[32.385,-26.1807,1.6895],[32.3937,-26.1902,2.1674],[32.4045,-26.2236,2.4656],[32.4,-26.2222,2.6999],[32.4027,-26.2291,2.2248],[32.3941,-26.2444,2.0766],[32.3906,-26.2461,5.3156],[32.3816,-26.2458,1.8265],[32.3736,-26.2652,2.9058],[32.3655,-26.2608,6.8787],[32.3668,-26.2731,4.114],[32.3739,-26.2705,5.2123],[32.3819,-26.2705,9.4657],[32.3963,-26.2626,23.8383],[32.4072,-26.2675,31.8978],[32.4221,-26.2779,38.4085],[32.4196,-26.2884,37.4599],[32.4221,-26.3039,19.2146],[32.4505,-26.3246,48.0357],[32.4651,-26.3246,46.2069],[32.4821,-26.3217,36.285],[32.4926,-26.3127,49.109],[32.5224,-26.2828,54.3453],[32.5486,-26.2481,50.8012],[32.5609,-26.242,54.1595],[32.5642,-26.2419,53.4761],[32.5721,-26.2479,53.8964],[32.6081,-26.254,42.4591],[32.6358,-26.262,25.5482],[32.6485,-26.263,9.2907],[32.6924,-26.2587,0.0],[32.6882,-26.2494,0.0],[32.6815,-26.2111,0.0],[32.6831,-26.1889,0.0],[32.681,-26.1874,3.0532],[32.681,-26.1829,3.3053],[32.6749,-26.1643,0.0],[32.6679,-26.1524,0.2351],[32.6646,-26.1407,0.0834],[32.6662,-26.1235,0.0],[32.6499,-26.0963,0.7562],[32.6307,-26.0754,0.0],[32.6199,-26.0581,13.4819],[32.5212,-26.0549,40.2639],[32.4627,-26.0847,1.6918]]]]}
,"properties": {"GID_3": "MOZ.6.5.1_1","GID_0": "MOZ","country": "Mozambique","GID_1": "MOZ.6_1","province": "Maputo","NL_NAME_1": "NA","GID_2": "MOZ.6.5_1","county": "Matutuíne","NL_NAME_2": "NA","city": "Catembe","VARNAME_3": "NA","NL_NAME_3": "NA","TYPE_3": "Localidad","ENGTYPE_3": "Locality","CC_3": "NA","HASC_3": "NA","name": "Catembe.city","area_km2": 602.7062,"hist_schema_id": "Elevation0-9000","hist_area_km2": {"0": 109.6404,"25": 252.8756,"50": 240.1902}}}