{"type": "Feature","bbox": [34.7911,-23.7993,35.4343,-23.0562],"geometry": {"type": "MultiPolygon","coordinates": [[[[35.3268,-23.7099,3.6083],[35.3249,-23.7096,2.701],[35.324,-23.7104,0.7267],[35.3279,-23.7112,3.6083],[35.3268,-23.7099,3.6083]]],
[[[35.3246,-23.7489,2.1978],[35.3277,-23.7121,1.8709],[35.3235,-23.7107,0.7267],[35.3229,-23.7154,3.655],[35.3218,-23.7124,3.3458],[35.3235,-23.7096,0.7267],[35.3274,-23.709,1.3448],[35.3288,-23.7101,1.2111],[35.329,-23.7129,0.0],[35.3318,-23.7143,1.9815],[35.3415,-23.7024,0.0],[35.3399,-23.6974,0.0],[35.3376,-23.696,1.5465],[35.3379,-23.6863,3.1152],[35.3304,-23.6851,3.1881],[35.3354,-23.6829,3.5461],[35.3357,-23.684,0.9216],[35.3407,-23.6835,0.0],[35.3429,-23.6854,1.393],[35.349,-23.6863,0.0],[35.3515,-23.6826,0.0],[35.3499,-23.6765,0.6573],[35.3518,-23.6749,0.4448],[35.3515,-23.6729,2.6034],[35.3543,-23.6726,3.1404],[35.3579,-23.6754,1.4962],[35.3626,-23.6754,0.5806],[35.3635,-23.6726,0.0],[35.3615,-23.6688,0.0],[35.356,-23.6674,1.7514],[35.3549,-23.6654,13.9582],[35.3621,-23.6676,2.2257],[35.3665,-23.6729,2.5214],[35.3754,-23.6721,0.5245],[35.3838,-23.6749,0.0],[35.3899,-23.6732,0.5931],[35.3937,-23.6743,0.928],[35.394,-23.6701,2.4213],[35.3896,-23.666,7.9814],[35.3896,-23.6643,4.1676],[35.3924,-23.6626,1.311],[35.3904,-23.6654,1.0687],[35.3946,-23.6682,2.2868],[35.396,-23.6724,0.4218],[35.3949,-23.676,1.9197],[35.391,-23.6782,0.3332],[35.3963,-23.6876,2.6806],[35.3946,-23.6904,0.6192],[35.3965,-23.7007,2.6083],[35.3943,-23.7076,3.5574],[35.3937,-23.7201,0.7723],[35.3946,-23.7265,1.9242],[35.3971,-23.7296,0.0],[35.3949,-23.7318,1.4114],[35.3954,-23.7357,0.0],[35.4007,-23.7382,0.0],[35.4085,-23.7301,5.3617],[35.4135,-23.7151,0.0],[35.4149,-23.6979,6.7773],[35.4207,-23.6801,5.007],[35.4232,-23.6579,8.3101],[35.4257,-23.6487,7.0549],[35.4226,-23.6301,9.5074],[35.4235,-23.6235,2.9787],[35.4207,-23.601,6.647],[35.4221,-23.5818,0.0],[35.4207,-23.5785,8.5168],[35.4221,-23.5746,0.0],[35.4207,-23.569,3.8805],[35.4235,-23.5482,0.0],[35.4232,-23.5263,3.5721],[35.4254,-23.5193,0.0],[35.4238,-23.5088,4.4408],[35.4287,-23.4865,4.9161],[35.4321,-23.4801,3.2949],[35.4343,-23.4793,0.0],[35.4267,-23.4796,10.4701],[35.4217,-23.4839,10.2505],[35.4147,-23.4855,95.7849],[35.3879,-23.4841,48.4995],[35.3768,-23.4813,73.2524],[35.3436,-23.4821,81.1708],[35.3442,-23.4586,102.5457],[35.3343,-23.4568,135.3834],[35.2735,-23.4372,107.6389],[35.2638,-23.4216,105.2342],[35.2577,-23.4073,115.0044],[35.1782,-23.3033,100.4512],[35.1619,-23.2995,103.5695],[35.1614,-23.3117,96.3453],[35.1393,-23.3214,102.2533],[35.0968,-23.3749,111.9658],[35.1032,-23.3844,107.315],[35.1136,-23.3944,104.5376],[35.1314,-23.4303,118.1507],[35.1336,-23.4458,119.8309],[35.1291,-23.4488,117.107],[35.1231,-23.4763,140.5891],[35.1149,-23.4798,144.4701],[35.1062,-23.4678,130.5329],[35.0974,-23.4624,124.9522],[35.072,-23.4608,124.6767],[35.0506,-23.4498,132.1419],[35.0242,-23.4474,125.8275],[35.0751,-23.3405,99.0245],[35.114,-23.3048,97.5822],[35.1145,-23.2997,99.1644],[35.1102,-23.2928,95.9361],[35.0976,-23.2447,110.8388],[35.0899,-23.2391,112.8617],[35.0837,-23.23,115.5643],[35.0945,-23.1875,107.1757],[35.0934,-23.1825,107.5078],[35.0754,-23.1733,105.6154],[35.0681,-23.1637,105.231],[35.0633,-23.1451,119.3953],[35.0536,-23.1269,118.0736],[35.036,-23.0998,115.9874],[35.0068,-23.0628,124.447],[34.9523,-23.0562,144.9302],[34.8939,-23.2013,116.0284],[34.8205,-23.467,106.0352],[34.8047,-23.5187,119.6038],[34.7911,-23.623,103.6868],[34.9998,-23.6007,157.246],[35.0083,-23.5971,153.5731],[35.101,-23.6836,202.8483],[35.153,-23.7438,173.0196],[35.1572,-23.7816,71.418],[35.1718,-23.779,59.3822],[35.2133,-23.7888,43.3849],[35.2432,-23.7917,9.6704],[35.2725,-23.7993,4.0799],[35.2734,-23.7913,7.997],[35.2839,-23.779,19.5543],[35.2945,-23.777,3.0682],[35.3057,-23.767,2.1658],[35.3094,-23.7584,1.3876],[35.3169,-23.7568,7.8545],[35.3178,-23.7503,1.4357],[35.3246,-23.7489,2.1978]]]]}
,"properties": {"GID_2": "MOZ.3.9_1","GID_0": "MOZ","country": "Mozambique","GID_1": "MOZ.3_1","province": "Inhambane","NL_NAME_1": "NA","county": "Morrumbene","VARNAME_2": "NA","NL_NAME_2": "NA","TYPE_2": "Distrito","ENGTYPE_2": "District","CC_2": "NA","HASC_2": "MZ.IN.MO","name": "Morrumbene.county","area_km2": 2606.238,"hist_schema_id": "Elevation0-9000","hist_area_km2": {"0": 75.618,"25": 74.788,"50": 121.15,"75": 149.715,"100": 977.312,"125": 651.605,"150": 389.134,"175": 149.166,"200": 17.38,"225": 0.369}}}