{"type":"Feature","properties":{"GID_3":"MOZ.2.11.4_1","GID_0":"MOZ","country":"Mozambique","GID_1":"MOZ.2_1","province":"Gaza","NL_NAME_1":"NA","GID_2":"MOZ.2.11_1","county":"Xai-Xai","NL_NAME_2":"NA","city":"Zonguene","VARNAME_3":"NA","NL_NAME_3":"NA","TYPE_3":"Localidad","ENGTYPE_3":"Locality","CC_3":"NA","HASC_3":"NA","name":"Zonguene.city"},
"geometry":{"type": "MultiPolygon","coordinates": [[[[33.5015,-25.2124,1.4454],[33.5004,-25.2121,1.0433],[33.5001,-25.2143,0.8726],[33.496,-25.2165,0.5454],[33.5013,-25.2151,0.0],[33.5015,-25.2124,1.4454]]],
[[[33.3296,-25.0833,15.3935],[33.3356,-25.1124,29.0213],[33.3385,-25.1434,28.8654],[33.3365,-25.155,30.8747],[33.3184,-25.1868,31.6104],[33.322,-25.1946,29.7008],[33.3279,-25.2166,27.9886],[33.332,-25.2376,34.8179],[33.3479,-25.2602,44.2604],[33.3541,-25.2721,5.7891],[33.4012,-25.2518,1.5787],[33.4118,-25.2488,0.0],[33.421,-25.2437,4.6605],[33.429,-25.2421,0.0],[33.4396,-25.236,12.0006],[33.459,-25.2282,4.7809],[33.4932,-25.2179,3.5287],[33.4957,-25.2135,5.9984],[33.5015,-25.2093,0.0],[33.5115,-25.2062,0.0],[33.5121,-25.2079,0.0],[33.5163,-25.2074,0.0],[33.5457,-25.1937,6.3],[33.5785,-25.1843,0.8286],[33.5793,-25.1824,2.9378],[33.6046,-25.1762,1.6529],[33.6365,-25.1621,3.1708],[33.6943,-25.1321,9.4483],[33.7143,-25.1249,0.0],[33.7034,-25.0921,12.176],[33.6974,-25.0795,7.1488],[33.6636,-25.0888,27.2685],[33.652,-25.0902,23.1433],[33.6455,-25.0874,1.7138],[33.6239,-25.0897,1.1022],[33.6211,-25.0839,1.1508],[33.6067,-25.0751,1.4581],[33.6011,-25.0657,2.6543],[33.5852,-25.0672,2.0959],[33.5714,-25.0604,0.0],[33.5759,-25.0694,2.3061],[33.5837,-25.0781,1.7163],[33.5812,-25.0843,2.1733],[33.5754,-25.0864,1.4322],[33.5599,-25.087,2.1173],[33.5474,-25.0841,2.0703],[33.5389,-25.0835,0.7416],[33.5313,-25.0849,1.6352],[33.5236,-25.0775,1.8369],[33.5067,-25.0679,1.6814],[33.4835,-25.0607,1.7923],[33.4736,-25.0629,1.6648],[33.464,-25.061,2.6857],[33.4483,-25.0613,1.8611],[33.4427,-25.0631,1.9844],[33.4343,-25.0608,2.2594],[33.4254,-25.0611,2.0472],[33.4223,-25.0585,1.695],[33.4141,-25.0597,1.4957],[33.3956,-25.0567,2.1095],[33.3874,-25.0454,1.7012],[33.3877,-25.0406,1.4398],[33.3828,-25.0375,1.6088],[33.3806,-25.0306,2.1816],[33.3763,-25.025,14.9687],[33.3526,-25.041,0.5],[33.35,-25.0477,0.5],[33.3497,-25.0632,0.5],[33.3412,-25.0701,30.8457],[33.328,-25.076,12.0674],[33.3296,-25.0833,15.3935]]]]}}