{"type":"Feature","properties":{"GID_3":"MOZ.3.11.1_1","GID_0":"MOZ","country":"Mozambique","GID_1":"MOZ.3_1","province":"Inhambane","NL_NAME_1":"NA","GID_2":"MOZ.3.11_1","county":"Vilanculos","NL_NAME_2":"NA","city":"Mapinhane","VARNAME_3":"NA","NL_NAME_3":"NA","TYPE_3":"Localidad","ENGTYPE_3":"Locality","CC_3":"NA","HASC_3":"NA","name":"Mapinhane.city"},
"geometry":{"type": "MultiPolygon","coordinates": [[[[34.625,-22.0951,166.2679],[34.546,-22.2025,148.9116],[34.5081,-22.2311,153.2435],[34.5383,-22.3154,147.5689],[34.5246,-22.3304,152.1279],[34.545,-22.3461,153.0221],[34.9237,-22.3465,93.0436],[34.933,-22.3518,93.9922],[34.9378,-22.3568,94.2104],[34.9503,-22.3515,94.0066],[34.9601,-22.3557,92.0452],[34.9989,-22.3584,83.7066],[35.1002,-22.7912,91.029],[35.3359,-22.788,63.6186],[35.3325,-22.7667,60.577],[35.3371,-22.7331,57.2465],[35.3493,-22.7081,62.1072],[35.3592,-22.6942,66.7258],[35.4001,-22.6633,48.2094],[35.4301,-22.6618,52.4741],[35.4456,-22.6574,51.079],[35.4612,-22.6507,12.9901],[35.4705,-22.6451,43.4861],[35.4855,-22.6258,37.8284],[35.4927,-22.6208,37.0254],[35.5015,-22.6179,0.0],[35.5004,-22.5976,2.2863],[35.5021,-22.594,1.7577],[35.5051,-22.5682,38.8155],[35.5143,-22.5315,0.0],[35.5232,-22.5043,33.3157],[35.5205,-22.5098,19.385],[35.3871,-22.5143,47.5177],[35.3613,-22.4713,46.2366],[35.3549,-22.4555,21.2562],[35.3537,-22.4509,25.1426],[35.3616,-22.4322,6.066],[35.3138,-22.3821,5.6573],[35.319,-22.3581,3.2675],[35.3238,-22.3167,2.4907],[35.3255,-22.2708,2.1171],[35.3222,-22.2468,2.1573],[35.3317,-22.215699999999998,2.0203],[35.3238,-22.1962,6.1835],[35.3202,-22.1932,9.1072],[35.2541,-22.1962,27.7829],[35.2322,-22.2055,25.8454],[35.2241,-22.1888,30.0155],[35.19,-22.1546,25.6991],[35.1694,-22.1467,25.2182],[35.122,-22.1392,32.898],[35.0141,-22.052,56.6722],[34.9607,-22.0465,69.0123],[34.6361,-22.0392,163.2076],[34.625,-22.0951,166.2679]]]]}}