{"type": "Feature","bbox": [38.8872,-14.4615,39.3409,-14.0368],"geometry": {"type": "MultiPolygon","coordinates": [[[[39.3403,-14.3253,327.2827],[39.3371,-14.3259,329.5089],[39.3409,-14.3252,327.2827],[39.3403,-14.3253,327.2827]]],
[[[39.2765,-14.3718,348.9623],[39.2818,-14.3706,338.8747],[39.2937,-14.3605,339.3607],[39.319,-14.3355,335.2682],[39.331,-14.3269,332.4894],[39.3371,-14.3259,329.5089],[39.3278,-14.3139,352.5774],[39.3217,-14.3139,361.0085],[39.3086,-14.3075,358.7929],[39.3042,-14.3023,372.8503],[39.3202,-14.2606,411.0204],[39.3186,-14.2298,378.7751],[39.3082,-14.1721,337.6346],[39.2909,-14.1442,327.918],[39.2848,-14.1022,311.0646],[39.2799,-14.0831,305.6965],[39.2623,-14.0778,298.7488],[39.2528,-14.076599999999999,300.4292],[39.242,-14.0682,290.8955],[39.2162,-14.0368,279.498],[39.2169,-14.0468,284.9941],[39.2149,-14.0651,285.7147],[39.2028,-14.0756,295.5602],[39.1848,-14.1022,295.5481],[39.1592,-14.115,318.0208],[39.1434,-14.1178,328.7339],[39.1301,-14.1304,308.5405],[39.1226,-14.1666,318.9812],[39.1247,-14.1837,324.2595],[39.1209,-14.1908,322.9443],[39.1151,-14.1967,326.6056],[39.0986,-14.2243,335.0326],[39.0924,-14.2314,333.2695],[39.0255,-14.1915,329.3853],[39.0217,-14.1861,327.7512],[39.0173,-14.1693,322.0435],[39.0184,-14.1645,319.3117],[39.0221,-14.1623,322.3945],[39.0233,-14.1577,324.6139],[39.0232,-14.1425,316.1461],[39.0218,-14.1389,310.8123],[39.0176,-14.1415,312.6946],[39.0093,-14.1531,320.4565],[39.0025,-14.1586,320.1628],[39.0001,-14.1639,325.0413],[38.9892,-14.1728,323.4565],[38.9807,-14.1781,327.1859],[38.9723,-14.18,328.6024],[38.9577,-14.187,335.9638],[38.9482,-14.1938,333.9875],[38.9425,-14.2018,342.5279],[38.9397,-14.2203,337.1392],[38.9352,-14.2251,341.7742],[38.9262,-14.2292,342.6837],[38.9229,-14.2346,342.5135],[38.8935,-14.2416,350.8108],[38.8882,-14.2456,348.253],[38.8907,-14.256,354.2972],[38.8964,-14.2661,357.7777],[38.8927,-14.2793,362.7404],[38.8954,-14.2878,363.5415],[38.8909,-14.3255,382.4868],[38.8872,-14.3359,391.2784],[38.9157,-14.345,367.8391],[38.928,-14.3466,359.5229],[38.937,-14.3303,350.8715],[38.9418,-14.3342,355.8536],[38.9457,-14.3417,355.8018],[38.9455,-14.3592,363.3791],[38.9534,-14.3617,369.0865],[38.9643,-14.3763,373.2399],[38.9749,-14.3972,392.2465],[38.9945,-14.4165,414.907],[39.0001,-14.4262,432.7688],[39.007,-14.4271,469.4735],[39.0132,-14.4378,644.7373],[39.028,-14.4565,480.0914],[39.0455,-14.4615,489.1157],[39.0735,-14.4593,418.7029],[39.0855,-14.4508,427.0522],[39.1078,-14.4437,411.873],[39.1268,-14.4345,390.8026],[39.1618,-14.4276,388.8828],[39.1885,-14.4283,372.4655],[39.2098,-14.4155,366.1714],[39.2177,-14.4147,368.4772],[39.2369,-14.4013,358.9495],[39.2472,-14.3977,367.5544],[39.2665,-14.3742,362.8307],[39.2765,-14.3718,348.9623]]]]}
,"properties": {"GID_3": "MOZ.7.6.2_1","GID_0": "MOZ","country": "Mozambique","GID_1": "MOZ.7_1","province": "Nampula","NL_NAME_1": "NA","GID_2": "MOZ.7.6_1","county": "Mecuburi","NL_NAME_2": "NA","city": "Mihlana(Milhana)","VARNAME_3": "NA","NL_NAME_3": "NA","TYPE_3": "Localidad","ENGTYPE_3": "Locality","CC_3": "NA","HASC_3": "NA","name": "Mihlana(Milhana).city","area_km2": 1274.0334,"hist_schema_id": "Elevation0-9000","hist_area_km2": {"275": 1.4192,"300": 30.1664,"325": 144.5822,"350": 316.9444,"375": 369.3529,"400": 241.3847,"425": 95.8102,"450": 34.6654,"475": 12.754,"500": 5.5256,"525": 3.3895,"550": 2.5886,"575": 2.4654,"600": 2.0958,"625": 1.7875,"650": 1.6436,"675": 1.6025,"700": 0.945,"725": 0.6985,"750": 0.6163,"775": 0.5548,"800": 0.5342,"825": 0.3493,"850": 0.4726,"875": 0.3904,"900": 0.2876,"925": 0.2055,"950": 0.1438,"975": 0.2876,"1000": 0.0822,"1025": 0.1233,"1075": 0.0616,"1100": 0.0206,"1125": 0.0411,"1150": 0.0411}}}