{"type": "Feature","bbox": [39.3242,-13.2256,39.8273,-12.6796],"geometry": {"type": "MultiPolygon","coordinates": [[[[39.5465,-12.7428,287.3566],[39.5386,-12.738,282.0373],[39.5345,-12.726,299.055],[39.5312,-12.7212,285.8351],[39.5265,-12.7181,286.5816],[39.5139,-12.7273,312.5474],[39.4967,-12.7144,299.0193],[39.4881,-12.7172,306.9428],[39.4758,-12.7257,302.4421],[39.4646,-12.7199,310.119],[39.4511,-12.7165,310.6761],[39.444,-12.7093,313.8649],[39.4328,-12.7051,310.1608],[39.415,-12.6953,331.4696],[39.4097,-12.6891,320.0307],[39.4051,-12.6796,315.4965],[39.3959,-12.6861,316.7907],[39.3911,-12.696,322.6154],[39.3791,-12.6979,328.7116],[39.3744,-12.704,322.4981],[39.3741,-12.7132,322.1579],[39.3596,-12.721,325.4294],[39.3617,-12.7455,334.7414],[39.3574,-12.7579,334.0676],[39.348,-12.7731,335.2343],[39.3486,-12.7896,338.8127],[39.3516,-12.7993,342.4926],[39.3486,-12.8059,342.9706],[39.3242,-12.8291,347.2191],[39.3297,-12.8439,350.9496],[39.3401,-12.8618,359.4564],[39.347,-12.8809,368.5739],[39.3583,-12.901,376.1844],[39.3632,-12.9239,388.7218],[39.3716,-12.9402,400.0489],[39.3656,-12.9957,469.8671],[39.3709,-13.0074,495.018],[39.3767,-13.0795,479.6925],[39.3798,-13.0915,457.7961],[39.395,-13.1087,422.7121],[39.3955,-13.1625,384.5694],[39.3905,-13.1646,383.9087],[39.3962,-13.1638,376.1521],[39.3996,-13.1988,353.7623],[39.3956,-13.2021,355.3036],[39.3988,-13.2004,351.4491],[39.4452,-13.2039,352.8272],[39.4597,-13.2008,334.2864],[39.4768,-13.2095,341.6087],[39.5188,-13.1944,323.9543],[39.5369,-13.2046,328.1006],[39.5599,-13.2131,318.4955],[39.5694,-13.2148,315.2554],[39.5809,-13.2127,321.1251],[39.5924,-13.2131,311.2723],[39.6027,-13.2103,304.5364],[39.6107,-13.2044,313.1816],[39.6173,-13.206,307.3367],[39.6244,-13.2116,294.5631],[39.626,-13.216,294.091],[39.6461,-13.2256,294.5731],[39.6524,-13.2224,289.2882],[39.6536,-13.2256,282.6654],[39.6581,-13.2222,286.1024],[39.7063,-13.2211,296.0096],[39.7339,-13.2181,266.0548],[39.7585,-13.2134,291.7561],[39.7801,-13.2181,274.5571],[39.785,-13.2174,263.5765],[39.8102,-13.201599999999999,250.9146],[39.8205,-13.201599999999999,255.8204],[39.8273,-13.2037,243.5073],[39.8266,-13.1911,256.5895],[39.8245,-13.1841,253.7113],[39.8102,-13.1801,256.6759],[39.8075,-13.1818,265.3784],[39.7746,-13.1658,277.7027],[39.7543,-13.161,282.9489],[39.7442,-13.1644,286.7982],[39.7323,-13.1657,286.8314],[39.727,-13.161,298.8259],[39.7181,-13.1651,293.9016],[39.7085,-13.1519,307.7102],[39.6916,-13.1398,307.7952],[39.6755,-13.131,319.2145],[39.6707,-13.1248,317.3739],[39.6772,-13.1047,353.9534],[39.6081,-13.0571,397.9607],[39.5717,-13.0029,417.3935],[39.5064,-12.9119,491.606],[39.4946,-12.8721,461.4208],[39.4976,-12.8166,380.1977],[39.5366,-12.764,306.6165],[39.5465,-12.7428,287.3566]]]]}
,"properties": {"GID_3": "MOZ.1.1.4_1","GID_0": "MOZ","country": "Mozambique","GID_1": "MOZ.1_1","province": "CaboDelgado","NL_NAME_1": "NA","GID_2": "MOZ.1.1_1","county": "Ancuabe","NL_NAME_2": "NA","city": "Meza","VARNAME_3": "NA","NL_NAME_3": "NA","TYPE_3": "Localidad","ENGTYPE_3": "Locality","CC_3": "NA","HASC_3": "NA","name": "Meza.city","area_km2": 1327.597,"hist_schema_id": "Elevation0-9000","hist_area_km2": {"250": 5.078,"275": 27.71,"300": 76.814,"325": 139.591,"350": 202.275,"375": 248.248,"400": 249.582,"425": 205.444,"450": 123.079,"475": 40.911,"500": 7.356,"525": 0.702,"550": 0.516,"575": 0.248,"600": 0.041}}}