{"type":"Feature","properties":{"GID_2":"MOZ.11.3_1","GID_0":"MOZ","country":"Mozambique","GID_1":"MOZ.11_1","province":"Zambezia","NL_NAME_1":"NA","county":"Gile","VARNAME_2":"NA","NL_NAME_2":"NA","TYPE_2":"Distrito","ENGTYPE_2":"District","CC_2":"NA","HASC_2":"MZ.ZA.GI","name":"Gile.county"},
"geometry":{"type": "MultiPolygon","coordinates": [[[[37.9194,-16.2921,203.5965],[37.9078,-16.2981,176.7995],[37.9163,-16.3101,177.2247],[37.9184,-16.3166,175.0002],[37.9181,-16.3237,171.1193],[37.8952,-16.3723,175.144],[37.9027,-16.38,170.9746],[37.9088,-16.3986,160.3869],[37.9085,-16.4104,160.6283],[37.9127,-16.4383,157.493],[37.9392,-16.4315,158.4826],[37.9453,-16.4386,152.1479],[37.9545,-16.4415,149.311],[37.9564,-16.4578,157.4237],[37.963,-16.4552,140.0692],[37.981,-16.4584,146.3941],[37.9903,-16.4685,141.8108],[37.9932,-16.4739,140.4311],[37.9889,-16.4849,142.7337],[37.9917,-16.4856,140.7067],[37.9997,-16.4925,152.6088],[38.0005,-16.4992,139.5217],[38.0027,-16.5005,143.0397],[38.0078,-16.4977,137.0967],[38.0164,-16.5063,136.9495],[38.0199,-16.5072,131.4788],[38.0232,-16.5192,126.7773],[38.0261,-16.5217,135.7897],[38.0331,-16.5226,132.5912],[38.0379,-16.5274,130.3339],[38.0488,-16.5056,159.4627],[38.0814,-16.5119,126.8891],[38.1261,-16.4947,178.2881],[38.1728,-16.5075,139.1819],[38.1813,-16.5051,141.2443],[38.1863,-16.4982,147.1232],[38.2617,-16.5004,161.6139],[38.2752,-16.498,151.5549],[38.3247,-16.4844,150.8199],[38.3348,-16.4841,129.6443],[38.3501,-16.4806,119.9312],[38.3401,-16.4613,150.4147],[38.3444,-16.4535,164.6726],[38.3545,-16.4426,206.2573],[38.3657,-16.3879,206.9292],[38.3778,-16.3797,272.1127],[38.4151,-16.3671,253.4045],[38.4209,-16.3632,228.6342],[38.4438,-16.3562,171.3304],[38.4492,-16.3458,162.9158],[38.4588,-16.3417,153.906],[38.4655,-16.3406,159.123],[38.4866,-16.3452,134.4747],[38.5075,-16.3403,114.2148],[38.5248,-16.3421,128.7999],[38.5316,-16.3394,122.1645],[38.5355,-16.3225,114.2669],[38.5449,-16.3099,124.5213],[38.5498,-16.2548,141.8415],[38.5648,-16.2437,139.7288],[38.5786,-16.2374,148.9803],[38.5801,-16.227,148.0382],[38.5882,-16.2138,161.7415],[38.5991,-16.2081,158.1248],[38.6005,-16.1937,162.8038],[38.6053,-16.1858,168.4717],[38.6354,-16.1679,196.4097],[38.6469,-16.1589,209.5495],[38.66,-16.1438,239.7466],[38.6917,-16.1565,230.3776],[38.706,-16.1605,229.5962],[38.7297,-16.1573,197.5293],[38.7429,-16.1515,188.5482],[38.7611,-16.1393,182.2584],[38.8308,-16.12,135.96],[38.8442,-16.1195,122.6194],[38.8532,-16.121,120.0894],[38.8671,-16.1332,113.6674],[38.8807,-16.1679,124.0907],[38.8876,-16.1713,118.7194],[38.894,-16.167,105.343],[38.895,-16.1598,105.1965],[38.8998,-16.1552,102.4347],[38.9181,-16.1703,108.4812],[38.9235,-16.1622,105.3284],[38.9179,-16.146,109.3543],[38.9248,-16.1322,118.58],[38.9345,-16.1239,115.4701],[38.9375,-16.1192,114.7146],[38.9268,-16.1087,111.613],[38.9225,-16.0912,115.5945],[38.9134,-16.0751,124.3999],[38.9118,-16.0653,121.6024],[38.915,-16.0478,137.0042],[38.8973,-16.0294,128.6959],[38.8959,-16.0203,137.5116],[38.8841,-16.0046,135.6093],[38.8708,-15.9979,138.8999],[38.8691,-15.9826,146.378],[38.8739,-15.954,156.1667],[38.8715,-15.9417,163.5398],[38.8599,-15.9268,159.1202],[38.852,-15.9245,169.4491],[38.8448,-15.915,168.7317],[38.8483,-15.8915,167.1025],[38.839,-15.8865,174.6051],[38.8282,-15.8833,187.5234],[38.8246,-15.874,192.6315],[38.8215,-15.8412,190.9815],[38.8147,-15.8356,190.9868],[38.8071,-15.8261,193.4778],[38.8044,-15.8166,193.5932],[38.8043,-15.8012,198.797],[38.8018,-15.7916,207.9059],[38.7883,-15.7766,205.6111],[38.7891,-15.7755,212.8597],[38.7855,-15.7675,212.0376],[38.7765,-15.7681,203.183],[38.7605,-15.7719,207.3668],[38.7517,-15.7711,215.2503],[38.7363,-15.7562,212.0162],[38.727,-15.7443,232.5181],[38.7008,-15.727,219.6966],[38.6973,-15.7186,222.1467],[38.6973,-15.7072,230.5453],[38.693,-15.6925,235.9845],[38.6806,-15.6756,249.3704],[38.6537,-15.6789,263.4184],[38.6253,-15.6789,277.4745],[38.6187,-15.6756,288.3675],[38.6002,-15.6744,326.4696],[38.5838,-15.659,331.5563],[38.5643,-15.6466,340.3376],[38.5406,-15.6177,349.1049],[38.5238,-15.5879,362.3365],[38.5128,-15.5779,366.4818],[38.4493,-15.5532,375.3194],[38.44,-15.5421,374.168],[38.4339,-15.5247,378.1741],[38.3974,-15.5012,398.5127],[38.3747,-15.476,405.819],[38.3668,-15.4621,396.828],[38.3561,-15.4608,400.4596],[38.3416,-15.463,401.5521],[38.3292,-15.46,405.539],[38.319,-15.4475,409.3281],[38.2989,-15.4526,411.4269],[38.2758,-15.4526,421.5403],[38.2641,-15.4494,423.6416],[38.2592,-15.441,417.2213],[38.2533,-15.437,408.4197],[38.2386,-15.4453,434.4013],[38.2107,-15.4448,446.1072],[38.2034,-15.441,473.2557],[38.1875,-15.4323,478.0125],[38.1748,-15.4221,467.1072],[38.1675,-15.4076,472.9248],[38.1655,-15.3952,470.3062],[38.1605,-15.3916,473.9332],[38.1493,-15.391,476.6389],[38.1381,-15.3816,477.711],[38.1308,-15.3811,478.0998],[38.1272,-15.3728,476.309],[38.1306,-15.3612,493.7079],[38.1402,-15.349,478.7788],[38.1399,-15.3413,478.3365],[38.1339,-15.3402,502.6129],[38.1222,-15.3422,507.0041],[38.1083,-15.3421,488.5222],[38.0987,-15.3356,494.3554],[38.0952,-15.3241,497.9092],[38.0884,-15.3246,503.2799],[38.0748,-15.3291,514.7643],[38.0645,-15.3295,507.709],[38.0543,-15.3253,509.3685],[38.0507,-15.3158,511.1921],[38.0452,-15.3122,515.4539],[38.0358,-15.3192,526.3823],[38.0347,-15.3187,526.3823],[38.0041,-15.2926,521.5218],[38.0197,-15.2986,534.4534],[38.0047,-15.2915,521.5218],[38.0019,-15.2617,540.5452],[37.9802,-15.259,560.1227],[37.9492,-15.2383,549.812],[37.9366,-15.2341,548.1864],[37.9175,-15.2627,581.4796],[37.9155,-15.2746,580.8074],[37.9111,-15.2767,587.1005],[37.8986,-15.2767,624.9687],[37.8521,-15.3006,642.6245],[37.8435,-15.3068,656.1278],[37.8117,-15.3387,711.3986],[37.8086,-15.3489,692.8863],[37.8135,-15.3624,682.0957],[37.8234,-15.3719,683.8979],[37.8364,-15.3931,669.6313],[37.8418,-15.3978,693.3668],[37.8521,-15.4375,668.4387],[37.8682,-15.4496,618.1205],[37.8731,-15.4565,630.9824],[37.8858,-15.4647,637.8378],[37.8936,-15.4759,633.5972],[37.8952,-15.4979,615.0715],[37.8924,-15.5191,608.8906],[37.8938,-15.5269,599.6028],[37.8989,-15.5309,614.0132],[37.9087,-15.5318,603.241],[37.9308,-15.5286,577.5349],[37.9383,-15.5325,603.0255],[37.9521,-15.536,607.0913],[37.958,-15.5487,597.7324],[37.9588,-15.5605,581.2204],[37.962,-15.5738,553.0837],[37.9638,-15.5787,581.8999],[37.9702,-15.5831,600.1885],[37.9744,-15.6015,589.5441],[37.9906,-15.6188,613.9474],[37.994,-15.652,440.5947],[37.9898,-15.6614,426.8188],[37.9771,-15.6751,412.0278],[37.9825,-15.6827,410.0648],[37.9838,-15.7007,392.5252],[37.9885,-15.7073,381.4123],[37.995,-15.7072,376.3812],[37.9963,-15.7096,380.1857],[37.9947,-15.7168,382.2093],[37.9955,-15.7216,370.5555],[38.0062,-15.7301,374.9896],[38.0171,-15.7431,367.0955],[38.0085,-15.7592,368.1365],[38.0058,-15.7601,366.1769],[38.0011,-15.75,359.3247],[37.9987,-15.7488,366.2177],[37.9906,-15.7579,366.5103],[37.9863,-15.7668,375.1594],[37.9877,-15.7869,393.2226],[37.9843,-15.8115,426.4038],[37.9994,-15.813,505.4107],[38.0048,-15.8096,506.2692],[38.009,-15.8123,458.5623],[38.0037,-15.8377,382.739],[38.0048,-15.8427,368.5587],[38.0121,-15.8468,384.0352],[38.0261,-15.8596,341.7211],[38.027,-15.865,348.8678],[38.0115,-15.8757,356.181],[38.0037,-15.8883,374.1829],[38.0065,-15.9034,411.778],[38.0151,-15.9178,405.5149],[38.0129,-15.9233,388.9906],[38.0134,-15.9295,403.4288],[38.0064,-15.9389,381.8988],[38.0067,-15.9591,344.5139],[38.0053,-15.9635,351.7265],[37.9994,-15.9712,338.0472],[37.9945,-15.9725,326.4896],[37.9922,-15.9752,321.472],[37.9925,-15.9812,317.703],[37.9956,-15.9867,324.0922],[37.9948,-15.9904,311.9355],[37.9864,-16.0024,330.1301],[37.9921,-16.0148,371.5234],[38.005,-16.033,330.0626],[38.02,-16.0438,297.9236],[38.0145,-16.0618,275.5016],[38.0009,-16.0819,257.3898],[37.9966,-16.0934,250.747],[37.9887,-16.0998,248.5936],[37.9733,-16.105,234.5287],[37.9597,-16.1172,231.0585],[37.9414,-16.1648,219.3335],[37.9463,-16.189,201.7868],[37.9539,-16.1956,221.8043],[37.9562,-16.2028,199.2141],[37.9497,-16.2179,198.5374],[37.9482,-16.2635,179.4207],[37.9422,-16.2741,201.3708],[37.9298,-16.2824,230.4864],[37.9194,-16.2921,203.5965]]]]}}