{"type":"Feature","properties":{"GID_2":"MOZ.2.3_1","GID_0":"MOZ","country":"Mozambique","GID_1":"MOZ.2_1","province":"Gaza","NL_NAME_1":"NA","county":"Chicualacuala","VARNAME_2":"NA","NL_NAME_2":"NA","TYPE_2":"Distrito","ENGTYPE_2":"District","CC_2":"NA","HASC_2":"MZ.GA.CC","name":"Chicualacuala.county"},
"geometry":{"type": "MultiPolygon","coordinates": [[[[32.2888,-23.2996,89.7411],[32.2809,-23.2715,109.8586],[32.2812,-23.2616,105.1211],[32.2754,-23.2585,107.9009],[32.2796,-23.2297,135.0202],[32.2835,-23.2164,161.1075],[32.2854,-23.1912,168.7046],[32.3343,-23.0897,169.6355],[32.3962,-22.9989,158.0238],[32.4195,-22.9855,153.2439],[32.9053,-22.9816,94.0919],[32.7459,-22.8158,99.3864],[32.6623,-22.6192,103.3964],[32.6413,-22.4531,127.6584],[32.6103,-22.458,129.3814],[32.6088,-22.3506,142.7339],[32.5926,-22.2785,154.259],[32.6063,-22.1557,160.3735],[32.5919,-22.0682,176.6908],[32.5799,-22.0845,176.3961],[32.5667,-22.0919,178.6008],[32.5439,-22.0976,183.1096],[32.528,-22.1042,183.5599],[32.5023,-22.1086,191.683],[32.4721,-22.1213,196.8937],[32.454,-22.1316,197.1328],[32.4138,-22.1507,201.9756],[32.377,-22.1732,199.1616],[32.34,-22.1675,206.8046],[32.3326,-22.155,207.3282],[32.3208,-22.1411,211.6197],[32.3098,-22.1343,214.7944],[32.3027,-22.1176,216.1888],[32.3096,-22.1021,221.7657],[32.3017,-22.0934,221.4839],[32.2859,-22.0889,225.0157],[32.2711,-22.0796,226.7548],[32.2544,-22.0795,229.6078],[32.2498,-22.0642,233.1125],[32.2412,-22.0527,233.0562],[32.23,-22.0416,236.7223],[32.2216,-22.0218,239.6609],[32.2211,-22.0123,240.0575],[32.2018,-21.9985,247.0894],[32.1779,-21.9777,255.5179],[32.1458,-21.9671,261.6716],[32.1337,-21.96,259.8385],[32.1247,-21.945,259.6555],[32.1097,-21.9298,270.6954],[32.1082,-21.9356,273.8327],[32.0942,-21.9379,282.9218],[32.0822,-21.9425,302.1076],[32.0757,-21.9516,285.1313],[31.9572,-21.8935,352.3591],[31.8673,-21.8807,383.101],[31.7578,-21.9939,483.2856],[31.7455,-22.0039,487.2104],[31.6816,-22.0697,455.5742],[31.6805,-22.0687,456.0549],[31.6113,-22.1408,321.9019],[31.5903,-22.1595,311.8247],[31.5374,-22.2148,247.7038],[31.5287,-22.2211,256.6233],[31.504,-22.2515,247.647],[31.4977,-22.2555,247.7252],[31.4867,-22.2666,231.8869],[31.4815,-22.2695,232.6514],[31.4699,-22.2836,214.2703],[31.3815,-22.3718,295.5596],[31.3073,-22.4203,198.5062],[31.3094,-22.422,199.111],[31.3074,-22.4235,193.0],[31.5458,-23.1372,282.747],[31.5636,-23.1982,288.2188],[31.5616,-23.2216,259.3221],[31.5718,-23.226,262.4503],[31.5996,-23.23,233.6621],[31.6149,-23.3006,267.4939],[31.6278,-23.3185,216.2039],[31.6333,-23.335,244.8447],[31.6537,-23.3705,219.5562],[31.666,-23.4014,206.8057],[31.6815,-23.4046,192.7543],[31.7153,-23.4206,201.3512],[31.7259,-23.4282,213.7603],[31.7378,-23.4301,187.0579],[31.7544,-23.4258,197.1552],[31.7769,-23.4301,177.6031],[31.7901,-23.4297,175.6271],[31.7984,-23.4383,169.2346],[31.8076,-23.452,180.9536],[31.8168,-23.4537,173.0016],[31.8515,-23.4651,170.9325],[31.856,-23.4793,164.1912],[31.8654,-23.4823,167.1544],[31.883,-23.476,163.5288],[31.8983,-23.4681,158.7365],[31.9103,-23.5076,149.4735],[31.9109,-23.518,158.8233],[31.9181,-23.524,145.1924],[31.919,-23.5396,155.5404],[31.9379,-23.5586,163.2607],[31.958,-23.5671,185.429],[31.9758,-23.5685,195.2792],[31.9814,-23.5736,185.6347],[31.9903,-23.5771,177.2607],[32.2466,-23.5726,177.2855],[32.2951,-23.5657,174.3889],[32.3914,-23.5822,162.6239],[32.4093,-23.5774,122.6953],[32.4279,-23.5819,102.5925],[32.45,-23.5837,88.3559],[32.4592,-23.5725,73.6795],[32.4609,-23.5428,78.3057],[32.4661,-23.5247,75.1877],[32.4599,-23.494,83.1253],[32.4556,-23.4806,74.8461],[32.4487,-23.4663,86.4254],[32.4388,-23.4601,80.469],[32.4272,-23.4553,82.6645],[32.4131,-23.4457,86.3307],[32.3875,-23.4164,84.1054],[32.3645,-23.385,86.4303],[32.3362,-23.354,85.8852],[32.3242,-23.3473,88.4993],[32.2966,-23.3155,91.3693],[32.2888,-23.2996,89.7411]]]]}}