{"type": "Feature","bbox": [35.1623,-14.1072,35.6928,-13.6332],"geometry": {"type": "MultiPolygon","coordinates": [[[[35.3113,-13.9752,1265.4148],[35.4147,-14.0895,1028.5154],[35.4401,-14.0883,963.7239],[35.45,-14.0925,943.3333],[35.4685,-14.1072,928.7003],[35.4761,-14.1067,929.6244],[35.4857,-14.1027,927.5156],[35.4925,-14.0978,922.9498],[35.5081,-14.0928,910.1727],[35.5176,-14.0943,917.2972],[35.53,-14.09,908.3488],[35.5554,-14.0913,897.1283],[35.562,-14.0888,882.1205],[35.5813,-14.0748,860.6403],[35.5903,-14.0632,848.3368],[35.5973,-14.0663,834.7418],[35.6027,-14.0709,841.8225],[35.608,-14.071,828.9407],[35.6196,-14.0595,820.8895],[35.6238,-14.0576,824.2993],[35.6305,-14.0587,823.6011],[35.6391,-14.0529,823.824],[35.6445,-14.0524,807.554],[35.6521,-14.0418,794.2714],[35.653,-14.0326,789.7473],[35.6572,-14.0245,796.3248],[35.6559,-14.0167,790.4281],[35.6639,-14.0104,784.3959],[35.6676,-13.9999,778.3301],[35.6802,-13.9814,783.6193],[35.6928,-13.969,773.7035],[35.6875,-13.9535,776.2902],[35.6875,-13.9237,828.0732],[35.6599,-13.8939,870.8897],[35.6111,-13.8524,847.7417],[35.6147,-13.8332,920.0556],[35.5164,-13.7916,1068.7471],[35.53,-13.7349,1003.9647],[35.4793,-13.6754,952.7755],[35.494,-13.6553,945.334],[35.4728,-13.6332,912.4452],[35.4574,-13.6486,930.855],[35.4463,-13.6572,943.966],[35.4317,-13.6655,941.894],[35.4071,-13.6761,949.0573],[35.3895,-13.6966,966.0242],[35.3771,-13.7035,990.2573],[35.3677,-13.7015,1002.5114],[35.3381,-13.7096,1092.6957],[35.331,-13.7094,1112.2902],[35.3217,-13.7197,1126.5497],[35.3146,-13.7186,1146.4351],[35.3053,-13.7133,1145.3276],[35.2818,-13.7156,1164.4492],[35.2771,-13.7267,1167.6692],[35.2766,-13.7386,1165.0098],[35.2716,-13.7424,1184.6638],[35.2003,-13.7473,996.1278],[35.1824,-13.7741,805.0491],[35.1741,-13.7805,764.9184],[35.1699,-13.7784,911.2086],[35.1623,-13.7939,714.7803],[35.1623,-13.7968,716.1917],[35.2302,-13.8848,1302.4624],[35.3113,-13.9752,1265.4148]]]]}
,"properties": {"GID_3": "MOZ.8.13.2_1","GID_0": "MOZ","country": "Mozambique","GID_1": "MOZ.8_1","province": "Nassa","NL_NAME_1": "NA","GID_2": "MOZ.8.13_1","county": "N'gauma","NL_NAME_2": "NA","city": "Massangulo","VARNAME_3": "NA","NL_NAME_3": "NA","TYPE_3": "Localidad","ENGTYPE_3": "Locality","CC_3": "NA","HASC_3": "NA","name": "Massangulo.city","area_km2": 1639.103,"hist_schema_id": "Elevation0-9000","hist_area_km2": {"650": 0.103,"675": 0.165,"700": 0.7,"725": 1.03,"750": 1.194,"775": 6.421,"800": 28.457,"825": 44.302,"850": 53.397,"875": 56.423,"900": 58.438,"925": 74.491,"950": 81.359,"975": 109.61,"1000": 126.034,"1025": 124.427,"1050": 123.867,"1075": 115.451,"1100": 97.649,"1125": 89.686,"1150": 77.648,"1175": 73.368,"1200": 64.907,"1225": 61.362,"1250": 51.272,"1275": 40.445,"1300": 25.831,"1325": 15.89,"1350": 10.785,"1375": 6.875,"1400": 4.652,"1425": 3.582,"1450": 2.141,"1475": 1.771,"1500": 1.235,"1525": 1.174,"1550": 1.277,"1575": 0.618,"1600": 0.412,"1625": 0.391,"1650": 0.144,"1675": 0.082,"1700": 0.041}}}