{"type": "Feature","bbox": [32.2466,-24.191,33.2471,-22.9644],"geometry": {"type": "MultiPolygon","coordinates": [[[[33.0471,-23.6331,71.022],[33.0161,-23.6269,69.1336],[33.0242,-23.5576,79.3714],[33.101,-23.4317,64.7662],[33.1122,-23.3679,71.5862],[33.1409,-23.3514,67.0141],[33.1853,-23.2395,69.2546],[33.2135,-23.0433,69.7294],[33.2471,-23.0008,68.3825],[33.0194,-22.9644,81.2386],[32.9985,-22.965699999999998,88.186],[32.9053,-22.9816,94.0919],[32.4195,-22.9855,153.2439],[32.3962,-22.9989,158.0238],[32.3343,-23.0897,169.6355],[32.2998,-23.1593,185.3517],[32.2854,-23.1912,168.7046],[32.2835,-23.2164,161.1075],[32.2796,-23.2297,135.0202],[32.2754,-23.2585,107.9009],[32.2812,-23.2616,105.1211],[32.2809,-23.2715,109.8586],[32.2832,-23.2825,100.0208],[32.2888,-23.2996,89.7411],[32.2966,-23.3155,91.3693],[32.3242,-23.3473,88.4993],[32.3362,-23.354,85.8852],[32.3645,-23.385,86.4303],[32.3875,-23.4164,84.1054],[32.4131,-23.4457,86.3307],[32.4272,-23.4553,82.6645],[32.4388,-23.4601,80.469],[32.4487,-23.4663,86.4254],[32.4556,-23.4806,74.8461],[32.4599,-23.494,83.1253],[32.4661,-23.5247,75.1877],[32.4609,-23.5428,78.3057],[32.4592,-23.5725,73.6795],[32.45,-23.5837,88.3559],[32.4279,-23.5819,102.5925],[32.4093,-23.5774,122.6953],[32.3914,-23.5822,162.6239],[32.2951,-23.5657,174.3889],[32.2466,-23.5726,177.2855],[32.2507,-23.5924,175.4049],[32.2599,-23.6128,173.9144],[32.2704,-23.6303,174.1493],[32.2754,-23.637,173.0753],[32.2893,-23.6436,172.3252],[32.3029,-23.6578,165.958],[32.3307,-23.6959,160.52],[32.3522,-23.7317,153.0896],[32.3993,-23.7896,133.784],[32.4214,-23.8589,138.5008],[32.4636,-23.9529,121.2847],[32.5226,-23.9981,100.6871],[32.5221,-24.0009,100.176],[32.5438,-24.0163,89.7986],[32.5497,-24.0281,85.3702],[32.5592,-24.0339,82.972],[32.5815,-24.0359,66.0769],[32.5993,-24.0479,51.653],[32.606,-24.0492,56.2048],[32.6117,-24.0525,51.3734],[32.6125,-24.0673,47.5126],[32.6145,-24.0747,46.4555],[32.6265,-24.1009,45.1795],[32.6371,-24.1105,45.7249],[32.6512,-24.1145,64.5761],[32.672,-24.1266,79.7103],[32.7039,-24.1604,47.0956],[32.721,-24.1707,38.6591],[32.7263,-24.1781,37.0],[32.7399,-24.191,45.5746],[32.8357,-24.0924,58.6837],[32.8911,-24.0243,58.3328],[32.914,-24.0035,64.7289],[32.9111,-23.9997,64.5446],[32.9789,-23.9394,62.0256],[32.9986,-23.9498,58.4316],[33.0079,-23.9523,58.643],[33.0151,-23.9355,61.5172],[33.0172,-23.9194,60.487],[33.0386,-23.8795,56.7186],[33.0992,-23.7312,64.0634],[33.1149,-23.6728,71.657],[33.1186,-23.6508,66.5265],[33.1137,-23.6431,68.7598],[33.108,-23.6405,67.6328],[33.1022,-23.6415,69.6511],[33.0857,-23.6487,68.2082],[33.0751,-23.6483,67.8536],[33.0471,-23.6331,71.022]]]]}
,"properties": {"GID_2": "MOZ.2.7_1","GID_0": "MOZ","country": "Mozambique","GID_1": "MOZ.2_1","province": "Gaza","NL_NAME_1": "NA","county": "Mabalane","VARNAME_2": "NA","NL_NAME_2": "NA","TYPE_2": "Distrito","ENGTYPE_2": "District","CC_2": "NA","HASC_2": "MZ.GA.MB","name": "Mabalane.county","area_km2": 8968.542,"hist_schema_id": "Elevation0-9000","hist_area_km2": {"25": 0.097,"50": 229.951,"75": 3101.719,"100": 2627.16,"125": 1815.569,"150": 884.895,"175": 308.898,"200": 0.253}}}