{"type":"Feature","properties":{"GID_3":"MOZ.7.17.1_1","GID_0":"MOZ","country":"Mozambique","GID_1":"MOZ.7_1","province":"Nampula","NL_NAME_1":"NA","GID_2":"MOZ.7.17_1","county":"Nampula","NL_NAME_2":"NA","city":"Anchilo","VARNAME_3":"NA","NL_NAME_3":"NA","TYPE_3":"Localidad","ENGTYPE_3":"Locality","CC_3":"NA","HASC_3":"NA","name":"Anchilo.city"},
"geometry":{"type": "MultiPolygon","coordinates": [[[[39.6078,-15.007,235.0492],[39.5914,-14.9988,263.7704],[39.587,-14.9946,263.534],[39.5781,-14.9985,248.6813],[39.5736,-14.9986,243.3352],[39.5524,-14.9921,286.1514],[39.5479,-14.9922,258.7708],[39.5435,-14.9959,266.7481],[39.5359,-14.9925,265.6882],[39.521,-14.9948,267.11],[39.4946,-15.0095,269.7123],[39.4808,-15.0047,268.2899],[39.4691,-15.0073,271.8849],[39.4556,-15.0078,276.132],[39.4375,-15.0031,286.7213],[39.3592,-15.1037,362.3652],[39.3522,-15.1193,406.1592],[39.3561,-15.1502,379.8608],[39.322,-15.1647,384.6992],[39.3083,-15.173,413.3763],[39.29,-15.1683,354.0914],[39.2623,-15.1748,325.231],[39.2542,-15.174,331.0974],[39.2462,-15.1796,310.9767],[39.2305,-15.1998,296.9656],[39.2247,-15.1974,319.4246],[39.2208,-15.1873,329.4996],[39.2001,-15.1842,383.1789],[39.1907,-15.1759,395.158],[39.1825,-15.1604,387.4132],[39.1748,-15.1516,379.9986],[39.1701,-15.1256,354.331],[39.1602,-15.1304,344.6457],[39.1486,-15.1461,327.4267],[39.1417,-15.1516,327.8811],[39.1271,-15.1506,313.3967],[39.1203,-15.1539,308.0678],[39.1144,-15.1586,313.4009],[39.1216,-15.1646,309.9001],[39.1153,-15.1717,295.0948],[39.113,-15.1871,294.2941],[39.1186,-15.2014,269.5321],[39.1079,-15.2267,262.3575],[39.1059,-15.2355,278.7112],[39.1179,-15.2418,269.3849],[39.1242,-15.248,254.7273],[39.1277,-15.2543,267.5607],[39.1256,-15.2807,240.9429],[39.1269,-15.316,252.3107],[39.1261,-15.3545,240.867],[39.1276,-15.3616,248.0386],[39.1315,-15.3693,248.8823],[39.1366,-15.3729,235.3805],[39.1409,-15.3706,228.7761],[39.1509,-15.3722,233.1023],[39.1608,-15.3713,233.2638],[39.1736,-15.3823,231.9666],[39.2315,-15.4152,206.8267],[39.234,-15.4374,204.8702],[39.2375,-15.4337,209.652],[39.2416,-15.4362,204.0142],[39.2473,-15.4349,209.2623],[39.2668,-15.4183,222.8023],[39.2828,-15.4095,234.9225],[39.2881,-15.4088,233.8041],[39.3005,-15.4123,266.591],[39.3098,-15.4104,277.04],[39.3246,-15.4154,285.6784],[39.3295,-15.4006,296.5766],[39.3346,-15.395,302.7184],[39.3402,-15.3939,301.7984],[39.3478,-15.3956,299.3159],[39.3635,-15.4054,272.4325],[39.3706,-15.4059,254.0297],[39.3754,-15.4016,257.9105],[39.3671,-15.3975,274.801],[39.3607,-15.3841,343.7147],[39.3611,-15.379,275.1149],[39.3787,-15.3701,291.648],[39.3814,-15.3639,292.5807],[39.3815,-15.3561,322.2783],[39.3764,-15.3479,329.7454],[39.3835,-15.3435,350.2949],[39.3962,-15.3256,312.3538],[39.4043,-15.3294,296.7151],[39.4197,-15.3412,283.2947],[39.4236,-15.3424,280.1224],[39.4332,-15.3413,272.4572],[39.4454,-15.3262,265.8241],[39.451,-15.3216,260.2298],[39.4752,-15.3236,260.1677],[39.4898,-15.3132,261.8336],[39.4929,-15.3055,262.9011],[39.4924,-15.2991,279.1454],[39.4895,-15.2867,273.0922],[39.4819,-15.2765,276.8804],[39.4833,-15.2556,300.354],[39.4807,-15.2423,312.5089],[39.4789,-15.2086,325.9318],[39.5028,-15.2069,305.3636],[39.5037,-15.1862,308.6202],[39.5227,-15.1728,279.7457],[39.5421,-15.1642,252.725],[39.5516,-15.1551,243.0933],[39.5588,-15.1519,247.1193],[39.5685,-15.1516,242.1523],[39.5792,-15.1541,235.6786],[39.5853,-15.1533,235.3343],[39.5873,-15.1414,251.6441],[39.5852,-15.1338,260.9885],[39.5845,-15.117,285.9104],[39.5782,-15.1058,282.2646],[39.5679,-15.0953,303.0744],[39.566,-15.081,323.2732],[39.5573,-15.0598,283.6996],[39.579,-15.0318,263.3871],[39.5949,-15.0165,250.214],[39.6078,-15.007,235.0492]]]]}}