{"type": "Feature","bbox": [34.6324,-19.1224,35.9076,-17.8626],"geometry": {"type": "MultiPolygon","coordinates": [[[[35.721,-19.0871,0.5605],[35.7204,-19.0868,0.5605],[35.7199,-19.0915,0.655],[35.7218,-19.0904,0.471],[35.721,-19.0871,0.5605]]],
[[[35.8968,-18.9601,0.5],[35.8954,-18.9596,0.5],[35.8982,-18.9621,0.5],[35.8996,-18.961,0.5],[35.8993,-18.9604,0.5],[35.8968,-18.9601,0.5]]],
[[[35.889,-18.9562,0.5],[35.8876,-18.9557,1.0164],[35.8865,-18.9601,0.5],[35.8896,-18.9568,0.5],[35.889,-18.9562,0.5]]],
[[[35.6954,-19.1137,0.6214],[35.6901,-19.119,0.0],[35.6904,-19.1224,0.0],[35.6946,-19.121,0.0],[35.6965,-19.1154,1.6946],[35.6954,-19.1137,0.6214]]],
[[[34.9281,-18.1848,35.2889],[34.9118,-18.199,37.2943],[34.8658,-18.2333,42.5466],[34.8116,-18.3036,49.5865],[34.8052,-18.3154,50.1988],[34.7864,-18.336,51.7295],[34.7737,-18.344,51.9944],[34.7615,-18.3549,56.7484],[34.7407,-18.3819,53.2257],[34.718,-18.4065,53.7469],[34.6854,-18.434,50.9839],[34.6646,-18.4554,56.2077],[34.6537,-18.4743,50.1022],[34.6511,-18.4911,45.996],[34.6471,-18.5002,46.6338],[34.6462,-18.5121,42.8914],[34.6499,-18.5351,38.9734],[34.6391,-18.6012,38.0763],[34.6431,-18.6147,35.3634],[34.6409,-18.6266,33.4318],[34.6339,-18.6316,33.0977],[34.6324,-18.6385,32.1867],[34.6349,-18.6475,33.0223],[34.6436,-18.6434,39.3338],[34.6897,-18.6509,63.6532],[34.6952,-18.6586,69.9616],[34.7069,-18.6629,78.2774],[34.717,-18.6702,83.7643],[34.763,-18.6806,211.1683],[34.7969,-18.7042,231.9314],[34.8176,-18.7117,257.3611],[34.8297,-18.7133,283.8088],[34.8385,-18.7165,278.1166],[34.8539,-18.7095,303.4833],[34.8928,-18.7056,235.5222],[34.9026,-18.7004,229.9082],[34.9093,-18.703,216.7649],[34.9271,-18.7152,205.0009],[34.9436,-18.7308,190.512],[34.9576,-18.7404,187.7179],[34.9957,-18.732,173.5358],[35.004,-18.7344,173.131],[35.0401,-18.726,160.3704],[35.0503,-18.7368,162.7954],[35.0632,-18.7446,147.126],[35.0723,-18.7433,153.3792],[35.0744,-18.7512,150.8221],[35.0998,-18.7668,147.8344],[35.1099,-18.7704,147.7194],[35.1381,-18.7752,148.4615],[35.1934,-18.7776,117.6575],[35.2025,-18.7766,115.4372],[35.2194,-18.7681,117.2259],[35.2293,-18.7668,111.0298],[35.2471,-18.7668,109.289],[35.2572,-18.7712,103.738],[35.2655,-18.7786,93.52],[35.3136,-18.8352,82.0763],[35.3219,-18.8476,76.4614],[35.334,-18.8731,60.9041],[35.3385,-18.8786,68.1375],[35.36,-18.8953,53.5977],[35.369,-18.9078,58.1216],[35.4067,-18.9127,46.4095],[35.4227,-18.9186,46.4515],[35.4333,-18.9356,44.4899],[35.4509,-18.9587,34.976],[35.468,-18.9662,37.2019],[35.4832,-18.959,31.6757],[35.506,-18.9638,26.7053],[35.5348,-18.9638,19.5626],[35.5517,-18.9722,15.8981],[35.5721,-18.9851,12.87],[35.5876,-19.0054,9.532],[35.6013,-19.0094,8.7845],[35.6101,-19.0142,8.639],[35.6165,-19.0202,11.5078],[35.6343,-19.0286,6.4445],[35.6432,-19.0443,2.0666],[35.6472,-19.0485,3.5665],[35.6647,-19.0616,5.017],[35.6817,-19.0772,2.9298],[35.6836,-19.086,5.0768],[35.6882,-19.0896,4.5881],[35.6876,-19.0957,0.5],[35.6904,-19.0996,0.5],[35.6849,-19.1085,5.163],[35.6893,-19.1174,0.0],[35.6918,-19.1171,0.0],[35.6946,-19.1124,6.9675],[35.6985,-19.1099,1.9113],[35.7004,-19.1113,2.0777],[35.7001,-19.1162,1.5287],[35.7074,-19.1149,0.0],[35.7185,-19.1018,1.6346],[35.7343,-19.0901,0.0],[35.7337,-19.0888,0.0],[35.7276,-19.0946,0.0],[35.7199,-19.096,0.5],[35.7196,-19.0985,8.4133],[35.7171,-19.1004,1.7927],[35.7126,-19.0996,5.7582],[35.7146,-19.099,4.8424],[35.7165,-19.0999,1.7927],[35.7185,-19.0946,0.5],[35.7188,-19.0862,0.5],[35.7149,-19.0871,3.0427],[35.7174,-19.0807,1.3977],[35.7218,-19.0782,1.6585],[35.7185,-19.0829,2.074],[35.7263,-19.0843,0.0],[35.7374,-19.074,5.4226],[35.7407,-19.0735,0.7223],[35.7421,-19.0774,0.0],[35.7457,-19.0701,5.1976],[35.7549,-19.0615,3.2479],[35.7899,-19.0371,1.4883],[35.8404,-19.0065,3.4208],[35.8946,-18.9796,0.0],[35.9065,-18.9713,0.0],[35.9076,-18.9674,0.0],[35.8993,-18.9674,0.5],[35.8913,-18.9604,0.5],[35.8771,-18.9649,6.7937],[35.8707,-18.9693,2.6502],[35.8649,-18.9693,7.9797],[35.8707,-18.9682,2.6502],[35.8843,-18.9582,0.5],[35.8816,-18.9582,12.8452],[35.8762,-18.953,7.7472],[35.869,-18.958,10.2103],[35.8677,-18.9536,12.1639],[35.8666,-18.9541,11.8438],[35.8671,-18.9524,8.6994],[35.8745,-18.9487,10.4969],[35.8838,-18.9488,9.1302],[35.8885,-18.9435,1.3936],[35.8857,-18.9263,9.3343],[35.4483,-18.4899,84.7856],[35.2905,-17.999,57.3198],[35.2929,-17.9865,48.0003],[35.3085,-17.9679,56.6298],[35.3082,-17.9494,58.0609],[35.3158,-17.9216,48.9255],[35.3235,-17.9123,66.8969],[35.3229,-17.8626,23.7693],[35.3114,-17.8753,24.2077],[35.308,-17.8888,23.1543],[35.2855,-17.9126,23.2754],[35.2764,-17.9157,23.3024],[35.2629,-17.9235,23.5592],[35.2457,-17.9182,23.8863],[35.2197,-17.8984,24.9207],[35.2073,-17.9031,26.7062],[35.1963,-17.911,24.945],[35.1602,-17.9507,23.3427],[35.1494,-17.9496,24.0829],[35.1313,-17.9645,25.4157],[35.0974,-17.9745,22.8283],[35.0841,-17.9887,23.0338],[35.0709,-17.9995,23.0091],[35.0704,-18.0128,23.0519],[35.072,-18.0232,23.3669],[35.076,-18.0334,23.8943],[35.0699,-18.0577,24.090699999999998],[35.0724,-18.064,24.0178],[35.0647,-18.0647,25.0617],[35.0569,-18.0727,25.6351],[35.0511,-18.0749,25.1996],[35.0208,-18.0956,27.3118],[35.0167,-18.0952,27.798],[35.0127,-18.0994,27.7139],[35.0041,-18.1043,27.9021],[34.9969,-18.0973,28.5255],[34.9818,-18.1046,28.8925],[34.9754,-18.1158,27.3076],[34.9728,-18.1294,29.4848],[34.9573,-18.1449,29.0294],[34.9578,-18.1573,31.8162],[34.9281,-18.1848,35.2889]]]]}
,"properties": {"GID_2": "MOZ.9.4_1","GID_0": "MOZ","country": "Mozambique","GID_1": "MOZ.9_1","province": "Sofala","NL_NAME_1": "NA","county": "Cheringoma","VARNAME_2": "NA","NL_NAME_2": "NA","TYPE_2": "Distrito","ENGTYPE_2": "District","CC_2": "NA","HASC_2": "MZ.SO.CR","name": "Cheringoma.county","area_km2": 7197.499,"hist_schema_id": "Elevation0-9000","hist_area_km2": {"0": 691.717,"25": 647.103,"50": 824.354,"75": 632.557,"100": 567.124,"125": 529.106,"150": 579.37,"175": 596.05,"200": 568.918,"225": 555.052,"250": 507.507,"275": 325.843,"300": 94.744,"325": 44.986,"350": 25.123,"375": 7.946}}}