{"type":"Feature","properties":{"GID_3":"MOZ.9.9.2_1","GID_0":"MOZ","country":"Mozambique","GID_1":"MOZ.9_1","province":"Sofala","NL_NAME_1":"NA","GID_2":"MOZ.9.9_1","county":"Maringue","NL_NAME_2":"NA","city":"Maringue","VARNAME_3":"NA","NL_NAME_3":"NA","TYPE_3":"Localidad","ENGTYPE_3":"Locality","CC_3":"NA","HASC_3":"NA","name":"Maringue.city"},
"geometry":{"type": "MultiPolygon","coordinates": [[[[34.284,-18.0306,400.4415],[34.3088,-18.0308,244.9515],[34.3264,-18.0349,209.5918],[34.3475,-18.0317,187.5595],[34.3555,-18.0331,184.1077],[34.3698,-18.0321,172.6538],[34.3728,-18.037,168.6237],[34.3814,-18.0417,167.1686],[34.3863,-18.0466,166.3048],[34.395,-18.0487,164.0063],[34.4028,-18.0467,172.7375],[34.4094,-18.0518,170.3786],[34.4255,-18.0502,179.756],[34.4253,-18.0378,193.676],[34.4422,-18.0144,252.7361],[34.4648,-18.0228,266.8631],[34.4754,-18.0052,215.8895],[34.485,-18.0007,211.8101],[34.4966,-18.0027,200.7726],[34.5048,-17.9991,213.9055],[34.539,-17.996,234.7509],[34.5432,-17.9935,233.0574],[34.5585,-17.9916,216.2907],[34.6004,-17.9811,200.6293],[34.629,-17.983,172.6779],[34.6461,-17.9696,149.6549],[34.6545,-17.968,153.8489],[34.6827,-17.9434,161.7096],[34.6955,-17.9368,176.0501],[34.7216,-17.9272,189.989],[34.7329,-17.9201,202.4261],[34.7447,-17.8925,211.6893],[34.7627,-17.8799,189.2478],[34.7689,-17.8638,176.9043],[34.7831,-17.8471,175.7992],[34.798,-17.8328,171.8346],[34.801,-17.8236,163.5703],[34.7915,-17.8069,153.0742],[34.7586,-17.7679,222.8895],[34.7374,-17.7288,188.2647],[34.7283,-17.7079,173.0718],[34.7279,-17.6997,171.9563],[34.7388,-17.6961,167.2582],[34.7492,-17.6964,159.7036],[34.7632,-17.6933,149.5549],[34.7694,-17.6878,152.1218],[34.7813,-17.6817,159.5527],[34.7733,-17.6706,161.7706],[34.7569,-17.6695,163.1652],[34.7559,-17.663,162.9806],[34.7509,-17.6557,167.6083],[34.7333,-17.6479,176.8236],[34.7264,-17.646,180.2116],[34.7198,-17.6467,178.8655],[34.7151,-17.6497,186.1326],[34.7103,-17.6462,190.6405],[34.7074,-17.6348,197.4789],[34.6999,-17.6315,193.3897],[34.682,-17.6295,207.2138],[34.6734,-17.626,206.8981],[34.6697,-17.6071,216.8258],[34.6594,-17.6115,215.1712],[34.6424,-17.5955,232.1396],[34.6293,-17.5942,238.2998],[34.617,-17.5894,251.5936],[34.5921,-17.5936,259.6147],[34.5842,-17.6219,275.4688],[34.5365,-17.6228,309.444],[34.526,-17.6307,328.7034],[34.3926,-17.6417,399.3226],[34.3208,-17.6879,296.7784],[34.2997,-17.6731,326.607],[34.2868,-17.6738,378.292],[34.2628,-17.666,450.0967],[34.161,-17.6903,464.5283],[34.1718,-17.6996,437.3807],[34.2027,-17.7144,404.8038],[34.2086,-17.7449,401.9001],[34.1996,-17.8222,360.9056],[34.1926,-17.8452,349.2096],[34.194,-17.8716,361.8837],[34.2144,-17.87,351.3932],[34.2324,-17.8769,319.8269],[34.2394,-17.8776,325.6593],[34.2538,-17.8966,304.805],[34.2629,-17.9035,293.8641],[34.2718,-17.9077,282.0931],[34.2769,-17.9149,267.2556],[34.2787,-17.9205,264.5167],[34.2881,-17.9334,295.0992],[34.2793,-17.9539,328.6069],[34.2741,-17.9599,387.6405],[34.2651,-17.9766,395.2136],[34.2785,-17.9988,433.7843],[34.284,-18.0306,400.4415]]]]}}