{"type": "Feature","bbox": [33.3573,-18.0386,33.6897,-17.4103],"geometry": {"type": "MultiPolygon","coordinates": [[[[33.4171,-18.019,593.3102],[33.4519,-18.0119,579.6711],[33.4685,-18.0147,568.5055],[33.4841,-18.0187,568.1472],[33.5209,-18.0386,555.889],[33.5575,-18.023,1099.6152],[33.6897,-18.0378,534.9631],[33.6771,-18.0149,533.137],[33.6811,-17.9886,545.3774],[33.6732,-17.9818,538.3739],[33.6733,-17.9772,541.9451],[33.6685,-17.9707,543.1398],[33.6664,-17.9629,545.742],[33.6506,-17.9554,550.5247],[33.6686,-17.894,631.1296],[33.6724,-17.8225,570.2982],[33.6684,-17.8116,561.6604],[33.6663,-17.7971,582.821],[33.6542,-17.7861,580.4913],[33.6393,-17.7513,592.3283],[33.6238,-17.7357,609.1227],[33.6093,-17.7175,622.2363],[33.6089,-17.7095,635.4048],[33.5962,-17.6928,661.3322],[33.6004,-17.6416,587.4961],[33.6035,-17.5282,602.0652],[33.5989,-17.5166,614.7765],[33.5948,-17.5141,615.3304],[33.5934,-17.495,626.9979],[33.5963,-17.4895,636.9201],[33.6034,-17.4823,657.2981],[33.5972,-17.4103,712.6322],[33.5508,-17.4389,758.3851],[33.4902,-17.4247,644.817],[33.4825,-17.4308,658.6645],[33.4752,-17.4454,655.2688],[33.4639,-17.4574,684.0984],[33.4648,-17.4692,667.9652],[33.4612,-17.475,688.4232],[33.4603,-17.4822,679.9991],[33.4251,-17.4754,706.3541],[33.4155,-17.4771,721.1846],[33.4097,-17.4742,725.7177],[33.4004,-17.475,726.8613],[33.3831,-17.4889,756.8802],[33.3645,-17.5177,792.5287],[33.36,-17.5175,792.8991],[33.3627,-17.5322,786.0638],[33.3809,-17.5549,765.3919],[33.3833,-17.5654,741.4003],[33.3824,-17.5861,717.9852],[33.3863,-17.6151,691.9277],[33.3855,-17.6276,688.1389],[33.3783,-17.663,662.3716],[33.3782,-17.6764,667.4053],[33.3643,-17.6864,667.5344],[33.3573,-17.7004,649.3406],[33.3753,-17.7353,707.5057],[33.3958,-17.8264,722.5562],[33.4002,-17.8358,698.2211],[33.3977,-17.8618,666.0051],[33.3955,-17.87,661.694],[33.386,-17.8796,639.4697],[33.3802,-17.8933,632.8085],[33.3764,-17.9302,598.143],[33.4107,-18.0001,622.3421],[33.417,-18.0147,598.4659],[33.4171,-18.019,593.3102]]]]}
,"properties": {"GID_3": "MOZ.4.5.3_1","GID_0": "MOZ","country": "Mozambique","GID_1": "MOZ.4_1","province": "Manica","NL_NAME_1": "NA","GID_2": "MOZ.4.5_1","county": "Macossa","NL_NAME_2": "NA","city": "Nhamangua","VARNAME_3": "NA","NL_NAME_3": "NA","TYPE_3": "Localidad","ENGTYPE_3": "Locality","CC_3": "NA","HASC_3": "NA","name": "Nhamangua.city","area_km2": 1694.098,"hist_schema_id": "Elevation0-9000","hist_area_km2": {"525": 2.903,"550": 30.936,"575": 109.366,"600": 222.136,"625": 281.307,"650": 272.518,"675": 219.721,"700": 216.977,"725": 185.443,"750": 106.061,"775": 32.057,"800": 9.056,"825": 2.0,"850": 1.071,"875": 0.566,"900": 0.465,"925": 0.424,"950": 0.263,"975": 0.162,"1000": 0.061,"1025": 0.081,"1050": 0.162,"1075": 0.081,"1100": 0.141,"1125": 0.02,"1150": 0.02,"1200": 0.02,"1250": 0.02,"1275": 0.02,"1300": 0.04}}}