{"type": "Feature","bbox": [39.3642,-11.9048,39.7649,-11.3273],"geometry": {"type": "MultiPolygon","coordinates": [[[[39.5424,-11.9039,227.7202],[39.5403,-11.8699,239.5226],[39.5598,-11.8574,272.6535],[39.5555,-11.8498,265.4416],[39.5641,-11.8406,279.0627],[39.5638,-11.8273,290.3793],[39.5717,-11.8061,301.0683],[39.6005,-11.77,538.2001],[39.6173,-11.7566,578.7476],[39.6401,-11.7421,736.392],[39.6557,-11.7357,700.4043],[39.6699,-11.7338,687.104],[39.6822,-11.7272,629.965],[39.6979,-11.712,615.7629],[39.7197,-11.6952,522.7179],[39.7289,-11.6914,423.6559],[39.7417,-11.6902,446.9277],[39.7578,-11.675,323.9107],[39.7649,-11.6597,286.3169],[39.7648,-11.6529,278.9703],[39.738,-11.6318,509.5781],[39.7105,-11.6321,531.7753],[39.6833,-11.6347,642.4343],[39.6618,-11.62,631.8804],[39.5916,-11.4856,740.0266],[39.59,-11.3992,667.4105],[39.5232,-11.3844,657.3964],[39.5023,-11.334,530.0813],[39.5022,-11.3273,394.9153],[39.4976,-11.3399,653.4559],[39.4818,-11.3663,655.4333],[39.4818,-11.3813,759.5867],[39.4767,-11.3863,758.0067],[39.4685,-11.3934,755.2023],[39.4532,-11.3985,773.1553],[39.441,-11.4161,814.5311],[39.431,-11.4187,827.7922],[39.4171,-11.4336,855.1666],[39.3642,-11.4544,912.22],[39.4163,-11.5604,952.6434],[39.4161,-11.5753,863.2971],[39.4186,-11.5906,729.4915],[39.416,-11.6173,572.2134],[39.3995,-11.6497,524.9499],[39.3751,-11.6884,416.1501],[39.3684,-11.6937,406.9562],[39.4132,-11.7182,424.719],[39.4324,-11.7243,399.9322],[39.4503,-11.7373,426.8488],[39.4866,-11.7468,363.6415],[39.4897,-11.7532,345.5898],[39.4897,-11.769,333.8971],[39.4881,-11.7759,325.8911],[39.4845,-11.7804,329.3948],[39.4837,-11.7896,323.5298],[39.4912,-11.8006,316.2082],[39.4969,-11.8261,292.0084],[39.4954,-11.8345,285.2656],[39.4979,-11.85,272.6994],[39.4946,-11.8532,277.0683],[39.4974,-11.858,281.8892],[39.4906,-11.8736,265.1308],[39.4912,-11.8806,259.6791],[39.4987,-11.8793,245.0547],[39.5054,-11.8749,248.6236],[39.5016,-11.885,245.4365],[39.5069,-11.8936,227.4162],[39.5071,-11.9012,234.668],[39.5112,-11.9048,231.8082],[39.5424,-11.9039,227.7202]]]]}
,"properties": {"GID_3": "MOZ.1.9.3_1","GID_0": "MOZ","country": "Mozambique","GID_1": "MOZ.1_1","province": "CaboDelgado","NL_NAME_1": "NA","GID_2": "MOZ.1.9_1","county": "Mueda","NL_NAME_2": "NA","city": "Mueda-Sede","VARNAME_3": "NA","NL_NAME_3": "NA","TYPE_3": "Localidad","ENGTYPE_3": "Locality","CC_3": "NA","HASC_3": "NA","name": "Mueda-Sede.city","area_km2": 1210.8487,"hist_schema_id": "Elevation0-9000","hist_area_km2": {"200": 0.2075,"225": 6.1204,"250": 14.939,"275": 20.5431,"300": 22.3714,"325": 26.1094,"350": 21.5243,"375": 20.1974,"400": 26.6342,"425": 44.3245,"450": 38.596,"475": 32.1406,"500": 32.681,"525": 29.6085,"550": 24.5009,"575": 21.9885,"600": 23.7332,"625": 29.4857,"650": 39.7679,"675": 51.8464,"700": 61.2582,"725": 65.7273,"750": 87.2933,"775": 71.3958,"800": 65.457,"825": 62.1947,"850": 57.6255,"875": 56.7975,"900": 56.1722,"925": 61.1357,"950": 28.1059,"975": 10.2618,"1000": 0.1039}}}