{"type": "Feature","bbox": [32.1093,-26.8638,32.5083,-26.4185],"geometry": {"type": "MultiPolygon","coordinates": [[[[32.5081,-26.7336,23.8483],[32.5083,-26.7119,151.0957],[32.3995,-26.5654,51.9106],[32.3219,-26.4988,34.9306],[32.3301,-26.4924,32.576],[32.3319,-26.4928,32.8618],[32.3337,-26.4963,33.3954],[32.3417,-26.4944,30.3104],[32.344,-26.4902,28.8163],[32.3481,-26.4886,27.6011],[32.3527,-26.4813,26.1289],[32.3491,-26.4734,27.8005],[32.3454,-26.4711,27.9128],[32.3479,-26.4568,25.6701],[32.3454,-26.4534,26.0436],[32.3466,-26.4512,25.1409],[32.3454,-26.4457,23.5966],[32.3463,-26.4379,25.901],[32.3137,-26.4185,39.8125],[32.3092,-26.4352,32.9925],[32.3043,-26.4407,35.8841],[32.2644,-26.4415,48.9544],[32.2441,-26.4463,55.0034],[32.2343,-26.4543,58.4064],[32.203,-26.4569,72.0656],[32.1643,-26.4516,93.5408],[32.1459,-26.4615,154.5988],[32.1401,-26.467,184.7682],[32.1248,-26.473,292.3004],[32.1093,-26.476,399.7176],[32.1367,-26.5356,453.6643],[32.1331,-26.8402,41.1647],[32.1414,-26.8414,43.1445],[32.1435,-26.8481,41.786],[32.1458,-26.8504,43.6292],[32.1629,-26.859,37.5717],[32.1863,-26.863,36.9651],[32.1976,-26.8566,34.0228],[32.2045,-26.8548,34.6533],[32.2078,-26.8404,36.3349],[32.2151,-26.8346,36.05],[32.2203,-26.8328,45.8771],[32.2369,-26.8389,32.0296],[32.2488,-26.8405,31.8598],[32.2534,-26.8434,29.6782],[32.2569,-26.8486,30.231],[32.2636,-26.8473,29.1459],[32.2753,-26.8496,30.5032],[32.2804,-26.8488,30.5545],[32.2879,-26.853,37.4008],[32.2957,-26.8528,27.777],[32.3082,-26.8565,29.4402],[32.3166,-26.8528,25.1013],[32.3206,-26.8527,24.3336],[32.3259,-26.8568,28.0413],[32.3298,-26.8632,33.9573],[32.3324,-26.8638,31.0045],[32.339,-26.8598,23.3639],[32.3404,-26.8562,24.5343],[32.3498,-26.8493,23.0999],[32.3615,-26.8361,23.7728],[32.361,-26.8283,21.1526],[32.3641,-26.8208,23.416],[32.3709,-26.8151,28.7375],[32.3798,-26.8127,26.2971],[32.3905,-26.8053,24.0057],[32.3848,-26.7965,20.954],[32.3867,-26.7947,19.7183],[32.3928,-26.7983,25.2601],[32.406,-26.7937,18.8394],[32.4026,-26.7866,25.3881],[32.4031,-26.7769,17.7147],[32.4103,-26.7752,16.6033],[32.421,-26.7794,16.5926],[32.4256,-26.7876,18.7738],[32.4341,-26.792,14.8472],[32.4404,-26.7884,50.5427],[32.4462,-26.7916,22.075],[32.4471,-26.7975,17.2217],[32.4532,-26.7962,16.9628],[32.4617,-26.7992,20.8195],[32.4713,-26.7979,14.5103],[32.4778,-26.7918,17.5899],[32.4875,-26.7775,13.7327],[32.4914,-26.7607,12.2207],[32.4909,-26.7534,12.1342],[32.504,-26.7426,10.8986],[32.5021,-26.7351,54.472],[32.5081,-26.7336,23.8483]]]]}
,"properties": {"GID_3": "MOZ.6.5.2_1","GID_0": "MOZ","country": "Mozambique","GID_1": "MOZ.6_1","province": "Maputo","NL_NAME_1": "NA","GID_2": "MOZ.6.5_1","county": "Matutuíne","NL_NAME_2": "NA","city": "Catuane","VARNAME_3": "NA","NL_NAME_3": "NA","TYPE_3": "Localidad","ENGTYPE_3": "Locality","CC_3": "NA","HASC_3": "NA","name": "Catuane.city","area_km2": 1283.2784,"hist_schema_id": "Elevation0-9000","hist_area_km2": {"0": 2.5178,"25": 172.7972,"50": 489.9533,"75": 354.5796,"100": 127.4515,"125": 50.3873,"150": 21.1672,"175": 14.3844,"200": 13.2482,"225": 10.7259,"250": 7.8447,"275": 5.4216,"300": 3.3367,"325": 3.1095,"350": 2.3137,"375": 2.1049,"400": 0.9294,"425": 0.5122,"450": 0.4173,"475": 0.0759}}}