{"type": "Feature","bbox": [34.861,-13.0889,35.1928,-12.4289],"geometry": {"type": "MultiPolygon","coordinates": [[[[34.861,-12.605,503.6475],[34.8629,-12.6029,509.1038],[34.8848,-12.6256,578.8061],[34.9047,-12.6346,701.0151],[34.9095,-12.6385,747.0179],[34.9118,-12.6472,771.1366],[34.9325,-12.6496,827.785],[34.9394,-12.6468,855.4062],[34.9411,-12.6573,1081.7886],[34.9366,-12.6906,1252.3837],[34.9224,-12.7265,1171.3547],[34.9246,-12.7486,938.1132],[34.9292,-12.8887,1549.3781],[34.9261,-12.8981,1464.9427],[34.9297,-12.906,1330.8051],[34.9416,-12.9072,1255.4072],[34.9504,-12.9045,1252.8257],[34.9624,-12.9059,1273.5475],[34.9629,-12.9186,1250.2258],[34.9529,-12.9305,1261.6151],[34.9491,-12.9459,1275.8395],[34.9579,-12.955,1294.8134],[34.9632,-12.9646,1287.0714],[34.963,-12.9699,1261.3365],[34.9578,-12.9846,1286.9556],[34.9489,-13.0,1320.7294],[34.9375,-13.0085,1295.6744],[34.922,-13.0256,1218.3936],[34.9194,-13.0324,1224.844],[34.9162,-13.0587,1088.0638],[34.9088,-13.081,937.7088],[34.9114,-13.08,962.149],[34.9237,-13.0889,989.3719],[34.936,-13.0889,977.6995],[34.952,-13.0785,1066.6913],[34.9723,-13.0541,1278.7854],[35.0069,-12.9933,1278.8716],[35.086,-12.8448,1470.3625],[35.0882,-12.8375,1613.5837],[35.0974,-12.8196,1602.1597],[35.1252,-12.8106,1509.7968],[35.1376,-12.8106,1739.9391],[35.1546,-12.7757,1338.4915],[35.161,-12.7573,1362.1942],[35.1566,-12.7464,1224.3431],[35.1423,-12.6777,1083.2849],[35.1392,-12.6604,1033.7812],[35.1402,-12.6489,1011.9586],[35.1367,-12.6309,1020.0894],[35.1457,-12.6056,1001.5018],[35.1592,-12.5899,1002.3046],[35.1811,-12.5574,935.3167],[35.1916,-12.5357,889.0538],[35.1859,-12.516,875.8065],[35.1917,-12.5072,862.9401],[35.1928,-12.4921,853.7026],[35.1802,-12.4904,836.7572],[35.1654,-12.4647,795.9504],[35.1575,-12.4541,840.7697],[35.1499,-12.4498,743.4419],[35.1469,-12.4289,714.4399],[35.119,-12.4289,1034.4741],[35.1005,-12.4319,803.4648],[35.0943,-12.4438,856.7515],[35.0515,-12.5059,601.845],[35.0264,-12.5243,570.0469],[35.0017,-12.5303,565.8738],[34.9863,-12.5154,556.2459],[34.9709,-12.5273,545.3038],[34.9585,-12.5184,550.5059],[34.9492,-12.5243,543.2853],[34.9214,-12.5542,524.9374],[34.906,-12.5512,529.7526],[34.8875,-12.5661,521.8076],[34.861,-12.605,503.6475]]]]}
,"properties": {"GID_3": "MOZ.8.2.4_1","GID_0": "MOZ","country": "Mozambique","GID_1": "MOZ.8_1","province": "Nassa","NL_NAME_1": "NA","GID_2": "MOZ.8.2_1","county": "Lago","NL_NAME_2": "NA","city": "Maniamba","VARNAME_3": "NA","NL_NAME_3": "NA","TYPE_3": "Localidad","ENGTYPE_3": "Locality","CC_3": "NA","HASC_3": "NA","name": "Maniamba.city","area_km2": 1255.8585,"hist_schema_id": "Elevation0-9000","hist_area_km2": {"500": 3.8073,"525": 24.6874,"550": 24.4618,"575": 21.9991,"600": 25.2486,"625": 21.1709,"650": 17.0935,"675": 10.9055,"700": 6.332,"725": 5.4424,"750": 7.5124,"775": 10.058,"800": 13.4735,"825": 18.7104,"850": 25.3536,"875": 30.2171,"900": 25.994,"925": 27.2961,"950": 37.7221,"975": 49.5516,"1000": 57.5108,"1025": 70.6227,"1050": 72.4399,"1075": 63.4788,"1100": 53.6888,"1125": 52.1138,"1150": 48.4302,"1175": 49.1508,"1200": 47.3057,"1225": 52.2616,"1250": 64.677,"1275": 88.2474,"1300": 59.2078,"1325": 21.8666,"1350": 11.2664,"1375": 7.5464,"1400": 5.789,"1425": 4.7138,"1450": 3.7213,"1475": 3.6595,"1500": 3.1424,"1525": 2.2327,"1550": 1.6125,"1575": 0.9717,"1600": 1.3025,"1625": 0.6616,"1650": 0.6822,"1675": 0.3101,"1700": 0.124,"1725": 0.0827}}}