{"type":"Feature","properties":{"GID_3":"MOZ.4.5.1_1","GID_0":"MOZ","country":"Mozambique","GID_1":"MOZ.4_1","province":"Manica","NL_NAME_1":"NA","GID_2":"MOZ.4.5_1","county":"Macossa","NL_NAME_2":"NA","city":"Macossa","VARNAME_3":"NA","NL_NAME_3":"NA","TYPE_3":"Localidad","ENGTYPE_3":"Locality","CC_3":"NA","HASC_3":"NA","name":"Macossa.city"},
"geometry":{"type": "MultiPolygon","coordinates": [[[[33.5972,-17.4103,712.6322],[33.6034,-17.4823,657.2981],[33.5963,-17.4895,636.9201],[33.5934,-17.495,626.9979],[33.5948,-17.5141,615.3304],[33.5989,-17.5166,614.7765],[33.6035,-17.5282,602.0652],[33.6004,-17.6416,587.4961],[33.5962,-17.6928,661.3322],[33.6089,-17.7095,635.4048],[33.6093,-17.7175,622.2363],[33.6238,-17.7357,609.1227],[33.6393,-17.7513,592.3283],[33.6542,-17.7861,580.4913],[33.6663,-17.7971,582.821],[33.6684,-17.8116,561.6604],[33.6724,-17.8225,570.2982],[33.6686,-17.894,631.1296],[33.6506,-17.9554,550.5247],[33.6664,-17.9629,545.742],[33.6685,-17.9707,543.1398],[33.6733,-17.9772,541.9451],[33.6732,-17.9818,538.3739],[33.6811,-17.9886,545.3774],[33.6771,-18.0149,533.137],[33.7089,-18.0728,527.9074],[33.7155,-18.1043,514.6472],[33.7197,-18.1421,507.5005],[33.7308,-18.1572,509.5469],[33.7511,-18.1726,498.618],[33.754,-18.1804,495.2328],[33.7656,-18.1971,494.6896],[33.7709,-18.211,491.1108],[33.7784,-18.2182,488.8137],[33.7813,-18.226,484.2029],[33.7927,-18.2417,477.6057],[33.8074,-18.2693,484.8616],[33.8107,-18.2792,478.5527],[33.8268,-18.2706,500.3814],[33.837,-18.2624,503.7094],[33.8468,-18.2366,524.6511],[33.8585,-18.2321,533.8845],[33.8673,-18.2253,550.3442],[33.9235,-18.1684,502.4866],[33.952,-18.1259,431.0618],[33.9992,-18.1323,410.8896],[34.0078,-18.1233,416.5219],[34.0138,-18.1206,425.1751],[34.0261,-18.127,416.9459],[34.0277,-18.1313,409.4312],[34.026,-18.1391,400.0023],[34.0273,-18.1544,415.3786],[34.0325,-18.1602,400.9132],[34.0439,-18.1656,391.1505],[34.0487,-18.1706,388.7576],[34.0456,-18.1778,396.2482],[34.045,-18.1865,392.686],[34.0502,-18.1973,388.8404],[34.0567,-18.2049,387.1039],[34.0584,-18.2143,386.4448],[34.0637,-18.2194,380.5878],[34.0693,-18.2151,385.148],[34.0725,-18.2145,391.3723],[34.1035,-18.2426,439.3963],[34.1119,-18.2523,365.7003],[34.1241,-18.2582,412.5114],[34.1368,-18.2587,332.7931],[34.1497,-18.253,330.1078],[34.1896,-18.1844,370.5789],[34.196,-18.1842,364.1736],[34.23,-18.2099,318.6812],[34.2458,-18.2106,295.1254],[34.2822,-18.0792,225.8391],[34.2892,-18.0716,246.4329],[34.2902,-18.0671,335.3583],[34.2785,-17.9988,433.7843],[34.2651,-17.9766,395.2136],[34.2741,-17.9599,387.6405],[34.2793,-17.9539,328.6069],[34.2881,-17.9334,295.0992],[34.2787,-17.9205,264.5167],[34.2769,-17.9149,267.2556],[34.2718,-17.9077,282.0931],[34.2629,-17.9035,293.8641],[34.2538,-17.8966,304.805],[34.2394,-17.8776,325.6593],[34.2324,-17.8769,319.8269],[34.2144,-17.87,351.3932],[34.194,-17.8716,361.8837],[34.1926,-17.8452,349.2096],[34.1996,-17.8222,360.9056],[34.2086,-17.7449,401.9001],[34.2027,-17.7144,404.8038],[34.1718,-17.6996,437.3807],[34.161,-17.6903,464.5283],[34.1628,-17.6286,405.4287],[34.1404,-17.5927,453.9521],[34.1768,-17.5162,393.1235],[34.2037,-17.422,303.1297],[34.202,-17.4118,340.9278],[34.1878,-17.3848,430.98],[34.0436,-17.3593,314.8065],[34.0323,-17.3642,332.6768],[34.028,-17.3684,342.0552],[34.0137,-17.3754,378.2197],[34.0107,-17.3755,345.8232],[33.9914,-17.3676,391.8221],[33.9056,-17.3797,417.2051],[33.8903,-17.3671,433.7592],[33.8819,-17.3677,451.1251],[33.8492,-17.3526,457.2274],[33.8439,-17.3468,462.6071],[33.8363,-17.3444,474.3729],[33.819,-17.3261,486.3304],[33.8029,-17.3321,510.5332],[33.7738,-17.3395,530.1481],[33.7653,-17.343,523.071],[33.7615,-17.3481,519.1772],[33.7568,-17.3499,523.8594],[33.7422,-17.3514,534.0834],[33.7118,-17.3448,547.4137],[33.6707,-17.3584,575.7367],[33.6554,-17.3688,603.7258],[33.6511,-17.3675,613.1332],[33.6426,-17.3695,613.5529],[33.6038,-17.3825,667.1224],[33.5994,-17.3898,709.0851],[33.5972,-17.4103,712.6322]]]]}}