{"type":"Feature","properties":{"GID_3":"MOZ.4.8.1_1","GID_0":"MOZ","country":"Mozambique","GID_1":"MOZ.4_1","province":"Manica","NL_NAME_1":"NA","GID_2":"MOZ.4.8_1","county":"Sussundenga","NL_NAME_2":"NA","city":"Dombe","VARNAME_3":"NA","NL_NAME_3":"NA","TYPE_3":"Localidad","ENGTYPE_3":"Locality","CC_3":"NA","HASC_3":"NA","name":"Dombe.city"},
"geometry":{"type": "MultiPolygon","coordinates": [[[[33.4055,-20.1144,167.728],[33.3891,-20.0892,157.3919],[33.391,-20.0795,156.3403],[33.3992,-20.0755,155.9086],[33.4096,-20.0735,158.7463],[33.4155,-20.0698,160.1034],[33.4187,-20.0614,154.6752],[33.4263,-20.0545,150.6843],[33.4378,-20.0499,150.1749],[33.4486,-20.0517,150.2146],[33.4568,-20.0502,155.4819],[33.4694,-20.0339,148.1714],[33.4768,-20.0038,144.8898],[33.4796,-19.9984,142.9624],[33.4854,-19.9937,140.7597],[33.5038,-20.0087,141.6817],[33.5103,-19.9886,138.7684],[33.5179,-19.9852,140.8869],[33.5301,-19.9883,138.0642],[33.5372,-19.9827,137.4321],[33.5546,-19.9594,131.3022],[33.5982,-19.9362,126.4115],[33.6009,-19.9188,135.5604],[33.6123,-19.9363,131.6436],[33.631,-19.9448,129.3191],[33.6647,-19.9328,131.3928],[33.6847,-19.9471,121.5176],[33.7324,-19.9877,68.2814],[33.7609,-19.9889,62.2582],[33.7721,-19.9699,47.652],[33.7857,-19.9511,52.8645],[33.8286,-19.9265,39.4294],[33.827,-19.8123,119.1167],[33.8481,-19.77,50.9546],[33.833,-19.7431,67.8862],[33.83,-19.7291,69.3249],[33.7942,-19.6858,71.543],[33.7912,-19.6888,79.5079],[33.775,-19.687,88.8744],[33.7588,-19.6829,87.8926],[33.7508,-19.6738,95.2998],[33.7316,-19.6735,110.4194],[33.713,-19.6604,104.7006],[33.6992,-19.6631,109.7234],[33.672,-19.6595,109.3615],[33.6716,-19.6517,119.6446],[33.6465,-19.658,119.51],[33.6428,-19.666,126.8189],[33.6242,-19.6899,137.096],[33.5992,-19.6914,132.0125],[33.5889,-19.699,138.0705],[33.5788,-19.7016,139.5382],[33.5667,-19.7022,148.3835],[33.556,-19.7081,147.5567],[33.5396,-19.7059,149.3229],[33.536,-19.7012,153.2424],[33.5034,-19.7059,171.1182],[33.4932,-19.7121,178.7598],[33.4619,-19.7092,196.2443],[33.4259,-19.7012,298.9627],[33.3943,-19.705,417.3913],[33.3163,-19.7095,439.863],[33.3082,-19.7171,431.46],[33.2893,-19.7222,309.3575],[33.2825,-19.7164,244.1817],[33.2818,-19.7055,278.5792],[33.28,-19.7013,263.8302],[33.2572,-19.7014,609.2478],[33.2407,-19.6967,758.4984],[33.2312,-19.6979,524.8895],[33.1981,-19.7239,641.1475],[33.1852,-19.758,795.4554],[33.1374,-19.7726,1446.3307],[33.1168,-19.7741,1423.1698],[33.0971,-19.7725,1669.3879],[33.0754,-19.7684,1766.8901],[33.0644,-19.7687,1709.6904],[33.0504,-19.7782,1913.2235],[33.0528,-19.7806,1999.9666],[33.0563,-19.7992,2141.2622],[33.0474,-19.821,1931.928],[33.0481,-19.8334,1793.6445],[33.0356,-19.8878,1556.2932],[33.0247,-19.9642,1594.6318],[33.014,-20.011,412.1029],[33.0249,-20.0436,313.2546],[33.0247,-20.0516,342.3402],[33.0314,-20.0683,322.8271],[33.0415,-20.0753,364.2111],[33.0448,-20.0805,369.1606],[33.0537,-20.0865,288.7282],[33.0651,-20.0869,295.8619],[33.0763,-20.0977,302.9435],[33.0867,-20.093,279.8094],[33.1065,-20.0787,307.3185],[33.1159,-20.0859,231.9453],[33.1251,-20.0897,212.3117],[33.1358,-20.0871,240.0717],[33.1465,-20.0879,201.093],[33.1515,-20.081,238.9562],[33.154,-20.0898,286.4314],[33.1574,-20.1437,416.2592],[33.1667,-20.1849,643.371],[33.1692,-20.2102,518.5453],[33.168,-20.2269,457.2283],[33.1775,-20.2404,373.9133],[33.1848,-20.2421,316.2467],[33.1918,-20.2373,286.0926],[33.2071,-20.2342,261.4726],[33.2111,-20.2306,251.4068],[33.2529,-20.2279,222.521],[33.2573,-20.2311,234.187],[33.2664,-20.232,218.8994],[33.2798,-20.2306,226.2155],[33.2915,-20.2227,212.2241],[33.306,-20.2002,196.7775],[33.308,-20.187,196.4079],[33.3166,-20.1768,192.8886],[33.3158,-20.1625,188.7848],[33.324,-20.1569,184.3581],[33.337,-20.1546,180.6313],[33.3422,-20.1518,177.4848],[33.3419,-20.1396,178.8954],[33.3499,-20.1378,174.3613],[33.3764,-20.137,170.235],[33.3843,-20.1304,165.5889],[33.4,-20.121,163.031],[33.4055,-20.1144,167.728]]]]}}