{"type": "Feature","bbox": [39.4147,-14.4253,40.0616,-14.1425],"geometry": {"type": "MultiPolygon","coordinates": [[[[40.0616,-14.1833,141.6696],[40.0511,-14.1861,154.93],[40.0419,-14.1837,148.5405],[40.0376,-14.1849,147.0415],[40.0355,-14.1902,140.8031],[40.0368,-14.1978,151.2004],[40.0313,-14.201,152.6162],[40.0086,-14.1892,167.2763],[39.9994,-14.1904,149.4549],[39.9943,-14.1747,150.4352],[39.9894,-14.1694,161.7316],[39.9755,-14.1673,164.8643],[39.9607,-14.1606,165.4004],[39.9439,-14.1724,159.3245],[39.9363,-14.1673,166.2415],[39.9143,-14.1599,164.1031],[39.893,-14.1469,177.6008],[39.8723,-14.1425,198.8492],[39.8621,-14.1535,187.8567],[39.8273,-14.1687,189.7629],[39.8217,-14.1621,205.9117],[39.8182,-14.1549,195.153],[39.8057,-14.1565,194.9894],[39.7489,-14.1916,204.9112],[39.7154,-14.1835,224.6938],[39.6856,-14.2034,230.6535],[39.6765,-14.206,240.9005],[39.6645,-14.2079,253.7567],[39.6339,-14.2043,252.7902],[39.6124,-14.2046,243.8914],[39.5711,-14.2156,249.6301],[39.5422,-14.2155,260.267],[39.519,-14.2118,267.1596],[39.508,-14.2188,269.0402],[39.4985,-14.222,273.407],[39.4807,-14.2242,284.0268],[39.4663,-14.2301,287.9563],[39.4557,-14.2371,295.5502],[39.4507,-14.2489,288.2195],[39.4476,-14.2666,291.1666],[39.4351,-14.2782,297.2192],[39.4253,-14.29,304.2926],[39.4147,-14.3067,307.6162],[39.4245,-14.325,316.3801],[39.4302,-14.3268,321.9777],[39.4373,-14.336,338.3782],[39.4502,-14.3403,347.044],[39.4701,-14.3512,365.9311],[39.482,-14.3669,417.1258],[39.4961,-14.3776,404.2216],[39.5056,-14.3877,382.2565],[39.5109,-14.3895,373.3456],[39.5203,-14.3886,365.1923],[39.5413,-14.377,347.7242],[39.5481,-14.3748,347.3059],[39.5618,-14.3803,338.8923],[39.5747,-14.3789,337.1571],[39.6042,-14.3945,328.3356],[39.6093,-14.4043,318.0866],[39.6182,-14.4043,320.9255],[39.6322,-14.4134,319.1732],[39.637,-14.4039,313.8439],[39.642,-14.3989,315.7216],[39.6491,-14.4024,308.1251],[39.6541,-14.4087,311.1559],[39.6619,-14.4128,304.6505],[39.6627,-14.4174,304.6842],[39.6661,-14.4217,300.5292],[39.6788,-14.4201,297.9742],[39.6813,-14.4252,302.0069],[39.685,-14.4253,293.4439],[39.6894,-14.4152,289.0872],[39.7083,-14.4053,284.632],[39.713,-14.4095,284.1392],[39.7189,-14.4105,285.6104],[39.7192,-14.4023,283.6407],[39.7237,-14.3979,282.9116],[39.7398,-14.3982,280.9774],[39.7452,-14.3871,275.6663],[39.7493,-14.3869,281.1102],[39.7603,-14.3917,272.0588],[39.7681,-14.376,263.2653],[39.7821,-14.3738,262.2233],[39.786,-14.3695,264.5492],[39.7822,-14.3677,262.1382],[39.7817,-14.3642,259.7769],[39.7923,-14.3602,254.8934],[39.8001,-14.3488,249.9687],[39.8077,-14.3438,249.0644],[39.8104,-14.3329,245.6671],[39.8207,-14.3242,239.1215],[39.8689,-14.3095,223.4289],[39.8806,-14.2967,227.0486],[39.8934,-14.2894,215.6437],[39.8999,-14.2835,204.8292],[39.9133,-14.284,200.6364],[39.915,-14.2798,198.6268],[39.9255,-14.2715,197.5832],[39.9444,-14.2644,194.335],[39.9399,-14.2577,200.1053],[39.9379,-14.2474,199.4694],[39.9396,-14.2425,199.4106],[39.9502,-14.2384,177.372],[39.9488,-14.2351,181.6329],[39.9505,-14.2291,175.8789],[39.9688,-14.2239,170.557],[39.9839,-14.2262,173.9043],[39.9935,-14.2208,171.6174],[40.0004,-14.2228,173.6525],[40.0111,-14.2199,179.2405],[40.0244,-14.2229,157.4554],[40.0313,-14.2167,174.6663],[40.0392,-14.2151,165.9514],[40.0458,-14.2091,160.9309],[40.0484,-14.1911,139.15],[40.0534,-14.1902,143.3362],[40.0605,-14.1936,137.7652],[40.0616,-14.1833,141.6696]]]]}
,"properties": {"GID_3": "MOZ.7.2.3_1","GID_0": "MOZ","country": "Mozambique","GID_1": "MOZ.7_1","province": "Nampula","NL_NAME_1": "NA","GID_2": "MOZ.7.2_1","county": "Erati","NL_NAME_2": "NA","city": "Saua-Saua","VARNAME_3": "NA","NL_NAME_3": "NA","TYPE_3": "Localidad","ENGTYPE_3": "Locality","CC_3": "NA","HASC_3": "NA","name": "Saua-Saua.city","area_km2": 1096.0577,"hist_schema_id": "Elevation0-9000","hist_area_km2": {"125": 0.3083,"150": 11.3465,"175": 31.1212,"200": 63.2268,"225": 90.5371,"250": 107.2155,"275": 156.5816,"300": 165.3823,"325": 154.6003,"350": 128.2914,"375": 113.312,"400": 58.3181,"425": 15.1179,"450": 0.4726,"475": 0.2055,"500": 0.0206}}}