{"type": "Feature","bbox": [40.0505,-14.9369,40.4724,-14.3888],"geometry": {"type": "MultiPolygon","coordinates": [[[[40.1095,-14.4685,190.2072],[40.0875,-14.4835,214.0761],[40.0751,-14.4895,221.142],[40.0539,-14.5315,246.6984],[40.0505,-14.576,298.0204],[40.0659,-14.6088,280.8123],[40.0917,-14.678,191.8639],[40.1065,-14.6862,215.7808],[40.1307,-14.6804,245.891],[40.1649,-14.7,234.1303],[40.1677,-14.7162,235.3749],[40.1862,-14.7311,184.4039],[40.1893,-14.74,166.3833],[40.18,-14.7549,156.7961],[40.18,-14.7818,166.0125],[40.1837,-14.7901,144.6502],[40.2016,-14.8146,130.0527],[40.2047,-14.8417,121.4323],[40.3082,-14.9095,80.1036],[40.3189,-14.9249,72.9363],[40.3343,-14.9369,38.1551],[40.3399,-14.9369,55.7491],[40.342,-14.9321,60.515],[40.3566,-14.9157,105.075],[40.3613,-14.9056,108.8963],[40.3713,-14.8742,123.3016],[40.3713,-14.8427,139.6305],[40.3675,-14.8084,154.9462],[40.3866,-14.806,129.1792],[40.4361,-14.7669,101.4018],[40.4641,-14.7577,90.9315],[40.4708,-14.7576,63.8689],[40.4724,-14.75,74.6454],[40.4699,-14.7459,79.6916],[40.4649,-14.7443,71.275],[40.4207,-14.74,88.1697],[40.396,-14.7222,108.0357],[40.3898,-14.7132,120.06],[40.3805,-14.7072,118.3659],[40.3749,-14.6923,132.6046],[40.3682,-14.6923,135.4385],[40.3651,-14.6804,143.7889],[40.3528,-14.6714,177.5557],[40.3604,-14.6511,215.7655],[40.3466,-14.6297,157.7909],[40.3404,-14.6267,167.0988],[40.3312,-14.6267,170.8486],[40.311,-14.6083,196.7095],[40.3184,-14.5963,191.7708],[40.3511,-14.5628,149.0914],[40.3129,-14.5338,224.1964],[40.3262,-14.5047,221.4367],[40.3065,-14.5044,190.1572],[40.3045,-14.5025,186.0908],[40.2953,-14.48,170.8632],[40.3087,-14.4497,131.4196],[40.3122,-14.4318,124.365],[40.3219,-14.4239,117.5597],[40.3158,-14.409,109.3471],[40.3237,-14.3937,101.6692],[40.2706,-14.3888,118.3048],[40.2686,-14.3905,120.4874],[40.2596,-14.3918,127.2414],[40.2199,-14.3889,140.9057],[40.1933,-14.4038,148.1519],[40.1899,-14.4076,144.5143],[40.1856,-14.417,159.1402],[40.1769,-14.4269,159.5841],[40.1368,-14.4478,188.1401],[40.1245,-14.4627,188.9815],[40.1095,-14.4685,190.2072]]]]}
,"properties": {"GID_3": "MOZ.7.10.1_1","GID_0": "MOZ","country": "Mozambique","GID_1": "MOZ.7_1","province": "Nampula","NL_NAME_1": "NA","GID_2": "MOZ.7.10_1","county": "Monapo","NL_NAME_2": "NA","city": "Itoculo","VARNAME_3": "NA","NL_NAME_3": "NA","TYPE_3": "Localidad","ENGTYPE_3": "Locality","CC_3": "NA","HASC_3": "NA","name": "Itoculo.city","area_km2": 1324.475,"hist_schema_id": "Elevation0-9000","hist_area_km2": {"25": 0.061,"50": 10.798,"75": 28.607,"100": 67.008,"125": 111.637,"150": 141.889,"175": 209.449,"200": 243.653,"225": 231.195,"250": 169.11,"275": 92.393,"300": 18.652,"325": 0.021}}}