{"type":"Feature","properties":{"GID_3":"MOZ.10.2.3_1","GID_0":"MOZ","country":"Mozambique","GID_1":"MOZ.10_1","province":"Tete","NL_NAME_1":"NA","GID_2":"MOZ.10.2_1","county":"CahoraBassa","NL_NAME_2":"NA","city":"Songo","VARNAME_3":"NA","NL_NAME_3":"NA","TYPE_3":"Localidad","ENGTYPE_3":"Locality","CC_3":"NA","HASC_3":"NA","name":"Songo.city"},
"geometry":{"type": "MultiPolygon","coordinates": [[[[33.073,-15.6802,144.125],[33.0633,-15.6803,154.2416],[33.0497,-15.6701,151.0621],[33.0342,-15.6493,263.4763],[33.0199,-15.6255,171.433],[33.0106,-15.6157,163.1178],[33.0035,-15.5943,164.9807],[32.9844,-15.5827,167.6324],[32.9581,-15.5863,183.5203],[32.9167,-15.5839,171.2929],[32.886,-15.5721,173.517],[32.8766,-15.5661,171.0],[32.8679,-15.5633,205.0646],[32.8554,-15.5691,338.1075],[32.8416,-15.5692,373.5907],[32.8177,-15.5649,340.9026],[32.8014,-15.5651,321.527],[32.7588,-15.5549,346.0037],[32.7482,-15.5539,413.6205],[32.739,-15.5594,293.049],[32.7326,-15.5681,518.4418],[32.7187,-15.5761,352.6045],[32.694,-15.5853,321.0],[32.6783,-15.5835,555.1035],[32.6668,-15.577,321.0],[32.6468,-15.555,321.0],[32.6354,-15.5554,321.0],[32.6148,-15.5622,321.0],[32.5991,-15.5649,321.0],[32.6265,-15.6483,897.9475],[32.6758,-15.6813,735.4114],[32.7899,-15.6859,994.0813],[32.8031,-15.7208,322.3372],[32.8161,-15.7188,316.1502],[32.8394,-15.7237,296.9939],[32.8595,-15.7403,286.259],[32.8718,-15.7461,281.0977],[32.9033,-15.7425,272.2776],[32.9172,-15.735,264.4235],[32.9259,-15.7352,302.5017],[32.9384,-15.7409,277.5213],[32.9448,-15.736,267.3135],[32.951,-15.7367,245.7179],[32.9524,-15.743,241.7635],[32.9625,-15.7388,243.8414],[32.9654,-15.7352,244.2016],[32.9824,-15.7376,226.3354],[32.9982,-15.744,215.0197],[33.0107,-15.7377,257.0475],[33.0264,-15.7265,411.1156],[33.0406,-15.7117,286.1343],[33.061,-15.6949,181.8371],[33.073,-15.6802,144.125]]]]}}