{"type": "Feature","bbox": [39.1871,-14.3259,40.6013,-13.4415],"geometry": {"type": "MultiPolygon","coordinates": [[[[39.334,-13.8814,255.2875],[39.3155,-13.8904,255.9426],[39.3104,-13.8912,257.4835],[39.3111,-13.8926,253.6394],[39.2991,-13.8954,254.0],[39.2803,-13.9034,251.5],[39.2657,-13.9124,257.2937],[39.2422,-13.9306,258.2303],[39.196,-13.9556,262.4099],[39.1871,-13.9533,272.7965],[39.2068,-14.0197,278.257],[39.2162,-14.0368,279.498],[39.242,-14.0682,290.8955],[39.2528,-14.076599999999999,300.4292],[39.2623,-14.0778,298.7488],[39.2799,-14.0831,305.6965],[39.2848,-14.1022,311.0646],[39.2909,-14.1442,327.918],[39.3082,-14.1721,337.6346],[39.3186,-14.2298,378.7751],[39.3202,-14.2606,411.0204],[39.3042,-14.3023,372.8503],[39.3086,-14.3075,358.7929],[39.3217,-14.3139,361.0085],[39.3278,-14.3139,352.5774],[39.3371,-14.3259,329.5089],[39.3678,-14.3139,318.7536],[39.3864,-14.3154,319.1935],[39.3961,-14.3113,307.2093],[39.4147,-14.3067,307.6162],[39.4253,-14.29,304.2926],[39.4351,-14.2782,297.2192],[39.4476,-14.2666,291.1666],[39.4507,-14.2489,288.2195],[39.4557,-14.2371,295.5502],[39.4663,-14.2301,287.9563],[39.4807,-14.2242,284.0268],[39.4985,-14.222,273.407],[39.508,-14.2188,269.0402],[39.519,-14.2118,267.1596],[39.5422,-14.2155,260.267],[39.5711,-14.2156,249.6301],[39.6124,-14.2046,243.8914],[39.6339,-14.2043,252.7902],[39.6645,-14.2079,253.7567],[39.6765,-14.206,240.9005],[39.6856,-14.2034,230.6535],[39.7154,-14.1835,224.6938],[39.7489,-14.1916,204.9112],[39.8057,-14.1565,194.9894],[39.8182,-14.1549,195.153],[39.8217,-14.1621,205.9117],[39.8273,-14.1687,189.7629],[39.8621,-14.1535,187.8567],[39.8723,-14.1425,198.8492],[39.893,-14.1469,177.6008],[39.9143,-14.1599,164.1031],[39.9363,-14.1673,166.2415],[39.9439,-14.1724,159.3245],[39.9607,-14.1606,165.4004],[39.9755,-14.1673,164.8643],[39.9894,-14.1694,161.7316],[39.9943,-14.1747,150.4352],[39.9994,-14.1904,149.4549],[40.0086,-14.1892,167.2763],[40.0313,-14.201,152.6162],[40.0368,-14.1978,151.2004],[40.0355,-14.1902,140.8031],[40.0376,-14.1849,147.0415],[40.0419,-14.1837,148.5405],[40.0511,-14.1861,154.93],[40.07,-14.1814,139.0368],[40.0764,-14.1838,150.5229],[40.1007,-14.204,141.6672],[40.107,-14.2115,122.8896],[40.1108,-14.2192,126.0832],[40.1198,-14.2281,123.8587],[40.1426,-14.2243,115.6942],[40.1616,-14.2293,113.7764],[40.1646,-14.2315,113.6482],[40.1685,-14.2492,119.5391],[40.187,-14.2485,102.5267],[40.1922,-14.2555,94.9308],[40.1994,-14.2576,103.3256],[40.2194,-14.2512,105.8185],[40.2316,-14.2455,96.1986],[40.2308,-14.2289,119.0599],[40.22,-14.2116,145.8012],[40.2163,-14.2086,162.9645],[40.2085,-14.1868,181.2675],[40.1964,-14.1737,230.4059],[40.1778,-14.1574,218.1738],[40.1605,-14.1481,244.7782],[40.1513,-14.1396,253.9331],[40.1426,-14.1258,258.2908],[40.1121,-14.1047,277.2161],[40.1153,-14.0988,249.4542],[40.1312,-14.0827,207.1215],[40.1353,-14.0752,244.117],[40.1335,-14.0694,215.7622],[40.1341,-14.0645,192.2729],[40.1485,-14.0594,177.9226],[40.1519,-14.0548,179.7145],[40.1527,-14.0488,175.3299],[40.1473,-14.0505,178.4526],[40.1433,-14.0491,188.9559],[40.138,-14.0347,186.687],[40.1326,-14.0303,203.0335],[40.1182,-14.0245,214.9382],[40.1112,-14.0193,201.8686],[40.0967,-14.0202,209.7094],[40.0857,-14.0236,224.2861],[40.0796,-14.0189,231.6681],[40.065,-14.0156,232.4483],[40.0618,-14.0076,234.2475],[40.064,-13.9979,248.2548],[40.05,-13.9826,252.8262],[40.0369,-13.9796,262.3362],[40.0216,-13.9554,283.7737],[40.0159,-13.9497,275.9357],[40.019,-13.9437,288.8534],[40.0201,-13.9354,309.5367],[40.0248,-13.9311,323.1806],[40.0285,-13.9223,315.2722],[40.0363,-13.8855,262.5706],[40.0437,-13.8855,243.2261],[40.053,-13.8817,252.5181],[40.0732,-13.8779,249.0689],[40.1177,-13.8801,231.0831],[40.1656,-13.8721,183.1197],[40.1567,-13.8321,237.2895],[40.1495,-13.8094,267.7761],[40.1399,-13.8042,279.9948],[40.128,-13.806,286.3832],[40.1184,-13.8031,296.9153],[40.1148,-13.7932,313.1796],[40.1177,-13.7799,391.7277],[40.1221,-13.7687,344.4677],[40.1274,-13.77,321.4519],[40.1352,-13.7618,310.1085],[40.1549,-13.7569,302.5672],[40.1712,-13.7643,270.5184],[40.1746,-13.7638,263.5536],[40.2017,-13.7402,417.2193],[40.2009,-13.7083,262.3627],[40.2038,-13.6942,255.9557],[40.2129,-13.6876,235.8483],[40.2252,-13.6578,203.538],[40.2406,-13.6369,182.9188],[40.243,-13.6276,181.2493],[40.2792,-13.6231,254.7208],[40.323,-13.6114,199.6946],[40.3551,-13.6069,238.3375],[40.3681,-13.6088,217.3671],[40.4086,-13.6326,68.9558],[40.409,-13.6342,81.4741],[40.3979,-13.6488,77.1332],[40.3785,-13.6562,92.4721],[40.3683,-13.6643,147.8764],[40.3828,-13.7054,115.0215],[40.3833,-13.7322,268.134],[40.3683,-13.7351,240.4063],[40.3671,-13.7496,191.5799],[40.3595,-13.7526,194.817],[40.3489,-13.7501,182.4433],[40.3242,-13.7501,221.3776],[40.3331,-13.7725,227.5977],[40.3181,-13.8279,241.6555],[40.3705,-13.8187,185.7219],[40.4018,-13.8036,127.8391],[40.4478,-13.8054,90.0545],[40.4699,-13.7938,72.1747],[40.4814,-13.7771,57.2396],[40.4852,-13.7595,59.1026],[40.5027,-13.7707,48.0241],[40.5713,-13.7101,3.6929],[40.5599,-13.6996,1.6107],[40.5563,-13.6974,0.0],[40.5476,-13.696,1.3689],[40.5426,-13.6929,1.4877],[40.5407,-13.6899,1.8445],[40.539,-13.6779,0.0],[40.5376,-13.6765,5.1993],[40.5385,-13.6699,11.2934],[40.5374,-13.6674,9.2995],[40.5393,-13.6618,0.0],[40.5363,-13.6513,14.6998],[40.5374,-13.6451,2.5563],[40.5354,-13.636,3.8786],[40.5415,-13.6271,0.628],[40.5407,-13.6204,0.0],[40.5438,-13.614,5.6391],[40.5557,-13.6062,4.9412],[40.5621,-13.5946,1.15],[40.571,-13.5899,1.7128],[40.5879,-13.586,3.6427],[40.5921,-13.5824,0.0],[40.5949,-13.5782,0.0],[40.5962,-13.5685,0.0],[40.5988,-13.5688,0.0],[40.6013,-13.5663,0.0],[40.6004,-13.5557,0.0],[40.5979,-13.5515,4.8038],[40.5924,-13.551,1.1624],[40.5893,-13.5549,0.0],[40.5887,-13.5596,0.0],[40.5915,-13.5626,0.4707],[40.5899,-13.5676,0.0],[40.5857,-13.5701,5.7457],[40.5732,-13.5701,5.4181],[40.5651,-13.5676,4.8626],[40.5579,-13.5632,3.7984],[40.5488,-13.5537,6.1068],[40.5451,-13.5457,0.0],[40.5435,-13.5451,0.6908],[40.5401,-13.5518,2.0371],[40.5415,-13.5543,4.319],[40.5457,-13.5562,3.1702],[40.546,-13.5587,1.0],[40.5421,-13.5643,2.4961],[40.5443,-13.5576,2.0971],[40.541,-13.5565,5.4186],[40.5379,-13.5529,3.9592],[40.5382,-13.5479,1.7722],[40.536,-13.5449,1.8858],[40.5249,-13.5435,3.381],[40.526,-13.5418,1.0304],[40.5246,-13.541,3.6748],[40.5215,-13.5421,4.2955],[40.5199,-13.5404,2.5615],[40.5182,-13.541,2.5615],[40.5187,-13.5401,2.5615],[40.5215,-13.5399,1.4436],[40.5282,-13.5421,0.5],[40.5335,-13.5385,0.0],[40.5388,-13.5374,0.0],[40.5288,-13.5251,4.1449],[40.5246,-13.5085,0.0],[40.5254,-13.4998,2.3444],[40.5162,-13.4986,5.6012],[40.4965,-13.5052,26.5837],[40.4754,-13.5085,10.8467],[40.4705,-13.5086,11.004],[40.4652,-13.5039,29.1937],[40.4635,-13.5078,17.8513],[40.4507,-13.4996,5.915],[40.437,-13.4753,17.7681],[40.4252,-13.4622,10.1034],[40.4168,-13.4569,10.3928],[40.4034,-13.4545,13.0322],[40.3845,-13.454,12.5743],[40.3431,-13.4586,15.2153],[40.3097,-13.4716,16.7524],[40.2921,-13.4714,18.3635],[40.2384,-13.4843,42.4873],[40.2206,-13.492,62.1931],[40.2114,-13.492,69.7587],[40.1933,-13.4736,52.8752],[40.1688,-13.4585,70.6677],[40.1486,-13.4563,77.2051],[40.1403,-13.4484,68.1559],[40.1165,-13.4415,106.0801],[40.1033,-13.448,73.38],[40.1095,-13.4596,78.1459],[40.1098,-13.4675,99.9383],[40.1079,-13.4729,93.3085],[40.0747,-13.4855,98.34],[40.0509,-13.4915,96.2172],[40.0101,-13.5057,154.6111],[39.9979,-13.5291,157.6583],[39.9761,-13.561,166.9911],[39.9725,-13.565,168.6521],[39.9469,-13.577,176.3279],[39.9375,-13.584,177.4327],[39.9225,-13.6129,186.1528],[39.9097,-13.6312,185.5131],[39.8964,-13.6399,191.0081],[39.8671,-13.6671,189.9875],[39.8423,-13.6737,201.0868],[39.8125,-13.6754,198.0571],[39.7751,-13.6636,210.4633],[39.7686,-13.6623,217.9071],[39.7581,-13.6637,214.2458],[39.7192,-13.6841,224.0162],[39.7058,-13.6936,226.4973],[39.6891,-13.7007,222.8581],[39.6697,-13.712,230.9187],[39.6599,-13.72,225.7477],[39.6312,-13.7314,226.9797],[39.6091,-13.7342,228.2519],[39.5683,-13.7454,239.3837],[39.506,-13.7732,239.5949],[39.4848,-13.7885,236.8397],[39.4614,-13.8176,240.3668],[39.4537,-13.8332,239.1906],[39.4415,-13.8427,243.5267],[39.4176,-13.8514,244.7292],[39.4168,-13.8533,245.6673],[39.3997,-13.8522,246.2702],[39.3709,-13.8606,247.216],[39.334,-13.8814,255.2875]]],
[[[40.5307,-13.5437,0.5836],[40.534,-13.5426,1.774],[40.5343,-13.5413,1.774],[40.5315,-13.5421,1.3875],[40.5307,-13.5437,0.5836]]]]}
,"properties": {"GID_2": "MOZ.7.16_1","GID_0": "MOZ","country": "Mozambique","GID_1": "MOZ.7_1","province": "Nampula","NL_NAME_1": "NA","county": "Namapa","VARNAME_2": "NA","NL_NAME_2": "NA","TYPE_2": "Distrito","ENGTYPE_2": "District","CC_2": "NA","HASC_2": "NA","name": "Namapa.county","area_km2": 6541.176,"hist_schema_id": "Elevation0-9000","hist_area_km2": {"0": 96.37,"25": 134.366,"50": 180.35,"75": 185.705,"100": 127.804,"125": 113.482,"150": 142.969,"175": 233.618,"200": 316.059,"225": 415.516,"250": 639.88,"275": 780.901,"300": 902.903,"325": 931.947,"350": 714.548,"375": 333.401,"400": 122.118,"425": 51.491,"450": 29.156,"475": 20.822,"500": 14.978,"525": 11.274,"550": 8.558,"575": 6.583,"600": 4.937,"625": 4.423,"650": 3.292,"675": 3.127,"700": 3.086,"725": 1.584,"750": 1.276,"775": 0.885,"800": 0.597,"825": 0.679,"850": 0.267,"875": 0.411,"900": 0.206,"925": 0.247,"950": 0.123,"975": 0.082,"1000": 0.103,"1025": 0.103,"1050": 0.082,"1075": 0.062,"1100": 0.123,"1125": 0.062,"1150": 0.103,"1200": 0.144,"1250": 0.082,"1300": 0.062,"1400": 0.062}}}