{"type":"Feature","properties":{"GID_3":"MOZ.8.9.2_1","GID_0":"MOZ","country":"Mozambique","GID_1":"MOZ.8_1","province":"Nassa","NL_NAME_1":"NA","GID_2":"MOZ.8.9_1","county":"Mecanhelas","NL_NAME_2":"NA","city":"Mandimba-Sede","VARNAME_3":"NA","NL_NAME_3":"NA","TYPE_3":"Localidad","ENGTYPE_3":"Locality","CC_3":"NA","HASC_3":"NA","name":"Mandimba-Sede.city"},
"geometry":{"type": "MultiPolygon","coordinates": [[[[35.8701,-14.6742,627.5],[35.8698,-14.671,627.5],[35.8722,-14.6685,627.5],[35.8693,-14.6509,627.5],[35.8697,-14.6399,627.5],[35.8794,-14.6089,627.5],[35.8854,-14.6011,627.5],[35.8917,-14.5792,627.5],[35.898,-14.571,627.5],[35.8985,-14.5597,627.5],[35.8885,-14.5415,627.5],[35.8911,-14.5357,627.5],[35.9067,-14.535,627.5],[35.9109,-14.5293,627.5],[35.9139,-14.5185,627.5],[35.9121,-14.5114,627.5],[35.9121,-14.5012,627.5],[35.916,-14.4881,627.5],[35.9103,-14.4819,627.5],[35.9217,-14.4298,627.5],[35.9138,-14.4136,627.5],[35.9151,-14.4065,627.5],[35.9221,-14.3926,627.5],[35.9203,-14.3757,627.5],[35.9254,-14.3632,627.5],[35.931,-14.3562,627.5],[35.9392,-14.3494,628.1467],[35.9403,-14.3447,629.8498],[35.9535,-14.3274,628.8108],[35.9603,-14.3021,625.2554],[35.9556,-14.272,622.8411],[35.9371,-14.2681,621.8815],[35.9355,-14.2638,629.6763],[35.9403,-14.2546,621.0822],[35.9412,-14.2476,622.3313],[35.9369,-14.241,628.6064],[35.931,-14.2357,630.0715],[35.923,-14.2331,633.3483],[35.9086,-14.2419,633.2015],[35.9034,-14.2386,641.5581],[35.8973,-14.2388,637.2747],[35.8867,-14.2484,639.2791],[35.8731,-14.2522,645.8669],[35.8652,-14.2526,650.1533],[35.861,-14.2509,658.442],[35.8683,-14.2369,677.8608],[35.8322,-14.2295,685.5917],[35.8199,-14.2238,694.976],[35.8007,-14.2195,703.0209],[35.7457,-14.2205,723.9498],[35.7261,-14.2158,777.5017],[35.7172,-14.2128,828.3201],[35.709,-14.2078,780.314],[35.7006,-14.1894,790.3217],[35.6873,-14.1804,812.3354],[35.6645,-14.1691,861.1178],[35.6506,-14.1712,905.7972],[35.6431,-14.1617,887.1359],[35.6394,-14.1379,877.6645],[35.6368,-14.1303,853.9177],[35.6378,-14.119,857.0624],[35.6334,-14.0913,811.709],[35.6338,-14.0849,817.6556],[35.6405,-14.0778,811.0253],[35.6443,-14.0627,814.1373],[35.6481,-14.0607,813.7452],[35.6486,-14.0565,803.194],[35.6445,-14.0524,807.554],[35.6391,-14.0529,823.824],[35.6305,-14.0587,823.6011],[35.6238,-14.0576,824.2993],[35.6196,-14.0595,820.8895],[35.608,-14.071,828.9407],[35.6027,-14.0709,841.8225],[35.5973,-14.0663,834.7418],[35.5903,-14.0632,848.3368],[35.5813,-14.0748,860.6403],[35.562,-14.0888,882.1205],[35.5554,-14.0913,897.1283],[35.53,-14.09,908.3488],[35.5176,-14.0943,917.2972],[35.5081,-14.0928,910.1727],[35.4925,-14.0978,922.9498],[35.4857,-14.1027,927.5156],[35.4761,-14.1067,929.6244],[35.4685,-14.1072,928.7003],[35.465,-14.1057,944.4314],[35.45,-14.0925,943.3333],[35.4401,-14.0883,963.7239],[35.4148,-14.0895,1016.9193],[35.484,-14.1674,950.4058],[35.4946,-14.1892,935.9125],[35.508,-14.2248,946.5614],[35.5174,-14.2607,909.1169],[35.5776,-14.3315,821.3134],[35.637,-14.3948,769.9339],[35.7267,-14.5006,840.6415],[35.77,-14.5571,678.0493],[35.8701,-14.6742,627.5]]]]}}