{"type":"Feature","properties":{"featurecla":"River","scalerank":9,"rivernum":1044,"dissolve":"1044River","name":"Punguè1","name_alt":null,"note":null,"min_zoom":7.1,"strokeweig":0.2,"name_en":"Punguè","min_label":8.1},
"geometry":{"type": "LineString","coordinates": [[33.323632812500023,-18.56609465938088,540.8104],[33.34033203125,-18.573565362505889,496.37],[33.35400390625,-18.58538176875588,471.4386],[33.365966796875,-18.60198333125588,467.7635],[33.377685546875,-18.62395598750588,491.7112],[33.410546875000023,-18.65374114375588,441.0655],[33.4546875,-18.65471770625588,421.1575],[33.503173828125,-18.64910247188088,439.8863],[33.548583984375,-18.65862395625588,394.4312],[33.5751953125,-18.66887786250588,417.8736],[33.63037109375,-18.67742278438088,365.7144],[33.65625,-18.686358331255889,348.6476],[33.686914062500023,-18.70818450313088,358.4602],[33.698339843750006,-18.713897393755886,353.5221],[33.712792968750023,-18.71746184688088,387.2096],[33.757080078125,-18.72014739375588,354.0679],[33.77109375,-18.723467706255889,319.0845],[33.8056640625,-18.744170831255886,285.1239],[33.84130859375,-18.754717706255889,345.748],[33.851318359375,-18.76165130000588,356.7089],[33.858154296875,-18.77239348750588,345.3655],[33.861914062500006,-18.78313567500588,294.426],[33.866796875,-18.793291925005889,317.2622],[33.876953125,-18.80169036250588,339.6133],[33.888427734375,-18.80608489375588,320.297],[33.899121093750011,-18.80877044063088,280.9427],[33.9091796875,-18.81267669063088,274.4864],[33.918554687500006,-18.82097747188088,237.8309],[33.924902343750006,-18.83171965938088,264.0306],[33.931640625,-18.85466887813088,289.3455],[33.936914062500023,-18.866045831255889,253.4948],[33.945898437500006,-18.87615325313088,255.7891],[33.955664062500006,-18.88005950313088,239.7174],[33.9794921875,-18.884112237505889,303.8358],[33.991601562500023,-18.890655206255886,336.1984],[33.998046875,-18.89959075313088,273.6269],[34.003662109375,-18.90935637813088,300.4641],[34.012939453125,-18.91887786250588,215.1972],[34.025146484375,-18.92327239375588,119.1118],[34.049560546875,-18.920245050005889,233.8684],[34.0615234375,-18.92229583125588,183.9554],[34.067773437500023,-18.92693450313088,211.6512],[34.07421875,-18.939483331255886,215.0479],[34.078320312500011,-18.944659112505889,193.9597],[34.083984375,-18.947295831255886,179.2421],[34.096093750000023,-18.950030206255889,212.4434],[34.101464843750023,-18.952666925005886,224.0264],[34.108984375,-18.961455987505886,158.9292],[34.114355468750006,-18.97087981563088,135.8215],[34.121484375000023,-18.97869231563088,122.4181],[34.1337890625,-18.982940362505886,88.7869],[34.145263671875,-19.00090911250588,77.5778],[34.16015625,-19.009112237505889,81.333],[34.1953125,-19.01995208125588,124.3157],[34.225683593750006,-19.041827081255889,68.7827],[34.242285156250006,-19.04705169063088,60.4593],[34.262792968750006,-19.040557550005886,49.0765],[34.266699218750006,-19.02703215938088,46.791],[34.286376953125,-19.017608331255886,41.1392],[34.325292968750006,-19.009600518755889,36.5153],[34.346582031250023,-19.00920989375588,35.7865],[34.363037109375,-19.01360442500588,34.9012],[34.37646484375,-19.023955987505886,32.4281],[34.397558593750006,-19.05877044063088,29.8736],[34.407470703125,-19.07146575313088,28.7096],[34.42041015625,-19.081573175005886,24.6315],[34.471923828125,-19.105010675005886,22.2138],[34.486328125,-19.11541106563088,22.0311],[34.4970703125,-19.12981536250588,17.7843],[34.500097656250006,-19.14177825313088,20.9902],[34.50048828125,-19.166827081255889,16.8655],[34.5029296875,-19.17888762813088,15.2728],[34.5068359375,-19.187041925005886,15.7205],[34.518310546875,-19.202666925005886,15.1679]]}}