{"type":"Feature","properties":{"featurecla":"River","scalerank":7,"rivernum":482,"dissolve":"482River","name":"Mazoe2","name_alt":null,"note":null,"min_zoom":6.0,"strokeweig":0.25,"name_en":"Mazoe","min_label":7.0},
"geometry":{"type": "LineString","coordinates": [[33.100195312500006,-16.64983489375588,244.5188],[33.148828125000023,-16.611163018755889,210.9284],[33.165722656250011,-16.60125090938088,210.428],[33.18359375,-16.594073175005889,197.1143],[33.218164062500023,-16.584502862505886,201.8732],[33.2919921875,-16.54680755000588,206.2357],[33.309814453125,-16.54338958125588,185.16],[33.350976562500023,-16.55071380000588,183.4113],[33.3609375,-16.550811456255886,174.4008],[33.371972656250023,-16.54973723750588,184.1097],[33.400781250000023,-16.54338958125588,179.8306],[33.427441406250011,-16.53215911250588,168.1094],[33.450439453125,-16.51506926875588,203.995],[33.483496093750006,-16.46721770625588,192.9568],[33.504785156250023,-16.447100518755889,188.1474],[33.529541015625,-16.43157317500588,153.3984],[33.556396484375,-16.421416925005886,148.7027],[33.58984375,-16.41716887813088,168.7104],[33.690527343750006,-16.42571380000588,129.4335],[33.706933593750023,-16.42400481563088,169.7809],[33.751855468750023,-16.40813567500588,124.0985],[33.76416015625,-16.40569426875588,117.9213],[33.8017578125,-16.40569426875588,110.3237]]}}