{"type":"Feature","properties":{"featurecla":"River","scalerank":3,"rivernum":70,"dissolve":"70River","name":"Zambezi11","name_alt":null,"note":null,"min_zoom":3.0,"strokeweig":0.8,"name_en":"Zambezi","min_label":4.0},
"geometry":{"type": "LineString","coordinates": [[32.70751953125,-15.58001067500588,605.8779],[32.720458984375,-15.56902434688088,781.1713],[32.734765625000023,-15.55950286250588,385.0822],[32.74462890625,-15.554522393755889,482.9666],[32.7490234375,-15.55315520625588,413.6205],[32.753320312500023,-15.55364348750588,501.8148],[32.787841796875,-15.552276300005886,862.0616],[32.796875,-15.553252862505886,615.0515],[32.806054687500023,-15.55632903438088,449.525],[32.81689453125,-15.561358331255889,417.7829],[32.8271484375,-15.564776300005889,250.8271],[32.834375,-15.563311456255889,231.7465],[32.849609375,-15.556182550005886,318.0363],[32.865966796875,-15.56047942500588,229.8682],[32.881933593750006,-15.568682550005889,174.3977],[32.896240234375,-15.57317473750588,226.1803],[32.96875,-15.57317473750588,278.0671],[32.99765625,-15.587725518755889,173.0174],[33.012939453125,-15.61419036250588,249.6785],[33.024121093750011,-15.64495208125588,253.018],[33.040136718750006,-15.67278411250588,305.6226],[33.08837890625,-15.71404387813088,253.9429],[33.098242187500006,-15.727080987505886,282.8686],[33.110449218750006,-15.75750090938088,201.3386],[33.119042968750023,-15.77117278438088,239.9488],[33.167382812500023,-15.80657317500588,256.4404],[33.183837890625,-15.810870050005889,262.6634],[33.223388671875,-15.81536223750588,156.7008],[33.238525390625,-15.82293059688088,135.5],[33.298730468750023,-15.895342706255889,133.5],[33.34912109375,-15.93572356563088,159.1046],[33.389062500000023,-15.98381926875588,148.0835],[33.413476562500023,-16.001788018755889,224.2466],[33.443945312500006,-16.015459893755889,175.0797],[33.45654296875,-16.02629973750588,126.5],[33.461669921875,-16.04265715938088,192.5385],[33.46484375,-16.06292083125588,131.417],[33.473242187500006,-16.075030206255889,124.0],[33.484472656250006,-16.085479425005886,123.5],[33.496337890625,-16.10076262813088,123.0],[33.503515625,-16.11638762813088,122.5],[33.505957031250006,-16.12615325313088,122.5],[33.510498046875,-16.13372161250588,124.4984],[33.523681640625,-16.14226653438088,131.3081],[33.540722656250011,-16.14739348750588,148.7701],[33.574121093750023,-16.15081145625588,133.6921],[33.588623046875,-16.15935637813088,134.0674],[33.784423828125,-16.38787200313088,110.5],[33.80419921875,-16.402373956255886,109.5],[33.822509765625,-16.42278411250588,108.5],[33.85107421875,-16.466827081255886,106.0],[33.885156250000023,-16.50750090938088,104.0]]}}