{"type":"Feature","properties":{"featurecla":"River","scalerank":9,"rivernum":1044,"dissolve":"1044River","name":"Punguè","name_alt":null,"note":null,"min_zoom":7.1,"strokeweig":0.15,"name_en":"Punguè","min_label":8.1},
"geometry":{"type": "LineString","coordinates": [[33.070214843750023,-18.34465911250588,566.0082],[33.081445312500023,-18.357256768755889,574.5789],[33.086181640625,-18.37273528438088,589.27],[33.088964843750006,-18.389190362505886,563.4492],[33.09423828125,-18.40496184688088,610.2144],[33.103515625,-18.417803643755889,565.4176],[33.126953125,-18.44036223750588,556.5166],[33.137109375000023,-18.45330169063088,520.5757],[33.162109375,-18.50750090938088,511.6025],[33.177148437500023,-18.51970794063088,531.3958],[33.224609375,-18.53215911250588,550.0951],[33.238378906250006,-18.54021575313088,516.6403],[33.2529296875,-18.55632903438088,504.5883],[33.260986328125,-18.56340911250588,530.0864],[33.2705078125,-18.567705987505889,494.4619],[33.279199218750023,-18.567901300005886,504.8965],[33.290722656250011,-18.563018487505886,511.5992],[33.296777343750023,-18.56194426875588,509.6139],[33.311132812500006,-18.563311456255889,523.7243],[33.323632812500023,-18.56609465938088,540.8104]]}}