{"type":"Feature","properties":{"featurecla":"River","scalerank":3,"rivernum":70,"dissolve":"70River","name":"Zambezi12","name_alt":null,"note":null,"min_zoom":3.0,"strokeweig":1.0,"name_en":"Zambezi","min_label":4.0},
"geometry":{"type": "LineString","coordinates": [[33.885156250000023,-16.50750090938088,104.0],[33.91552734375,-16.554522393755889,106.2353],[33.9345703125,-16.57000090938088,108.8938],[33.959716796875,-16.582549737505886,100.0],[33.9716796875,-16.58611419063088,252.9206],[33.9892578125,-16.58733489375588,143.82],[34.0009765625,-16.59246184688088,244.8096],[34.005859375,-16.60442473750588,202.9926],[34.009521484375,-16.61809661250588,104.8444],[34.0171875,-16.628936456255886,323.7352],[34.033398437500011,-16.632647393755889,181.8095],[34.068945312500006,-16.62395598750588,189.8473],[34.085058593750006,-16.625518487505886,117.9903],[34.095605468750023,-16.629229425005889,149.8379],[34.117431640625,-16.633330987505886,136.2264],[34.1279296875,-16.63665130000588,131.2378],[34.135839843750006,-16.640948175005889,95.3119],[34.1865234375,-16.682159112505886,94.4925],[34.202392578125,-16.692413018755886,95.8169],[34.22021484375,-16.69890715938088,92.7619],[34.287109375,-16.702471612505889,87.0],[34.353515625,-16.71453215938088,86.1135],[34.40771484375,-16.731280206255889,84.7452],[34.671142578125,-16.869952081255889,70.6977],[34.7470703125,-16.890655206255886,67.2106],[34.770410156250023,-16.90178801875588,65.9097],[34.860595703125,-16.97478606563088,63.4781],[34.869042968750023,-16.98479583125588,61.0463],[34.88330078125,-17.01506926875588,61.9238],[34.9078125,-17.11467864375588,56.8147],[34.947851562500006,-17.17962005000588,53.8467],[34.967041015625,-17.22136809688088,50.5864],[34.978515625,-17.25969817500588,47.5],[34.980566406250006,-17.27971770625588,48.7489]]}}