{"type": "Feature","bbox": [40.2202,-15.514099999999999,40.6787,-15.0267],"geometry": {"type": "MultiPolygon","coordinates": [[[[40.6632,-15.1951,0.0],[40.6618,-15.1949,0.0],[40.6626,-15.2107,0.059],[40.6638,-15.2107,0.059],[40.6654,-15.2015,0.0],[40.6632,-15.1951,0.0]]],
[[[40.5279,-15.149,0.0],[40.5262,-15.1485,0.0],[40.5265,-15.1518,0.0],[40.5279,-15.1504,0.0],[40.5279,-15.149,0.0]]],
[[[40.2458,-15.0861,89.5321],[40.2314,-15.0945,99.3336],[40.2237,-15.1125,103.5123],[40.2242,-15.1204,105.7871],[40.2262,-15.13,128.3408],[40.2332,-15.1405,124.6566],[40.2403,-15.1446,111.1534],[40.2468,-15.1513,107.5565],[40.2497,-15.1611,99.2812],[40.2534,-15.166,97.0758],[40.2413,-15.1741,96.2592],[40.2246,-15.198,110.8313],[40.2202,-15.2076,116.8689],[40.2325,-15.2264,95.7409],[40.2419,-15.2491,70.9536],[40.2531,-15.2605,63.0579],[40.2491,-15.2774,96.5797],[40.2453,-15.3162,100.3577],[40.2455,-15.33,93.5654],[40.2521,-15.3814,82.8971],[40.2602,-15.3827,90.2583],[40.2791,-15.4068,87.232],[40.302,-15.4438,50.3894],[40.3166,-15.4572,40.8177],[40.3227,-15.46,39.8951],[40.3435,-15.456,34.3384],[40.3489,-15.4631,37.8418],[40.3567,-15.4681,25.635],[40.36,-15.4749,21.1996],[40.3686,-15.5051,25.3562],[40.3711,-15.5091,25.9961],[40.3811,-15.514099999999999,13.4205],[40.4033,-15.5117,9.1654],[40.4206,-15.5067,7.5026],[40.457,-15.5111,13.0445],[40.4701,-15.5043,15.8508],[40.4875,-15.483,6.0635],[40.51,-15.4647,4.1999],[40.5152,-15.4582,3.649],[40.5317,-15.4507,2.5283],[40.5404,-15.4445,1.9698],[40.5421,-15.447,2.2508],[40.5418,-15.4499,1.5398],[40.544,-15.4521,0.8484],[40.5488,-15.4515,0.5],[40.5504,-15.4493,2.1906],[40.5585,-15.449,0.6426],[40.561,-15.4462,3.8828],[40.5643,-15.4454,0.5471],[40.5632,-15.4476,0.3434],[40.5612,-15.4471,0.9848],[40.5601,-15.4485,0.8528],[40.5635,-15.4501,0.0],[40.5685,-15.4429,0.0],[40.5649,-15.439,3.5506],[40.5715,-15.4368,0.0],[40.5732,-15.4276,3.6392],[40.5768,-15.4232,0.0],[40.576,-15.4199,0.2131],[40.5726,-15.4238,0.5196],[40.5671,-15.426,0.0],[40.5626,-15.4251,2.3622],[40.560400883179447,-15.420401886792451,1.042],[40.5671,-15.4246,0.0],[40.571,-15.4226,0.7668],[40.576,-15.4076,0.5544],[40.5724,-15.4065,2.9945],[40.571,-15.4032,2.0429],[40.5671,-15.404,2.0148],[40.5713,-15.4026,2.4674],[40.5724,-15.4054,0.9485],[40.576,-15.4068,0.5544],[40.5807,-15.4054,0.0],[40.5868,-15.399,0.0],[40.589,-15.3926,3.8919],[40.5932,-15.3896,0.6767],[40.5863,-15.3854,2.0446],[40.5943,-15.389,2.2095],[40.5938,-15.3915,2.4532],[40.589,-15.3949,0.0],[40.5893,-15.3985,0.0],[40.6162,-15.366,1.1694],[40.6232,-15.3607,0.5604],[40.6263,-15.3604,0.0],[40.6285,-15.3576,0.0],[40.6332,-15.356,0.0],[40.6315,-15.3532,0.0],[40.6307,-15.356,0.0],[40.6215,-15.3546,0.0],[40.6199,-15.3621,1.1559],[40.6051,-15.3743,1.1091],[40.6076,-15.3704,2.6765],[40.6121,-15.3671,0.4281],[40.6118,-15.366,0.0],[40.6079,-15.3671,2.0707],[40.6057,-15.3657,2.1021],[40.6104,-15.3662,3.2546],[40.6118,-15.3615,0.874],[40.6162,-15.3585,1.1624],[40.6196,-15.3532,0.0],[40.619,-15.3515,0.0],[40.6257,-15.3465,0.0],[40.6312,-15.3379,0.8683],[40.6371,-15.3224,1.62],[40.6465,-15.3124,0.0],[40.6693,-15.279,0.0],[40.6704,-15.2746,0.0],[40.6646,-15.2846,0.0],[40.6596,-15.2899,1.5131],[40.661,-15.2854,2.6255],[40.6757,-15.2649,0.4659],[40.6787,-15.2532,0.0],[40.6757,-15.2462,0.0],[40.6671,-15.2379,2.1101],[40.6646,-15.2137,0.0],[40.6638,-15.2165,0.0],[40.6649,-15.2237,1.3891],[40.6587,-15.2321,0.7008],[40.6599,-15.2371,0.0],[40.6563,-15.2421,4.0181],[40.6574,-15.2443,1.4647],[40.6638,-15.2454,0.6584],[40.6613,-15.2515,0.4051],[40.6604,-15.2512,2.1133],[40.6632,-15.246,0.6584],[40.6574,-15.2451,3.4039],[40.6557,-15.2415,0.6618],[40.6585,-15.2376,0.0],[40.6574,-15.2315,3.0768],[40.6585,-15.2293,0.0],[40.6551,-15.2301,1.5791],[40.6524,-15.2351,0.0],[40.6526,-15.239,0.0],[40.6563,-15.2462,3.4039],[40.656,-15.2504,2.6855],[40.6551,-15.2446,0.5221],[40.6512,-15.2374,3.7754],[40.6543,-15.2279,0.5048],[40.6599,-15.2232,2.121],[40.6593,-15.196,0.7551],[40.6576,-15.1885,1.4754],[40.6504,-15.1787,0.0],[40.6474,-15.1774,0.0],[40.6476,-15.1751,0.0],[40.6429,-15.1715,0.0],[40.6413,-15.1737,0.0],[40.6424,-15.1746,1.5335],[40.6401,-15.1746,2.1343],[40.634,-15.1701,2.092],[40.6257,-15.1571,0.0],[40.626,-15.1604,0.0],[40.6312,-15.1704,3.9546],[40.6315,-15.1749,3.0004],[40.6293,-15.1818,3.2396],[40.6304,-15.1729,0.0],[40.6285,-15.1671,0.0],[40.6165,-15.1532,2.7511],[40.6138,-15.1521,1.6928],[40.6079,-15.1515,0.5406],[40.6029,-15.1587,2.6787],[40.5949,-15.164,1.7974],[40.5918,-15.1637,3.3727],[40.5893,-15.1615,0.0],[40.5835,-15.1643,0.0],[40.5812,-15.1637,0.0],[40.5838,-15.1665,0.0],[40.5893,-15.166,2.8375],[40.5938,-15.1707,2.7165],[40.5962,-15.1743,3.4722],[40.5965,-15.1821,3.9068],[40.5943,-15.1849,3.4125],[40.5887,-15.1865,2.0446],[40.5835,-15.1843,0.0],[40.5743,-15.1924,0.0],[40.5665,-15.2029,0.3234],[40.5571,-15.2021,0.944],[40.5457,-15.196,0.0],[40.5432,-15.1971,0.4853],[40.5393,-15.1951,0.2337],[40.5357,-15.1962,0.0],[40.5232,-15.1921,1.8393],[40.5135,-15.1779,0.0],[40.5118,-15.1779,0.0],[40.5068,-15.1846,2.0023],[40.5046,-15.1996,3.129],[40.5021,-15.201,0.0],[40.4938,-15.2001,1.4833],[40.4957,-15.1993,7.6742],[40.4996,-15.2001,0.2008],[40.5038,-15.1979,6.1092],[40.5043,-15.1901,0.0],[40.5024,-15.1838,0.0],[40.504,-15.1813,0.0],[40.5043,-15.1754,0.0],[40.509,-15.1735,0.7179],[40.5107,-15.169,1.7866],[40.5137,-15.1737,0.0],[40.5179,-15.1726,0.674],[40.5193,-15.1604,1.0037],[40.5165,-15.1587,0.0],[40.5182,-15.1563,0.0],[40.5215,-15.1568,0.839],[40.524,-15.1532,0.0],[40.5251,-15.139,0.0],[40.5238,-15.1324,1.1387],[40.5282,-15.1268,3.9546],[40.5337,-15.1257,1.9972],[40.539,-15.1268,5.1746],[40.5388,-15.1349,0.0],[40.5407,-15.1362,0.0],[40.5421,-15.1313,0.0],[40.5474,-15.1246,0.0],[40.5599,-15.1246,0.0],[40.5629,-15.1263,0.0],[40.564,-15.1304,0.6272],[40.5687,-15.1279,2.5371],[40.566,-15.1324,3.3085],[40.5682,-15.1315,4.575],[40.569,-15.1337,0.7264],[40.5729,-15.1346,0.0],[40.5754,-15.1376,0.0],[40.5771,-15.1349,0.4269],[40.5796,-15.1379,0.0],[40.5801,-15.1424,1.9008],[40.5818,-15.1426,2.4601],[40.5863,-15.1321,0.9359],[40.5935,-15.1251,0.0],[40.5879,-15.1176,0.0],[40.5765,-15.119,1.7352],[40.5757,-15.1179,4.7916],[40.5784,-15.1185,2.6499],[40.5628,-15.1038,8.0639],[40.5585,-15.0968,5.6423],[40.5558,-15.086,8.5002],[40.5588,-15.0592,11.1477],[40.5586,-15.0458,13.2477],[40.5469,-15.0383,14.0365],[40.5357,-15.0359,17.9715],[40.496,-15.0539,38.7647],[40.455,-15.0515,45.4649],[40.4424,-15.0267,27.4511],[40.4407,-15.029,26.5771],[40.4234,-15.0346,33.4622],[40.3975,-15.0377,34.815],[40.3899,-15.0346,39.3284],[40.3682,-15.04,42.6453],[40.3302,-15.0736,57.0982],[40.3178,-15.0755,60.9335],[40.3063,-15.0715,63.0614],[40.2983,-15.0652,65.7577],[40.2792,-15.0576,75.3207],[40.268,-15.0619,74.7908],[40.257,-15.0774,79.3697],[40.2458,-15.0861,89.5321]],
[[40.560400883179447,-15.420401886792451,1.042],[40.560399047206587,-15.420400736249459,1.042],[40.5604,-15.4204,1.042],[40.560400883179447,-15.420401886792451,1.042]],
[[40.560399047206587,-15.420400736249459,1.042],[40.556,-15.4238,2.2327],[40.5596,-15.4199,1.042],[40.560399047206587,-15.420400736249459,1.042]]],
[[[40.5785,-15.4246,0.6618],[40.5774,-15.4246,0.0],[40.5746,-15.4332,0.0],[40.5757,-15.4354,0.0],[40.5768,-15.4343,0.0],[40.5785,-15.4246,0.6618]]],
[[[40.579,-15.4079,0.3118],[40.5793,-15.4068,0.3118],[40.5768,-15.4076,0.5544],[40.5785,-15.4087,0.0],[40.579,-15.4079,0.3118]]],
[[[40.5879,-15.4024,0.0],[40.5871,-15.4012,0.0],[40.584,-15.4035,0.6738],[40.5849,-15.406,0.4378],[40.5871,-15.4026,0.0],[40.5879,-15.4024,0.0]]]]}
,"properties": {"GID_3": "MOZ.7.12.2_1","GID_0": "MOZ","country": "Mozambique","GID_1": "MOZ.7_1","province": "Nampula","NL_NAME_1": "NA","GID_2": "MOZ.7.12_1","county": "Mossuril","NL_NAME_2": "NA","city": "Lunga","VARNAME_3": "NA","NL_NAME_3": "NA","TYPE_3": "Localidad","ENGTYPE_3": "Locality","CC_3": "NA","HASC_3": "NA","name": "Lunga.city","area_km2": 1793.822,"hist_schema_id": "Elevation0-9000","hist_area_km2": {"0": 196.515,"25": 314.351,"50": 384.226,"75": 472.988,"100": 373.521,"125": 46.244,"150": 5.977}}}