{"type":"Feature","properties":{"GID_3":"MOZ.1.14.2_1","GID_0":"MOZ","country":"Mozambique","GID_1":"MOZ.1_1","province":"CaboDelgado","NL_NAME_1":"NA","GID_2":"MOZ.1.14_1","county":"Pemba","NL_NAME_2":"NA","city":"Mieze","VARNAME_3":"NA","NL_NAME_3":"NA","TYPE_3":"Localidad","ENGTYPE_3":"Locality","CC_3":"NA","HASC_3":"NA","name":"Mieze.city"},
"geometry":{"type": "MultiPolygon","coordinates": [[[[40.5014,-13.077,12.7891],[40.4811,-13.0835,8.9504],[40.4694,-13.0925,8.9997],[40.4694,-13.0852,6.3534],[40.4712,-13.0803,4.7073],[40.4766,-13.0713,4.6664],[40.4868,-13.0607,5.1726],[40.4843,-13.0586,3.9906],[40.4912,-13.0443,1.0],[40.486,-13.0446,4.1386],[40.4899,-13.0415,1.5064],[40.4907,-13.0346,2.1379],[40.489,-13.0337,1.5767],[40.4843,-13.0354,0.125],[40.4865,-13.0401,6.6759],[40.4826,-13.0357,2.5646],[40.4854,-13.0321,2.7809],[40.4893,-13.0321,0.0],[40.489,-13.0293,0.6127],[40.4874,-13.0274,0.0],[40.4849,-13.0282,0.0],[40.4857,-13.0307,2.3318],[40.4632,-13.029,0.4913],[40.4604,-13.0343,5.7666],[40.466,-13.0379,2.7435],[40.4657,-13.0404,3.8166],[40.4643,-13.0379,1.0642],[40.4585,-13.0346,4.1189],[40.459,-13.0293,2.5069],[40.4621,-13.026,0.3498],[40.461,-13.0243,0.0],[40.4526,-13.0249,2.2729],[40.4437,-13.0296,2.8772],[40.4399,-13.0296,2.5962],[40.4412,-13.0254,1.499],[40.4329,-13.0288,3.5913],[40.4393,-13.0246,0.6047],[40.4382,-13.0224,1.1797],[40.4415,-13.0143,3.0341],[40.4396,-13.0099,3.1561],[40.434,-13.004,0.0],[40.4338,-13.0015,0.0],[40.4288,-13.0045,4.1826],[40.4151,-13.0063,3.3284],[40.4079,-13.0102,4.3602],[40.3812,-13.0367,22.8653],[40.3688,-13.0462,28.8899],[40.3644,-13.0445,29.629],[40.3573,-13.0483,33.5661],[40.3525,-13.0484,36.6432],[40.3483,-13.0505,40.9816],[40.3486,-13.0541,39.7998],[40.3457,-13.0597,49.206],[40.3621,-13.0739,96.1983],[40.373,-13.0713,77.8326],[40.3924,-13.0785,54.057],[40.3961,-13.0894,44.0515],[40.4077,-13.1415,50.7364],[40.4643,-13.135,27.6884],[40.4621,-13.1278,24.2256],[40.5014,-13.077,12.7891]]]]}}