{"type":"Feature","properties":{"GID_3":"MOZ.1.8.1_1","GID_0":"MOZ","country":"Mozambique","GID_1":"MOZ.1_1","province":"CaboDelgado","NL_NAME_1":"NA","GID_2":"MOZ.1.8_1","county":"Montepuez","NL_NAME_2":"NA","city":"Mirate","VARNAME_3":"NA","NL_NAME_3":"NA","TYPE_3":"Localidad","ENGTYPE_3":"Locality","CC_3":"NA","HASC_3":"NA","name":"Mirate.city"},
"geometry":{"type": "MultiPolygon","coordinates": [[[[38.8211,-13.2644,470.4084],[38.842,-13.2466,471.8964],[38.8624,-13.1969,466.39],[38.8726,-13.1869,463.7325],[38.8909,-13.1869,592.123],[38.9001,-13.1816,562.9091],[38.9001,-13.169,452.5312],[38.9092,-13.1452,437.2092],[38.9267,-13.1388,460.0196],[38.9383,-13.1288,449.4367],[38.9612,-13.0915,438.0376],[38.9734,-13.0795,424.8018],[39.0108,-13.0315,414.166],[39.0376,-13.0169,407.8046],[39.0437,-13.002,420.499],[39.0559,-12.9901,408.3265],[39.0653,-12.9763,423.1187],[39.0742,-12.9713,426.0983],[39.0895,-12.9692,401.3121],[39.117,-12.9602,415.0072],[39.1384,-12.9483,401.517],[39.1463,-12.9304,407.0653],[39.1812,-12.9304,395.2554],[39.1965,-12.9275,378.7462],[39.2117,-12.9275,394.6659],[39.2205,-12.9114,381.4531],[39.2269,-12.8745,390.0897],[39.2657,-12.8474,369.8333],[39.2526,-12.8195,381.4564],[39.2461,-12.8181,375.0055],[39.2362,-12.8201,374.9553],[39.227,-12.829,388.1956],[39.2172,-12.8343,397.8775],[39.1905,-12.8348,423.4136],[39.1742,-12.8317,437.9627],[39.1478,-12.82,458.3554],[39.1368,-12.8127,472.8102],[39.1322,-12.8032,422.2226],[39.1401,-12.7836,385.1474],[39.126,-12.7446,352.8159],[39.127,-12.7358,345.1741],[39.1386,-12.714,324.5352],[39.1396,-12.7092,324.2041],[39.1333,-12.6887,311.5637],[39.1475,-12.6626,301.2856],[39.1526,-12.6283,288.6426],[39.147,-12.6089,278.5744],[39.1471,-12.5944,272.7759],[39.1554,-12.5731,272.7183],[39.1681,-12.5579,260.252],[39.1501,-12.5571,256.6257],[39.1383,-12.5547,266.3366],[39.0798,-12.5539,283.9142],[39.0742,-12.5457,274.9651],[39.059,-12.5546,296.205],[39.0376,-12.5785,285.3224],[39.0227,-12.5865,302.7984],[38.9787,-12.5818,325.6271],[38.9551,-12.5904,334.0261],[38.9276,-12.5934,315.5587],[38.8787,-12.5934,323.4613],[38.8665,-12.5964,340.1548],[38.8542,-12.6024,305.0054],[38.8359,-12.6024,308.7043],[38.8115,-12.6352,338.2256],[38.7906,-12.6381,324.7372],[38.7747,-12.6356,330.1249],[38.7656,-12.6531,325.9608],[38.7687,-12.6767,325.248],[38.7595,-12.6918,342.2043],[38.724,-12.7092,369.1743],[38.6998,-12.76,362.3336],[38.6831,-12.7783,354.5174],[38.6648,-12.7783,341.6644],[38.6556,-12.7873,342.9462],[38.6343,-12.8201,354.0734],[38.619,-12.8171,384.1417],[38.6129,-12.8231,372.7667],[38.6098,-12.8559,365.2267],[38.6068,-12.8559,362.9478],[38.5976,-12.8827,397.3812],[38.5609,-12.8916,364.8203],[38.5473,-12.909,371.6386],[38.5481,-12.9167,362.9679],[38.554,-12.9148,360.1821],[38.5589,-12.9176,373.354],[38.5795,-12.9395,375.0006],[38.5877,-12.9416,378.211],[38.5967,-12.9504,385.0487],[38.6005,-12.9595,388.2473],[38.5989,-12.9692,401.1618],[38.5914,-12.9832,414.5647],[38.5915,-12.9876,418.4531],[38.5859,-12.9956,426.053],[38.5864,-12.9982,437.3769],[38.5847,-13.002,446.4937],[38.5878,-13.0068,453.8325],[38.5779,-13.0162,641.269],[38.5738,-13.0248,890.9508],[38.6586,-13.124,494.8972],[38.689,-13.1439,480.2014],[38.7037,-13.1858,490.0284],[38.7081,-13.1916,495.8203],[38.7245,-13.2313,533.529],[38.7347,-13.2383,553.2377],[38.7378,-13.2437,564.897],[38.7437,-13.2467,585.0169],[38.7503,-13.257,752.8538],[38.7854,-13.2728,471.2386],[38.7936,-13.2666,473.3751],[38.8077,-13.2645,468.8673],[38.8127,-13.2597,466.6597],[38.8206,-13.2609,472.3071],[38.8211,-13.2644,470.4084]]]]}}