{"type":"Feature","properties":{"GID_3":"MOZ.8.6.2_1","GID_0":"MOZ","country":"Mozambique","GID_1":"MOZ.8_1","province":"Nassa","NL_NAME_1":"NA","GID_2":"MOZ.8.6_1","county":"Marrupa","NL_NAME_2":"NA","city":"Marrupa-Sede","VARNAME_3":"NA","NL_NAME_3":"NA","TYPE_3":"Localidad","ENGTYPE_3":"Locality","CC_3":"NA","HASC_3":"NA","name":"Marrupa-Sede.city"},
"geometry":{"type": "MultiPolygon","coordinates": [[[[36.7068,-12.9997,501.927],[36.704,-13.0143,505.4504],[36.7034,-13.0345,509.7661],[36.7056,-13.0453,515.7219],[36.7153,-13.0541,518.4503],[36.7431,-13.0722,523.8358],[36.7523,-13.0815,529.6279],[36.7604,-13.0954,533.8586],[36.771,-13.1026,530.0548],[36.7842,-13.1214,544.4875],[36.7876,-13.1411,547.1041],[36.8033,-13.1699,557.0746],[36.8212,-13.1865,567.2225],[36.8386,-13.1967,585.4312],[36.8675,-13.2014,594.9028],[36.8889,-13.2115,598.6806],[36.9228,-13.1807,587.4122],[36.9329,-13.1785,569.3821],[36.9618,-13.1775,558.191],[36.9872,-13.1719,539.8749],[37.001,-13.1779,532.3138],[36.9954,-13.188,526.9469],[36.9916,-13.1994,529.9294],[36.9854,-13.2098,535.6331],[36.9716,-13.2218,544.819],[36.9625,-13.222,546.758],[36.9518,-13.2457,543.2263],[36.938,-13.2565,552.706],[36.9354,-13.2748,554.7787],[36.919,-13.2795,554.251],[36.9045,-13.2773,552.8828],[36.8973,-13.2894,561.6234],[36.8969,-13.3223,586.5167],[36.8987,-13.3304,590.2344],[36.8893,-13.3451,585.9244],[36.8891,-13.3537,590.9156],[36.8766,-13.3702,603.3119],[36.881,-13.3984,613.004],[36.8801,-13.4051,628.381],[36.8736,-13.415,624.1497],[36.8763,-13.4231,641.6939],[36.8747,-13.4292,640.5183],[36.8754,-13.4368,646.9293],[36.8786,-13.4452,675.5129],[36.8745,-13.4569,676.777],[36.8559,-13.4786,697.2146],[36.8507,-13.4876,709.7749],[36.8426,-13.5079,712.6382],[36.838,-13.5256,723.3401],[36.8473,-13.5547,740.22],[36.8471,-13.5608,759.5146],[36.8443,-13.5682,779.0581],[36.8456,-13.5918,819.8704],[36.8555,-13.6005,824.5394],[36.8662,-13.5922,822.1925],[36.8691,-13.5969,833.0502],[36.8652,-13.6335,862.0183],[36.8607,-13.6469,874.3555],[36.863,-13.6522,881.0536],[36.87,-13.6568,902.6902],[36.8716,-13.6859,937.4899],[36.8807,-13.6917,967.3843],[36.9761,-13.6204,733.1013],[37.0187,-13.621,910.1719],[37.0799,-13.6281,897.8594],[37.1179,-13.6306,841.9799],[37.1281,-13.6238,832.9114],[37.1348,-13.614,823.2237],[37.1388,-13.5999,827.698],[37.1492,-13.5866,842.6467],[37.1601,-13.577,830.4196],[37.189,-13.5676,782.0607],[37.22,-13.536,782.1418],[37.272,-13.4739,782.1749],[37.3111,-13.4551,761.4927],[37.376,-13.4307,736.0723],[37.3833,-13.429,739.2205],[37.3889,-13.4312,728.503],[37.406,-13.4195,739.6716],[37.4215,-13.4173,741.3692],[37.4628,-13.4223,747.4238],[37.4966,-13.3954,686.6516],[37.532,-13.3981,707.6941],[37.5537,-13.3558,677.7246],[37.5947,-13.3388,630.0468],[37.6261,-13.3277,635.0515],[37.6292,-13.327,656.9614],[37.6776,-13.3388,590.4443],[37.7052,-13.3358,557.3713],[37.7174,-13.3268,549.0051],[37.742,-13.3328,706.0187],[37.788,-13.291,588.1495],[37.7726,-13.2493,565.5728],[37.7481,-13.2314,568.4739],[37.7512,-13.2195,569.9512],[37.7573,-13.2075,572.6755],[37.6745,-13.1419,689.498],[37.6806,-13.1091,734.863],[37.7266,-13.0912,692.2654],[37.7389,-13.0495,594.507],[37.745,-13.0137,520.3027],[37.7554,-13.0019,500.0022],[37.7722,-12.9872,487.9231],[37.7665,-12.951,507.2566],[37.7481,-12.9451,493.5114],[37.7205,-12.9182,596.6703],[37.7113,-12.9123,586.4626],[37.6499,-12.9481,798.2424],[37.6117,-12.9505,558.7574],[37.5583,-12.9457,527.1807],[37.4966,-12.8914,451.2701],[37.3831,-12.8496,409.7314],[37.3493,-12.8616,436.251],[37.326,-12.9012,439.6739],[37.323,-12.9027,437.3748],[37.3033,-12.8944,426.8951],[37.2872,-12.8787,448.6605],[37.2657,-12.8745,454.0529],[37.2383,-12.8763,463.0275],[37.1977,-12.8616,513.1267],[37.1801,-12.8382,494.4969],[37.176,-12.8295,485.2169],[37.1686,-12.8042,453.2975],[37.1622,-12.7691,422.9561],[37.1684,-12.7423,428.2369],[37.1254,-12.7154,394.0382],[37.1516,-12.6532,378.4985],[37.1404,-12.6543,371.7572],[37.1297,-12.6517,380.6872],[37.1195,-12.6473,388.0689],[37.1011,-12.6288,379.5473],[37.0905,-12.6264,391.2575],[37.0703,-12.6426,396.8731],[37.0584,-12.6458,400.6434],[37.0484,-12.6463,392.1078],[37.031,-12.662,395.7947],[37.0008,-12.6584,394.5438],[36.9894,-12.6606,397.405],[36.9738,-12.6552,406.0865],[36.9673,-12.6559,397.68],[36.9475,-12.671,404.9426],[36.9358,-12.7078,383.0],[36.9266,-12.7167,414.295],[36.92,-12.7161,419.5813],[36.9147,-12.7135,425.2086],[36.8822,-12.7381,425.1261],[36.8648,-12.7633,442.2133],[36.8467,-12.7721,443.0838],[36.838,-12.794,440.1389],[36.8177,-12.7967,438.5832],[36.8081,-12.8004,445.0147],[36.7884,-12.8212,452.0771],[36.77,-12.8247,472.1291],[36.7597,-12.8288,462.3023],[36.7523,-12.8339,451.0623],[36.7478,-12.8445,454.8597],[36.7464,-12.8575,448.3101],[36.7463,-12.8691,458.0094],[36.751,-12.8878,466.5465],[36.7496,-12.9007,466.0598],[36.7418,-12.9136,468.318],[36.7482,-12.931,478.3806],[36.7427,-12.9558,473.6784],[36.7371,-12.9618,483.1598],[36.7172,-12.974,501.0825],[36.7057,-12.9948,501.3385],[36.7068,-12.9997,501.927]]]]}}