{"type":"Feature","properties":{"GID_3":"MOZ.6.6.1_1","GID_0":"MOZ","country":"Mozambique","GID_1":"MOZ.6_1","province":"Maputo","NL_NAME_1":"NA","GID_2":"MOZ.6.6_1","county":"Moamba","NL_NAME_2":"NA","city":"Moamba","VARNAME_3":"NA","NL_NAME_3":"NA","TYPE_3":"Localidad","ENGTYPE_3":"Locality","CC_3":"NA","HASC_3":"NA","name":"Moamba.city"},
"geometry":{"type": "MultiPolygon","coordinates": [[[[32.4201,-25.2697,44.2904],[32.4159,-25.2668,44.0684],[32.3556,-25.3119,45.7949],[32.3416,-25.3277,51.2412],[32.3223,-25.3368,69.9467],[32.3124,-25.3354,71.2323],[32.3048,-25.317,54.3717],[32.296,-25.3119,54.9318],[32.2854,-25.315,55.1317],[32.2346,-25.319,60.3031],[32.2293,-25.356,61.7267],[32.2293,-25.3744,63.5504],[32.2236,-25.3778,68.3536],[32.2163,-25.3914,74.0579],[32.2153,-25.4055,68.6439],[32.2187,-25.4158,63.9425],[32.2328,-25.4443,67.1926],[32.2433,-25.4758,74.5648],[32.2574,-25.5073,78.24],[32.2558,-25.5642,76.9903],[32.2467,-25.5783,80.6762],[32.242,-25.582,80.6207],[32.2293,-25.5734,80.5456],[32.2118,-25.5671,82.3151],[32.1942,-25.5482,78.9425],[32.1627,-25.5288,86.2237],[32.1345,-25.5262,97.1877],[32.1208,-25.5189,93.7828],[32.1298,-25.5339,121.4075],[32.1312,-25.5395,114.0167],[32.1517,-25.5488,113.6071],[32.1563,-25.5633,116.3634],[32.1562,-25.5772,97.2213],[32.1621,-25.5826,127.4777],[32.1659,-25.5919,117.9357],[32.1593,-25.6065,108.1813],[32.1608,-25.6098,111.0697],[32.1593,-25.6191,114.7933],[32.1562,-25.6242,115.6607],[32.151,-25.6238,119.274],[32.1246,-25.6099,144.7249],[32.0939,-25.5855,130.4454],[32.0529,-25.558,170.5607],[32.0423,-25.5535,215.9924],[31.9976,-25.5479,285.9298],[32.0056,-25.626,250.6066],[32.0061,-25.6452,397.2691],[31.9979,-25.6706,382.9418],[32.0345,-25.6829,334.1684],[32.0893,-25.6803,189.2756],[32.1191,-25.6812,174.1236],[32.1257,-25.6878,163.6494],[32.1401,-25.6872,169.0957],[32.1563,-25.695,114.8366],[32.1753,-25.7184,96.9655],[32.1936,-25.733,89.0007],[32.2106,-25.7386,86.5805],[32.2061,-25.7367,89.1717],[32.2053,-25.7314,91.7406],[32.206,-25.6523,111.4513],[32.2122,-25.6493,108.1432],[32.2274,-25.6479,101.2719],[32.2529,-25.6377,93.2098],[32.2626,-25.629,87.6473],[32.2675,-25.6197,87.8046],[32.295,-25.6254,99.6581],[32.3293,-25.6262,101.4244],[32.3819,-25.6344,100.0035],[32.4235,-25.6383,93.5771],[32.4649,-25.6408,58.9235],[32.4873,-25.635,34.1003],[32.4873,-25.6158,33.4102],[32.4908,-25.5901,39.6742],[32.4908,-25.5773,53.0202],[32.5109,-25.5596,41.8192],[32.5265,-25.5378,47.8663],[32.5299,-25.504,51.8842],[32.5409,-25.4972,54.5463],[32.55,-25.393,85.0433],[32.6236,-25.3128,48.2595],[32.6299,-25.2918,59.9828],[32.6235,-25.3124,48.2595],[32.4966,-25.2568,42.8624],[32.5015,-25.2625,35.6216],[32.506,-25.2722,35.7113],[32.5051,-25.2852,39.2908],[32.4985,-25.2952,36.3154],[32.4619,-25.2859,41.4025],[32.4466,-25.2892,48.5653],[32.4349,-25.2859,48.1115],[32.4201,-25.2697,44.2904]]]]}}