{"type":"Feature","properties":{"GID_3":"MOZ.3.7.1_1","GID_0":"MOZ","country":"Mozambique","GID_1":"MOZ.3_1","province":"Inhambane","NL_NAME_1":"NA","GID_2":"MOZ.3.7_1","county":"Mabote","NL_NAME_2":"NA","city":"Mabote","VARNAME_3":"NA","NL_NAME_3":"NA","TYPE_3":"Localidad","ENGTYPE_3":"Locality","CC_3":"NA","HASC_3":"NA","name":"Mabote.city"},
"geometry":{"type": "MultiPolygon","coordinates": [[[[34.3687,-22.2109,181.7848],[34.3793,-22.2146,182.8474],[34.3939,-22.229,176.8667],[34.5081,-22.2311,153.2435],[34.546,-22.2025,148.9116],[34.625,-22.0951,166.2679],[34.4656,-22.001,147.7022],[34.399,-21.9416,154.1674],[34.3957,-21.9226,156.152],[34.41,-21.9017,155.371],[34.4268,-21.8829,156.5757],[34.4366,-21.8526,166.7612],[34.4734,-21.7827,152.647],[34.3722,-21.6833,173.7498],[34.3653,-21.6685,181.7209],[34.3578,-21.6427,181.224],[34.3516,-21.6144,176.416],[34.3512,-21.605,173.6875],[34.3678,-21.5704,146.5112],[34.3685,-21.5261,127.4296],[34.3888,-21.4628,118.0559],[34.3771,-21.4516,117.3312],[34.3619,-21.4335,122.5183],[34.3234,-21.4101,149.1702],[34.2883,-21.3995,124.4379],[34.2785,-21.3915,124.2595],[34.2707,-21.3815,121.2601],[34.2661,-21.3723,85.61],[34.2581,-21.3709,63.0444],[34.2462,-21.3729,60.4617],[34.2254,-21.3945,69.4832],[34.2261,-21.4021,67.9577],[34.2225,-21.4131,83.8308],[34.2226,-21.4426,79.7007],[34.2118,-21.4658,82.3192],[34.2208,-21.4913,91.0872],[34.2263,-21.5186,91.7797],[34.2239,-21.5448,104.3071],[34.219,-21.5737,108.9956],[34.2064,-21.6284,111.8043],[34.2151,-21.6415,119.3861],[34.2034,-21.6737,121.5083],[34.2057,-21.6993,124.2762],[34.1849,-21.7477,128.3827],[34.1956,-21.8762,139.1651],[34.2115,-21.9298,164.6426],[34.1829,-21.911,145.3495],[34.1749,-21.9109,146.5581],[34.1665,-21.9148,159.328],[34.1569,-21.9146,161.4395],[34.0959,-21.7997,185.3191],[34.0977,-21.7765,185.6048],[34.094,-21.7387,204.2769],[34.0748,-21.7221,193.9912],[34.0666,-21.7303,198.0946],[34.0523,-21.7378,198.8042],[34.0066,-21.7539,198.9303],[33.9982,-21.7474,188.2271],[33.9883,-21.7508,186.9406],[33.975,-21.7583,192.2643],[33.9681,-21.7677,187.8262],[33.954,-21.7755,198.4881],[33.944,-21.793,201.9211],[33.9358,-21.8127,184.7133],[33.9324,-21.8268,201.6879],[33.9364,-21.832,198.5494],[33.9377,-21.8373,195.9077],[33.9325,-21.8681,181.53],[33.9193,-21.8966,169.0621],[33.9083,-21.9049,164.9463],[33.9192,-21.9204,151.0631],[33.9441,-21.9326,144.0469],[33.9544,-21.9343,151.4979],[33.9693,-21.9403,177.4374],[33.9911,-21.9444,199.2253],[33.9995,-21.9495,197.9754],[34.0069,-21.959,184.0391],[34.0125,-21.9757,173.7116],[34.0104,-22.0054,184.2726],[34.0005,-22.0222,169.6528],[33.7977,-22.0215,192.2165],[33.7945,-22.0154,190.1545],[33.785,-22.0071,185.3215],[33.775,-22.2914,196.1503],[33.7736,-22.4933,162.3559],[33.7688,-22.5994,151.4443],[33.7654,-22.6372,144.2648],[33.7589,-22.6625,135.5995],[33.7844,-22.738,131.832],[33.7725,-22.8425,108.0658],[33.8547,-22.791,117.6457],[33.8966,-22.7843,124.027],[33.9397,-22.5803,108.2606],[33.8731,-22.5181,140.7883],[33.9118,-22.4104,119.3911],[33.9435,-22.4135,117.548],[33.9315,-22.3987,118.832],[33.9305,-22.3899,119.8962],[33.9976,-22.3636,149.9229],[34.0401,-22.339,148.9854],[34.1194,-22.228,168.2803],[34.2314,-22.1535,160.593],[34.2951,-22.1787,160.652],[34.336,-22.2003,177.0515],[34.3462,-22.2024,180.2169],[34.3687,-22.2109,181.7848]]]]}}