{"type":"Feature","properties":{"GID_3":"MOZ.3.3.3_1","GID_0":"MOZ","country":"Mozambique","GID_1":"MOZ.3_1","province":"Inhambane","NL_NAME_1":"NA","GID_2":"MOZ.3.3_1","county":"Homoine","NL_NAME_2":"NA","city":"Pembe","VARNAME_3":"NA","NL_NAME_3":"NA","TYPE_3":"Localidad","ENGTYPE_3":"Locality","CC_3":"NA","HASC_3":"NA","name":"Pembe.city"},
"geometry":{"type": "MultiPolygon","coordinates": [[[[34.7991,-23.7022,105.5355],[34.8174,-23.8558,112.5647],[34.9058,-23.9058,118.7844],[34.9994,-23.9404,99.5301],[35.03,-23.9137,108.3468],[35.0437,-23.9102,112.9135],[35.0609,-23.9014,113.7481],[35.0649,-23.893,117.5236],[35.061,-23.8875,113.3267],[35.0607,-23.8767,114.5187],[35.0486,-23.865,120.4867],[35.028,-23.821,131.9758],[35.0436,-23.8063,143.9921],[35.0411,-23.792,147.161],[35.0466,-23.777,137.1837],[35.0594,-23.7697,131.8193],[35.0862,-23.7636,85.7412],[35.0981,-23.7572,86.6671],[35.109,-23.766,71.9473],[35.1267,-23.7742,64.4634],[35.139,-23.7831,67.0156],[35.1572,-23.7816,71.418],[35.153,-23.7438,173.0196],[35.101,-23.6836,202.8483],[35.0083,-23.5971,153.5731],[34.9998,-23.6007,157.246],[34.7911,-23.623,103.6868],[34.7991,-23.7022,105.5355]]]]}}