{"type":"Feature","properties":{"GID_2":"MOZ.7.13_1","GID_0":"MOZ","country":"Mozambique","GID_1":"MOZ.7_1","province":"Nampula","NL_NAME_1":"NA","county":"Muecate","VARNAME_2":"NA","NL_NAME_2":"NA","TYPE_2":"Distrito","ENGTYPE_2":"District","CC_2":"NA","HASC_2":"MZ.NM.MU","name":"Muecate.county"},
"geometry":{"type": "MultiPolygon","coordinates": [[[[39.2256,-14.8662,383.1908],[39.2249,-14.8743,396.6541],[39.2314,-14.8967,447.8054],[39.2347,-14.8998,441.994],[39.2478,-14.8967,406.5016],[39.257,-14.8986,390.5362],[39.2626,-14.902,378.2839],[39.2664,-14.9114,405.4775],[39.3038,-14.9536,417.526],[39.3179,-14.9535,401.2849],[39.3275,-14.9511,396.4047],[39.3375,-14.9519,388.8146],[39.3486,-14.9683,369.4358],[39.3527,-14.9821,357.736],[39.3568,-14.9892,338.942],[39.3653,-14.9894,333.4888],[39.3796,-14.9936,331.7155],[39.3966,-15.0036,317.9986],[39.4046,-14.9995,299.4706],[39.4118,-14.9983,300.5222],[39.4183,-15.0077,301.613],[39.4319,-15.0103,305.4175],[39.4375,-15.0031,286.7213],[39.4556,-15.0078,276.132],[39.4691,-15.0073,271.8849],[39.4808,-15.0047,268.2899],[39.4946,-15.0095,269.7123],[39.521,-14.9948,267.11],[39.5359,-14.9925,265.6882],[39.5435,-14.9959,266.7481],[39.5479,-14.9922,258.7708],[39.5524,-14.9921,286.1514],[39.5736,-14.9986,243.3352],[39.5781,-14.9985,248.6813],[39.587,-14.9946,263.534],[39.5996,-15.0037,249.737],[39.6078,-15.007,235.0492],[39.6141,-15.0058,247.3805],[39.6256,-14.99,238.6482],[39.6294,-14.9782,230.2136],[39.6409,-14.9695,233.6395],[39.6594,-14.9379,231.6151],[39.7058,-14.919,213.758],[39.7317,-14.9181,205.7806],[39.749,-14.9046,206.1249],[39.7689,-14.8935,205.5081],[39.8007,-14.8992,211.1741],[39.8128,-14.8865,193.9828],[39.821,-14.8829,193.7013],[39.8278,-14.884,205.5676],[39.8338,-14.8823,196.8563],[39.8398,-14.8771,188.9812],[39.8502,-14.8732,185.6912],[39.858,-14.8675,181.0964],[39.8675,-14.8661,187.1901],[39.8706,-14.8714,178.2826],[39.8728,-14.8839,183.091],[39.8762,-14.8895,187.5916],[39.8811,-14.8932,170.9951],[39.8881,-14.8956,180.4423],[39.9102,-14.8983,166.7021],[39.9283,-14.9064,164.793],[39.9447,-14.9068,161.8441],[39.9683,-14.8985,163.9947],[39.9649,-14.889,165.2772],[39.9579,-14.8832,168.2906],[39.9579,-14.8444,175.4016],[39.9641,-14.8265,169.0799],[39.9425,-14.8235,188.8873],[39.924,-14.8265,195.2245],[39.9151,-14.8179,196.0739],[39.9171,-14.8121,195.6401],[39.8983,-14.8143,214.5],[39.8901,-14.8116,214.5],[39.8746,-14.8056,214.5],[39.8638,-14.7962,215.5485],[39.8528,-14.7909,215.7292],[39.8443,-14.7807,226.1349],[39.8405,-14.7624,227.6009],[39.8315,-14.749,242.9756],[39.8129,-14.7072,257.6524],[39.8057,-14.6886,255.2259],[39.8058,-14.6781,258.9333],[39.8098,-14.6685,266.4232],[39.8239,-14.6522,298.9146],[39.8253,-14.6469,306.5636],[39.8253,-14.6386,310.6953],[39.8222,-14.6267,336.6703],[39.8222,-14.6058,348.958],[39.8253,-14.5877,353.6794],[39.8309,-14.5681,337.0462],[39.8046,-14.4875,368.3672],[39.7992,-14.4656,341.4017],[39.7878,-14.4393,336.6498],[39.7804,-14.4311,300.7201],[39.7761,-14.4283,305.7842],[39.769,-14.4327,304.383],[39.7583,-14.4356,320.5591],[39.7425,-14.4442,335.6968],[39.7259,-14.4461,354.1123],[39.7275,-14.44,355.1162],[39.7378,-14.4312,319.8374],[39.7447,-14.4077,285.3618],[39.7442,-14.4033,282.2029],[39.7398,-14.3982,280.9774],[39.7237,-14.3979,282.9116],[39.7192,-14.4023,283.6407],[39.7189,-14.4105,285.6104],[39.713,-14.4095,284.1392],[39.7083,-14.4053,284.632],[39.6894,-14.4152,289.0872],[39.685,-14.4253,293.4439],[39.6813,-14.4252,302.0069],[39.6788,-14.4201,297.9742],[39.6661,-14.4217,300.5292],[39.6627,-14.4174,304.6842],[39.6619,-14.4128,304.6505],[39.6541,-14.4087,311.1559],[39.6491,-14.4024,308.1251],[39.642,-14.3989,315.7216],[39.637,-14.4039,313.8439],[39.6322,-14.4134,319.1732],[39.6182,-14.4043,320.9255],[39.6093,-14.4043,318.0866],[39.6042,-14.3945,328.3356],[39.5747,-14.3789,337.1571],[39.5618,-14.3803,338.8923],[39.5481,-14.3748,347.3059],[39.5413,-14.377,347.7242],[39.5203,-14.3886,365.1923],[39.5109,-14.3895,373.3456],[39.5056,-14.3877,382.2565],[39.4961,-14.3776,404.2216],[39.482,-14.3669,417.1258],[39.4701,-14.3512,365.9311],[39.4502,-14.3403,347.044],[39.4373,-14.336,338.3782],[39.4302,-14.3268,321.9777],[39.4245,-14.325,316.3801],[39.4147,-14.3067,307.6162],[39.3961,-14.3113,307.2093],[39.3864,-14.3154,319.1935],[39.3678,-14.3139,318.7536],[39.3409,-14.3252,327.2827],[39.331,-14.3269,332.4894],[39.319,-14.3355,335.2682],[39.2818,-14.3706,338.8747],[39.2945,-14.4272,365.2942],[39.3008,-14.4449,371.8092],[39.3007,-14.464,376.0883],[39.2942,-14.4854,388.2858],[39.2871,-14.4922,380.8149],[39.2871,-14.494,383.7587],[39.2669,-14.5178,394.6935],[39.2522,-14.5384,405.485],[39.2388,-14.5532,413.6949],[39.2355,-14.5598,412.0085],[39.2354,-14.5715,419.2804],[39.2298,-14.5879,426.5214],[39.2195,-14.6004,433.0656],[39.2164,-14.6115,445.1923],[39.2117,-14.6145,447.731],[39.1954,-14.643,474.7153],[39.1865,-14.6544,462.8563],[39.1881,-14.6733,478.8519],[39.2062,-14.6788,463.8904],[39.2281,-14.7001,458.3952],[39.2559,-14.7119,434.6931],[39.2595,-14.7199,424.4884],[39.2602,-14.7275,422.3926],[39.2642,-14.7335,420.4118],[39.2642,-14.7413,415.8033],[39.274,-14.7572,410.2933],[39.2707,-14.7857,394.8861],[39.2576,-14.7984,449.1338],[39.2478,-14.8111,415.6767],[39.2478,-14.8202,394.3634],[39.2597,-14.847,359.704],[39.2576,-14.8459,363.227],[39.2543,-14.8491,354.6356],[39.2288,-14.8553,377.2337],[39.2256,-14.8662,383.1908]]]]}}