{"type":"Feature","properties":{"GID_2":"MOZ.8.7_1","GID_0":"MOZ","country":"Mozambique","GID_1":"MOZ.8_1","province":"Nassa","NL_NAME_1":"NA","county":"Maúa","VARNAME_2":"NA","NL_NAME_2":"NA","TYPE_2":"Distrito","ENGTYPE_2":"District","CC_2":"NA","HASC_2":"MZ.NS.MU","name":"Maúa.county"},
"geometry":{"type": "MultiPolygon","coordinates": [[[[37.6083,-14.2964,432.2676],[37.6206,-14.2874,436.9327],[37.6145,-14.2785,437.2821],[37.6053,-14.2725,435.9806],[37.5684,-14.2666,439.2393],[37.5468,-14.2457,448.4079],[37.5407,-14.2219,468.0859],[37.5285,-14.213,456.4564],[37.5222,-14.195,464.4094],[37.5099,-14.1861,463.7729],[37.4915,-14.1652,465.1671],[37.4862,-14.1487,460.4706],[37.4777,-14.1392,465.9982],[37.4758,-14.1242,468.9274],[37.4728,-14.1175,470.775],[37.47,-14.1175,472.7412],[37.4609,-14.1087,470.9652],[37.46,-14.1044,471.2885],[37.4663,-14.091,474.112],[37.4653,-14.0883,479.0149],[37.4669,-14.0847,488.4029],[37.4546,-14.0697,488.4991],[37.4556,-14.0532,489.0203],[37.4592,-14.047,489.5635],[37.4692,-14.0369,494.2501],[37.4792,-14.0101,505.1718],[37.4439,-13.9523,529.7657],[37.4569,-13.9221,535.1769],[37.4594,-13.9134,534.9933],[37.4579,-13.9119,538.2073],[37.4599,-13.9042,536.3911],[37.4651,-13.8903,547.7736],[37.4603,-13.8815,549.6442],[37.4553,-13.8457,566.5093],[37.4487,-13.8425,578.8437],[37.442,-13.8332,592.4409],[37.4355,-13.8139,606.2836],[37.4412,-13.7661,622.8974],[37.4649,-13.7615,600.5706],[37.4744,-13.7624,588.6044],[37.4873,-13.7689,576.6439],[37.4934,-13.7787,563.7139],[37.5223,-13.807,548.0083],[37.533,-13.8146,537.5233],[37.5522,-13.8323,547.3528],[37.5659,-13.8406,529.1873],[37.5927,-13.8344,522.7383],[37.6182,-13.855,501.6559],[37.6354,-13.858,494.6262],[37.6621,-13.8577,500.2073],[37.6861,-13.8472,481.9559],[37.7169,-13.8407,477.1821],[37.7328,-13.8405,475.6823],[37.7427,-13.8161,487.1895],[37.7503,-13.8135,499.6301],[37.7504,-13.8092,510.7023],[37.7389,-13.7891,510.2575],[37.7328,-13.7682,502.0042],[37.7144,-13.7533,515.4834],[37.7052,-13.7503,498.1282],[37.7029,-13.7408,508.7392],[37.7029,-13.7304,500.1839],[37.6989,-13.7197,516.582],[37.6863,-13.7042,510.3313],[37.6395,-13.6771,526.8674],[37.6039,-13.6847,538.8253],[37.5978,-13.6847,535.4448],[37.5763,-13.6698,548.3306],[37.564,-13.6728,555.6235],[37.5549,-13.6549,593.5027],[37.5426,-13.637,579.106],[37.5272,-13.6221,595.6406],[37.5242,-13.6161,615.6134],[37.5395,-13.5982,644.2734],[37.5446,-13.5733,664.6481],[37.5334,-13.5624,702.278],[37.4935,-13.5028,685.2585],[37.3937,-13.4279,724.8353],[37.3889,-13.4312,728.503],[37.3833,-13.429,739.2205],[37.376,-13.4307,736.0723],[37.3111,-13.4551,761.4927],[37.272,-13.4739,782.1749],[37.22,-13.536,782.1418],[37.189,-13.5676,782.0607],[37.1601,-13.577,830.4196],[37.1492,-13.5866,842.6467],[37.1388,-13.5999,827.698],[37.1348,-13.614,823.2237],[37.1281,-13.6238,832.9114],[37.1179,-13.6306,841.9799],[37.0799,-13.6281,897.8594],[37.0187,-13.621,910.1719],[36.9761,-13.6204,733.1013],[36.8807,-13.6917,967.3843],[36.8716,-13.6859,937.4899],[36.87,-13.6568,902.6902],[36.863,-13.6522,881.0536],[36.8607,-13.6469,874.3555],[36.8652,-13.6335,862.0183],[36.8691,-13.5969,833.0502],[36.8662,-13.5922,822.1925],[36.8555,-13.6005,824.5394],[36.8456,-13.5918,819.8704],[36.8349,-13.6024,849.9831],[36.8147,-13.6556,878.2677],[36.8055,-13.6672,865.6027],[36.8029,-13.6835,888.3558],[36.7899,-13.7145,892.3276],[36.7732,-13.7323,915.0621],[36.77,-13.7455,939.6022],[36.6445,-13.7411,983.4135],[36.6396,-13.7366,898.1072],[36.6276,-13.7378,824.623],[36.6035,-13.7623,750.4725],[36.5903,-13.7721,730.375],[36.5858,-13.7813,719.8423],[36.5628,-13.7925,693.0715],[36.5235,-13.7922,664.9417],[36.5119,-13.7903,658.7402],[36.4709,-13.7911,663.4316],[36.4593,-13.7901,643.3988],[36.4412,-13.7859,643.0015],[36.4322,-13.7871,632.7255],[36.4243,-13.7904,651.0261],[36.3939,-13.827,681.0784],[36.3939,-13.8402,673.528],[36.2925,-13.876,683.9963],[36.1359,-13.9535,685.5367],[36.1175,-13.9684,629.8228],[36.1159,-13.9677,636.5815],[36.1176,-13.9688,629.8228],[36.116,-13.9745,622.2252],[36.1183,-13.9805,633.5568],[36.1272,-13.9841,634.3094],[36.1351,-13.99,631.5269],[36.1256,-14.0118,627.2421],[36.1392,-14.0254,631.7236],[36.141,-14.0295,627.5377],[36.1528,-14.0322,630.4686],[36.1565,-14.0376,632.5067],[36.1572,-14.0507,633.0388],[36.1641,-14.0693,632.2681],[36.1698,-14.0789,635.6392],[36.181,-14.0888,636.4335],[36.181,-14.0954,635.7424],[36.1892,-14.0959,646.316],[36.2001,-14.0888,644.5582],[36.2077,-14.0873,648.3552],[36.2187,-14.0921,652.4263],[36.2345,-14.0909,665.8159],[36.2418,-14.0939,662.0034],[36.2553,-14.0918,666.87],[36.2645,-14.0879,674.1652],[36.2745,-14.0908,676.2465],[36.2972,-14.1023,706.1843],[36.3042,-14.1079,718.7203],[36.3157,-14.1119,743.0874],[36.3432,-14.1173,756.5167],[36.353,-14.1158,743.8606],[36.3686,-14.1002,722.8483],[36.3731,-14.0847,710.3374],[36.3797,-14.0759,708.1646],[36.38,-14.0625,690.2619],[36.3828,-14.0535,686.0563],[36.4048,-14.0167,663.4377],[36.5042,-14.0292,752.9216],[36.5219,-14.043,706.6543],[36.5281,-14.0442,700.6205],[36.5313,-14.0469,697.1544],[36.5332,-14.0593,686.069],[36.5382,-14.0731,677.1393],[36.5584,-14.0835,665.0349],[36.5731,-14.0842,655.489],[36.5947,-14.0762,646.9269],[36.6126,-14.0755,651.0952],[36.626,-14.0713,638.8544],[36.6522,-14.0742,627.707],[36.6655,-14.079,624.3135],[36.674,-14.0782,622.7706],[36.6807,-14.0738,625.4041],[36.697,-14.0709,617.726],[36.7031,-14.0757,615.7101],[36.722,-14.0799,609.053],[36.743899999999996,-14.0788,605.1596],[36.7532,-14.0844,603.9443],[36.7648,-14.0849,603.2994],[36.7804,-14.0826,590.9631],[36.785,-14.0842,592.0405],[36.7911,-14.0995,589.3814],[36.8013,-14.1136,585.2217],[36.8166,-14.1156,585.0933],[36.8262,-14.1222,580.5659],[36.828,-14.1334,576.0355],[36.8326,-14.1363,575.7275],[36.8358,-14.1428,577.3419],[36.8409,-14.1477,573.5908],[36.8527,-14.148,572.6817],[36.8561,-14.1512,575.3392],[36.8692,-14.1502,568.7753],[36.8767,-14.1594,565.3511],[36.8852,-14.1647,566.517],[36.8932,-14.1729,553.862],[36.9013,-14.1759,560.8584],[36.9135,-14.1735,551.9244],[36.9198,-14.17,553.7883],[36.9281,-14.1743,556.4948],[36.9397,-14.1693,545.2231],[36.9488,-14.1631,544.8427],[36.9597,-14.1629,545.5683],[36.965,-14.1666,544.1437],[36.9637,-14.1699,549.4076],[37.0026,-14.1861,537.3398],[37.018,-14.198,542.6783],[37.0303,-14.198,541.8524],[37.0331,-14.2091,534.2726],[37.0426,-14.2099,536.3013],[37.0527,-14.2181,531.0309],[37.0619,-14.2151,521.828],[37.068,-14.224,527.5858],[37.0798,-14.2253,523.3146],[37.0899,-14.2388,520.5797],[37.1055,-14.2429,529.5942],[37.1348,-14.2427,519.0473],[37.1563,-14.2368,521.2939],[37.1717,-14.2517,503.9638],[37.184,-14.2487,507.4241],[37.2148,-14.2636,499.6988],[37.2517,-14.2696,493.9613],[37.2701,-14.2785,496.5839],[37.2716,-14.283,493.5689],[37.2738,-14.2837,487.9704],[37.283,-14.2777,485.1528],[37.2892,-14.2777,485.2855],[37.2984,-14.2837,485.8415],[37.3045,-14.2777,484.642],[37.3168,-14.2807,481.0113],[37.326,-14.2807,483.8882],[37.3347,-14.2904,480.3149],[37.3439,-14.2904,476.8381],[37.35,-14.3024,479.7087],[37.3777,-14.2904,473.2512],[37.3874,-14.2926,465.6657],[37.3936,-14.2897,468.6027],[37.4194,-14.2897,464.0609],[37.4269,-14.2874,461.8207],[37.473,-14.2994,466.1931],[37.5315,-14.3352,444.64],[37.553,-14.3382,449.4786],[37.5686,-14.3553,445.2241],[37.5809,-14.3582,437.3213],[37.5901,-14.3582,450.421],[37.5956,-14.3635,438.3558],[37.6114,-14.3493,438.2911],[37.6083,-14.2964,432.2676]]]]}}