{"type": "Feature","bbox": [33.1183,-25.3829,33.354,-25.1868],"geometry": {"type": "MultiPolygon","coordinates": [[[[33.1248,-25.225,42.2748],[33.1183,-25.2299,44.5713],[33.1275,-25.2447,52.7034],[33.1375,-25.3009,50.6306],[33.1317,-25.3829,15.3321],[33.2226,-25.3329,12.9825],[33.2382,-25.3268,3.9292],[33.241,-25.3268,0.0],[33.2426,-25.3288,0.0],[33.2435,-25.3262,31.0845],[33.2482,-25.3254,0.0],[33.249,-25.3226,7.8792],[33.2468,-25.321,2.0136],[33.2471,-25.3187,1.5747],[33.2515,-25.3143,7.2121],[33.2551,-25.3035,0.6009],[33.2538,-25.3035,0.8391],[33.2524,-25.309,0.5],[33.251,-25.309,6.1841],[33.2507,-25.306,0.5],[33.2463,-25.3051,4.355],[33.2399,-25.3143,21.2023],[33.2346,-25.3129,0.5],[33.2296,-25.319,1.3985],[33.2268,-25.3118,2.3727],[33.2179,-25.3068,0.5],[33.2168,-25.3015,0.9872],[33.2196,-25.2976,3.327],[33.2265,-25.2943,7.1196],[33.2463,-25.2899,0.5],[33.2568,-25.2854,1.7241],[33.2663,-25.2787,6.0111],[33.281,-25.2743,0.5],[33.2815,-25.2718,0.6596],[33.291,-25.2635,2.9472],[33.3046,-25.2624,2.044],[33.3049,-25.2579,20.3976],[33.3074,-25.2543,8.374],[33.3176,-25.2465,3.5787],[33.3301,-25.2454,2.6631],[33.339,-25.2485,1.1125],[33.332,-25.2376,34.8179],[33.3279,-25.2166,27.9886],[33.322,-25.1946,29.7008],[33.3184,-25.1868,31.6104],[33.2827,-25.2008,43.2018],[33.2358,-25.1968,40.2432],[33.2011,-25.1979,51.6251],[33.144,-25.2195,49.994],[33.1248,-25.225,42.2748]]],
[[[33.354,-25.2724,5.7891],[33.3479,-25.2602,44.2604],[33.3421,-25.2526,2.8471],[33.3368,-25.2607,8.3029],[33.3257,-25.2582,1.4854],[33.3249,-25.2638,4.5155],[33.3204,-25.2682,3.8624],[33.3146,-25.2685,24.5321],[33.3068,-25.2657,0.6489],[33.3032,-25.2763,7.4368],[33.2926,-25.2801,5.392],[33.2907,-25.279,0.5],[33.289,-25.2865,15.8831],[33.2826,-25.2876,0.7144],[33.2782,-25.2849,0.5],[33.274,-25.2976,2.112],[33.2643,-25.2968,1.9935],[33.2624,-25.2988,8.355],[33.2621,-25.296,0.5],[33.2607,-25.296,0.5],[33.2615,-25.3096,3.7854],[33.2596,-25.3118,0.9645],[33.2574,-25.3118,0.5],[33.2574,-25.3168,3.4284],[33.2621,-25.3163,0.0],[33.3074,-25.2926,14.8871],[33.354,-25.2724,5.7891]]],
[[[33.3392,-25.249,1.1125],[33.3393,-25.2493,1.1125],[33.3396,-25.2493,1.1125],[33.3392,-25.249,1.1125]]],
[[[33.3392,-25.2488,1.1125],[33.3391,-25.2486,1.1125],[33.339,-25.2485,1.1125],[33.339,-25.2488,1.1125],[33.3392,-25.2488,1.1125]]]]}
,"properties": {"GID_3": "MOZ.2.1.6_1","GID_0": "MOZ","country": "Mozambique","GID_1": "MOZ.2_1","province": "Gaza","NL_NAME_1": "NA","GID_2": "MOZ.2.1_1","county": "Bilene","NL_NAME_2": "NA","city": "PraiaDeBilene","VARNAME_3": "NA","NL_NAME_3": "NA","TYPE_3": "Localidad","ENGTYPE_3": "Locality","CC_3": "NA","HASC_3": "NA","name": "Praia_De_Bilene.city","area_km2": 267.0326,"hist_schema_id": "Elevation0-9000","hist_area_km2": {"0": 43.1452,"25": 86.7741,"50": 120.9854,"75": 15.8785,"100": 0.2493}}}