{"type":"Feature","properties":{"GID_3":"MOZ.11.15.1_1","GID_0":"MOZ","country":"Mozambique","GID_1":"MOZ.11_1","province":"Zambezia","NL_NAME_1":"NA","GID_2":"MOZ.11.15_1","county":"Nicoadala","NL_NAME_2":"NA","city":"CidadeDeQuelimane","VARNAME_3":"NA","NL_NAME_3":"NA","TYPE_3":"Localidad","ENGTYPE_3":"Locality","CC_3":"NA","HASC_3":"NA","name":"Cidade_De_Quelimane.city"},
"geometry":{"type": "MultiPolygon","coordinates": [[[[36.9161,-17.9418,2.0811],[36.9174,-17.9407,0.775],[36.9249,-17.9415,0.7487],[36.9274,-17.9446,2.5634],[36.9274,-17.9471,2.1659],[36.9249,-17.9501,1.2495],[36.9292,-17.9484,2.4393],[36.9317,-17.9356,2.236],[36.9511,-17.9153,2.2018],[36.9476,-17.9095,2.0199],[36.9638,-17.8229,2.5412],[36.9641,-17.7943,4.5646],[36.9619,-17.7764,0.9874],[36.9545,-17.7868,1.8344],[36.897,-17.82,3.1988],[36.8903,-17.8225,2.4014],[36.8872,-17.8161,2.3798],[36.8842,-17.8157,2.7481],[36.8733,-17.8279,2.7469],[36.8586,-17.8333,3.0757],[36.8474,-17.8421,2.5687],[36.8422,-17.8552,2.8414],[36.8361,-17.8638,2.9155],[36.8416,-17.8714,3.637],[36.8445,-17.8801,3.0053],[36.8488,-17.8869,2.3786],[36.8608,-17.8797,3.3447],[36.8699,-17.8782,0.0],[36.9001,-17.8888,0.0],[36.906,-17.8955,0.0],[36.9161,-17.9418,2.0811]]]]}}