{"type": "Feature","bbox": [36.2226,-18.8449,36.484,-18.5174],"geometry": {"type": "MultiPolygon","coordinates": [[[[36.3868,-18.7224,5.0756],[36.3871,-18.7204,2.8213],[36.3846,-18.721,1.4712],[36.3843,-18.7251,1.2771],[36.3851,-18.7254,1.2771],[36.3868,-18.7224,5.0756]]],
[[[36.3921,-18.7171,0.7642],[36.3913,-18.719,0.2927],[36.3929,-18.7196,0.0],[36.3932,-18.7185,0.0],[36.3921,-18.7171,0.7642]]],
[[[36.3851,-18.689,0.0],[36.3829,-18.689,0.0],[36.3815,-18.694,0.0],[36.3851,-18.6926,0.0],[36.3851,-18.689,0.0]]],
[[[36.4629,-18.5585,0.0],[36.4648,-18.5569,1.8575],[36.4263,-18.5484,0.0],[36.4274,-18.536,0.0],[36.4252,-18.5277,1.6125],[36.41,-18.5329,2.746],[36.3909,-18.528199999999998,0.7537],[36.3756,-18.522,2.1525],[36.3304,-18.5174,9.3024],[36.308,-18.5203,3.1731],[36.3023,-18.5329,2.5456],[36.2978,-18.5371,2.3116],[36.2723,-18.5384,4.9136],[36.2769,-18.5471,2.099],[36.2912,-18.5471,2.0874],[36.2983,-18.552,1.996],[36.2983,-18.5576,2.1364],[36.2552,-18.5767,5.8875],[36.2478,-18.6078,3.6147],[36.243,-18.6215,3.4822],[36.228,-18.6459,3.1638],[36.2226,-18.649,2.6409],[36.2282,-18.6625,3.5116],[36.2373,-18.6738,4.3889],[36.2403,-18.7076,0.0],[36.2473,-18.7136,3.5736],[36.3328,-18.8449,0.0],[36.356,-18.8237,0.0],[36.3735,-18.8051,0.0],[36.3746,-18.7987,0.8058],[36.3718,-18.7949,0.0],[36.3693,-18.796,0.0],[36.3654,-18.7924,5.1964],[36.3662,-18.7882,0.0],[36.3699,-18.7846,0.0],[36.3757,-18.7821,0.0],[36.381,-18.7835,0.0],[36.3835,-18.7879,0.0],[36.3865,-18.7868,0.0],[36.3876,-18.7879,0.0],[36.3893,-18.784,0.0],[36.3901,-18.779,2.0583],[36.3857,-18.7571,0.0],[36.389,-18.7393,0.0],[36.3935,-18.729,0.0],[36.3937,-18.7218,0.0],[36.3907,-18.7226,0.0],[36.3896,-18.7301,0.0],[36.3854,-18.7274,1.3893],[36.3821,-18.7282,7.8387],[36.3757,-18.7365,0.0],[36.374,-18.7435,8.2615],[36.3726,-18.7343,0.0],[36.3704,-18.7343,0.0],[36.3654,-18.7296,9.3644],[36.3715,-18.7185,2.9982],[36.3735,-18.7065,2.3523],[36.3801,-18.6985,0.0],[36.3807,-18.6826,3.8084],[36.3843,-18.6688,1.0],[36.3863,-18.6668,3.5059],[36.3818,-18.6815,3.8084],[36.3835,-18.686,7.4585],[36.3863,-18.6849,7.1684],[36.3896,-18.6929,0.0],[36.4065,-18.6887,0.0],[36.4076,-18.6871,0.0],[36.4157,-18.6843,0.0],[36.4201,-18.6796,0.0],[36.4182,-18.6671,1.5772],[36.4276,-18.6451,1.2875],[36.4254,-18.6426,0.6577],[36.4226,-18.6451,0.0],[36.4246,-18.6468,2.9762],[36.4235,-18.6532,0.2929],[36.4174,-18.6537,2.0475],[36.4179,-18.6524,0.6312],[36.4235,-18.6518,0.734],[36.4221,-18.6476,2.4292],[36.4165,-18.6507,2.1641],[36.414,-18.6482,2.9089],[36.4115,-18.6499,4.2196],[36.4118,-18.6479,5.1344],[36.4188,-18.646,0.5428],[36.4207,-18.6424,1.7189],[36.4229,-18.6429,2.9996],[36.4265,-18.6387,2.5882],[36.4349,-18.636,0.0],[36.4343,-18.6315,0.4243],[36.4304,-18.6332,1.8683],[36.4293,-18.6324,3.8232],[36.4324,-18.631,2.4832],[36.4354,-18.6243,3.209],[36.4443,-18.6243,0.0],[36.4488,-18.6212,2.5824],[36.4512,-18.6154,3.078],[36.4576,-18.6101,2.7576],[36.464,-18.6115,2.9575],[36.4762,-18.6068,2.5526],[36.4793,-18.6035,0.0],[36.4813,-18.604,0.0],[36.484,-18.6015,0.0],[36.484,-18.5985,0.5132],[36.4785,-18.5982,6.355],[36.4754,-18.596,4.8422],[36.4732,-18.591,2.3411],[36.4693,-18.5912,3.2007],[36.4707,-18.5807,0.0],[36.4688,-18.5779,0.0],[36.4596,-18.5729,0.0],[36.4504,-18.5757,6.8655],[36.4521,-18.5732,7.2657],[36.4499,-18.5721,0.0],[36.4304,-18.5696,3.8679],[36.4301,-18.5626,2.3599],[36.4524,-18.5621,0.0],[36.4557,-18.559,3.3429],[36.4629,-18.5585,0.0]]]]}
,"properties": {"GID_3": "MOZ.11.2.1_1","GID_0": "MOZ","country": "Mozambique","GID_1": "MOZ.11_1","province": "Zambezia","NL_NAME_1": "NA","GID_2": "MOZ.11.2_1","county": "Chinde","NL_NAME_2": "NA","city": "Chinde-Sede","VARNAME_3": "NA","NL_NAME_3": "NA","TYPE_3": "Localidad","ENGTYPE_3": "Locality","CC_3": "NA","HASC_3": "NA","name": "Chinde-Sede.city","area_km2": 525.332,"hist_schema_id": "Elevation0-9000","hist_area_km2": {"0": 517.2819,"25": 8.0501}}}