{"type":"Feature","properties":{"GID_2":"MOZ.8.2_1","GID_0":"MOZ","country":"Mozambique","GID_1":"MOZ.8_1","province":"Nassa","NL_NAME_1":"NA","county":"Lago","VARNAME_2":"NA","NL_NAME_2":"NA","TYPE_2":"Distrito","ENGTYPE_2":"District","CC_2":"NA","HASC_2":"MZ.NS.LA","name":"Lago.county"},
"geometry":{"type": "MultiPolygon","coordinates": [[[[34.9076,-13.0848,973.6774],[34.9088,-13.081,937.7088],[34.9114,-13.08,962.149],[34.9237,-13.0889,989.3719],[34.936,-13.0889,977.6995],[34.952,-13.0785,1066.6913],[34.9723,-13.0541,1278.7854],[35.0069,-12.9933,1278.8716],[35.086,-12.8448,1470.3625],[35.0882,-12.8375,1613.5837],[35.0974,-12.8196,1602.1597],[35.1252,-12.8106,1509.7968],[35.1376,-12.8106,1739.9391],[35.1546,-12.7757,1338.4915],[35.161,-12.7573,1362.1942],[35.1566,-12.7464,1224.3431],[35.1423,-12.6777,1083.2849],[35.1392,-12.6604,1033.7812],[35.1402,-12.6489,1011.9586],[35.1367,-12.6309,1020.0894],[35.1457,-12.6056,1001.5018],[35.1592,-12.5899,1002.3046],[35.1811,-12.5574,935.3167],[35.1916,-12.5357,889.0538],[35.1859,-12.516,875.8065],[35.1917,-12.5072,862.9401],[35.1935,-12.4943,866.0555],[35.1928,-12.4921,853.7026],[35.1802,-12.4904,836.7572],[35.1654,-12.4647,795.9504],[35.1575,-12.4541,840.7697],[35.1499,-12.4498,743.4419],[35.1427,-12.3944,693.3511],[35.1654,-12.3424,686.4977],[35.1655,-12.3368,688.03],[35.1738,-12.3054,681.9319],[35.1916,-12.2736,677.4841],[35.1951,-12.2587,674.5178],[35.1901,-12.2529,670.2646],[35.1854,-12.2259,674.2875],[35.1827,-12.2191,664.9752],[35.1826,-12.1924,658.9963],[35.1621,-12.1739,660.599],[35.1604,-12.1682,661.7315],[35.166,-12.1482,664.0247],[35.1703,-12.1422,651.5443],[35.1832,-12.1363,651.8337],[35.1902,-12.1303,650.6455],[35.1934,-12.1222,653.1952],[35.2083,-12.1029,645.5346],[35.2028,-12.0852,645.1303],[35.1968,-12.0775,644.9412],[35.1857,-12.0726,641.7004],[35.1724,-12.0739,638.681],[35.1554,-12.0534,636.1182],[35.1554,-12.0412,633.5752],[35.1516,-12.0272,634.2231],[35.1371,-11.9978,628.4974],[35.1253,-11.9634,635.5876],[35.1314,-11.9457,642.989],[35.1516,-11.9544,631.1299],[35.1339,-11.9425,647.5311],[35.1417,-11.9407,635.1283],[35.1472,-11.936,648.0504],[35.1497,-11.9313,632.8557],[35.176,-11.9176,627.7108],[35.181,-11.9176,630.2548],[35.1949,-11.9048,620.691],[35.1967,-11.8937,624.0549],[35.2065,-11.8861,628.6916],[35.215,-11.882,616.573],[35.2256,-11.8729,619.0168],[35.2421,-11.8368,615.2113],[35.2647,-11.8118,609.8343],[35.2663,-11.8064,615.7629],[35.2845,-11.7818,595.9622],[35.2889,-11.7733,601.1995],[35.2936,-11.7686,607.9548],[35.3037,-11.7652,598.7391],[35.3022,-11.7388,600.7318],[35.309,-11.7164,604.9795],[35.3178,-11.7128,589.8704],[35.3177,-11.7069,590.5452],[35.3134,-11.7001,595.2377],[35.3159,-11.6884,598.9938],[35.3253,-11.6751,596.0787],[35.3232,-11.659,590.7642],[35.3264,-11.6508,591.8721],[35.3469,-11.6304,584.2542],[35.3631,-11.6326,581.5425],[35.366,-11.6273,579.0402],[35.3635,-11.6221,588.7824],[35.3661,-11.6183,586.4135],[35.375,-11.6126,582.4304],[35.3778,-11.6091,584.8324],[35.3749,-11.6001,591.8392],[35.3756,-11.5922,584.1782],[35.3861,-11.5951,584.7136],[35.3929,-11.5916,588.6176],[35.4036,-11.5758,577.7791],[35.3975,-11.5796,578.5942],[35.3963,-11.5819,572.7903],[35.3898,-11.58,587.6022],[35.3856,-11.577,592.6868],[35.384,-11.5713,596.0517],[35.3807,-11.5697,598.6103],[35.3589,-11.568,606.1331],[35.3504,-11.5611,614.0516],[35.3407,-11.5565,624.291],[35.1972,-11.5612,1129.0415],[35.1857,-11.563,1113.4709],[35.1542,-11.5616,1427.2351],[35.126,-11.5642,1384.853],[35.0602,-11.5662,1240.3616],[35.0398,-11.5684,1272.2601],[35.0247,-11.5678,1272.3982],[34.9998,-11.5707,1461.4285],[34.9923,-11.5689,1342.4556],[34.9694,-11.5719,520.913],[34.883,-11.5744,474.5],[34.8553,-11.5725,474.5],[34.8466,-11.5743,474.5],[34.8116,-11.5763,474.5],[34.75,-11.5779,474.5],[34.7395,-11.5799,474.5],[34.7152,-11.5792,474.5],[34.7036,-11.5808,474.5],[34.6426,-11.5825,474.5],[34.6428,-11.6094,474.5],[34.6341,-11.6621,474.5],[34.5975,-11.766,474.5],[34.5825,-11.8041,474.5],[34.5705,-11.8262,474.5],[34.513,-11.9661,474.5],[34.4928,-12.0006,474.5],[34.4253,-12.1595,474.5],[34.4146,-12.1982,474.5],[34.4084,-12.2546,474.5],[34.4086,-12.2927,474.5],[34.4138,-12.3497,474.5],[34.4339,-12.4319,474.5],[34.4479,-12.4754,474.5],[34.4565,-12.5129,474.5],[34.463,-12.5283,474.5],[34.4681,-12.5465,474.5],[34.4845,-12.6167,474.5],[34.4983,-12.6643,474.5],[34.519,-12.7101,474.5],[34.5239,-12.7297,474.5],[34.5255,-12.7529,474.5],[34.5237,-12.7681,474.5],[34.5108,-12.8092,474.5],[34.511,-12.8175,474.5],[34.5077,-12.8361,474.5],[34.5082,-12.849,474.5],[34.5167,-12.8902,474.5],[34.5324,-12.9273,474.5],[34.5363,-12.947,474.5],[34.5379,-12.965,474.5],[34.5502,-13.0294,474.5],[34.5521,-13.0471,474.5],[34.5513,-13.0625,474.5],[34.5442,-13.0809,474.5],[34.5407,-13.0979,474.5],[34.537,-13.1476,474.5],[34.5391,-13.157,474.5],[34.5393,-13.1998,474.5],[34.8363,-13.0928,721.2605],[34.8563,-13.1068,816.0319],[34.8716,-13.0979,876.1131],[34.8839,-13.0949,877.9321],[34.8956,-13.0863,968.2478],[34.9076,-13.0848,973.6774]],
[[34.7493,-12.0671,474.5],[34.7476,-12.0676,474.5],[34.7468,-12.0663,474.5],[34.7504,-12.0649,477.7411],[34.7493,-12.0671,474.5]],
[[34.6146,-12.0496,478.1353],[34.6174,-12.0518,474.5],[34.6124,-12.051,474.7351],[34.6126,-12.0496,474.7351],[34.6146,-12.0496,478.1353]],
[[34.7601,-12.0485,479.4877],[34.7588,-12.0482,479.4877],[34.7596,-12.0465,474.5],[34.7607,-12.0468,474.5],[34.7601,-12.0485,479.4877]],
[[34.734,-12.0346,474.5],[34.7329,-12.0368,490.0073],[34.7346,-12.0379,474.5],[34.7354,-12.044,476.0138],[34.7415,-12.0443,474.5],[34.7471,-12.0374,474.5],[34.7496,-12.0451,490.9137],[34.7565,-12.0435,474.5],[34.7588,-12.0507,482.3041],[34.7537,-12.0574,478.1643],[34.7521,-12.0571,474.5],[34.7521,-12.0535,474.5],[34.7454,-12.0562,477.2654],[34.7454,-12.0615,475.362],[34.7424,-12.0649,474.5],[34.7424,-12.0685,474.5],[34.7388,-12.0699,474.5],[34.7382,-12.0718,474.5],[34.7407,-12.0785,479.1924],[34.7432,-12.079,479.1945],[34.7457,-12.0774,474.5],[34.7463,-12.0787,474.5],[34.7429,-12.0846,474.5],[34.7443,-12.0904,474.5],[34.7432,-12.0924,476.9936],[34.7388,-12.0918,477.5025],[34.7315,-12.1001,474.5],[34.719,-12.0929,483.119],[34.7168,-12.0932,474.5],[34.7174,-12.0907,489.1141],[34.7149,-12.0893,474.5],[34.7149,-12.0876,482.644],[34.7085,-12.084,474.5],[34.7104,-12.0813,475.9803],[34.7165,-12.0799,481.21],[34.7176,-12.0782,526.1816],[34.7174,-12.0707,494.032],[34.7221,-12.0651,482.5661],[34.721,-12.061,474.5],[34.7243,-12.0571,474.5],[34.7224,-12.056,474.5],[34.7232,-12.051,474.5],[34.729,-12.0418,488.6448],[34.7271,-12.0351,474.5],[34.7304,-12.031,474.5],[34.7335,-12.0324,485.3665],[34.734,-12.0346,474.5]],
[[34.6085,-12.0174,480.2369],[34.6063,-12.0143,476.9475],[34.6074,-12.0129,474.5],[34.611,-12.0154,479.9689],[34.6101,-12.0174,480.2369],[34.6085,-12.0174,480.2369]],
[[34.629,-12.0237,474.5],[34.6246,-12.0274,479.0855],[34.6299,-12.0326,474.5],[34.6274,-12.0321,477.1308],[34.6251,-12.034,476.4342],[34.6237,-12.0379,481.1397],[34.6251,-12.0387,475.5068],[34.624,-12.0413,480.1143],[34.6251,-12.0426,475.2509],[34.6224,-12.0437,474.7931],[34.6207,-12.0429,478.075],[34.6221,-12.0407,477.8414],[34.6204,-12.0376,474.8021],[34.6224,-12.036,476.6152],[34.621,-12.0351,476.6152],[34.6193,-12.0371,474.8021],[34.6179,-12.0351,474.5],[34.6196,-12.0354,476.5338],[34.6188,-12.034,474.5],[34.6207,-12.0335,484.6902],[34.621,-12.0315,485.8366],[34.6193,-12.0304,474.5],[34.6221,-12.0301,479.5127],[34.6237,-12.0262,487.6627],[34.6174,-12.0232,474.5],[34.6171,-12.016,478.9679],[34.6138,-12.0162,478.4351],[34.6101,-12.0138,476.2252],[34.6087,-12.0085,476.113],[34.6135,-12.0079,474.5],[34.6126,-12.0101,477.4805],[34.6182,-12.0138,481.1382],[34.6226,-12.011,474.5],[34.6263,-12.0129,474.5],[34.629,-12.0176,474.5],[34.629,-12.0237,474.5]]]]}}