{"type": "Feature","bbox": [39.5403,-12.0344,39.7529,-11.6902],"geometry": {"type": "MultiPolygon","coordinates": [[[[39.6616,-12.0344,129.637],[39.6648,-12.0046,160.8736],[39.6709,-11.9867,193.5926],[39.6495,-11.9569,227.6032],[39.6648,-11.9449,264.1537],[39.6556,-11.9151,405.7122],[39.6556,-11.9032,336.5041],[39.6867,-11.8763,532.9943],[39.6739,-11.8763,470.2842],[39.7288,-11.7899,681.9818],[39.7288,-11.763,648.605],[39.7529,-11.7424,528.4852],[39.7417,-11.6902,446.9277],[39.7289,-11.6914,423.6559],[39.7197,-11.6952,522.7179],[39.6979,-11.712,615.7629],[39.6822,-11.7272,629.965],[39.6699,-11.7338,687.104],[39.6557,-11.7357,700.4043],[39.6401,-11.7421,736.392],[39.6064,-11.7648,505.9988],[39.6005,-11.77,538.2001],[39.5717,-11.8061,301.0683],[39.5638,-11.8273,290.3793],[39.5641,-11.8406,279.0627],[39.5555,-11.8498,265.4416],[39.5598,-11.8574,272.6535],[39.5403,-11.8699,239.5226],[39.5424,-11.904,227.7202],[39.5465,-11.9096,219.8404],[39.5672,-11.9121,206.4301],[39.5718,-11.9256,216.4585],[39.5889,-11.9609,180.3456],[39.5897,-11.97,165.3058],[39.5923,-11.9769,179.2039],[39.6037,-11.9924,160.0237],[39.6236,-12.0059,160.6675],[39.6554,-12.0323,142.495],[39.6616,-12.0344,129.637]]]]}
,"properties": {"GID_3": "MOZ.1.10.2_1","GID_0": "MOZ","country": "Mozambique","GID_1": "MOZ.1_1","province": "CaboDelgado","NL_NAME_1": "NA","GID_2": "MOZ.1.10_1","county": "Muidumbe","NL_NAME_2": "NA","city": "Miteda","VARNAME_3": "NA","NL_NAME_3": "NA","TYPE_3": "Localidad","ENGTYPE_3": "Locality","CC_3": "NA","HASC_3": "NA","name": "Miteda.city","area_km2": 396.7076,"hist_schema_id": "Elevation0-9000","hist_area_km2": {"125": 0.2281,"150": 4.8112,"175": 14.8494,"200": 22.6288,"225": 28.9587,"250": 33.2758,"275": 24.2119,"300": 22.9483,"325": 17.8861,"350": 11.1219,"375": 9.317,"400": 9.1926,"425": 8.1761,"450": 8.6744,"475": 9.3179,"500": 12.3072,"525": 17.5999,"550": 16.2512,"575": 13.4705,"600": 8.9457,"625": 10.0669,"650": 12.9728,"675": 19.324,"700": 21.6281,"725": 19.0538,"750": 12.4948,"775": 5.7078,"800": 1.2868}}}