{"type": "Feature","bbox": [33.1548,-22.9042,34.625,-21.3029],"geometry": {"type": "MultiPolygon","coordinates": [[[[33.6469,-22.8937,65.3301],[33.6483,-22.9042,62.1309],[33.6686,-22.9022,77.3936],[33.676,-22.8992,82.106],[33.7084,-22.8827,90.7703],[33.8547,-22.791,117.6457],[33.8966,-22.7843,124.027],[33.9397,-22.5803,108.2606],[33.8731,-22.5181,140.7883],[33.9118,-22.4104,119.3911],[33.9435,-22.4135,117.548],[33.9315,-22.3987,118.832],[33.9305,-22.3899,119.8962],[33.9976,-22.3636,149.9229],[34.0401,-22.339,148.9854],[34.1194,-22.228,168.2803],[34.2314,-22.1535,160.593],[34.2951,-22.1787,160.652],[34.336,-22.2003,177.0515],[34.3462,-22.2024,180.2169],[34.3793,-22.2146,182.8474],[34.3939,-22.229,176.8667],[34.5081,-22.2311,153.2435],[34.546,-22.2025,148.9116],[34.625,-22.0951,166.2679],[34.4656,-22.001,147.7022],[34.399,-21.9416,154.1674],[34.3957,-21.9226,156.152],[34.41,-21.9017,155.371],[34.4268,-21.8829,156.5757],[34.4366,-21.8526,166.7612],[34.4734,-21.7827,152.647],[34.3722,-21.6833,173.7498],[34.3653,-21.6685,181.7209],[34.3578,-21.6427,181.224],[34.3516,-21.6144,176.416],[34.3512,-21.605,173.6875],[34.3678,-21.5704,146.5112],[34.3685,-21.5261,127.4296],[34.3888,-21.4628,118.0559],[34.3771,-21.4516,117.3312],[34.3619,-21.4335,122.5183],[34.3234,-21.4101,149.1702],[34.2883,-21.3995,124.4379],[34.2785,-21.3915,124.2595],[34.2707,-21.3815,121.2601],[34.2661,-21.3723,85.61],[34.2581,-21.3709,63.0444],[34.2146,-21.3782,97.6195],[34.2,-21.3674,118.4766],[34.1605,-21.3647,112.353],[34.1527,-21.3594,110.0984],[34.1365,-21.3399,59.0817],[34.1264,-21.351,75.623],[34.1143,-21.3704,79.5525],[34.0876,-21.399,110.4872],[34.0714,-21.4039,125.0342],[34.0657,-21.4019,129.3342],[34.0607,-21.4053,130.076],[34.037,-21.4065,126.9523],[34.0295,-21.3994,128.6751],[34.0211,-21.3649,85.8615],[34.0217,-21.3515,80.5438],[34.0199,-21.3376,70.991],[34.022,-21.3278,64.9817],[34.028,-21.3185,58.1488],[34.0388,-21.3068,48.1552],[34.0063,-21.3111,44.3097],[33.993,-21.3029,50.7913],[33.9545,-21.3122,47.9234],[33.9258,-21.3485,50.4013],[33.926,-21.3666,51.8275],[33.9069,-21.4028,53.9522],[33.8973,-21.4119,58.1722],[33.8491,-21.4121,66.2839],[33.82,-21.3852,57.5244],[33.7622,-21.4035,62.5461],[33.7237,-21.4218,62.388],[33.6753,-21.3949,64.0164],[33.656,-21.3859,64.0906],[33.6367,-21.386,70.2312],[33.6078,-21.3951,70.8382],[33.5788,-21.3862,74.279],[33.5691,-21.3772,77.7991],[33.5498,-21.3773,69.7901],[33.492,-21.3955,72.9141],[33.4728,-21.4227,76.565],[33.415,-21.459,77.7103],[33.3957,-21.468,79.7514],[33.3668,-21.4771,84.126],[33.3475,-21.4772,86.4764],[33.3282,-21.4863,85.3839],[33.3089,-21.4863,89.636],[33.2704,-21.5225,99.1148],[33.2704,-21.5315,95.3511],[33.2607,-21.5225,105.0765],[33.2511,-21.5316,104.2223],[33.2414,-21.5316,104.0411],[33.2318,-21.5406,108.2587],[33.2318,-21.5497,109.8016],[33.2415,-21.5587,114.7553],[33.2415,-21.5677,115.4997],[33.2318,-21.5768,121.3545],[33.2125,-21.5768,127.7932],[33.2029,-21.5858,129.8318],[33.2029,-21.6129,141.9066],[33.1932,-21.613,144.0056],[33.1836,-21.622,143.1228],[33.1644,-21.7033,140.0448],[33.1934,-21.7575,133.7836],[33.1548,-21.8208,128.817],[33.2518,-21.9472,124.228],[33.2809,-21.9652,122.6877],[33.2906,-21.9742,118.9993],[33.31,-21.9832,119.2956],[33.3197,-21.9922,119.5262],[33.3488,-22.0012,118.332],[33.3346,-22.034,119.4458],[33.3296,-22.0559,121.7551],[33.3348,-22.087,115.5907],[33.3426,-22.0946,124.7962],[33.3525,-22.1004,114.2226],[33.3581,-22.108,113.7417],[33.3646,-22.1294,114.57],[33.3625,-22.151,117.8691],[33.343,-22.1625,115.6005],[33.3443,-22.178,112.6269],[33.3412,-22.2011,117.2755],[33.3299,-22.2253,108.3022],[33.3324,-22.2366,115.1981],[33.3475,-22.2519,106.3263],[33.3555,-22.2585,104.7923],[33.3665,-22.2621,104.1014],[33.3719,-22.2857,105.205],[33.3631,-22.2982,102.5298],[33.359,-22.3146,104.149],[33.3666,-22.3541,100.9429],[33.3702,-22.3636,97.5913],[33.3782,-22.3713,100.2146],[33.3862,-22.3864,110.3211],[33.3804,-22.388,103.2637],[33.3589,-22.3802,97.386],[33.3355,-22.3858,94.5547],[33.3206,-22.3846,95.102],[33.3151,-22.3987,92.8208],[33.3084,-22.4075,90.7261],[33.3061,-22.4157,89.4718],[33.3115,-22.4348,92.0075],[33.3117,-22.4414,87.8256],[33.307,-22.4624,90.1477],[33.2979,-22.4875,89.271],[33.2931,-22.4967,83.3932],[33.2946,-22.5038,83.7921],[33.2878,-22.5181,84.741],[33.287,-22.528,81.5544],[33.2788,-22.5381,79.972],[33.2802,-22.5431,83.6822],[33.2744,-22.5494,80.2847],[33.2722,-22.5638,77.8512],[33.2842,-22.5724,81.6597],[33.2822,-22.5824,78.4594],[33.2887,-22.5917,74.3931],[33.294,-22.5945,76.1104],[33.2964,-22.6077,73.3523],[33.3033,-22.6206,71.9347],[33.3141,-22.6319,72.6291],[33.3221,-22.6448,70.4044],[33.322,-22.659,68.4941],[33.3413,-22.6629,66.9565],[33.3642,-22.6643,71.4898],[33.3725,-22.6712,67.0721],[33.3868,-22.6758,68.0089],[33.3975,-22.6868,65.838],[33.4131,-22.6965,65.6937],[33.4247,-22.7018,66.1208],[33.446,-22.7082,68.6504],[33.4537,-22.7149,69.6953],[33.458,-22.7254,68.0049],[33.4599,-22.7355,66.4719],[33.4708,-22.7463,65.1839],[33.4864,-22.7544,68.7455],[33.4901,-22.7612,66.2005],[33.4868,-22.7774,65.592],[33.498,-22.7812,64.8268],[33.5019,-22.7997,64.542],[33.5131,-22.8126,62.9379],[33.533,-22.8204,62.3238],[33.5442,-22.8273,65.176],[33.5636,-22.8428,62.8451],[33.5708,-22.8508,68.943],[33.5774,-22.8636,65.5615],[33.6012,-22.8934,62.2452],[33.6079,-22.8985,62.7985],[33.6155,-22.9016,65.4821],[33.6388,-22.8945,65.6909],[33.6469,-22.8937,65.3301]]]]}
,"properties": {"GID_2": "MOZ.3.7_1","GID_0": "MOZ","country": "Mozambique","GID_1": "MOZ.3_1","province": "Inhambane","NL_NAME_1": "NA","county": "Mabote","VARNAME_2": "NA","NL_NAME_2": "NA","TYPE_2": "Distrito","ENGTYPE_2": "District","CC_2": "NA","HASC_2": "MZ.IN.MB","name": "Mabote.county","area_km2": 15319.48,"hist_schema_id": "Elevation0-9000","hist_area_km2": {"50": 59.4,"75": 481.45,"100": 1359.55,"125": 4012.15,"150": 4213.79,"175": 3551.7,"200": 1607.76,"225": 33.67}}}