{"type":"Feature","properties":{"GID_3":"MOZ.2.11.2_1","GID_0":"MOZ","country":"Mozambique","GID_1":"MOZ.2_1","province":"Gaza","NL_NAME_1":"NA","GID_2":"MOZ.2.11_1","county":"Xai-Xai","NL_NAME_2":"NA","city":"Chongoene","VARNAME_3":"NA","NL_NAME_3":"NA","TYPE_3":"Localidad","ENGTYPE_3":"Locality","CC_3":"NA","HASC_3":"NA","name":"Chongoene.city"},
"geometry":{"type": "MultiPolygon","coordinates": [[[[33.6159,-24.8718,6.3135],[33.6137,-24.89,0.5],[33.6223,-24.8982,1.7766],[33.6226,-24.9186,4.0554],[33.6201,-24.9263,5.9036],[33.6251,-24.9366,5.4089],[33.6305,-24.9223,2.1658],[33.6342,-24.9176,4.3852],[33.6425,-24.9116,4.7973],[33.6501,-24.9012,3.3699],[33.6503,-24.908,4.0314],[33.646,-24.9175,3.2911],[33.652,-24.9217,4.7874],[33.6633,-24.9164,5.5339],[33.6696,-24.9169,3.9904],[33.6665,-24.9243,2.2167],[33.6504,-24.9361,4.2991],[33.6472,-24.941,1.6268],[33.6462,-24.9476,2.3556],[33.6389,-24.9557,4.4469],[33.6313,-24.957,4.3181],[33.626,-24.9767,4.0285],[33.6222,-24.9801,3.2863],[33.6221,-24.9841,2.2697],[33.6318,-24.9843,4.5716],[33.6435,-24.9759,3.334],[33.6497,-24.9755,3.4185],[33.6495,-24.9925,3.7475],[33.6556,-25.0003,2.9086],[33.6477,-25.0106,4.2939],[33.6667,-25.0296,3.8753],[33.6693,-25.03,3.1136],[33.6719,-25.0195,2.9646],[33.676,-25.0163,2.5919],[33.6822,-25.0174,2.9027],[33.6837,-25.009,3.0971],[33.6897,-25.0065,1.9473],[33.6971,-25.0085,1.7296],[33.7034,-25.0134,1.7762],[33.7337,-25.0813,14.5617],[33.7588,-25.1107,0.0],[33.7788,-25.1007,30.6089],[33.809,-25.0915,0.0],[33.869,-25.0688,11.6262],[33.9012,-25.0588,1.4161],[33.9096,-25.0576,2.5371],[33.9249,-25.0518,8.8794],[33.9746,-25.0387,0.0],[33.9747,-25.0075,16.8814],[33.9721,-24.9752,40.6941],[33.8744,-24.8913,83.1529],[33.8523,-24.834,77.8836],[33.8343,-24.8227,73.3875],[33.8061,-24.8204,75.9165],[33.7972,-24.8236,76.0413],[33.7891,-24.8242,78.2304],[33.78,-24.8224,70.7558],[33.7696,-24.826,55.5658],[33.7588,-24.8244,62.8267],[33.7562,-24.82,60.5121],[33.7459,-24.8107,69.0197],[33.7325,-24.8087,34.9926],[33.7284,-24.8089,38.3174],[33.7215,-24.8124,24.2787],[33.7146,-24.8103,42.1029],[33.7031,-24.8113,36.7275],[33.6935,-24.8169,24.0578],[33.6804,-24.8207,22.5525],[33.6723,-24.8269,14.479],[33.671,-24.8335,13.5216],[33.6627,-24.8427,33.0872],[33.6378,-24.8619,5.6238],[33.6385,-24.8683,5.1984],[33.636,-24.8723,5.3154],[33.6278,-24.8737,5.4341],[33.6159,-24.8718,6.3135]]]]}}