{"type":"Feature","properties":{"GID_3":"MOZ.1.4.5_1","GID_0":"MOZ","country":"Mozambique","GID_1":"MOZ.1_1","province":"CaboDelgado","NL_NAME_1":"NA","GID_2":"MOZ.1.4_1","county":"Macomia","NL_NAME_2":"NA","city":"Quissanga","VARNAME_3":"NA","NL_NAME_3":"NA","TYPE_3":"Localidad","ENGTYPE_3":"Locality","CC_3":"NA","HASC_3":"NA","name":"Quissanga.city"},
"geometry":{"type": "MultiPolygon","coordinates": [[[[40.1321,-12.3578,286.108],[40.1269,-12.3667,383.4727],[40.1932,-12.3664,155.2849],[40.2362,-12.3951,241.1261],[40.2459,-12.403,236.0199],[40.2575,-12.4171,181.2404],[40.2874,-12.4331,130.5797],[40.2996,-12.438,139.5536],[40.3335,-12.4452,79.6765],[40.344,-12.4489,72.5406],[40.3575,-12.4577,58.6537],[40.3984,-12.4602,37.2512],[40.4045,-12.4572,32.9572],[40.4131,-12.4585,30.9813],[40.4219,-12.4644,23.8211],[40.4463,-12.4727,12.0684],[40.4525,-12.472,10.6916],[40.4512,-12.4712,9.7751],[40.4577,-12.4662,6.9356],[40.4572,-12.4632,4.9618],[40.4521,-12.4573,18.3939],[40.4562,-12.4522,7.2895],[40.4621,-12.4518,8.6196],[40.4697,-12.4552,3.4412],[40.4714,-12.4508,13.0344],[40.4738,-12.451,11.9267],[40.475,-12.4551,2.4644],[40.4777,-12.4571,2.4924],[40.4884,-12.4537,9.0648],[40.4954,-12.4599,0.0],[40.499,-12.446,1.9383],[40.499,-12.4424,1.5044],[40.4963,-12.4388,3.278],[40.4999,-12.4401,0.0],[40.5115,-12.4301,4.0216],[40.524,-12.4268,0.9517],[40.5332,-12.4187,1.3685],[40.5363,-12.4185,0.8237],[40.5418,-12.4157,0.6735],[40.5426,-12.4137,2.9524],[40.5507,-12.4107,1.3911],[40.551,-12.4085,0.0],[40.5604,-12.4026,4.1493],[40.5685,-12.4015,0.0],[40.5704,-12.3987,0.9984],[40.5615,-12.3888,0.5894],[40.5604,-12.3846,1.9997],[40.5557,-12.3838,3.1989],[40.5543,-12.3818,1.5081],[40.5529,-12.3818,0.0],[40.5507,-12.391,1.5374],[40.5507,-12.3879,0.8501],[40.549,-12.3865,0.8501],[40.5499,-12.3812,0.0],[40.5471,-12.3815,3.5041],[40.5407,-12.3762,0.0],[40.5388,-12.3771,2.622],[40.5418,-12.3826,2.9471],[40.5407,-12.3838,4.5348],[40.5407,-12.3824,2.9471],[40.5388,-12.3824,0.618],[40.541,-12.3865,3.8621],[40.5382,-12.386,0.0],[40.5401,-12.3888,3.3029],[40.5385,-12.3979,4.2418],[40.5382,-12.3971,4.2418],[40.5388,-12.391,2.0648],[40.5343,-12.384,0.7998],[40.531,-12.3868,1.5044],[40.524,-12.3871,0.4564],[40.5229,-12.3943,2.5274],[40.5249,-12.3974,1.4018],[40.5213,-12.394,2.0889],[40.5213,-12.3854,5.0529],[40.5199,-12.3838,0.9845],[40.5118,-12.3838,0.0],[40.5085,-12.3871,1.8457],[40.5085,-12.3846,0.303],[40.506,-12.3835,0.7685],[40.5057,-12.3874,3.0364],[40.5015,-12.3829,0.0],[40.4954,-12.3843,0.5],[40.4912,-12.3882,1.0],[40.4874,-12.3979,3.6421],[40.4768,-12.3968,3.2824],[40.4771,-12.3946,1.5],[40.4832,-12.3968,1.5],[40.4868,-12.3954,6.3936],[40.4879,-12.3848,0.5],[40.4777,-12.3897,34.7189],[40.4727,-12.3857,16.5879],[40.4584,-12.3667,11.4745],[40.4526,-12.3627,15.8854],[40.4474,-12.3542,16.7431],[40.426,-12.3363,22.5795],[40.4049,-12.3245,45.2554],[40.3863,-12.3243,39.5043],[40.3621,-12.3308,62.9762],[40.3479,-12.3294,72.313],[40.3394,-12.3246,73.0208],[40.3222,-12.3213,78.0667],[40.3051,-12.3071,93.3308],[40.3,-12.305,95.3888],[40.2857,-12.3058,113.3755],[40.275,-12.3214,150.3202],[40.2619,-12.3134,160.1257],[40.2508,-12.3113,158.0128],[40.2271,-12.3134,165.2021],[40.2179,-12.3168,181.5229],[40.2016,-12.3273,221.2933],[40.1683,-12.3209,289.6525],[40.1606,-12.324,340.0399],[40.1321,-12.3578,286.108]]],
[[[40.4912,-12.3874,1.706],[40.4929,-12.3854,2.7318],[40.4929,-12.3849,2.7318],[40.4901,-12.3865,1.706],[40.4912,-12.3874,1.706]]],
[[[40.4882,-12.3849,0.5],[40.4882,-12.3847,0.5],[40.4879,-12.3848,0.5],[40.4882,-12.3849,0.5]]],
[[[40.5199,-12.3812,0.3903],[40.5185,-12.3807,0.3903],[40.5185,-12.3832,0.9845],[40.5204,-12.3821,0.0],[40.5199,-12.3812,0.3903]]],
[[[40.5329,-12.3787,0.615],[40.5276,-12.3787,0.0],[40.5271,-12.3807,0.5859],[40.5299,-12.3835,0.0],[40.534,-12.3824,2.7061],[40.536,-12.3835,0.0],[40.5354,-12.3807,0.9656],[40.5329,-12.3787,0.615]]],
[[[40.549,-12.3782,0.0],[40.5479,-12.3776,0.0],[40.5479,-12.3793,0.0],[40.5496,-12.3799,0.0],[40.5493,-12.3782,0.0],[40.549,-12.3782,0.0]]],
[[[40.531,-12.359,0.0],[40.5288,-12.359,0.5611],[40.5301,-12.3635,0.0],[40.5313,-12.3632,0.0],[40.531,-12.359,0.0]]]]}}