{"type":"Feature","properties":{"GID_3":"MOZ.7.12.3_1","GID_0":"MOZ","country":"Mozambique","GID_1":"MOZ.7_1","province":"Nampula","NL_NAME_1":"NA","GID_2":"MOZ.7.12_1","county":"Mossuril","NL_NAME_2":"NA","city":"Matibane","VARNAME_3":"NA","NL_NAME_3":"NA","TYPE_3":"Localidad","ENGTYPE_3":"Locality","CC_3":"NA","HASC_3":"NA","name":"Matibane.city"},
"geometry":{"type": "MultiPolygon","coordinates": [[[[40.8296,-14.8485,0.0],[40.8282,-14.8482,0.0],[40.8279,-14.8504,0.0],[40.824,-14.8537,1.8257],[40.819,-14.8532,2.6521],[40.8124,-14.849,0.0],[40.8107,-14.8496,0.0],[40.8154,-14.8532,0.0],[40.8168,-14.8565,0.0],[40.8099,-14.8643,0.0],[40.8104,-14.8657,0.0],[40.8154,-14.8613,0.0],[40.8185,-14.8629,0.0],[40.824,-14.8599,0.0],[40.8238,-14.8643,1.3388],[40.821,-14.8685,3.7358],[40.8201,-14.8679,0.0],[40.8213,-14.8654,0.0],[40.819,-14.8651,0.0],[40.819,-14.869,0.7751],[40.8165,-14.8735,0.3886],[40.8196,-14.8735,0.4187],[40.8235,-14.869,0.0],[40.8293,-14.8537,0.0],[40.8296,-14.8485,0.0]]],
[[[40.8271,-14.7876,0.0],[40.826,-14.7874,0.0],[40.8262,-14.7915,0.0],[40.8279,-14.7924,0.0],[40.8271,-14.7962,0.0],[40.8288,-14.7965,0.0],[40.8307,-14.7926,0.837],[40.8332,-14.7929,1.5698],[40.834,-14.7982,1.995],[40.8329,-14.7985,1.995],[40.8324,-14.7957,0.0],[40.8304,-14.799,0.0],[40.8346,-14.8007,1.1724],[40.836,-14.796,2.027],[40.8351,-14.7885,0.0],[40.8271,-14.7876,0.0]]],
[[[40.6275,-14.8686,26.6797],[40.6357,-14.8704,0.0],[40.6332,-14.8674,3.3471],[40.636,-14.866,0.0],[40.6374,-14.8607,0.0],[40.6357,-14.849,0.3714],[40.6379,-14.8479,0.9933],[40.639,-14.8429,3.5157],[40.6482,-14.8404,1.2504],[40.6474,-14.8424,1.8391],[40.6415,-14.8443,1.1952],[40.6393,-14.8504,0.0],[40.6446,-14.8657,0.0],[40.6496,-14.8721,0.0],[40.6549,-14.8737,1.7378],[40.6568,-14.884,1.7128],[40.656,-14.8896,0.8277],[40.6624,-14.8954,3.345],[40.6601,-14.9012,1.2518],[40.6515,-14.906,0.0],[40.6521,-14.9071,1.271],[40.6568,-14.9068,0.0],[40.6629,-14.9035,0.0],[40.6879,-14.9012,6.3599],[40.6918,-14.8979,7.9294],[40.6985,-14.896,1.4748],[40.7065,-14.8874,3.0144],[40.7146,-14.8879,1.9035],[40.7201,-14.8865,0.0],[40.7257,-14.8804,4.2631],[40.7318,-14.8771,7.8235],[40.7401,-14.876,6.8141],[40.7424,-14.8771,0.0],[40.7465,-14.8746,0.0],[40.7549,-14.8729,2.9897],[40.7701,-14.8621,0.0],[40.766,-14.861,2.4614],[40.7654,-14.8576,6.2953],[40.771,-14.8515,3.0193],[40.7896,-14.8451,1.4418],[40.7985,-14.8443,3.7586],[40.8065,-14.8462,1.0761],[40.8085,-14.8368,1.7153],[40.814,-14.8296,1.534],[40.8187,-14.8265,1.0552],[40.8257,-14.826,3.256],[40.8312,-14.8276,3.7027],[40.8299,-14.8326,2.0559],[40.8301,-14.8387,0.4599],[40.8312,-14.8387,0.0],[40.8346,-14.8176,2.3141],[40.834,-14.804,0.9343],[40.8296,-14.8049,1.234],[40.826,-14.8082,0.0],[40.8262,-14.8118,2.0121],[40.8213,-14.8118,1.7955],[40.8168,-14.8043,0.8144],[40.8165,-14.7993,0.8702],[40.819,-14.7949,1.8362],[40.8229,-14.7921,0.7363],[40.8213,-14.781,1.0004],[40.8249,-14.7757,3.1099],[40.831,-14.7768,0.0],[40.8324,-14.7751,0.0],[40.8343,-14.781,0.0],[40.836,-14.7804,2.1696],[40.8376,-14.7499,0.0],[40.8371,-14.7349,0.0],[40.8351,-14.7335,4.1271],[40.8368,-14.7321,5.6299],[40.8351,-14.7293,3.6774],[40.8376,-14.7268,0.0],[40.8354,-14.7251,4.1033],[40.8371,-14.724,0.0],[40.8351,-14.7212,0.0],[40.8365,-14.7132,6.0508],[40.8349,-14.711,2.1492],[40.8363,-14.7057,4.2217],[40.8338,-14.6982,2.4888],[40.8357,-14.6949,2.269],[40.8371,-14.6818,0.0],[40.8346,-14.6768,6.3183],[40.8326,-14.666,2.0834],[40.8293,-14.6649,2.0347],[40.8307,-14.6635,0.9447],[40.8299,-14.6596,0.9019],[40.8274,-14.6576,0.0],[40.8243,-14.6587,3.9065],[40.8235,-14.6565,0.7431],[40.821,-14.6557,0.0],[40.8196,-14.6576,0.0],[40.8149,-14.6571,2.1338],[40.8146,-14.6543,0.0],[40.8085,-14.6501,5.5434],[40.8085,-14.6474,0.0],[40.8063,-14.6457,0.0],[40.8074,-14.6385,1.0613],[40.8032,-14.6374,0.0],[40.8032,-14.6346,0.7336],[40.8004,-14.6337,4.6975],[40.7985,-14.6293,3.7191],[40.8007,-14.6196,4.4327],[40.8082,-14.6118,1.4923],[40.8104,-14.6129,2.721],[40.8121,-14.6118,2.721],[40.8185,-14.6043,0.5626],[40.8226,-14.5918,0.0],[40.8226,-14.576,0.9156],[40.8265,-14.5721,3.6903],[40.8299,-14.5579,0.0],[40.8257,-14.5537,1.9462],[40.8265,-14.5493,4.7707],[40.8276,-14.5487,1.5618],[40.8299,-14.5532,0.7047],[40.8321,-14.554,1.0011],[40.8293,-14.5499,0.0],[40.8296,-14.5476,0.4848],[40.8265,-14.5449,4.7177],[40.8254,-14.5335,0.7393],[40.8204,-14.5293,2.8584],[40.8163,-14.5282,1.5545],[40.8126,-14.5299,5.9099],[40.8096,-14.5274,2.0058],[40.8004,-14.5268,1.6218],[40.7999,-14.5379,0.0],[40.7971,-14.5401,4.142],[40.7888,-14.5399,0.4957],[40.7921,-14.5487,4.7181],[40.7901,-14.5596,3.337],[40.7835,-14.5613,4.5507],[40.7815,-14.5596,0.8599],[40.7782,-14.5596,0.5865],[40.781,-14.5646,2.8817],[40.7749,-14.5618,1.5704],[40.7657,-14.5613,18.8601],[40.761,-14.5579,0.0],[40.7604,-14.5521,1.3671],[40.764,-14.5473,0.0],[40.7373,-14.5442,10.7413],[40.7199,-14.5626,65.2133],[40.7213,-14.6574,59.6833],[40.6712,-14.6575,139.8268],[40.6512,-14.6827,70.402],[40.6328,-14.7002,115.1047],[40.5613,-14.7087,110.723],[40.5529,-14.7115,84.5972],[40.5506,-14.7275,80.5817],[40.5445,-14.7357,88.6142],[40.5841,-14.7878,63.5415],[40.608,-14.7964,39.1435],[40.6088,-14.8018,25.1917],[40.5965,-14.8146,36.0569],[40.5687,-14.8325,46.3758],[40.5934,-14.8504,54.6409],[40.6275,-14.8686,26.6797]]],
[[[40.8363,-14.5396,4.7037],[40.8349,-14.5393,0.0],[40.8304,-14.5437,0.7482],[40.8324,-14.5512,2.7586],[40.8371,-14.5485,0.0],[40.8318,-14.544,2.0437],[40.8335,-14.5413,0.0],[40.8368,-14.5432,0.0],[40.8374,-14.5468,0.0],[40.8393,-14.5451,0.0],[40.8393,-14.5415,0.0],[40.8363,-14.5396,4.7037]]]]}}