{"type": "Feature","bbox": [33.2269,-17.5178,33.5869,-17.2791],"geometry": {"type": "MultiPolygon","coordinates": [[[[33.36,-17.5175,792.8991],[33.3645,-17.5177,792.5287],[33.3831,-17.4889,756.8802],[33.4004,-17.475,726.8613],[33.4097,-17.4742,725.7177],[33.4155,-17.4771,721.1846],[33.4251,-17.4754,706.3541],[33.4603,-17.4822,679.9991],[33.4612,-17.475,688.4232],[33.4648,-17.4692,667.9652],[33.4639,-17.4574,684.0984],[33.4752,-17.4454,655.2688],[33.4825,-17.4308,658.6645],[33.4902,-17.4247,644.817],[33.5007,-17.4085,645.2481],[33.5146,-17.4065,638.4689],[33.5179,-17.4009,630.2763],[33.52,-17.3913,625.7512],[33.5123,-17.3664,618.3301],[33.5203,-17.3606,624.528],[33.5314,-17.3638,609.4968],[33.5369,-17.3609,599.9718],[33.5383,-17.3554,595.7963],[33.561,-17.337,591.59],[33.5677,-17.3338,583.8904],[33.5752,-17.3245,573.5583],[33.5804,-17.2985,577.6533],[33.5867,-17.2948,563.7881],[33.5869,-17.288,556.8207],[33.5828,-17.2823,555.9204],[33.5737,-17.2791,550.6103],[33.5587,-17.2843,558.4598],[33.5502,-17.2798,563.7397],[33.5375,-17.284,593.3884],[33.5231,-17.3004,595.8454],[33.5147,-17.3069,591.6396],[33.5081,-17.3209,581.2639],[33.5073,-17.3295,586.9923],[33.4962,-17.334,599.1285],[33.4892,-17.3348,606.231],[33.4795,-17.3417,618.9433],[33.4624,-17.3364,629.7985],[33.4537,-17.3307,630.8951],[33.4368,-17.3244,639.6113],[33.4288,-17.3231,641.8217],[33.4207,-17.3241,651.4152],[33.412,-17.3283,657.0304],[33.4056,-17.3283,665.7989],[33.382,-17.3205,682.539],[33.377,-17.3219,689.434],[33.3623,-17.3205,705.2366],[33.3551,-17.3214,711.4743],[33.3388,-17.3178,755.5169],[33.3264,-17.2939,699.0778],[33.3095,-17.2807,669.8396],[33.2269,-17.3594,639.0355],[33.2585,-17.4304,693.6702],[33.2673,-17.4401,699.1204],[33.2952,-17.4594,720.5292],[33.3038,-17.459,720.8721],[33.3376,-17.4897,772.7396],[33.3443,-17.4984,788.7733],[33.3404,-17.5178,796.3793],[33.36,-17.5175,792.8991]]]]}
,"properties": {"GID_3": "MOZ.4.3.2_1","GID_0": "MOZ","country": "Mozambique","GID_1": "MOZ.4_1","province": "Manica","NL_NAME_1": "NA","GID_2": "MOZ.4.3_1","county": "Guro","NL_NAME_2": "NA","city": "GuroSede","VARNAME_3": "NA","NL_NAME_3": "NA","TYPE_3": "Localidad","ENGTYPE_3": "Locality","CC_3": "NA","HASC_3": "NA","name": "Guro_Sede.city","area_km2": 516.9626,"hist_schema_id": "Elevation0-9000","hist_area_km2": {"550": 3.9476,"575": 11.6194,"600": 16.3748,"625": 21.412,"650": 45.9736,"675": 79.1149,"700": 95.7451,"725": 97.1358,"750": 64.8805,"775": 39.5057,"800": 16.4458,"825": 6.2115,"850": 4.229,"875": 3.0759,"900": 2.1451,"925": 1.8617,"950": 1.7403,"975": 1.5985,"1000": 1.0117,"1025": 0.5058,"1050": 0.6475,"1075": 0.3844,"1100": 0.4249,"1125": 0.3035,"1150": 0.1012,"1175": 0.1416,"1200": 0.2428,"1225": 0.1012,"1250": 0.0809}}}