{"type": "Feature","bbox": [34.7279,-17.7813,35.3496,-17.617],"geometry": {"type": "MultiPolygon","coordinates": [[[[35.3483,-17.7456,28.9063],[35.3496,-17.7373,27.5077],[35.3445,-17.7257,26.5],[35.3299,-17.7149,28.3371],[35.284,-17.7012,29.3076],[35.229,-17.6759,31.8299],[35.2102,-17.6655,32.1523],[35.1892,-17.6504,32.5512],[35.1713,-17.6294,32.5],[35.164,-17.617,33.0],[35.1443,-17.6271,33.768],[35.1178,-17.637,37.0371],[35.1077,-17.6309,36.2629],[35.0839,-17.6308,42.5038],[35.0793,-17.6429,47.797],[35.075,-17.648,48.8348],[35.0624,-17.6537,50.116],[35.0562,-17.6578,57.717],[35.0509,-17.6658,52.6751],[35.0451,-17.6675,54.9774],[35.0291,-17.6648,60.6362],[35.0227,-17.6652,61.3631],[35.0158,-17.668,62.8657],[35.0002,-17.666,67.7315],[34.9863,-17.654,76.8558],[34.9608,-17.6439,84.4751],[34.9355,-17.6423,88.3723],[34.9002,-17.6472,107.0118],[34.886,-17.6454,106.4258],[34.8614,-17.6378,117.1044],[34.8487,-17.6367,116.0952],[34.8366,-17.6399,122.5655],[34.8123,-17.6423,139.4626],[34.8054,-17.6404,134.3128],[34.8,-17.6413,134.2798],[34.7983,-17.6489,134.7542],[34.8038,-17.6578,148.5818],[34.8038,-17.6669,141.8995],[34.8005,-17.6756,138.2252],[34.7934,-17.6867,140.2859],[34.7844,-17.6922,146.6713],[34.7749,-17.6944,150.9018],[34.7632,-17.6933,149.5549],[34.7492,-17.6964,159.7036],[34.7388,-17.6961,167.2582],[34.7279,-17.6997,171.9563],[34.8153,-17.7746,191.2833],[34.8352,-17.7813,163.295],[34.9255,-17.7628,182.6147],[34.9723,-17.7661,116.7463],[34.9907,-17.7645,103.3849],[35.0004,-17.7599,100.4833],[35.0132,-17.7628,91.2068],[35.118,-17.7564,27.7574],[35.209,-17.7563,28.9001],[35.2771,-17.7615,28.3162],[35.3085,-17.7594,29.0674],[35.3483,-17.7456,28.9063]]]]}
,"properties": {"GID_3": "MOZ.9.2.2_1","GID_0": "MOZ","country": "Mozambique","GID_1": "MOZ.9_1","province": "Sofala","NL_NAME_1": "NA","GID_2": "MOZ.9.2_1","county": "Caia","NL_NAME_2": "NA","city": "Murraca","VARNAME_3": "NA","NL_NAME_3": "NA","TYPE_3": "Localidad","ENGTYPE_3": "Locality","CC_3": "NA","HASC_3": "NA","name": "Murraca.city","area_km2": 703.6674,"hist_schema_id": "Elevation0-9000","hist_area_km2": {"25": 267.6179,"50": 53.5289,"75": 49.3663,"100": 80.3718,"125": 67.7876,"150": 68.8328,"175": 73.1078,"200": 32.4324,"225": 10.5412,"250": 0.0808}}}