{"type": "Feature","bbox": [30.4193,-16.42,32.1571,-15.6146],"geometry": {"type": "MultiPolygon","coordinates": [[[[32.0371,-16.0593,434.9037],[32.0408,-16.0552,435.2222],[32.0529,-16.0482,430.0575],[32.0496,-16.0427,438.2893],[32.0557,-16.0422,426.6154],[32.0596,-16.0389,430.1926],[32.0627,-16.0406,423.655],[32.0689,-16.0406,420.8794],[32.0662,-16.0368,424.2332],[32.0691,-16.0348,421.7639],[32.0758,-16.035,417.399],[32.0804,-16.0281,423.3317],[32.089,-16.0313,415.4043],[32.0968,-16.0276,422.9185],[32.104,-16.0274,416.2529],[32.1275,-16.022,410.3653],[32.1316,-16.0174,407.2132],[32.1354,-16.0071,395.3365],[32.1353,-15.9999,394.6572],[32.1305,-15.9952,389.9348],[32.1343,-15.986,385.2537],[32.1318,-15.9572,379.6594],[32.1463,-15.9556,380.4482],[32.1413,-15.9435,368.3212],[32.1484,-15.9282,364.2497],[32.1469,-15.9129,364.9743],[32.1543,-15.9104,354.807],[32.1571,-15.9021,352.1173],[32.1535,-15.8949,352.7726],[32.15,-15.826,331.461],[32.1469,-15.8154,335.953],[32.1385,-15.8063,328.8269],[32.1367,-15.795,321.1417],[32.125,-15.7785,321.0],[32.1251,-15.7699,321.0],[32.1045,-15.6887,321.0],[32.0466,-15.6919,321.0],[31.9996,-15.6856,321.0],[31.9449,-15.6806,321.0],[31.8552,-15.6766,321.0],[31.813,-15.678,321.0],[31.7366,-15.692,321.0],[31.6925,-15.6966,321.0],[31.66,-15.6944,321.0],[31.6285,-15.6873,321.0],[31.5837,-15.6681,321.0],[31.5542,-15.6587,321.0],[31.5293,-15.6555,321.0],[31.5043,-15.6558,321.0],[31.4817,-15.6585,321.0],[31.4287,-15.6572,321.0],[31.384,-15.6502,321.0],[31.3633,-15.6535,321.0],[31.3313,-15.6653,321.0],[31.296,-15.6898,321.0],[31.2735,-15.7002,321.0],[31.233,-15.7151,321.0],[31.1904,-15.7169,321.0],[31.1433,-15.7252,321.0],[31.1153,-15.725,321.0],[31.0723,-15.7231,321.0],[31.0552,-15.7194,321.0],[31.0302,-15.7112,321.0],[30.9867,-15.6902,321.0],[30.9028,-15.6634,321.0],[30.8559,-15.6498,321.0],[30.827,-15.6449,321.0],[30.8071,-15.6378,321.0],[30.7556,-15.6295,321.0],[30.6991,-15.6146,321.0],[30.6717,-15.6171,321.0],[30.6357,-15.6234,321.0],[30.6094,-15.6341,321.0],[30.5892,-15.6378,325.0764],[30.4673,-15.6321,321.5],[30.4283,-15.6187,329.4147],[30.4193,-15.6186,322.5],[30.4252,-15.6283,350.8321],[30.4258,-15.6843,365.8318],[30.4233,-15.7313,392.6582],[30.4247,-15.7471,416.6532],[30.4239,-15.9029,408.5872],[30.4222,-15.9171,417.8617],[30.4237,-15.9286,414.7381],[30.4246,-16.0,395.529],[30.9225,-16.0,379.0434],[30.9499,-16.0163,367.8208],[30.9549,-16.0282,367.6248],[30.9572,-16.0387,362.1764],[30.9663,-16.0494,355.6686],[30.9821,-16.059,349.0901],[30.9983,-16.0569,344.9347],[31.0203,-16.0446,341.6356],[31.0289,-16.0279,338.2754],[31.0306,-16.0188,338.7131],[31.0536,-16.013,333.0933],[31.0605,-16.0081,331.2249],[31.0643,-16.0,331.7406],[31.07,-16.007,331.8463],[31.0724,-16.0162,328.6518],[31.1032,-16.0,328.2035],[31.1018,-15.9955,325.878],[31.1405,-15.9823,328.8154],[31.1514,-15.9886,330.0711],[31.1783,-15.9904,335.8111],[31.1845,-16.0,337.5959],[31.1899,-16.0042,338.3509],[31.202,-16.0046,339.9513],[31.2154,-16.0076,341.4751],[31.2447,-16.0,352.7813],[31.247,-16.0014,350.501],[31.2469,-16.0085,348.1954],[31.2497,-16.0097,345.7329],[31.2678,-16.0098,347.7337],[31.2835,-16.0199,355.5844],[31.3073,-16.0272,356.6872],[31.3171,-16.0367,359.4773],[31.3338,-16.0485,362.4224],[31.3389,-16.0531,364.1334],[31.3418,-16.0685,368.4396],[31.3487,-16.0801,371.1117],[31.364,-16.0911,379.0704],[31.3733,-16.1032,379.1048],[31.3873,-16.1156,385.4083],[31.3943,-16.1267,386.1796],[31.4045,-16.1371,386.7683],[31.4205,-16.1324,389.4257],[31.4266,-16.1352,390.0464],[31.4306,-16.1415,390.4087],[31.4278,-16.1508,391.6304],[31.4306,-16.1564,394.1967],[31.4463,-16.1534,397.8502],[31.456,-16.1542,404.5988],[31.4659,-16.159,398.7041],[31.4814,-16.1569,402.9149],[31.4993,-16.1707,406.5952],[31.5451,-16.1842,419.0314],[31.588,-16.1913,429.7844],[31.6182,-16.1901,436.3335],[31.6352,-16.1972,443.1061],[31.6917,-16.2017,454.6914],[31.7028,-16.2066,458.8598],[31.7331,-16.2284,479.8511],[31.758,-16.237,479.8477],[31.7708,-16.2367,483.9012],[31.7857,-16.2564,495.2501],[31.7907,-16.2583,494.2769],[31.7978,-16.2579,495.8129],[31.8032,-16.2702,500.2104],[31.8161,-16.2774,506.9886],[31.8182,-16.2821,507.7873],[31.8149,-16.2949,514.2765],[31.8254,-16.2943,513.5977],[31.8298,-16.2994,516.0151],[31.8307,-16.3084,520.6358],[31.834,-16.3111,522.2415],[31.8359,-16.3126,523.2936],[31.84,-16.3076,524.3238],[31.8485,-16.3095,525.9889],[31.8519,-16.3178,531.8081],[31.8579,-16.319,532.4003],[31.8628,-16.3241,535.1646],[31.8728,-16.3259,540.1868],[31.8834,-16.3329,545.3984],[31.8938,-16.3365,551.7061],[31.9022,-16.3476,562.9808],[31.9055,-16.3676,577.88],[31.9111,-16.3732,579.4827],[31.9073,-16.3977,604.4067],[31.9135,-16.4129,625.8593],[31.9437,-16.42,632.681],[31.956,-16.3993,601.0316],[31.9619,-16.3965,596.979],[31.9851,-16.3912,580.6606],[31.9897,-16.387,579.6552],[32.0026,-16.368,570.038],[32.0222,-16.3772,553.4346],[32.0247,-16.374,556.9602],[32.0359,-16.3737,547.7361],[32.0468,-16.3696,543.5076],[32.0533,-16.3711,534.7932],[32.0604,-16.3647,534.6554],[32.0663,-16.3647,531.1784],[32.0694,-16.3593,534.8004],[32.0726,-16.3608,527.0786],[32.0901,-16.3579,530.5801],[32.0875,-16.3538,535.6453],[32.0864,-16.3454,538.8427],[32.0627,-16.3313,583.7389],[32.052,-16.3078,590.8663],[32.0293,-16.3036,596.2788],[32.0262,-16.3011,607.8936],[32.0196,-16.2883,611.0115],[32.0142,-16.2876,619.5007],[32.0044,-16.2902,628.3527],[32.0028,-16.2875,627.4355],[32.0044,-16.2778,645.4804],[32.0024,-16.2741,639.4223],[32.0037,-16.2661,645.1078],[32.0014,-16.2625,640.9747],[32.0078,-16.2598,641.9987],[32.0046,-16.247,662.0031],[32.0046,-16.2388,687.5609],[32.007,-16.2305,680.2965],[32.0112,-16.2252,689.5072],[32.0156,-16.211,725.3524],[32.0257,-16.196,737.1354],[32.0033,-16.1898,733.5316],[31.9883,-16.1909,703.814],[31.9755,-16.1855,663.3384],[31.9254,-16.1781,560.5612],[31.9205,-16.1745,548.9408],[31.9188,-16.1675,539.7837],[31.9215,-16.1597,534.3159],[31.9276,-16.155,528.3244],[31.9282,-16.1087,493.8392],[31.9292,-16.0997,487.2903],[31.937,-16.095,485.1247],[31.9339,-16.0905,488.5249],[31.9515,-16.0927,479.7532],[31.9556,-16.0901,476.7985],[31.9586,-16.0821,476.2085],[31.9627,-16.0787,472.3745],[31.967,-16.0803,471.0914],[31.9679,-16.0863,472.3804],[31.9737,-16.0894,469.0236],[31.9808,-16.0815,464.4116],[31.9914,-16.0796,461.2077],[31.9977,-16.0824,458.9021],[32.0011,-16.0754,463.214],[32.0051,-16.0827,459.5875],[32.0143,-16.0728,468.0497],[32.0334,-16.0753,554.9889],[32.0379,-16.0728,444.657],[32.0399,-16.0686,438.0099],[32.0371,-16.0593,434.9037]]]]}
,"properties": {"GID_2": "MOZ.10.7_1","GID_0": "MOZ","country": "Mozambique","GID_1": "MOZ.10_1","province": "Tete","NL_NAME_1": "NA","county": "Magoe","VARNAME_2": "NA","NL_NAME_2": "NA","TYPE_2": "Distrito","ENGTYPE_2": "District","CC_2": "NA","HASC_2": "MZ.TE.MG","name": "Magoe.county","area_km2": 8652.687,"hist_schema_id": "Elevation0-9000","hist_area_km2": {"325": 1629.723,"350": 1441.926,"375": 1313.098,"400": 1067.478,"425": 749.748,"450": 570.205,"475": 439.383,"500": 327.018,"525": 318.727,"550": 209.627,"575": 132.374,"600": 107.49,"625": 83.657,"650": 72.574,"675": 50.83,"700": 41.784,"725": 82.006,"750": 15.038}}}