{"type":"Feature","properties":{"GID_3":"MOZ.4.4.2_1","GID_0":"MOZ","country":"Mozambique","GID_1":"MOZ.4_1","province":"Manica","NL_NAME_1":"NA","GID_2":"MOZ.4.4_1","county":"Machaze","NL_NAME_2":"NA","city":"Save","VARNAME_3":"NA","NL_NAME_3":"NA","TYPE_3":"Localidad","ENGTYPE_3":"Locality","CC_3":"NA","HASC_3":"NA","name":"Save.city"},
"geometry":{"type": "MultiPolygon","coordinates": [[[[33.3089,-21.4863,89.636],[33.3282,-21.4863,85.3839],[33.3475,-21.4772,86.4764],[33.3668,-21.4771,84.126],[33.3957,-21.468,79.7514],[33.415,-21.459,77.7103],[33.4728,-21.4227,76.565],[33.492,-21.3955,72.9141],[33.5498,-21.3773,69.7901],[33.5691,-21.3772,77.7991],[33.5788,-21.3862,74.279],[33.6078,-21.3951,70.8382],[33.6367,-21.386,70.2312],[33.656,-21.3859,64.0906],[33.6753,-21.3949,64.0164],[33.7237,-21.4218,62.388],[33.7622,-21.4035,62.5461],[33.82,-21.3852,57.5244],[33.8491,-21.4121,66.2839],[33.8973,-21.4119,58.1722],[33.9069,-21.4028,53.9522],[33.926,-21.3666,51.8275],[33.9258,-21.3485,50.4013],[33.9545,-21.3122,47.9234],[33.993,-21.3029,50.7913],[34.0063,-21.3111,44.3097],[34.0052,-21.2686,88.9683],[34.0123,-21.2436,121.4048],[34.0319,-21.2234,113.1516],[34.0399,-21.1666,103.6084],[34.0936,-21.1299,92.7208],[34.1082,-21.0751,83.1916],[33.9947,-21.0066,72.8706],[33.9622,-21.0051,73.5901],[33.9623,-21.0231,66.2021],[33.9528,-21.0412,71.0065],[33.9432,-21.0503,70.1644],[33.9337,-21.0684,71.1819],[33.9338,-21.0774,71.4985],[33.9242,-21.0865,72.5905],[33.9051,-21.1137,76.4697],[33.8957,-21.1409,73.1635],[33.8765,-21.159,76.3283],[33.7995,-21.1594,91.0704],[33.7899,-21.1685,87.2934],[33.761,-21.1777,88.3515],[33.7035,-21.2321,98.0879],[33.6938,-21.2231,101.2127],[33.6649,-21.2232,110.0572],[33.6359,-21.1963,122.5915],[33.6262,-21.1963,125.7182],[33.607,-21.2054,131.7536],[33.5781,-21.2055,135.5114],[33.5491,-21.1785,152.5905],[33.5298,-21.1786,151.7216],[33.5298,-21.1695,158.6891],[33.5105,-21.1605,163.1252],[33.4816,-21.1516,180.455],[33.4239,-21.1879,182.9969],[33.4046,-21.1879,187.286],[33.3757,-21.179,196.6464],[33.366,-21.1699,200.4328],[33.2986,-21.1701,215.5023],[33.2313,-21.2244,223.2295],[33.2217,-21.2425,185.3736],[33.2024,-21.2425,182.7036],[33.2024,-21.2335,168.1398],[33.1927,-21.2335,178.7662],[33.1927,-21.2244,175.1113],[33.2024,-21.2244,178.1266],[33.1927,-21.2154,174.448],[33.1831,-21.2154,177.6304],[33.1831,-21.2064,177.7571],[33.1734,-21.1974,181.8234],[33.1638,-21.1974,179.9369],[33.1638,-21.1883,205.4007],[33.1349,-21.1884,189.1283],[33.1349,-21.1793,199.1064],[33.1252,-21.1793,189.2409],[33.1156,-21.1703,198.3967],[33.1156,-21.1793,196.5825],[33.106,-21.1703,194.6803],[33.106,-21.1613,207.4378],[33.0963,-21.1613,205.4049],[33.0867,-21.1523,213.7906],[33.0867,-21.1432,223.3591],[33.077,-21.1432,211.3262],[33.0674,-21.1523,216.0953],[33.0578,-21.1432,216.5542],[33.0385,-21.1523,239.6649],[33.0385,-21.1613,265.747],[33.0193,-21.1794,282.2538],[33.0096,-21.1794,306.0644],[33.0004,-21.1877,338.0747],[32.9665,-21.2044,337.6116],[32.9623,-21.212,324.0553],[32.9528,-21.2208,272.4106],[32.9434,-21.2223,265.1186],[32.9235,-21.2225,261.6017],[32.9216,-21.2129,271.5615],[32.9173,-21.2053,276.5593],[32.8985,-21.1895,255.2398],[32.787,-21.1706,200.8835],[32.7832,-21.173,207.1431],[32.7683,-21.1767,195.3256],[32.7522,-21.1744,206.3816],[32.7404,-21.1714,218.1005],[32.7137,-21.1571,258.9133],[32.6878,-21.1599,212.8678],[32.6739,-21.1423,227.9798],[32.6471,-21.1477,257.976],[32.6355,-21.1486,265.5236],[32.5796,-21.1805,214.4614],[32.5726,-21.1828,206.7976],[32.5675,-21.1811,199.8317],[32.563,-21.1874,201.0671],[32.5517,-21.188,209.4384],[32.5193,-21.1305,223.8441],[32.5152,-21.1285,222.8554],[32.511,-21.123,226.2169],[32.5028,-21.1207,230.0487],[32.498,-21.1156,233.5722],[32.4863,-21.113,246.144],[32.4823,-21.1048,252.358],[32.4721,-21.0994,260.5745],[32.4679,-21.0939,267.1528],[32.4696,-21.0824,261.8405],[32.4638,-21.0823,267.0097],[32.4621,-21.0792,266.7916],[32.4624,-21.0753,267.7085],[32.455,-21.0755,288.9778],[32.449,-21.0709,285.298],[32.4231,-21.0637,343.5121],[32.402,-21.0872,324.6978],[32.3879,-21.0985,315.1089],[32.3807,-21.1086,293.0871],[32.3762,-21.1218,284.8862],[32.3667,-21.1367,271.6255],[32.3701,-21.1422,286.555],[32.3854,-21.1545,247.1935],[32.4,-21.1632,241.905],[32.4058,-21.1699,216.0964],[32.4063,-21.1759,220.9543],[32.3958,-21.1889,221.4425],[32.3951,-21.1928,202.7282],[32.3993,-21.2066,191.1127],[32.4222,-21.227,176.5086],[32.4267,-21.2355,174.7262],[32.4312,-21.2507,169.8434],[32.4577,-21.2824,157.3067],[32.476,-21.3113,156.5803],[32.4799,-21.321,153.6986],[32.48,-21.326,155.2502],[32.5019,-21.3484,150.4512],[32.5138,-21.3648,149.7927],[32.5232,-21.3738,152.3069],[32.5442,-21.3826,146.8167],[32.62,-21.3904,143.1853],[32.6609,-21.398,134.5],[32.6914,-21.4124,132.7702],[32.7307,-21.4372,132.5923],[32.7552,-21.4477,129.8903],[32.769,-21.4603,126.4669],[32.7805,-21.4753,125.3458],[32.8498,-21.5066,121.0948],[32.8722,-21.5004,115.75],[32.8904,-21.4869,118.6157],[32.9116,-21.484,112.5],[32.932,-21.4902,116.0686],[32.9507,-21.5051,115.4941],[32.9605,-21.5197,113.4367],[32.9625,-21.5274,112.9155],[32.9571,-21.5555,107.0622],[32.9616,-21.5627,109.6974],[32.97,-21.5678,110.3104],[32.9843,-21.5705,104.0],[33.0,-21.5679,108.4309],[33.0193,-21.5679,108.7176],[33.029,-21.5769,105.5291],[33.0483,-21.586,104.212],[33.0676,-21.586,103.3226],[33.0676,-21.5679,110.7991],[33.1062,-21.5317,101.4008],[33.1641,-21.5046,94.9094],[33.1931,-21.4865,93.8828],[33.2317,-21.4774,91.6424],[33.2703,-21.4954,88.665],[33.28,-21.4954,93.7831],[33.3089,-21.4863,89.636]]]]}}