{"type":"Feature","properties":{"GID_3":"MOZ.11.12.2_1","GID_0":"MOZ","country":"Mozambique","GID_1":"MOZ.11_1","province":"Zambezia","NL_NAME_1":"NA","GID_2":"MOZ.11.12_1","county":"Morrumbala","NL_NAME_2":"NA","city":"Derre","VARNAME_3":"NA","NL_NAME_3":"NA","TYPE_3":"Localidad","ENGTYPE_3":"Locality","CC_3":"NA","HASC_3":"NA","name":"Derre.city"},
"geometry":{"type": "MultiPolygon","coordinates": [[[[35.9645,-16.6439,331.3868],[35.9645,-16.659,341.5418],[35.9864,-16.6799,347.4018],[35.9676,-16.6889,348.886],[35.9583,-16.715699999999998,348.7693],[35.9552,-16.7306,392.9627],[35.958,-16.7678,329.1929],[35.9627,-16.7786,305.7534],[35.9711,-16.784,313.5758],[35.9702,-16.7938,306.1542],[35.9527,-16.8151,340.844],[35.9421,-16.8314,367.3813],[35.9342,-16.8221,380.6426],[35.9169,-16.8153,378.7155],[35.8678,-16.8171,376.262],[35.8531,-16.8199,378.3636],[35.8399,-16.8314,382.2781],[35.8148,-16.8439,364.9906],[35.8023,-16.838,363.0971],[35.7942,-16.8449,345.3995],[35.7765,-16.844,327.5591],[35.7398,-16.8678,281.1366],[35.7276,-16.8795,304.7272],[35.798,-16.912,376.5695],[35.8116,-16.9244,360.4554],[35.8148,-16.9394,354.571],[35.8085,-16.9573,335.3598],[35.8058,-16.9776,331.1865],[35.8522,-17.0229,338.3383],[35.8717,-17.035,332.2168],[35.8772,-17.0557,314.4566],[35.8865,-17.0795,309.07],[35.8896,-17.1183,271.4074],[35.8896,-17.166,262.6344],[35.9021,-17.178,274.1412],[35.9115,-17.1899,236.1496],[35.924,-17.2137,239.8841],[35.924,-17.2257,248.8665],[35.899,-17.2406,258.8391],[35.9028,-17.3171,222.4688],[35.9127,-17.3309,231.6889],[35.9208,-17.336,221.8827],[35.9208,-17.3539,240.4225],[35.9146,-17.3718,230.7197],[35.9146,-17.4225,204.9773],[35.9333,-17.4404,188.1106],[35.952,-17.4553,161.0133],[35.9708,-17.4643,133.4837],[35.9801,-17.4911,143.1823],[35.9898,-17.4989,134.2757],[36.0114,-17.498,109.0257],[36.1051,-17.5021,120.1836],[36.3751,-17.509,75.7577],[36.3906,-17.5166,63.457],[36.4055,-17.5374,64.7597],[36.4044,-17.5348,58.8413],[36.4607,-17.4567,85.7276],[36.4605,-17.454,92.2755],[36.4418,-17.4248,116.4703],[36.4391,-17.4147,117.8098],[36.4041,-17.3649,98.8835],[36.362,-17.3381,143.0353],[36.4042,-17.291,120.0069],[36.4316,-17.2729,92.8784],[36.4435,-17.2148,98.1953],[36.4507,-17.2028,105.5043],[36.4337,-17.1944,118.0823],[36.4341,-17.1721,108.6299],[36.4095,-17.1229,139.8801],[36.4127,-17.1122,139.9846],[36.3935,-17.0839,158.5099],[36.3876,-17.0586,172.2419],[36.3618,-17.0327,190.7126],[36.3588,-17.0108,193.959],[36.3457,-17.0044,203.0065],[36.3409,-17.0055,198.1245],[36.335,-16.9988,205.5558],[36.3289,-16.967,234.2125],[36.3168,-16.9481,228.5331],[36.3146,-16.9314,241.9952],[36.306,-16.9233,241.5941],[36.3005,-16.9247,230.584],[36.2936,-16.914,244.9148],[36.2833,-16.9087,238.4632],[36.2865,-16.8881,261.1219],[36.2843,-16.8728,263.6055],[36.2859,-16.8636,272.0793],[36.2661,-16.8311,279.8018],[36.2663,-16.827,298.4822],[36.2793,-16.8176,299.7166],[36.2742,-16.7949,313.9763],[36.2695,-16.7904,305.0961],[36.2654,-16.778,316.7885],[36.2462,-16.7701,324.1575],[36.2444,-16.7655,353.5964],[36.2481,-16.755,343.0127],[36.2529,-16.7493,335.1299],[36.2505,-16.7464,341.9173],[36.2565,-16.7461,339.5457],[36.255,-16.7446,335.2821],[36.2553,-16.7362,350.0056],[36.2582,-16.7302,337.1715],[36.2553,-16.7261,342.2668],[36.2596,-16.7062,357.1529],[36.2579,-16.7017,359.5656],[36.2602,-16.6798,365.3156],[36.2662,-16.6759,369.7004],[36.2822,-16.6563,378.0821],[36.283,-16.6518,376.1478],[36.2788,-16.6411,391.5776],[36.2714,-16.6268,397.7104],[36.2498,-16.6072,406.1392],[36.2334,-16.5888,422.5584],[36.2275,-16.5858,418.3976],[36.1971,-16.5712,462.7806],[36.1854,-16.5724,486.2579],[36.1669,-16.5709,476.4182],[36.1388,-16.5732,493.6749],[36.1275,-16.5677,523.8228],[36.0741,-16.5913,386.0652],[36.0612,-16.5936,378.9773],[36.022,-16.6159,346.6959],[35.9994,-16.6257,337.0768],[35.9912,-16.6328,334.5317],[35.9818,-16.6469,332.5343],[35.9749,-16.6514,326.1624],[35.9645,-16.6439,331.3868]]]]}}