{"type":"Feature","properties":{"GID_2":"MOZ.8.11_1","GID_0":"MOZ","country":"Mozambique","GID_1":"MOZ.8_1","province":"Nassa","NL_NAME_1":"NA","county":"Metarica","VARNAME_2":"NA","NL_NAME_2":"NA","TYPE_2":"Distrito","ENGTYPE_2":"District","CC_2":"NA","HASC_2":"MZ.NS.MT","name":"Metarica.county"},
"geometry":{"type": "MultiPolygon","coordinates": [[[[37.5877,-14.3693,436.5465],[37.5956,-14.3635,438.3558],[37.5901,-14.3582,450.421],[37.5809,-14.3582,437.3213],[37.5686,-14.3553,445.2241],[37.553,-14.3382,449.4786],[37.5315,-14.3352,444.64],[37.473,-14.2994,466.1931],[37.4269,-14.2874,461.8207],[37.4194,-14.2897,464.0609],[37.3936,-14.2897,468.6027],[37.3874,-14.2926,465.6657],[37.3777,-14.2904,473.2512],[37.35,-14.3024,479.7087],[37.3439,-14.2904,476.8381],[37.3347,-14.2904,480.3149],[37.326,-14.2807,483.8882],[37.3168,-14.2807,481.0113],[37.3045,-14.2777,484.642],[37.2984,-14.2837,485.8415],[37.2892,-14.2777,485.2855],[37.283,-14.2777,485.1528],[37.2738,-14.2837,487.9704],[37.2716,-14.283,493.5689],[37.2701,-14.2785,496.5839],[37.2517,-14.2696,493.9613],[37.2148,-14.2636,499.6988],[37.184,-14.2487,507.4241],[37.1717,-14.2517,503.9638],[37.1563,-14.2368,521.2939],[37.1348,-14.2427,519.0473],[37.1055,-14.2429,529.5942],[37.0899,-14.2388,520.5797],[37.0798,-14.2253,523.3146],[37.068,-14.224,527.5858],[37.0619,-14.2151,521.828],[37.0527,-14.2181,531.0309],[37.0426,-14.2099,536.3013],[37.0331,-14.2091,534.2726],[37.0303,-14.198,541.8524],[37.018,-14.198,542.6783],[37.0026,-14.1861,537.3398],[36.9637,-14.1699,549.4076],[36.965,-14.1666,544.1437],[36.9597,-14.1629,545.5683],[36.9488,-14.1631,544.8427],[36.9397,-14.1693,545.2231],[36.9281,-14.1743,556.4948],[36.9198,-14.17,553.7883],[36.9135,-14.1735,551.9244],[36.9013,-14.1759,560.8584],[36.8932,-14.1729,553.862],[36.8852,-14.1647,566.517],[36.8767,-14.1594,565.3511],[36.8692,-14.1502,568.7753],[36.8561,-14.1512,575.3392],[36.8527,-14.148,572.6817],[36.8409,-14.1477,573.5908],[36.8358,-14.1428,577.3419],[36.8326,-14.1363,575.7275],[36.828,-14.1334,576.0355],[36.8262,-14.1222,580.5659],[36.8166,-14.1156,585.0933],[36.8013,-14.1136,585.2217],[36.7911,-14.0995,589.3814],[36.785,-14.0842,592.0405],[36.7804,-14.0826,590.9631],[36.7648,-14.0849,603.2994],[36.7532,-14.0844,603.9443],[36.743899999999996,-14.0788,605.1596],[36.722,-14.0799,609.053],[36.7031,-14.0757,615.7101],[36.697,-14.0709,617.726],[36.6807,-14.0738,625.4041],[36.674,-14.0782,622.7706],[36.6655,-14.079,624.3135],[36.6522,-14.0742,627.707],[36.626,-14.0713,638.8544],[36.6126,-14.0755,651.0952],[36.5947,-14.0762,646.9269],[36.5731,-14.0842,655.489],[36.5584,-14.0835,665.0349],[36.5382,-14.0731,677.1393],[36.5332,-14.0593,686.069],[36.5313,-14.0469,697.1544],[36.5281,-14.0442,700.6205],[36.5219,-14.043,706.6543],[36.5042,-14.0292,752.9216],[36.4048,-14.0167,663.4377],[36.3828,-14.0535,686.0563],[36.38,-14.0625,690.2619],[36.3797,-14.0759,708.1646],[36.3731,-14.0847,710.3374],[36.3686,-14.1002,722.8483],[36.353,-14.1158,743.8606],[36.3432,-14.1173,756.5167],[36.3157,-14.1119,743.0874],[36.3042,-14.1079,718.7203],[36.2972,-14.1023,706.1843],[36.2745,-14.0908,676.2465],[36.2645,-14.0879,674.1652],[36.2553,-14.0918,666.87],[36.2418,-14.0939,662.0034],[36.2345,-14.0909,665.8159],[36.2187,-14.0921,652.4263],[36.2077,-14.0873,648.3552],[36.2001,-14.0888,644.5582],[36.1892,-14.0959,646.316],[36.181,-14.0954,635.7424],[36.1849,-14.1027,641.3861],[36.1973,-14.1181,640.4002],[36.1956,-14.1512,646.8275],[36.2077,-14.1703,650.8577],[36.211,-14.1792,650.9673],[36.2114,-14.1855,648.0693],[36.2218,-14.2048,655.8701],[36.224,-14.208,658.0009],[36.24,-14.2099,669.9894],[36.2453,-14.2151,667.5528],[36.2501,-14.232,685.1409],[36.2506,-14.2398,681.7294],[36.2542,-14.2435,680.8621],[36.2666,-14.2492,690.155],[36.2693,-14.2523,693.929],[36.27,-14.2591,700.4927],[36.268,-14.2667,706.4783],[36.2693,-14.2833,722.4973],[36.2723,-14.2844,720.3726],[36.3293,-14.224,721.9551],[36.3336,-14.2315,709.552],[36.3476,-14.2428,689.4774],[36.3532,-14.2681,674.7354],[36.3597,-14.2749,667.6912],[36.3645,-14.2845,663.0681],[36.381,-14.2987,659.459],[36.4032,-14.3124,646.5011],[36.4122,-14.3211,643.0445],[36.4207,-14.3334,643.0647],[36.4248,-14.3425,636.4113],[36.4332,-14.3479,633.499],[36.4337,-14.3542,635.3833],[36.4373,-14.3643,629.1824],[36.4454,-14.3769,626.6326],[36.4403,-14.3937,625.3141],[36.4461,-14.3965,614.0018],[36.4562,-14.3963,611.4677],[36.4687,-14.4042,606.4453],[36.4793,-14.4047,601.618],[36.5061,-14.4176,594.2644],[36.515,-14.4258,596.9572],[36.522,-14.4262,588.1443],[36.5307,-14.4219,584.8464],[36.538,-14.4289,589.6943],[36.5491,-14.4245,580.0757],[36.5554,-14.4298,579.9458],[36.5561,-14.443,582.3292],[36.5693,-14.4519,582.5477],[36.5779,-14.4536,569.6224],[36.5921,-14.4638,569.2075],[36.5932,-14.467,570.9417],[36.606,-14.4704,565.8362],[36.6106,-14.4739,570.2733],[36.6235,-14.4705,569.8564],[36.6273,-14.4748,568.4072],[36.6411,-14.4743,569.3646],[36.6503,-14.4717,572.1708],[36.6572,-14.4675,560.1633],[36.6684,-14.4653,563.812],[36.698,-14.4677,554.1097],[36.7056,-14.4578,550.72],[36.7101,-14.4556,549.1556],[36.7118,-14.458,547.8857],[36.7109,-14.467,547.7419],[36.7525,-14.4713,547.8251],[36.7573,-14.4744,542.5126],[36.7877,-14.4799,545.1119],[36.7957,-14.4846,541.6979],[36.8093,-14.4802,541.3591],[36.8124,-14.4885,539.8306],[36.824,-14.4926,547.5403],[36.8526,-14.5155,537.8932],[36.8582,-14.5178,537.593],[36.871,-14.52,533.0396],[36.8874,-14.5182,533.2012],[36.9022,-14.5016,530.5485],[36.9053,-14.5133,548.4846],[36.9301,-14.5133,524.719],[36.9462,-14.5224,527.1162],[36.9542,-14.5333,525.9977],[36.9751,-14.5505,530.8469],[36.9747,-14.5563,525.9379],[36.979,-14.564,522.0856],[37.0248,-14.6155,511.8059],[37.0648,-14.6356,515.0883],[37.0752,-14.6381,508.6547],[37.0789,-14.642,499.6337],[37.0826,-14.6423,505.8239],[37.0957,-14.6386,501.6541],[37.1202,-14.6147,495.1473],[37.1648,-14.5938,497.9412],[37.1817,-14.5909,496.2352],[37.2001,-14.6088,491.149],[37.2339,-14.6088,494.6657],[37.2401,-14.5996,493.4835],[37.2549,-14.5909,482.079],[37.2584,-14.5909,490.1149],[37.283,-14.5759,487.8954],[37.2962,-14.5713,481.8474],[37.3014,-14.5721,488.203],[37.3321,-14.5542,481.3136],[37.3383,-14.5423,485.6106],[37.3475,-14.5304,481.5115],[37.3599,-14.5184,490.6695],[37.3968,-14.4946,483.8804],[37.4153,-14.4767,461.9778],[37.4245,-14.4648,468.7553],[37.4271,-14.45,466.6037],[37.4304,-14.4417,461.7785],[37.4703,-14.4149,453.1853],[37.4857,-14.394,460.8638],[37.5044,-14.3872,444.5023],[37.5155,-14.3872,458.5167],[37.5471,-14.4,452.9306],[37.5686,-14.391,450.4707],[37.5877,-14.3693,436.5465]]]]}}