{"type":"Feature","properties":{"GID_3":"MOZ.10.9.1_1","GID_0":"MOZ","country":"Mozambique","GID_1":"MOZ.10_1","province":"Tete","NL_NAME_1":"NA","GID_2":"MOZ.10.9_1","county":"Moatize","NL_NAME_2":"NA","city":"Kambulatsitsi","VARNAME_3":"NA","NL_NAME_3":"NA","TYPE_3":"Localidad","ENGTYPE_3":"Locality","CC_3":"NA","HASC_3":"NA","name":"Kambulatsitsi.city"},
"geometry":{"type": "MultiPolygon","coordinates": [[[[34.3678,-15.9844,343.2203],[34.3627,-15.9672,339.5635],[34.3551,-15.9612,351.9999],[34.3274,-15.9566,349.1955],[34.3297,-15.955,347.5498],[34.3224,-15.9382,350.7309],[34.3045,-15.926,426.8049],[34.2992,-15.925,394.1481],[34.289,-15.9287,436.6541],[34.2819,-15.9277,597.634],[34.2773,-15.9234,745.2143],[34.2747,-15.9249,756.4775],[34.274,-15.9216,812.8596],[34.2705,-15.9173,800.5806],[34.2575,-15.9158,908.2316],[34.2572,-15.9109,913.7824],[34.2542,-15.9077,753.6129],[34.2523,-15.893,651.7242],[34.2549,-15.8895,480.5551],[34.2625,-15.8859,634.2462],[34.2504,-15.8755,429.6128],[34.2555,-15.8679,412.564],[34.2594,-15.8673,422.5679],[34.261,-15.8644,405.3283],[34.2515,-15.8485,393.7915],[34.2522,-15.8462,391.3977],[34.2506,-15.8438,393.1538],[34.2067,-15.844,386.8475],[34.1813,-15.8494,369.3644],[34.1628,-15.856,359.8121],[34.1146,-15.8493,338.8862],[34.1039,-15.8498,332.2665],[34.0983,-15.8478,345.9266],[34.0921,-15.8496,326.0583],[34.0723,-15.8405,315.9877],[34.0673,-15.841,318.9517],[34.0524,-15.8495,307.4829],[34.0413,-15.8487,305.2219],[34.0258,-15.8471,303.3191],[34.0245,-15.8453,308.5683],[34.0208,-15.8461,298.6523],[34.0082,-15.8394,300.9358],[33.9943,-15.8357,286.962],[33.9896,-15.8275,285.6988],[33.985,-15.8253,287.9934],[33.9752,-15.8249,288.1427],[33.9617,-15.8212,291.1212],[33.9582,-15.8216,293.5919],[33.9456,-15.8375,304.9104],[33.9396,-15.8389,278.2623],[33.9298,-15.8367,268.2727],[33.9292,-15.8394,263.3809],[33.932,-15.8452,264.5013],[33.9298,-15.8491,283.7652],[33.9378,-15.8553,271.2622],[33.9411,-15.8561,272.2393],[33.9393,-15.8586,272.0327],[33.9468,-15.8692,279.7383],[33.9502,-15.8784,289.9817],[33.9486,-15.8847,296.672],[33.9494,-15.9194,362.9675],[33.9561,-15.9307,384.3535],[33.9832,-15.955,429.386],[34.0,-15.9633,423.9547],[34.0045,-15.9585,423.8409],[34.0092,-15.9593,423.7784],[34.0236,-15.9676,429.1839],[34.0208,-15.993,400.3481],[34.0215,-16.0235,407.9174],[34.0199,-16.0394,393.6056],[34.0187,-16.0442,383.9716],[34.0116,-16.0518,394.2532],[34.0171,-16.0558,383.1629],[34.0202,-16.0624,379.5591],[34.0268,-16.079,363.0072],[34.0267,-16.0847,359.6263],[34.0209,-16.1073,337.194],[34.017,-16.1115,330.8311],[34.1011,-16.1952,540.9026],[34.1122,-16.2033,346.589],[34.1242,-16.2471,307.6125],[34.1341,-16.2494,302.8959],[34.1489,-16.2586,285.4088],[34.1597,-16.2684,279.0914],[34.1683,-16.2918,263.5646],[34.1707,-16.327,250.8318],[34.1781,-16.3386,243.3875],[34.1829,-16.3418,244.4927],[34.1882,-16.3487,237.9216],[34.19,-16.3607,231.7394],[34.1954,-16.3638,233.7829],[34.1985,-16.3707,232.2563],[34.2084,-16.368,236.4251],[34.2228,-16.3676,241.3533],[34.2276,-16.3637,241.3348],[34.2419,-16.3569,239.4019],[34.2558,-16.3531,238.9529],[34.2637,-16.356,244.0756],[34.2682,-16.3514,243.5033],[34.2722,-16.3502,250.2846],[34.2829,-16.3557,248.9655],[34.2881,-16.354,242.2304],[34.3204,-16.2904,257.3714],[34.3254,-16.2904,256.411],[34.3281,-16.2853,259.4576],[34.351,-16.275,265.397],[34.3676,-16.2562,267.5242],[34.4232,-16.2481,300.6039],[34.4225,-16.235,292.9741],[34.4203,-16.2306,292.6968],[34.4184,-16.2187,296.8161],[34.4108,-16.2178,293.8121],[34.4072,-16.2116,290.3004],[34.4046,-16.1917,288.6974],[34.3996,-16.1853,283.1731],[34.3995,-16.1717,287.9535],[34.404,-16.1662,290.045],[34.4042,-16.1621,292.9832],[34.3931,-16.1442,299.2819],[34.3925,-16.1277,303.2159],[34.3989,-16.1121,309.6775],[34.4072,-16.1045,316.369],[34.4207,-16.08,330.5048],[34.4375,-16.0616,341.9637],[34.4363,-16.0589,343.0941],[34.4273,-16.0545,335.8716],[34.4251,-16.0513,339.913],[34.4263,-16.0447,363.7736],[34.4251,-16.0399,368.5553],[34.4194,-16.0334,348.0612],[34.3842,-16.0159,349.0619],[34.3728,-16.0,349.5734],[34.3678,-15.9844,343.2203]]]]}}