{"type": "Feature","bbox": [37.2399,-15.1915,37.9465,-14.5721],"geometry": {"type": "MultiPolygon","coordinates": [[[[37.7286,-14.5847,495.1347],[37.7231,-14.59,503.0424],[37.7015,-14.6228,515.2277],[37.6923,-14.6258,519.1102],[37.68,-14.6407,517.7797],[37.6769,-14.6497,523.7173],[37.6708,-14.6527,533.8637],[37.603,-14.6705,775.8892],[37.5907,-14.6765,643.892],[37.6001,-14.6936,551.6075],[37.6061,-14.7183,585.7841],[37.6,-14.7242,577.9141],[37.6092,-14.7302,605.1445],[37.6092,-14.7362,612.9746],[37.5969,-14.7451,606.6795],[37.5877,-14.7481,583.3401],[37.5877,-14.763,587.21],[37.595,-14.7749,598.5452],[37.5723,-14.7749,627.5935],[37.5476,-14.766,614.657],[37.5322,-14.763,628.9199],[37.4824,-14.7576,589.3416],[37.4799,-14.76,599.5631],[37.4799,-14.769,598.1664],[37.4738,-14.769,585.4044],[37.4553,-14.7749,571.1218],[37.446,-14.7869,586.2153],[37.4522,-14.8018,571.6488],[37.4522,-14.8137,580.6272],[37.4419,-14.8256,584.149],[37.4307,-14.8256,590.8953],[37.3999,-14.8316,627.8676],[37.3876,-14.8525,628.8536],[37.3708,-14.8672,605.6226],[37.3284,-14.8884,629.9365],[37.3081,-14.896,642.4724],[37.2983,-14.9032,646.0023],[37.2829,-14.9091,663.9036],[37.2767,-14.936,658.3827],[37.2767,-14.9747,679.7064],[37.2442,-15.0148,677.9882],[37.2419,-15.0208,679.9869],[37.2423,-15.0351,698.6048],[37.2399,-15.0481,719.8971],[37.2444,-15.0687,852.946],[37.2469,-15.077,779.7471],[37.2579,-15.0874,799.6748],[37.2645,-15.0983,917.4797],[37.2828,-15.0948,800.0337],[37.2883,-15.1004,807.7141],[37.2922,-15.1105,803.6346],[37.2957,-15.1153,757.443],[37.309,-15.1239,728.0685],[37.3085,-15.1252,729.7333],[37.3139,-15.1321,748.7648],[37.3234,-15.1348,764.109],[37.3377,-15.133,786.4878],[37.3557,-15.111,1247.5927],[37.3624,-15.1055,1348.1821],[37.3805,-15.1183,1303.8149],[37.3999,-15.1395,1287.0228],[37.406,-15.1597,1090.1382],[37.4085,-15.1766,811.2647],[37.4153,-15.1845,798.605],[37.4205,-15.1858,766.9275],[37.4368,-15.1805,791.5266],[37.4491,-15.1746,795.2949],[37.4645,-15.1656,768.3739],[37.4768,-15.1537,755.1359],[37.5168,-15.1328,714.0221],[37.5322,-15.1477,699.4975],[37.5384,-15.1477,692.3416],[37.5455,-15.1511,688.3672],[37.5924,-15.1913,661.5156],[37.5948,-15.1915,659.0594],[37.6123,-15.1656,836.6016],[37.6215,-15.1627,748.514],[37.6369,-15.1656,686.3466],[37.6431,-15.1567,662.9973],[37.6706,-15.13,681.7958],[37.681399999999996,-15.124,630.9163],[37.6821,-15.1202,633.7421],[37.6805,-15.1138,640.0963],[37.6707,-15.1011,642.8754],[37.6669,-15.0873,648.2232],[37.6433,-15.0637,666.5347],[37.6469,-15.0538,679.5137],[37.6606,-15.0332,720.3947],[37.6595,-15.0221,743.7709],[37.6677,-15.0195,752.6003],[37.6954,-14.9837,714.9989],[37.7077,-14.9718,670.0102],[37.7305,-14.958,646.2626],[37.7313,-14.9549,646.908],[37.7392,-14.9498,641.2954],[37.7631,-14.9389,616.3187],[37.7761,-14.9301,617.696],[37.7959,-14.9271,598.6326],[37.8052,-14.9224,596.0789],[37.8096,-14.9163,589.6746],[37.8247,-14.9181,588.347],[37.8316,-14.9159,582.1763],[37.8382,-14.9218,573.3654],[37.8554,-14.9172,561.0271],[37.8635,-14.9092,568.6032],[37.8713,-14.9061,569.9195],[37.8829,-14.9113,547.811],[37.8901,-14.9065,544.7327],[37.9077,-14.8849,541.2776],[37.9111,-14.8478,526.4347],[37.9156,-14.8386,524.0267],[37.9465,-14.8077,512.371],[37.9197,-14.8136,529.7096],[37.9111,-14.8115,536.2279],[37.8821,-14.7928,559.6418],[37.8711,-14.7928,564.2654],[37.8577,-14.7778,599.5339],[37.8555,-14.769,616.0336],[37.8493,-14.76,723.3835],[37.8401,-14.763,642.9707],[37.8185,-14.763,708.0964],[37.8062,-14.757,634.3304],[37.799,-14.757,606.0421],[37.7934,-14.7442,590.1874],[37.7847,-14.708,565.84],[37.7707,-14.6997,573.3804],[37.7662,-14.6914,552.031],[37.7662,-14.6735,527.1917],[37.7785,-14.6616,519.8234],[37.7813,-14.6509,515.1422],[37.7761,-14.617,511.522],[37.7724,-14.6109,501.6967],[37.7662,-14.587,495.2688],[37.7477,-14.5721,486.6177],[37.7286,-14.5847,495.1347]]]]}
,"properties": {"GID_3": "MOZ.7.4.2_1","GID_0": "MOZ","country": "Mozambique","GID_1": "MOZ.7_1","province": "Nampula","NL_NAME_1": "NA","GID_2": "MOZ.7.4_1","county": "Malema","NL_NAME_2": "NA","city": "Malema","VARNAME_3": "NA","NL_NAME_3": "NA","TYPE_3": "Localidad","ENGTYPE_3": "Locality","CC_3": "NA","HASC_3": "NA","name": "Malema.city","area_km2": 2401.229,"hist_schema_id": "Elevation0-9000","hist_area_km2": {"475": 0.185,"500": 15.368,"525": 43.173,"550": 92.624,"575": 174.076,"600": 281.207,"625": 356.47,"650": 269.356,"675": 213.725,"700": 208.515,"725": 165.798,"750": 115.526,"775": 72.017,"800": 43.515,"825": 30.062,"850": 22.138,"875": 19.824,"900": 17.797,"925": 16.118,"950": 16.16,"975": 14.277,"1000": 13.642,"1025": 11.511,"1050": 10.629,"1075": 10.567,"1100": 7.905,"1125": 7.433,"1150": 11.486,"1175": 12.447,"1200": 12.119,"1225": 12.569,"1250": 12.549,"1275": 13.736,"1300": 11.014,"1325": 9.99,"1350": 8.598,"1375": 6.919,"1400": 6.51,"1425": 5.015,"1450": 5.036,"1475": 4.606,"1500": 4.196,"1525": 3.5,"1550": 2.477,"1575": 2.129,"1600": 1.945,"1625": 1.72,"1650": 1.208,"1675": 0.88,"1700": 0.307,"1725": 0.307,"1750": 0.102,"1775": 0.164,"1800": 0.082}}}