{"type":"Feature","properties":{"GID_3":"MOZ.1.4.3_1","GID_0":"MOZ","country":"Mozambique","GID_1":"MOZ.1_1","province":"CaboDelgado","NL_NAME_1":"NA","GID_2":"MOZ.1.4_1","county":"Macomia","NL_NAME_2":"NA","city":"Mucojo","VARNAME_3":"NA","NL_NAME_3":"NA","TYPE_3":"Localidad","ENGTYPE_3":"Locality","CC_3":"NA","HASC_3":"NA","name":"Mucojo.city"},
"geometry":{"type": "MultiPolygon","coordinates": [[[[40.6226,-12.2315,1.2852],[40.6218,-12.231,0.0],[40.6146,-12.2362,0.0],[40.6224,-12.2365,0.0],[40.6226,-12.2315,1.2852]]],
[[[40.5826,-12.1815,0.5728],[40.576,-12.1826,0.0],[40.5726,-12.1871,0.0],[40.5676,-12.1879,0.0],[40.5665,-12.1921,4.1893],[40.5612,-12.194,0.0],[40.5593,-12.1965,1.1645],[40.5696,-12.2029,3.2828],[40.571,-12.2082,0.0],[40.5762,-12.2132,0.0],[40.5782,-12.2201,0.0],[40.5815,-12.2226,0.0],[40.5854,-12.2326,2.4411],[40.5857,-12.2421,1.6333],[40.5821,-12.2471,1.5484],[40.5876,-12.2532,0.0],[40.5915,-12.2537,0.0],[40.6026,-12.2476,0.0],[40.6076,-12.2429,5.1857],[40.6104,-12.2376,8.4717],[40.6168,-12.2326,0.0],[40.6168,-12.2307,0.0],[40.6132,-12.2262,0.0],[40.6129,-12.2085,0.0],[40.6093,-12.201,0.0],[40.5965,-12.1854,0.0],[40.5826,-12.1815,0.5728]]],
[[[40.5638,-12.1449,2.0598],[40.5604,-12.1451,2.7721],[40.5568,-12.1507,0.0],[40.5624,-12.1476,2.802],[40.5638,-12.1449,2.0598]]],
[[[40.5532,-12.0435,0.0],[40.5496,-12.044,0.0],[40.551,-12.0457,0.2832],[40.5496,-12.0482,0.0],[40.5529,-12.0457,0.2832],[40.5532,-12.0435,0.0]]],
[[[40.4946,-12.3779,1.7468],[40.4954,-12.3754,0.0],[40.4929,-12.3754,1.3201],[40.4901,-12.3785,3.0111],[40.4904,-12.3843,0.9386],[40.4935,-12.3824,1.5667],[40.4946,-12.3779,1.7468]]],
[[[40.5018,-12.3746,0.9177],[40.5004,-12.374,0.0],[40.4987,-12.3768,4.9481],[40.496,-12.3776,2.6337],[40.4951,-12.3815,1.5667],[40.5007,-12.3785,1.3851],[40.5018,-12.3746,0.9177]]],
[[[40.4626,-12.2546,0.5],[40.4607,-12.254,0.5],[40.4615,-12.261,2.4487],[40.4668,-12.2626,1.3202],[40.4674,-12.2615,1.3202],[40.4626,-12.2546,0.5]]],
[[[40.3129,-12.057,183.5408],[40.3126,-12.0652,139.1612],[40.3014,-12.1281,61.598],[40.3002,-12.128,61.598],[40.2807,-12.2334,93.2961],[40.2857,-12.3058,113.3755],[40.3,-12.305,95.3888],[40.3051,-12.3071,93.3308],[40.3222,-12.3213,78.0667],[40.3394,-12.3246,73.0208],[40.3479,-12.3294,72.313],[40.3621,-12.3308,62.9762],[40.3863,-12.3243,39.5043],[40.4049,-12.3245,45.2554],[40.426,-12.3363,22.5795],[40.4474,-12.3542,16.7431],[40.4526,-12.3627,15.8854],[40.4584,-12.3667,11.4745],[40.4727,-12.3857,16.5879],[40.4777,-12.3897,34.7189],[40.4882,-12.3847,0.5],[40.4888,-12.3776,1.864],[40.4954,-12.3735,0.0],[40.4976,-12.3699,0.0],[40.4979,-12.3654,0.0],[40.4943,-12.3643,0.8896],[40.4924,-12.3665,0.5774],[40.4907,-12.3743,0.9731],[40.4888,-12.376,1.9028],[40.491,-12.3665,3.1427],[40.494,-12.3629,3.996],[40.5024,-12.3596,0.3141],[40.5057,-12.3474,0.0],[40.5035,-12.3418,3.3625],[40.4985,-12.3418,2.3912],[40.4946,-12.3449,3.1796],[40.4899,-12.3457,1.7628],[40.4874,-12.3457,1.8556],[40.4849,-12.3429,3.3828],[40.4899,-12.3449,1.7628],[40.5013,-12.3399,1.2872],[40.5088,-12.3407,0.8951],[40.5076,-12.3321,4.1735],[40.511,-12.3279,5.8535],[40.514,-12.3276,0.0],[40.5146,-12.3251,0.0],[40.5051,-12.3137,1.3839],[40.5051,-12.304,0.4868],[40.5001,-12.2954,1.0354],[40.5001,-12.2846,1.1145],[40.496,-12.2779,0.0],[40.4837,-12.274,0.5981],[40.4776,-12.2751,4.1357],[40.4771,-12.2732,1.9204],[40.4718,-12.271,0.0],[40.4707,-12.2679,0.0],[40.4657,-12.2687,2.5844],[40.4626,-12.2674,0.5],[40.4643,-12.266,0.5],[40.459,-12.2607,2.4398],[40.4576,-12.2415,1.4464],[40.4624,-12.2318,1.5],[40.4646,-12.2312,2.7488],[40.466,-12.2329,1.9736],[40.4685,-12.2307,4.2802],[40.4671,-12.229,0.5],[40.4632,-12.2304,1.1391],[40.4624,-12.2276,7.2788],[40.4637,-12.2296,1.1391],[40.4685,-12.2279,5.9399],[40.469,-12.2318,2.5443],[40.4654,-12.2354,2.2989],[40.4635,-12.2343,0.5],[40.4621,-12.236,0.5],[40.4635,-12.2401,2.1378],[40.4626,-12.2476,6.2541],[40.4682,-12.2526,1.4128],[40.4718,-12.2599,0.8676],[40.4763,-12.2629,1.5132],[40.4804,-12.2704,0.4532],[40.4857,-12.2721,0.0],[40.4912,-12.2712,3.6397],[40.4932,-12.2687,4.6886],[40.4935,-12.2629,1.099],[40.4965,-12.2554,0.0],[40.5049,-12.244,0.0],[40.5096,-12.2265,1.5504],[40.5079,-12.2193,0.0],[40.499,-12.2207,0.7437],[40.5013,-12.2182,1.2164],[40.4987,-12.2182,1.4375],[40.4987,-12.2146,0.973],[40.4949,-12.2118,3.5152],[40.4899,-12.2115,3.1173],[40.4943,-12.2107,2.546],[40.4949,-12.209,3.7577],[40.4976,-12.2132,0.875],[40.4987,-12.2118,2.1114],[40.5001,-12.2143,2.5126],[40.5029,-12.214,3.2497],[40.5065,-12.2104,1.8821],[40.5143,-12.2074,0.0],[40.5157,-12.2046,1.9873],[40.5124,-12.199,3.1418],[40.5124,-12.1957,1.0947],[40.4951,-12.169,5.4612],[40.4888,-12.1537,2.9776],[40.4876,-12.1474,0.0],[40.489,-12.1362,6.0763],[40.5118,-12.0901,5.3889],[40.5115,-12.0804,3.3494],[40.5043,-12.0746,2.7345],[40.5013,-12.0621,0.0],[40.4993,-12.0607,2.2335],[40.4996,-12.0457,0.0],[40.5018,-12.0385,1.6738],[40.506,-12.0318,0.0],[40.5101,-12.0287,0.0],[40.5096,-12.026,5.3397],[40.5174,-12.0157,6.1121],[40.5404,-12.0001,3.173],[40.5488,-12.0015,0.0],[40.5535,-11.9982,0.0],[40.5418,-11.9987,4.5895],[40.5251,-11.9912,0.5065],[40.5249,-11.9876,0.0],[40.5088,-11.9768,2.8084],[40.5001,-11.9682,3.119],[40.5015,-11.9662,0.0],[40.4951,-11.9574,4.6121],[40.4907,-11.9465,2.3985],[40.4879,-11.9301,0.0],[40.4854,-11.9324,1.1915],[40.4843,-11.9263,2.5307],[40.4824,-11.9243,4.2005],[40.4843,-11.9157,1.2509],[40.4821,-11.8996,1.585],[40.4854,-11.8845,2.0492],[40.478,-11.8829,6.7472],[40.4627,-11.8859,14.0467],[40.4291,-11.8889,27.1906],[40.396,-11.9212,58.067],[40.2822,-11.9694,284.6074],[40.3136,-12.0359,151.4608],[40.3129,-12.057,183.5408]]],
[[[40.5462,-12.044,3.5975],[40.5412,-12.0443,0.9611],[40.5415,-12.0479,6.985],[40.5451,-12.0479,1.4943],[40.5474,-12.0451,0.0],[40.5462,-12.044,3.5975]]],
[[[40.536,-12.0174,2.5285],[40.5343,-12.0168,0.0],[40.5337,-12.0185,0.0],[40.5371,-12.0204,0.8564],[40.5399,-12.019,0.0],[40.5396,-12.0179,0.0],[40.536,-12.0174,2.5285]]],
[[[40.5943,-12.0065,0.0],[40.5929,-12.0063,0.0],[40.5915,-12.0096,0.0],[40.5929,-12.0088,0.0],[40.5943,-12.0065,0.0]]],
[[[40.5726,-11.974,0.9866],[40.5674,-11.9735,1.888],[40.5676,-11.9818,0.8263],[40.5771,-11.9857,4.2374],[40.5796,-11.9926,0.0],[40.579,-12.0024,1.2135],[40.5865,-11.9954,0.0],[40.5865,-11.9935,0.0],[40.5887,-11.9937,0.0],[40.5913,-11.9871,0.0],[40.5938,-11.9857,0.0],[40.5938,-11.9796,0.0],[40.5926,-11.9768,0.0],[40.5876,-11.9743,0.0],[40.5807,-11.9757,2.6677],[40.5726,-11.974,0.9866]]]]}}