{"type": "Feature","bbox": [33.8935,-24.5359,35.0004,-23.5738],"geometry": {"type": "MultiPolygon","coordinates": [[[[34.9374,-24.2076,53.5191],[35.0004,-23.9997,68.8573],[34.9994,-23.9404,99.5301],[34.9058,-23.9058,118.7844],[34.8174,-23.8558,112.5647],[34.7991,-23.7022,105.5355],[34.0853,-23.6991,83.5162],[34.0299,-23.6496,66.4694],[34.0168,-23.6593,62.5015],[34.0009,-23.6115,64.0424],[33.9908,-23.5889,59.931399999999996],[33.9882,-23.5788,54.7469],[33.9837,-23.5752,55.331],[33.9724,-23.5738,50.4927],[33.94,-23.5837,34.5901],[33.9449,-23.5863,37.2111],[33.9282,-23.6091,34.4668],[33.9257,-23.6227,38.9691],[33.9164,-23.6299,33.2997],[33.9116,-23.6397,35.2457],[33.9101,-23.6472,32.6397],[33.9005,-23.6531,32.1513],[33.8935,-23.6626,29.7635],[33.8963,-23.6666,29.2713],[33.9044,-23.669,31.2994],[33.9225,-23.6603,31.165],[33.9294,-23.6551,30.7874],[33.9376,-23.6633,35.6774],[33.9419,-23.6768,34.6329],[33.9418,-23.6847,34.5659],[33.9477,-23.6859,33.3791],[33.9582,-23.7086,36.2479],[33.9338,-23.7187,33.9811],[33.9361,-23.727,34.2346],[33.9286,-23.7506,28.7852],[33.9282,-23.7627,28.4441],[33.9239,-23.7699,30.128],[33.9182,-23.774,29.0325],[33.9287,-23.7922,27.1246],[33.9308,-23.8036,26.3747],[33.9281,-23.8134,26.1836],[33.9289,-23.8227,25.7734],[33.9153,-23.8372,24.9447],[33.9263,-23.8443,27.1078],[33.9265,-23.8516,27.6434],[33.9356,-23.8574,25.733],[33.9397,-23.8623,26.6098],[33.9382,-23.8708,27.3145],[33.9196,-23.8807,26.3428],[33.9156,-23.8803,24.3242],[33.9174,-23.8921,27.0997],[33.9201,-23.8979,23.6125],[33.9198,-23.907,23.3312],[33.9266,-23.9373,26.4914],[33.9333,-23.9526,30.4575],[33.9317,-23.9628,21.583],[33.9255,-23.9793,24.8357],[33.9258,-23.985,20.5166],[33.9349,-23.9859,21.0589],[33.9377,-23.9912,29.9961],[33.9337,-23.9976,24.8353],[33.9278,-24.0032,27.038],[33.9276,-24.0068,25.6385],[33.9339,-24.0135,21.5615],[33.9319,-24.0208,24.6946],[33.9275,-24.0236,29.0593],[33.9312,-24.042,25.1539],[33.9416,-24.072,38.0719],[33.9456,-24.0776,20.8069],[33.9613,-24.072,29.7705],[33.9728,-24.0734,25.3215],[33.985,-24.0787,29.9944],[33.9918,-24.0888,28.5055],[34.0005,-24.0861,28.522],[34.0012,-24.3515,72.1993],[34.1411,-24.5359,20.0992],[34.1808,-24.5171,9.4522],[34.1833,-24.5106,15.7098],[34.1831,-24.5059,11.5851],[34.1791,-24.5043,6.904],[34.1779,-24.4988,9.1474],[34.1809,-24.4906,7.1584],[34.1721,-24.4795,10.6068],[34.1524,-24.4688,8.083],[34.1585,-24.4583,8.5688],[34.155,-24.4445,8.8411],[34.1493,-24.4335,11.1509],[34.1516,-24.414,14.8786],[34.1434,-24.3872,22.8853],[34.1342,-24.3768,28.5673],[34.1306,-24.3639,35.2925],[34.1665,-24.3733,29.8089],[34.2008,-24.3685,27.5119],[34.291,-24.339,23.3925],[34.308,-24.3379,22.9405],[34.314,-24.3354,22.8186],[34.358,-24.2981,45.6413],[34.4235,-24.2617,49.4802],[34.4901,-24.3388,37.0121],[34.4997,-24.3382,38.7006],[34.5131,-24.3315,41.2479],[34.5298,-24.3273,35.2179],[34.5381,-24.3308,33.5219],[34.5522,-24.3287,35.956],[34.5688,-24.3301,35.2762],[34.5966,-24.3225,42.0344],[34.6514,-24.3,38.6095],[34.6648,-24.297,39.7042],[34.6704,-24.289,43.3357],[34.6832,-24.2793,43.3078],[34.7125,-24.2624,44.0385],[34.724,-24.2383,44.2148],[34.7405,-24.2359,44.5022],[34.7434,-24.2405,46.5656],[34.7535,-24.2467,45.2398],[34.7756,-24.2474,43.7366],[34.7971,-24.2461,48.0032],[34.8065,-24.2411,43.9261],[34.8272,-24.2344,47.7125],[34.8398,-24.2366,48.9425],[34.8523,-24.2417,50.7711],[34.8626,-24.2371,49.2087],[34.8803,-24.2111,51.25],[34.9069,-24.2026,52.2922],[34.9374,-24.2076,53.5191]]]]}
,"properties": {"GID_2": "MOZ.3.10_1","GID_0": "MOZ","country": "Mozambique","GID_1": "MOZ.3_1","province": "Inhambane","NL_NAME_1": "NA","county": "Panda","VARNAME_2": "NA","NL_NAME_2": "NA","TYPE_2": "Distrito","ENGTYPE_2": "District","CC_2": "NA","HASC_2": "MZ.IN.PA","name": "Panda.county","area_km2": 6845.409,"hist_schema_id": "Elevation0-9000","hist_area_km2": {"0": 9.534,"25": 263.823,"50": 1438.06,"75": 2300.392,"100": 1807.731,"125": 801.082,"150": 194.843,"175": 29.712,"200": 0.232}}}