{"type": "Feature","bbox": [39.126,-12.8555,39.9407,-12.0642],"geometry": {"type": "MultiPolygon","coordinates": [[[[39.8676,-12.6163,156.0245],[39.8692,-12.5917,173.2408],[39.867,-12.578,197.1595],[39.8433,-12.5622,215.6028],[39.8293,-12.5422,253.2692],[39.8681,-12.5443,244.6129],[39.8584,-12.5317,262.0379],[39.8648,-12.5275,250.7858],[39.8595,-12.5,258.6016],[39.8411,-12.4732,278.303],[39.8595,-12.4642,266.2208],[39.8871,-12.4404,263.8873],[39.8994,-12.4225,241.9361],[39.8687,-12.3897,193.0612],[39.8687,-12.3688,229.3638],[39.9231,-12.3285,226.2505],[39.9407,-12.3067,226.1138],[39.9257,-12.2911,247.1095],[39.9042,-12.2794,282.7845],[39.8879,-12.2733,282.1529],[39.8487,-12.2695,296.0396],[39.7588,-12.2398,309.2056],[39.7351,-12.2284,252.0485],[39.7286,-12.2176,243.9751],[39.7181,-12.2049,233.5985],[39.7243,-12.1946,199.8392],[39.7207,-12.1628,164.2197],[39.7211,-12.1515,157.6347],[39.7248,-12.1359,151.0166],[39.7246,-12.1285,145.1879],[39.7368,-12.1161,119.7141],[39.7417,-12.1059,126.1694],[39.7353,-12.0736,95.5317],[39.6898,-12.076,118.0305],[39.6843,-12.0783,109.4874],[39.6402,-12.0775,117.3822],[39.6231,-12.0698,134.6152],[39.5876,-12.0707,135.0957],[39.5236,-12.0642,138.3435],[39.5128,-12.0717,125.168],[39.4892,-12.0759,134.5793],[39.4796,-12.0845,130.6259],[39.465,-12.0901,147.0862],[39.4528,-12.0883,129.8643],[39.434,-12.0947,136.1956],[39.4213,-12.0952,185.8472],[39.4131,-12.1008,164.101],[39.4111,-12.1051,140.6439],[39.4063,-12.1334,146.6359],[39.4026,-12.1398,152.2458],[39.3991,-12.1531,166.8405],[39.3912,-12.1688,165.6396],[39.381,-12.183,164.9321],[39.3691,-12.2164,177.5485],[39.3654,-12.2328,181.5017],[39.3691,-12.2417,188.9738],[39.3693,-12.2597,193.1894],[39.3662,-12.2717,194.325],[39.3693,-12.3088,201.7475],[39.355,-12.3212,215.7797],[39.3244,-12.3544,218.6198],[39.2996,-12.3687,230.4843],[39.2831,-12.3761,227.6513],[39.263,-12.3946,230.9045],[39.249,-12.4288,221.6776],[39.2231,-12.4426,241.9697],[39.2193,-12.4552,237.8815],[39.2178,-12.4728,242.9638],[39.2204,-12.4878,242.6591],[39.2133,-12.4959,255.9408],[39.1936,-12.5007,249.6679],[39.1861,-12.5052,257.725],[39.1863,-12.5196,250.2923],[39.1828,-12.5252,249.4994],[39.1744,-12.5287,261.6216],[39.1712,-12.553,255.0776],[39.1554,-12.5731,272.7183],[39.1471,-12.5944,272.7759],[39.147,-12.6089,278.5744],[39.1526,-12.6283,288.6426],[39.1475,-12.6626,301.2856],[39.1333,-12.6887,311.5637],[39.1396,-12.7092,324.2041],[39.1386,-12.714,324.5352],[39.127,-12.7358,345.1741],[39.126,-12.7446,352.8159],[39.1401,-12.7836,385.1474],[39.1322,-12.8032,422.2226],[39.1368,-12.8127,472.8102],[39.1478,-12.82,458.3554],[39.1742,-12.8317,437.9627],[39.1905,-12.8348,423.4136],[39.2172,-12.8343,397.8775],[39.227,-12.829,388.1956],[39.2362,-12.8201,374.9553],[39.2461,-12.8181,375.0055],[39.2526,-12.8195,381.4564],[39.2657,-12.8474,369.8333],[39.2626,-12.8495,362.3124],[39.2657,-12.8482,361.9781],[39.2783,-12.8555,359.9152],[39.2964,-12.842,350.8051],[39.306399999999996,-12.8316,352.3389],[39.3124,-12.8299,348.4277],[39.3233,-12.8299,349.2067],[39.3486,-12.8059,342.9706],[39.3516,-12.7993,342.4926],[39.3486,-12.7896,338.8127],[39.348,-12.7731,335.2343],[39.3574,-12.7579,334.0676],[39.3617,-12.7455,334.7414],[39.3596,-12.721,325.4294],[39.3741,-12.7132,322.1579],[39.3744,-12.704,322.4981],[39.3791,-12.6979,328.7116],[39.3911,-12.696,322.6154],[39.3959,-12.6861,316.7907],[39.4051,-12.6796,315.4965],[39.4097,-12.6891,320.0307],[39.415,-12.6953,331.4696],[39.4328,-12.7051,310.1608],[39.444,-12.7093,313.8649],[39.4511,-12.7165,310.6761],[39.4646,-12.7199,310.119],[39.4758,-12.7257,302.4421],[39.4881,-12.7172,306.9428],[39.4967,-12.7144,299.0193],[39.5139,-12.7273,312.5474],[39.5265,-12.7181,286.5816],[39.5312,-12.7212,285.8351],[39.5345,-12.726,299.055],[39.5386,-12.738,282.0373],[39.5457,-12.7428,287.3566],[39.5725,-12.7393,274.0399],[39.5883,-12.7419,273.5177],[39.6242,-12.7582,255.5317],[39.6326,-12.7555,241.2733],[39.6422,-12.7564,250.8881],[39.6528,-12.7539,234.5595],[39.6908,-12.7523,245.5467],[39.7111,-12.7474,231.3011],[39.7445,-12.7199,220.88],[39.7605,-12.701599999999999,214.1337],[39.7657,-12.6992,218.8107],[39.7661,-12.6904,216.1799],[39.7623,-12.6817,208.3853],[39.7642,-12.6656,233.3134],[39.781,-12.6508,201.1684],[39.7872,-12.6539,205.8717],[39.7959,-12.6437,198.639],[39.8024,-12.6386,201.3706],[39.8005,-12.6195,197.5215],[39.8129,-12.6092,183.2621],[39.8182,-12.6079,183.4291],[39.8325,-12.612,173.1343],[39.8383,-12.6091,173.9079],[39.8477,-12.6107,196.2235],[39.8676,-12.6163,156.0245]]]]}
,"properties": {"GID_3": "MOZ.1.6.1_1","GID_0": "MOZ","country": "Mozambique","GID_1": "MOZ.1_1","province": "CaboDelgado","NL_NAME_1": "NA","GID_2": "MOZ.1.6_1","county": "Meluco","NL_NAME_2": "NA","city": "Meluco","VARNAME_3": "NA","NL_NAME_3": "NA","TYPE_3": "Localidad","ENGTYPE_3": "Locality","CC_3": "NA","HASC_3": "NA","name": "Meluco.city","area_km2": 4590.044,"hist_schema_id": "Elevation0-9000","hist_area_km2": {"100": 7.775,"125": 21.251,"150": 42.167,"175": 68.744,"200": 133.829,"225": 256.807,"250": 405.034,"275": 540.174,"300": 587.648,"325": 588.551,"350": 621.442,"375": 613.407,"400": 451.754,"425": 155.188,"450": 46.991,"475": 17.484,"500": 9.957,"525": 6.604,"550": 4.658,"575": 3.996,"600": 2.609,"625": 1.387,"650": 1.325,"675": 0.621,"700": 0.455,"725": 0.062,"750": 0.083,"775": 0.041}}}