{"type": "Feature","bbox": [39.6521,-13.2933,40.2276,-12.9323],"geometry": {"type": "MultiPolygon","coordinates": [[[[39.6725,-13.1192,331.0352],[39.6707,-13.1248,317.3739],[39.6755,-13.131,319.2145],[39.6916,-13.1398,307.7952],[39.7085,-13.1519,307.7102],[39.7181,-13.1651,293.9016],[39.727,-13.161,298.8259],[39.7323,-13.1657,286.8314],[39.7442,-13.1644,286.7982],[39.7543,-13.161,282.9489],[39.7746,-13.1658,277.7027],[39.8075,-13.1818,265.3784],[39.8102,-13.1801,256.6759],[39.8245,-13.1841,253.7113],[39.8266,-13.1911,256.5895],[39.8273,-13.2037,243.5073],[39.872,-13.2135,235.5369],[39.8833,-13.2114,236.5132],[39.8975,-13.2172,242.0402],[39.9033,-13.2217,236.71],[39.9081,-13.2419,232.5727],[39.9151,-13.2373,222.3421],[39.9211,-13.2365,218.5771],[39.9272,-13.2416,222.1959],[39.9435,-13.2487,192.3781],[39.9554,-13.2562,202.4972],[39.9753,-13.2781,171.1697],[39.9919,-13.283,168.8763],[40.0003,-13.2786,157.1638],[40.0273,-13.2777,149.6121],[40.0321,-13.2793,152.5143],[40.0448,-13.2777,148.8945],[40.0474,-13.2786,144.953],[40.0497,-13.2837,146.8549],[40.0639,-13.2807,141.0962],[40.0862,-13.2933,141.1487],[40.0969,-13.2893,142.1316],[40.1079,-13.2892,125.2277],[40.1151,-13.287,133.4725],[40.126,-13.2721,108.0316],[40.1342,-13.2558,151.1679],[40.1502,-13.2547,116.2845],[40.1682,-13.266,121.369],[40.1801,-13.2683,108.6494],[40.2051,-13.2661,106.7849],[40.2102,-13.2684,94.4011],[40.2079,-13.2638,104.621],[40.2043,-13.2423,116.4774],[40.2084,-13.2343,120.2877],[40.2037,-13.2073,141.7856],[40.2001,-13.1995,144.4623],[40.1805,-13.1705,167.3723],[40.1756,-13.1585,185.2347],[40.1746,-13.1388,212.3726],[40.2128,-13.1313,199.5315],[40.2272,-13.1244,160.1609],[40.2276,-13.1195,168.4196],[40.1998,-13.0526,250.3827],[40.1864,-13.0126,118.8089],[40.1899,-13.0023,112.9804],[40.1948,-13.0024,106.0148],[40.198,-12.9972,93.2077],[40.2066,-12.9928,87.2727],[40.2065,-12.9879,73.8561],[40.1953,-12.9822,77.6232],[40.1622,-12.9798,118.3039],[40.1574,-12.9842,122.9511],[40.1469,-12.9838,120.4293],[40.1152,-12.9553,205.3841],[40.1177,-12.9347,181.7623],[40.1058,-12.9323,188.5786],[40.1,-12.9395,185.5302],[40.0851,-12.9485,203.1244],[40.0768,-12.9494,197.9605],[40.0676,-12.9542,202.4263],[40.0602,-12.9612,199.0887],[40.0514,-12.9844,205.8078],[40.0368,-12.9926,226.1262],[40.0346,-12.9963,220.7348],[39.9963,-12.9933,254.0383],[39.9784,-12.9938,243.0746],[39.9716,-12.9977,242.0934],[39.9653,-13.005,240.6602],[39.9549,-13.0121,246.0385],[39.9455,-13.0121,248.2834],[39.9421,-13.0179,253.5715],[39.9185,-13.0132,268.8384],[39.9094,-13.0136,267.2108],[39.9006,-13.0193,271.7873],[39.8807,-13.0185,281.2613],[39.8578,-13.0204,293.5443],[39.8547,-13.0293,306.9532],[39.8501,-13.0318,303.6786],[39.8451,-13.0438,314.8582],[39.8334,-13.0468,316.6614],[39.8188,-13.046,332.5276],[39.7907,-13.0348,342.409],[39.7817,-13.0299,356.4226],[39.7685,-13.0195,365.9739],[39.7305,-13.0195,386.7059],[39.72,-13.0255,388.4202],[39.6521,-13.0842,423.4669],[39.6786,-13.1039,355.0372],[39.6725,-13.1192,331.0352]]]]}
,"properties": {"GID_3": "MOZ.1.1.3_1","GID_0": "MOZ","country": "Mozambique","GID_1": "MOZ.1_1","province": "CaboDelgado","NL_NAME_1": "NA","GID_2": "MOZ.1.1_1","county": "Ancuabe","NL_NAME_2": "NA","city": "Metoro","VARNAME_3": "NA","NL_NAME_3": "NA","TYPE_3": "Localidad","ENGTYPE_3": "Locality","CC_3": "NA","HASC_3": "NA","name": "Metoro.city","area_km2": 1433.907,"hist_schema_id": "Elevation0-9000","hist_area_km2": {"75": 1.116,"100": 4.791,"125": 22.154,"150": 59.48,"175": 87.31,"200": 126.383,"225": 166.651,"250": 194.798,"275": 197.979,"300": 174.504,"325": 155.078,"350": 113.659,"375": 79.757,"400": 36.411,"425": 10.988,"450": 0.805,"475": 0.702,"500": 0.495,"525": 0.248,"550": 0.144,"575": 0.186,"600": 0.083,"625": 0.062,"650": 0.062,"675": 0.062}}}