{"type": "Feature","bbox": [32.9423,-24.5672,33.0551,-24.4687],"geometry": {"type": "MultiPolygon","coordinates": [[[[33.0551,-24.5517,25.3518],[33.0549,-24.5385,26.0246],[33.0529,-24.5292,22.6469],[33.0499,-24.5257,20.7934],[33.0348,-24.5195,21.7478],[33.0158,-24.5052,29.925],[32.9991,-24.4837,31.2439],[32.9819,-24.4687,26.3603],[32.9423,-24.5236,32.3081],[32.9835,-24.5487,28.3203],[32.9767,-24.5574,27.9475],[33.0139,-24.5672,28.5241],[33.0245,-24.5646,27.8168],[33.0293,-24.5532,25.4391],[33.0299,-24.5443,27.8649],[33.043,-24.5503,25.8974],[33.052,-24.5585,22.9935],[33.0551,-24.5517,25.3518]]]]}
,"properties": {"GID_3": "MOZ.2.5.1_1","GID_0": "MOZ","country": "Mozambique","GID_1": "MOZ.2_1","province": "Gaza","NL_NAME_1": "NA","GID_2": "MOZ.2.5_1","county": "Chókwè","NL_NAME_2": "NA","city": "CidadeChokwe","VARNAME_3": "NA","NL_NAME_3": "NA","TYPE_3": "Localidad","ENGTYPE_3": "Locality","CC_3": "NA","HASC_3": "NA","name": "Cidade_Chokwe.city","area_km2": 63.53953,"hist_schema_id": "Elevation0-9000","hist_area_km2": {"25": 63.52023,"50": 0.01929}}}