{"type": "Feature","bbox": [36.0051,-18.2134,36.7174,-17.4989],"geometry": {"type": "MultiPolygon","coordinates": [[[[36.6692,-18.1599,9.8962],[36.6565,-18.1641,9.4215],[36.6503,-18.1609,8.4464],[36.6567,-18.1521,7.0189],[36.6661,-18.147,4.2466],[36.6772,-18.1351,8.8874],[36.6873,-18.1313,4.8915],[36.7043,-18.1091,7.7665],[36.7156,-18.1025,5.992],[36.7174,-18.0868,3.5539],[36.6937,-18.0913,3.9914],[36.6908,-18.0831,7.6155],[36.6929,-18.0656,8.3427],[36.682,-18.0677,2.2428],[36.6557,-17.9477,10.4372],[36.6571,-17.7591,3.3413],[36.6439,-17.7578,3.6335],[36.6366,-17.7408,3.498],[36.6363,-17.7202,4.8088],[36.6392,-17.7056,5.98],[36.636,-17.6999,10.5877],[36.6246,-17.7063,12.4126],[36.6136,-17.7078,7.4629],[36.605,-17.7068,10.1591],[36.5991,-17.696,6.7053],[36.5667,-17.683,13.6681],[36.5582,-17.6747,17.7414],[36.5486,-17.6747,16.7966],[36.513,-17.6563,26.5478],[36.4933,-17.6216,41.3725],[36.4852,-17.614,40.3763],[36.4673,-17.6056,41.2038],[36.4522,-17.5919,59.3254],[36.4426,-17.5859,48.7162],[36.431399999999996,-17.5841,52.4399],[36.4161,-17.5589,58.3833],[36.4012,-17.53,57.5183],[36.3906,-17.5166,63.457],[36.3751,-17.509,75.7577],[36.0132,-17.4989,107.5181],[36.026,-17.5301,121.6963],[36.0542,-17.5659,104.1697],[36.0698,-17.5748,90.9268],[36.0855,-17.5957,74.6777],[36.0761,-17.6077,82.1832],[36.0828,-17.6395,63.7973],[36.0974,-17.656,73.8934],[36.0932,-17.6639,94.1028],[36.0731,-17.6613,102.2407],[36.0578,-17.654,102.808],[36.0051,-17.6437,72.4687],[36.0135,-17.6673,70.4175],[36.0291,-17.6852,92.4857],[36.0385,-17.7031,73.3519],[36.0357,-17.7819,50.0276],[36.0448,-17.8134,45.4195],[36.0448,-17.8403,47.1826],[36.0542,-17.8761,37.8835],[36.0542,-17.8999,33.3429],[36.0479,-17.9149,25.9833],[36.0542,-17.9298,22.7302],[36.0667,-17.9328,21.6897],[36.1043,-17.9477,19.1369],[36.1752,-17.9617,13.171],[36.1952,-17.9596,11.1188],[36.2171,-17.9805,12.6509],[36.2234,-18.0163,7.173],[36.2446,-18.0307,6.8126],[36.2446,-18.0614,7.4165],[36.2328,-18.1147,7.0416],[36.2234,-18.1475,7.0718],[36.2265,-18.1708,7.5192],[36.234,-18.1922,6.1534],[36.2385,-18.1922,5.4731],[36.2781,-18.1525,6.2188],[36.2823,-18.1431,5.8523],[36.3074,-18.1468,5.3016],[36.3181,-18.1393,4.7368],[36.3111,-18.1233,4.573],[36.3022,-18.117,5.4084],[36.3035,-18.0861,6.2216],[36.3185,-18.099,5.0678],[36.3275,-18.0959,4.7724],[36.3411,-18.1017,4.3703],[36.3536,-18.1028,5.1278],[36.3679,-18.0748,4.4401],[36.3766,-18.0712,3.8786],[36.3908,-18.0729,3.9539],[36.4086,-18.0644,4.0702],[36.4129,-18.0496,5.6339],[36.4432,-18.0382,6.4072],[36.4481,-18.0326,4.5559],[36.4553,-18.0353,4.4142],[36.4762,-18.0521,3.3743],[36.5002,-18.0531,3.074],[36.5302,-18.0497,2.9868],[36.5386,-18.0695,2.8367],[36.5463,-18.074,1.7908],[36.5371,-18.0976,1.6308],[36.5609,-18.0997,1.7242],[36.5799,-18.1084,2.6058],[36.6147,-18.0993,9.0224],[36.6381,-18.1233,3.2827],[36.6293,-18.157,2.3843],[36.6375,-18.1717,1.991],[36.6412,-18.2134,0.0],[36.6465,-18.1922,4.2704],[36.6562,-18.1854,0.0],[36.664,-18.1759,2.2125],[36.6692,-18.1599,9.8962]]]]}
,"properties": {"GID_3": "MOZ.11.11.1_1","GID_0": "MOZ","country": "Mozambique","GID_1": "MOZ.11_1","province": "Zambezia","NL_NAME_1": "NA","GID_2": "MOZ.11.11_1","county": "Mopeia","NL_NAME_2": "NA","city": "Campo","VARNAME_3": "NA","NL_NAME_3": "NA","TYPE_3": "Localidad","ENGTYPE_3": "Locality","CC_3": "NA","HASC_3": "NA","name": "Campo.city","area_km2": 3551.88,"hist_schema_id": "Elevation0-9000","hist_area_km2": {"0": 1454.623,"25": 851.949,"50": 651.947,"75": 401.13,"100": 159.155,"125": 32.913,"150": 0.162}}}