{"type":"Feature","properties":{"GID_3":"MOZ.11.12.4_1","GID_0":"MOZ","country":"Mozambique","GID_1":"MOZ.11_1","province":"Zambezia","NL_NAME_1":"NA","GID_2":"MOZ.11.12_1","county":"Morrumbala","NL_NAME_2":"NA","city":"Morrumbala","VARNAME_3":"NA","NL_NAME_3":"NA","TYPE_3":"Localidad","ENGTYPE_3":"Locality","CC_3":"NA","HASC_3":"NA","name":"Morrumbala.city"},
"geometry":{"type": "MultiPolygon","coordinates": [[[[35.9801,-17.4911,143.1823],[35.9708,-17.4643,133.4837],[35.952,-17.4553,161.0133],[35.9333,-17.4404,188.1106],[35.9146,-17.4225,204.9773],[35.9146,-17.3718,230.7197],[35.9208,-17.3539,240.4225],[35.9208,-17.336,221.8827],[35.9127,-17.3309,231.6889],[35.9028,-17.3171,222.4688],[35.899,-17.2406,258.8391],[35.924,-17.2257,248.8665],[35.924,-17.2137,239.8841],[35.9115,-17.1899,236.1496],[35.9021,-17.178,274.1412],[35.8896,-17.166,262.6344],[35.8896,-17.1183,271.4074],[35.8865,-17.0795,309.07],[35.8772,-17.0557,314.4566],[35.8717,-17.035,332.2168],[35.8522,-17.0229,338.3383],[35.8058,-16.9776,331.1865],[35.8085,-16.9573,335.3598],[35.8148,-16.9394,354.571],[35.8116,-16.9244,360.4554],[35.798,-16.912,376.5695],[35.7276,-16.8795,304.7272],[35.7243,-16.8797,277.4333],[35.7118,-16.8857,262.4373],[35.6868,-16.8887,237.6424],[35.6693,-16.8859,239.6365],[35.6547,-16.8767,202.3921],[35.6154,-16.877,167.835],[35.5813,-16.8792,173.2614],[35.5572,-16.877,144.0463],[35.5372,-16.877,130.6608],[35.5277,-16.8827,129.3016],[35.5277,-16.8946,134.8451],[35.5308,-16.9095,150.6815],[35.5277,-16.9244,166.1306],[35.5307,-16.9448,169.8222],[35.5248,-16.974,191.1547],[35.5149,-16.9782,186.5851],[35.5149,-17.008,199.7699],[35.4373,-17.0484,136.075],[35.4977,-17.0634,243.8597],[35.5039,-17.0673,260.6599],[35.5238,-17.0664,276.5642],[35.5501,-17.0575,271.7784],[35.5702,-17.0612,247.6786],[35.5725,-17.0647,244.5746],[35.5546,-17.0862,220.8503],[35.5491,-17.097,206.6271],[35.5272,-17.1151,196.0346],[35.528,-17.1372,201.5135],[35.5367,-17.1455,202.1016],[35.5659,-17.1971,263.4949],[35.5655,-17.2381,328.8935],[35.5629,-17.2486,366.8548],[35.5234,-17.298,405.0694],[35.5146,-17.3149,334.3055],[35.5121,-17.3264,287.8329],[35.5069,-17.337,278.3879],[35.5226,-17.3554,355.3912],[35.5087,-17.3648,377.0295],[35.5014,-17.3737,347.3735],[35.5053,-17.4039,307.2787],[35.509,-17.4124,411.063],[35.5325,-17.4164,379.9832],[35.5505,-17.4257,348.1538],[35.5557,-17.4495,341.9501],[35.5535,-17.4628,315.4644],[35.5562,-17.4834,302.1322],[35.569,-17.5201,264.9128],[35.5742,-17.5259,259.9659],[35.5801,-17.5432,239.2684],[35.5833,-17.5462,245.0991],[35.5769,-17.5507,239.2156],[35.5919,-17.5697,226.4184],[35.5944,-17.5786,224.3086],[35.6298,-17.6041,176.3947],[35.6313,-17.6168,165.7859],[35.6457,-17.6261,163.8661],[35.6516,-17.6319,150.6632],[35.662,-17.65,129.4847],[35.8054,-17.6433,107.7204],[35.821,-17.6388,104.7813],[35.8122,-17.6247,116.1238],[35.8187,-17.6223,112.213],[35.8181,-17.6138,124.7172],[35.7966,-17.566,137.2109],[35.7881,-17.5381,159.9089],[35.7891,-17.5238,167.4571],[35.788,-17.5139,174.7332],[35.7955,-17.509,185.3011],[35.8984,-17.5007,149.6747],[35.9184,-17.5025,137.7127],[35.9421,-17.5115,118.5161],[35.9534,-17.5133,131.4169],[35.9889,-17.5007,139.909],[35.9801,-17.4911,143.1823]]]]}}