{"type": "Feature","bbox": [40.0043,-13.1195,40.6301,-12.7046],"geometry": {"type": "MultiPolygon","coordinates": [[[[40.4162,-12.9243,0.0],[40.4151,-12.924,0.0],[40.4149,-12.9263,0.0],[40.416,-12.926,0.4207],[40.4162,-12.9243,0.0]]],
[[[40.1177,-12.9294,188.6042],[40.1175,-12.9443,194.8119],[40.1152,-12.9553,205.3841],[40.1469,-12.9838,120.4293],[40.1574,-12.9842,122.9511],[40.1622,-12.9798,118.3039],[40.1953,-12.9822,77.6232],[40.2065,-12.9879,73.8561],[40.2066,-12.9928,87.2727],[40.198,-12.9972,93.2077],[40.1948,-13.0024,106.0148],[40.1899,-13.0023,112.9804],[40.1864,-13.0126,118.8089],[40.1998,-13.0526,250.3827],[40.2276,-13.1195,168.4196],[40.2311,-13.1167,163.0966],[40.2345,-13.1106,160.5122],[40.246,-13.1019,141.8379],[40.2488,-13.097,131.1367],[40.2552,-13.0975,120.4248],[40.2597,-13.092,109.49],[40.2911,-13.0885,89.2525],[40.305,-13.0768,67.9285],[40.3109,-13.0689,64.1872],[40.3106,-13.0605,65.0754],[40.3189,-13.0572,62.0055],[40.3333,-13.0554,61.8551],[40.3403,-13.0563,64.5882],[40.3457,-13.0597,49.206],[40.3486,-13.0541,39.7998],[40.3483,-13.0505,40.9816],[40.3525,-13.0484,36.6432],[40.3573,-13.0483,33.5661],[40.3644,-13.0445,29.629],[40.3688,-13.0462,28.8899],[40.3812,-13.0367,22.8653],[40.4079,-13.0102,4.3602],[40.4151,-13.0063,3.3284],[40.4288,-13.0045,4.1826],[40.4332,-13.0015,5.6937],[40.4326,-12.9965,2.4913],[40.4299,-12.9962,0.7273],[40.4326,-12.9921,1.2753],[40.4138,-12.9765,2.0788],[40.4132,-12.9735,0.0],[40.4104,-12.9715,0.0],[40.4101,-12.9674,0.7214],[40.4057,-12.9624,1.5194],[40.4035,-12.9543,0.6361],[40.4035,-12.9474,2.2097],[40.4129,-12.9279,1.1585],[40.4104,-12.9213,3.8221],[40.4079,-12.9213,0.375],[40.4074,-12.9232,5.303],[40.4054,-12.9224,2.3919],[40.4063,-12.9207,2.046],[40.4115,-12.9196,0.0],[40.414,-12.9226,0.7978],[40.4154,-12.9224,1.2279],[40.4129,-12.914,4.4295],[40.4157,-12.9071,1.1352],[40.4132,-12.9065,3.3715],[40.4096,-12.9099,3.6785],[40.4113,-12.9057,1.5199],[40.4149,-12.9049,0.5],[40.4179,-12.9065,2.918],[40.4165,-12.9118,0.0],[40.4176,-12.916,4.4719],[40.429,-12.9182,0.4893],[40.4296,-12.9121,1.4185],[40.4332,-12.9118,1.2315],[40.4321,-12.9082,0.686],[40.4354,-12.9062,2.1203],[40.4388,-12.8996,0.0],[40.4512,-12.8901,2.7137],[40.4532,-12.8871,0.917],[40.4607,-12.8829,4.4425],[40.4715,-12.8807,2.5192],[40.4804,-12.8804,2.6494],[40.4896,-12.8837,0.0],[40.4912,-12.8801,3.9194],[40.4874,-12.8782,1.4412],[40.4904,-12.8785,1.3236],[40.4924,-12.8807,2.0751],[40.4918,-12.8832,0.0],[40.4976,-12.8851,3.6255],[40.5024,-12.8899,0.0],[40.5038,-12.894,4.2977],[40.5032,-12.9029,0.0],[40.5004,-12.9132,4.0787],[40.5029,-12.9201,0.0],[40.5021,-12.9249,0.0],[40.5104,-12.9296,0.0],[40.5165,-12.9201,0.0],[40.5176,-12.9096,5.0532],[40.5293,-12.8954,5.2038],[40.5313,-12.8774,1.0548],[40.5432,-12.8585,0.0],[40.5471,-12.844,2.5001],[40.5465,-12.8421,1.7697],[40.5429,-12.8424,0.0],[40.5407,-12.8376,0.0],[40.5421,-12.834,4.5324],[40.5451,-12.834,0.0],[40.5438,-12.8287,3.035],[40.546,-12.8304,0.4761],[40.5468,-12.8287,2.8866],[40.5488,-12.8326,0.0],[40.5488,-12.8371,0.0],[40.5504,-12.8371,0.9351],[40.5549,-12.8318,6.0268],[40.5624,-12.8282,0.0],[40.5646,-12.824,2.7585],[40.5638,-12.821,6.6209],[40.5657,-12.8201,0.0],[40.5615,-12.8188,1.8495],[40.5601,-12.8163,2.9599],[40.5624,-12.8099,2.8089],[40.5599,-12.8076,0.0],[40.5599,-12.8057,2.7388],[40.5638,-12.8029,1.0193],[40.5612,-12.799,5.0135],[40.5615,-12.7968,0.0],[40.5635,-12.7968,0.0],[40.5632,-12.7943,2.8965],[40.5543,-12.7837,3.4648],[40.5515,-12.7829,2.8445],[40.5532,-12.7818,0.5],[40.5513,-12.7793,0.5],[40.5438,-12.7768,2.4732],[40.5471,-12.7765,1.3525],[40.5462,-12.7682,3.4463],[40.539,-12.7668,2.8084],[40.5465,-12.7671,0.5],[40.5518,-12.7774,1.2904],[40.5599,-12.7843,5.3049],[40.5629,-12.7893,0.0],[40.5638,-12.7879,1.8358],[40.5649,-12.7888,0.0],[40.5674,-12.7943,4.4863],[40.5724,-12.7971,3.1659],[40.5715,-12.8049,0.72],[40.5788,-12.8079,6.3038],[40.5815,-12.8126,0.0],[40.5799,-12.8138,0.7723],[40.5807,-12.8165,0.0],[40.5838,-12.8151,2.1528],[40.5863,-12.8112,4.2033],[40.5968,-12.8071,2.9624],[40.6004,-12.8085,0.0],[40.6074,-12.8054,0.9486],[40.6135,-12.8001,0.0],[40.6279,-12.7724,0.0],[40.6271,-12.7679,0.0],[40.6293,-12.7638,0.0],[40.6301,-12.7468,0.0],[40.6224,-12.7496,8.8582],[40.621,-12.7496,8.8582],[40.621,-12.7476,0.0],[40.6174,-12.749,0.0],[40.6157,-12.761,0.5],[40.6149,-12.759,0.5],[40.6135,-12.7593,1.3986],[40.6154,-12.756,0.5],[40.6146,-12.749,0.9393],[40.6121,-12.7485,0.8591],[40.6071,-12.754,0.7203],[40.6057,-12.7643,1.8043],[40.6026,-12.7671,4.8659],[40.6037,-12.7612,4.3814],[40.6057,-12.7593,1.0973],[40.6032,-12.7601,4.3814],[40.6032,-12.7579,0.0],[40.5999,-12.759,6.8607],[40.6035,-12.7554,0.0],[40.6065,-12.7471,0.0],[40.6074,-12.7385,2.1152],[40.6151,-12.7335,0.0],[40.616,-12.7296,5.4607],[40.6126,-12.7185,3.6884],[40.6104,-12.7179,6.4656],[40.6043,-12.7093,2.0925],[40.5985,-12.7046,2.9202],[40.5968,-12.7046,3.2069],[40.5954,-12.7076,1.9455],[40.5938,-12.7074,0.0],[40.5835,-12.7163,6.7272],[40.5732,-12.7165,0.0],[40.5676,-12.7212,2.781],[40.5687,-12.7251,0.5],[40.5799,-12.7237,2.4182],[40.5812,-12.7251,0.5],[40.5857,-12.7368,2.8676],[40.5843,-12.7388,1.838],[40.5854,-12.7429,1.8361],[40.5835,-12.7446,2.5882],[40.5838,-12.7482,2.1886],[40.5818,-12.7518,4.6815],[40.5799,-12.7524,3.1823],[40.5801,-12.7512,5.4582],[40.5826,-12.7499,1.776],[40.5821,-12.7343,0.5],[40.5757,-12.7282,0.5],[40.5701,-12.7282,3.7136],[40.5668,-12.7265,3.454],[40.5638,-12.7215,2.5955],[40.566,-12.717,0.0],[40.5525,-12.719,4.6266],[40.5476,-12.7213,8.9427],[40.543,-12.7325,15.3913],[40.5284,-12.7315,26.7762],[40.5168,-12.7409,32.6476],[40.503,-12.7474,41.3793],[40.4987,-12.7541,50.3961],[40.4881,-12.7645,23.6193],[40.4718,-12.7675,38.7433],[40.447,-12.7603,67.1927],[40.435,-12.7601,78.8193],[40.4131,-12.7669,102.6351],[40.4017,-12.7686,136.9783],[40.3101,-12.7597,150.8941],[40.2842,-12.7597,177.9139],[40.265,-12.7578,137.2679],[40.2515,-12.7516,126.4098],[40.2393,-12.7315,86.3176],[40.2306,-12.7274,79.83],[40.2226,-12.7263,75.2223],[40.2164,-12.7195,72.1429],[40.2054,-12.7289,80.7585],[40.18,-12.7283,93.8213],[40.162,-12.7486,138.5629],[40.1438,-12.7571,179.5491],[40.1303,-12.7666,266.0327],[40.1162,-12.7801,291.9586],[40.0997,-12.7918,268.3578],[40.0448,-12.8412,303.8173],[40.0429,-12.842,312.4393],[40.025,-12.8338,280.1796],[40.0252,-12.8351,286.5117],[40.0058,-12.8425,275.4268],[40.0043,-12.8588,299.3895],[40.0085,-12.8671,298.0079],[40.0152,-12.8746,285.8752],[40.0149,-12.8973,270.3632],[40.0208,-12.904,264.1979],[40.0405,-12.9025,259.817],[40.0544,-12.9038,244.2211],[40.075,-12.9115,216.8344],[40.0793,-12.9164,210.0456],[40.089,-12.9148,206.7169],[40.1008,-12.9246,193.7089],[40.1117,-12.9243,185.0933],[40.1177,-12.9294,188.6042]]],
[[[40.5485,-12.7749,1.0294],[40.5471,-12.7743,0.5],[40.5474,-12.7765,1.3525],[40.5488,-12.7762,1.0294],[40.5485,-12.7749,1.0294]]],
[[[40.5738,-12.8074,0.0],[40.5732,-12.8099,0.0],[40.5754,-12.8112,0.0],[40.5757,-12.8101,0.0],[40.5738,-12.8074,0.0]]],
[[[40.6115,-12.7432,0.0],[40.6104,-12.7424,0.0],[40.6087,-12.7449,0.0],[40.6096,-12.7449,0.0],[40.6115,-12.7432,0.0]]],
[[[40.5824,-12.7399,0.5],[40.5826,-12.7432,3.0589],[40.5835,-12.7435,3.0589],[40.5846,-12.7401,1.0315],[40.5824,-12.7399,0.5]]]]}
,"properties": {"GID_3": "MOZ.1.14.1_1","GID_0": "MOZ","country": "Mozambique","GID_1": "MOZ.1_1","province": "CaboDelgado","NL_NAME_1": "NA","GID_2": "MOZ.1.14_1","county": "Pemba","NL_NAME_2": "NA","city": "MetugeSede","VARNAME_3": "NA","NL_NAME_3": "NA","TYPE_3": "Localidad","ENGTYPE_3": "Locality","CC_3": "NA","HASC_3": "NA","name": "Metuge_Sede.city","area_km2": 1462.853,"hist_schema_id": "Elevation0-9000","hist_area_km2": {"0": 189.827,"25": 221.238,"50": 193.504,"75": 185.025,"100": 183.891,"125": 117.722,"150": 72.708,"175": 72.559,"200": 64.147,"225": 47.162,"250": 36.48,"275": 34.808,"300": 34.955,"325": 8.579,"350": 0.165,"375": 0.062,"400": 0.021}}}