{"type":"Feature","properties":{"ISO3166-1-Alpha-3":"MOZ","country":"Mozambique","fill":"#F0F","id":"1905","name":"Sofala"},
"geometry":{"type": "Polygon","coordinates": [[[35.32005,-17.72367,30.1353],[35.30847,-17.71675,30.6832],[35.28584,-17.69928,27.5],[35.2216,-17.66802,31.8252],[35.20879,-17.65908,31.8071],[35.2015,-17.64833,32.6864],[35.19194,-17.64419,33.2039],[35.1661,-17.62146,33.3575],[35.13484,-17.60073,36.6803],[35.11877,-17.5844,36.3441],[35.10559,-17.56756,37.145],[35.10094,-17.55846,38.6838],[35.09959,-17.55226,39.3366],[35.0997,-17.53335,36.5],[35.09856,-17.52766,37.1241],[35.08564,-17.49206,38.5],[35.08047,-17.48436,40.7768],[35.06492,-17.46793,39.5],[35.06053,-17.45986,40.8484],[35.05174,-17.41728,42.715],[35.0226,-17.34804,46.9877],[35.01216,-17.33439,46.066],[35.01009,-17.32948,46.7516],[35.00642,-17.31553,47.5762],[34.99014,-17.29,48.0029],[34.98627,-17.28086,46.5],[34.98084,-17.27972,46.9996],[34.97883,-17.25967,48.4552],[34.9672,-17.22127,50.5864],[34.94808,-17.17952,53.0465],[34.90808,-17.11461,56.8147],[34.88348,-17.01503,61.9238],[34.86927,-16.9848,61.0463],[34.8609,-16.97473,63.4781],[34.77067,-16.90176,65.9097],[34.74732,-16.8907,67.2106],[34.67125,-16.86982,70.6977],[34.59616,-16.83024,72.5],[34.53642,-16.89664,141.7964],[34.51751,-16.93762,161.6156],[34.50599,-16.95509,178.8309],[34.49467,-16.96656,183.3545],[34.47436,-16.9833,205.9341],[34.46785,-16.98775,209.7296],[34.39462,-17.02087,230.328],[34.3445,-17.03307,258.1578],[34.33608,-17.03617,269.8],[34.30615,-17.05178,298.3094],[34.2905,-17.06314,310.982],[34.28414,-17.0709,318.1778],[34.22482,-17.18908,233.6577],[34.22249,-17.19678,221.9547],[34.22141,-17.2036,223.8358],[34.22094,-17.21042,226.3263],[34.22435,-17.26696,245.3341],[34.22172,-17.28566,267.8238],[34.21412,-17.3067,284.621],[34.19614,-17.34442,301.413],[34.18187,-17.38674,370.0023],[34.17407,-17.43713,333.4667],[34.17428,-17.48942,350.1609],[34.17056,-17.5027,368.3575],[34.1302,-17.59588,461.6415],[34.12787,-17.60864,454.6352],[34.12896,-17.6228,438.3635],[34.1581,-17.72925,434.6682],[34.15996,-17.74295,426.7125],[34.14647,-17.83994,419.5973],[34.14616,-17.85292,449.1892],[34.14864,-17.86423,419.3948],[34.15826,-17.87152,413.1534],[34.24084,-17.90149,336.6211],[34.24642,-17.90583,320.989],[34.25014,-17.91002,314.5115],[34.25293,-17.91451,313.6217],[34.26549,-17.92893,289.4829],[34.27045,-17.93343,270.5786],[34.27835,-17.93823,275.2076],[34.28192,-17.94459,297.5155],[34.28393,-17.95487,347.9908],[34.27851,-17.99844,433.7843],[34.27897,-18.00133,402.9825],[34.28507,-18.01513,358.5323],[34.28476,-18.04324,351.6248],[34.28021,-18.0835,233.6105],[34.25634,-18.17098,295.774],[34.24347,-18.20204,320.4108],[34.2273,-18.21734,327.3925],[34.18513,-18.21176,377.6725],[34.1719,-18.21367,357.0304],[34.16105,-18.2223,346.171],[34.13051,-18.26255,340.21],[34.12849,-18.26395,326.3085],[34.12694,-18.26457,326.3085],[34.12368,-18.26612,339.897],[34.11609,-18.26767,359.9304],[34.11108,-18.267,378.88],[34.10084,-18.2641,444.5276],[34.09077,-18.26023,397.3952],[34.07681,-18.25175,400.7525],[34.06705,-18.24194,402.9312],[34.06297,-18.23883,400.925],[34.0501,-18.23093,396.0193],[34.04607,-18.22772,403.6716],[34.03925,-18.22049,405.0448],[34.03677,-18.21584,401.4489],[34.03506,-18.21041,412.4932],[34.03289,-18.19786,398.623],[34.02932,-18.18685,413.4453],[34.01925,-18.16835,410.8884],[34.01599,-18.16447,415.0895],[34.00219,-18.15155,448.1027],[33.99966,-18.14959,448.4303],[33.99656,-18.14773,452.9456],[33.98695,-18.14463,443.8752],[33.95734,-18.14013,453.2742],[33.95155,-18.13832,464.3143],[33.94054,-18.13688,464.3231],[33.93419,-18.15052,486.0553],[33.92799,-18.18189,528.4766],[33.92535,-18.1883,512.9285],[33.92225,-18.19336,510.3391],[33.91155,-18.20369,504.5338],[33.899,-18.21274,525.1663],[33.87507,-18.22514,552.1348],[33.85879,-18.23744,538.2203],[33.85538,-18.24106,548.555],[33.84391,-18.25728,516.2354],[33.81611,-18.28576,495.2163],[33.81456,-18.29227,478.4272],[33.81533,-18.29785,475.2986],[33.8175,-18.30281,497.1059],[33.84112,-18.34379,482.7195],[33.8453,-18.35381,501.3121],[33.84701,-18.35929,486.4221],[33.84763,-18.36544,482.8029],[33.84747,-18.37149,460.8386],[33.84561,-18.38275,467.4852],[33.83538,-18.41298,457.023],[33.83456,-18.41841,441.9463],[33.83507,-18.42358,452.3696],[33.83735,-18.42735,473.5567],[33.84747,-18.42906,461.9858],[33.85244,-18.43076,448.9986],[33.85476,-18.43541,435.5502],[33.85709,-18.44766,437.0694],[33.85879,-18.45314,450.2947],[33.86127,-18.45794,437.7834],[33.86716,-18.46631,426.3222],[33.8698,-18.47179,439.1836],[33.87166,-18.47794,448.2456],[33.8715,-18.48771,427.4615],[33.86794,-18.49417,412.8247],[33.85104,-18.51598,426.8997],[33.84577,-18.51939,414.8534],[33.84045,-18.52001,422.256],[33.83476,-18.52161,441.6563],[33.82866,-18.52543,438.1412],[33.82091,-18.5367,466.2194],[33.81053,-18.5476,501.6085],[33.80184,-18.55318,502.9436],[33.79688,-18.55799,478.5826],[33.79161,-18.5644,478.687],[33.77528,-18.58936,462.8597],[33.74536,-18.61845,438.3657],[33.73094,-18.63592,418.2168],[33.72562,-18.64667,430.9747],[33.71554,-18.68217,374.7448],[33.71415,-18.69426,383.3274],[33.72521,-18.71813,361.8755],[33.75725,-18.7201,354.0679],[33.77136,-18.7234,319.0845],[33.80587,-18.74413,285.1239],[33.84148,-18.75467,345.748],[33.85151,-18.7617,356.7089],[33.85833,-18.77239,345.3655],[33.86215,-18.78309,294.426],[33.86701,-18.79317,317.2622],[33.87719,-18.80164,339.6133],[33.88866,-18.80598,320.297],[33.89936,-18.80867,280.9427],[33.90938,-18.81265,274.4864],[33.91884,-18.82097,258.1299],[33.92514,-18.83172,313.4981],[33.93197,-18.85461,289.3455],[33.93708,-18.86593,253.4948],[33.94618,-18.87611,255.7891],[33.95594,-18.88009,239.5713],[33.97982,-18.88412,303.8358],[33.99175,-18.89068,336.1984],[33.99827,-18.89952,276.4662],[34.00385,-18.90934,300.4641],[34.0132,-18.91884,215.1972],[34.02534,-18.92319,119.1118],[34.03304,-18.92226,100.6259],[34.02762,-18.95445,232.4563],[33.92721,-19.30828,154.3688],[33.9269,-19.55834,187.0315],[33.92458,-19.57493,172.3905],[33.91775,-19.58082,168.0825],[33.90597,-19.58356,158.528],[33.88034,-19.58423,171.0357],[33.86964,-19.58557,171.0183],[33.86127,-19.58821,180.719],[33.8512,-19.59462,176.5664],[33.84809,-19.60087,173.1724],[33.84701,-19.60738,168.6901],[33.84949,-19.61844,149.9378],[33.8512,-19.62371,156.5296],[33.85352,-19.62888,151.4919],[33.87817,-19.66665,131.3287],[33.87941,-19.67942,126.7546],[33.87926,-19.69962,125.9631],[33.87321,-19.74794,93.2844],[33.87367,-19.76732,69.9298],[33.87507,-19.7776,53.4917],[33.88189,-19.77812,53.2986],[33.90334,-19.77781,54.5616],[33.90907,-19.77915,48.1864],[33.91372,-19.78163,38.2469],[33.91729,-19.78494,47.1016],[33.92411,-19.79895,47.5123],[33.92737,-19.80272,50.4822],[33.93186,-19.80592,47.9032],[33.93713,-19.80783,45.0309],[33.94318,-19.8084,49.1973],[33.95532,-19.80825,42.9334],[33.96059,-19.8098,41.1741],[33.96524,-19.81218,34.1428],[33.96959,-19.81559,40.0546],[33.97827,-19.8253,36.9543],[33.98059,-19.82747,36.3408],[33.98416,-19.8299,34.3184],[34.00044,-19.83672,36.3626],[34.00292,-19.83817,33.9352],[33.99889,-19.84049,37.5617],[33.98183,-19.84716,30.1431],[33.97145,-19.84887,33.2289],[33.95889,-19.84933,34.7036],[33.95641,-19.8498,35.3884],[33.95486,-19.85073,35.8814],[33.94928,-19.85791,31.99],[33.94618,-19.86039,35.9628],[33.92132,-19.87408,46.6834],[33.91651,-19.87868,52.3193],[33.91248,-19.88442,54.3028],[33.90458,-19.89961,82.3064],[33.90132,-19.90375,91.2353],[33.89807,-19.90659,102.834],[33.88964,-19.91253,90.4279],[33.85662,-19.92447,89.3268],[33.84902,-19.92834,113.2437],[33.84344,-19.93191,72.5914],[33.83223,-19.94193,66.1572],[33.83037,-19.94323,69.8052],[33.82727,-19.94504,70.4219],[33.8206,-19.94741,83.2244],[33.79611,-19.9517,64.3759],[33.78247,-19.95733,47.7236],[33.7804,-19.95857,46.6852],[33.77916,-19.95966,44.157],[33.75296,-20.00219,84.7901],[33.75001,-20.00431,101.592],[33.74598,-20.00384,83.738],[33.73435,-20.00353,105.3701],[33.72986,-20.0026,96.5067],[33.72738,-20.00126,105.0158],[33.72624,-20.00043,107.1293],[33.70717,-19.98069,113.7818],[33.69927,-19.97444,109.2283],[33.69477,-19.97201,123.9938],[33.68485,-19.96793,138.1568],[33.68051,-19.96524,138.4504],[33.67803,-19.96059,133.1252],[33.67353,-19.94302,135.6081],[33.67074,-19.93868,132.4864],[33.66712,-19.93532,125.0604],[33.66232,-19.93367,133.016],[33.65705,-19.93382,133.2538],[33.65193,-19.93548,132.0845],[33.62883,-19.94881,125.1494],[33.62325,-19.95062,130.3363],[33.6172,-19.9516,130.0732],[33.59777,-19.95124,133.5415],[33.59111,-19.95175,133.2855],[33.57964,-19.95496,130.2658],[33.57483,-19.95749,133.5455],[33.57064,-19.96059,125.9234],[33.56026,-19.97134,137.9626],[33.55571,-19.97403,140.8517],[33.54548,-19.97847,143.9464],[33.53401,-19.98204,141.0082],[33.52889,-19.98426,143.2486],[33.52408,-19.98689,142.3621],[33.5199,-19.98984,137.1928],[33.50998,-19.99893,138.3356],[33.50501,-20.00586,138.1481],[33.41267,-20.07826,167.9016],[33.4091,-20.08399,166.8518],[33.40848,-20.09004,173.2791],[33.43344,-20.17407,182.4347],[33.43623,-20.1783,176.9343],[33.44011,-20.18156,182.0895],[33.4659,-20.19076,153.022],[33.47427,-20.19665,149.9795],[33.47737,-20.20068,148.4709],[33.47938,-20.20569,139.5447],[33.48078,-20.21169,144.6148],[33.48279,-20.23163,131.8138],[33.48574,-20.24331,126.2897],[33.48853,-20.24801,125.0452],[33.50093,-20.26414,116.9736],[33.50641,-20.27365,116.0103],[33.50843,-20.27912,121.1184],[33.50967,-20.2861,123.5506],[33.50874,-20.29168,132.0281],[33.48884,-20.34201,158.017],[33.48574,-20.35581,176.618],[33.48543,-20.36579,173.6859],[33.48698,-20.37219,174.7795],[33.48744,-20.38129,178.9886],[33.48667,-20.39348,183.298],[33.48744,-20.40671,186.5348],[33.49086,-20.41979,195.2047],[33.74133,-20.66649,200.0119],[33.75528,-20.67362,188.2985],[33.87429,-20.71403,101.3293],[33.88515,-20.72246,97.2684],[33.88933,-20.73424,90.8752],[33.89109,-20.74742,88.543],[33.89553,-20.95293,86.1511],[33.89884,-20.96332,84.262],[33.9069,-20.96761,82.8379],[33.91946,-20.96968,79.328],[34.00028,-20.97608,75.42],[34.01041,-20.97918,73.6379],[34.11108,-21.05246,81.0429],[34.11764,-21.05939,80.7788],[34.12213,-21.0659,81.0871],[34.12524,-21.07608,83.4698],[34.12539,-21.08326,83.6661],[34.12431,-21.08936,84.7588],[34.11857,-21.10398,85.3378],[34.11588,-21.10832,84.7886],[34.11278,-21.1123,84.9079],[34.10922,-21.11582,84.7816],[34.10084,-21.12191,86.7939],[34.08085,-21.13163,101.133],[34.06999,-21.13571,106.6462],[34.06441,-21.13943,102.6059],[34.05945,-21.14522,101.4275],[34.05366,-21.15607,102.728],[34.05211,-21.16506,101.4137],[34.05242,-21.17431,101.1394],[34.05444,-21.18553,101.027],[34.05397,-21.19292,104.1686],[34.05211,-21.19855,107.0338],[34.04839,-21.20206,104.5068],[34.03335,-21.20982,109.577],[34.0287,-21.21416,110.6639],[34.02359,-21.22832,115.3618],[34.02111,-21.24134,118.244],[34.01568,-21.31157,49.0372],[34.13035,-21.30206,39.245],[34.1426,-21.30774,46.0652],[34.15557,-21.31777,38.1756],[34.17216,-21.32185,54.8396],[34.19552,-21.3095,42.4311],[34.22352,-21.27808,61.4765],[34.24368,-21.26847,36.1763],[34.2675,-21.27818,31.754],[34.29794,-21.30309,31.0179],[34.3138,-21.3095,28.7239],[34.33142,-21.3095,37.2405],[34.36269,-21.29121,41.9798],[34.39147,-21.25762,23.1935],[34.43509,-21.19219,46.6425],[34.46304,-21.17111,26.006],[34.57911,-21.13757,39.8925],[34.62727,-21.10192,16.3292],[34.64396,-21.09664,15.552],[34.65652,-21.09499,16.1193],[34.66629,-21.09251,14.3375],[34.67523,-21.09292,13.5508],[34.71905,-21.12605,12.4003],[34.72928,-21.13075,19.3336],[34.76122,-21.12636,9.6164],[34.78266,-21.1046,10.4756],[34.79915,-21.08063,8.95],[34.8532,-21.0459,9.9049],[34.85966,-21.0383,8.5272],[34.86416,-21.03003,10.3396],[34.87501,-21.02368,9.4963],[34.97733,-20.98368,2.4294],[35.05515,-20.97247,7.4822],[35.06849,-20.9689,5.1491],[35.08952,-20.95433,0.6292],[35.10667,-20.95262,0.0],[35.11248,-20.95262,0.0],[35.11329,-20.9459,4.627],[35.10914,-20.93646,1.361],[35.10816,-20.93288,3.0957],[35.10646,-20.93043,3.1259],[35.09962,-20.92474,3.1613],[35.07976,-20.91375,4.0879],[35.0656,-20.91692,4.6738],[35.03761,-20.93841,5.1735],[35.03712,-20.92327,2.604],[35.03981,-20.90911,4.5024],[35.0451,-20.89577,3.1603],[35.05193,-20.88388,3.4363],[35.04021,-20.86972,3.7646],[35.00961,-20.84287,2.8847],[35.00343,-20.82545,2.3744],[35.0066,-20.81487,0.0],[35.02068,-20.80136,0.0],[35.02394,-20.79437,0.0],[35.02198,-20.78191,1.4997],[35.01612,-20.77516,3.0415],[35.0075,-20.77459,2.5848],[34.99659,-20.78069,3.3839],[34.99806,-20.75408,2.6279],[34.99733,-20.73992,2.804],[34.99334,-20.73016,3.6394],[34.9607,-20.70428,3.3164],[34.95558,-20.69598,2.6216],[34.90789,-20.69256,3.4341],[34.89617,-20.69508,3.8182],[34.88608,-20.69883,0.0],[34.8781,-20.70452,0.0],[34.87241,-20.71307,2.5629],[34.86801,-20.69443,2.7488],[34.87941,-20.68377,3.0428],[34.89259,-20.67425,2.6543],[34.89357,-20.65846,3.0551],[34.88038,-20.65114,0.0],[34.85182,-20.67083,0.0],[34.84645,-20.66155,0.585],[34.84474,-20.64072,4.4566],[34.8401,-20.62493,1.4826],[34.83253,-20.61207,0.0],[34.82211,-20.59979,1.569],[34.80372,-20.58587,3.1254],[34.78647,-20.57887,2.0572],[34.77312,-20.56951,3.3947],[34.76498,-20.5486,2.4624],[34.74969,-20.56015,3.0869],[34.74244,-20.55023,3.7322],[34.73992,-20.52435,3.5481],[34.72429,-20.51914,3.1095],[34.70338,-20.52386,0.0],[34.6683,-20.54111,0.5],[34.67311,-20.5289,0.0],[34.71266,-20.49717,0.0],[34.71754,-20.48366,0.0],[34.71632,-20.46697,3.1858],[34.71225,-20.45241,1.8919],[34.70924,-20.44557,0.8345],[34.6989,-20.44085,4.0171],[34.67758,-20.43711,0.0],[34.66456,-20.42848,3.3068],[34.65626,-20.41855,0.5179],[34.64926,-20.40553,3.8973],[34.64389,-20.3908,3.811],[34.64031,-20.37607,3.4566],[34.65691,-20.38616,4.0234],[34.67018,-20.38836,3.4596],[34.68328,-20.38388,0.9351],[34.69874,-20.37322,4.605],[34.70346,-20.36248,0.0],[34.67994,-20.34694,4.3204],[34.68531,-20.33229,0.0],[34.70574,-20.31097,0.0],[34.7103,-20.30055,5.4551],[34.72096,-20.26702,5.7724],[34.72755,-20.25286,4.1498],[34.73512,-20.24082,2.4859],[34.74334,-20.23268,0.0],[34.74334,-20.2265,0.0],[34.67075,-20.18857,4.9058],[34.65528,-20.17181,3.0923],[34.65626,-20.16465,3.3522],[34.65642,-20.15895,3.224],[34.65528,-20.15146,3.2656],[34.66383,-20.16709,3.9642],[34.67514,-20.16766,4.8491],[34.68922,-20.16155,9.0199],[34.70582,-20.15748,3.376],[34.73715,-20.17506,0.0],[34.75652,-20.18035,0.0],[34.76498,-20.16839,4.8065],[34.76686,-20.16155,4.4056],[34.77491,-20.15211,2.6336],[34.7776,-20.14381,0.0],[34.77687,-20.13502,5.9056],[34.77198,-20.12029,5.3254],[34.76881,-20.10524,6.0151],[34.76002,-20.09059,6.0183],[34.75701,-20.0831,5.1084],[34.75563,-20.07334,0.0],[34.75701,-20.05145,0.0],[34.75473,-20.04339,0.0],[34.75074,-20.03533,3.6532],[34.74887,-20.02679,2.331],[34.75359,-20.01727,0.0],[34.7588,-20.01141,0.0],[34.76197,-20.00677,0.0],[34.76385,-20.0014,0.0],[34.76498,-19.9931,0.0],[34.76417,-19.98024,0.0],[34.75758,-19.94793,6.9055],[34.75701,-19.93174,4.0355],[34.76482,-19.90325,0.0],[34.76108,-19.8952,0.0],[34.74334,-19.89007,3.389],[34.73316,-19.89398,0.0],[34.7212,-19.90106,0.0],[34.71176,-19.90106,4.463],[34.70924,-19.88388,2.79],[34.73512,-19.8869,0.0],[34.75758,-19.86907,0.0],[34.77296,-19.84149,5.7065],[34.7776,-19.81504,0.0],[34.77361,-19.80608,0.0],[34.75017,-19.78086,0.0],[34.74122,-19.76474,0.0],[34.73504,-19.75677,0.0],[34.72592,-19.75351,0.0],[34.70818,-19.7501,0.0],[34.69809,-19.74668,0.5],[34.69191,-19.74293,0.5],[34.63885,-19.66953,6.2296],[34.63022,-19.65423,0.5],[34.62322,-19.6233,0.5],[34.61378,-19.61159,0.6849],[34.59962,-19.60491,0.5],[34.58204,-19.60272,0.5],[34.56511,-19.6067,4.5606],[34.54607,-19.62274,8.9731],[34.53045,-19.62371,4.9906],[34.53045,-19.61631,5.3313],[34.54274,-19.61012,6.2936],[34.55323,-19.58229,5.3705],[34.56861,-19.57594,5.233],[34.58351,-19.57789,5.2973],[34.60108,-19.58294,6.1944],[34.61695,-19.58945,4.8875],[34.62672,-19.59588,4.5434],[34.63258,-19.61012,4.4726],[34.63624,-19.62835,6.4141],[34.64291,-19.64381,5.0827],[34.65805,-19.65049,5.7825],[34.66635,-19.65927,3.8427],[34.70582,-19.71559,4.9142],[34.71713,-19.72308,6.5996],[34.76498,-19.73984,4.6615],[34.8073,-19.77557,0.0],[34.81568,-19.78086,0.0],[34.82309,-19.78672,3.4492],[34.8274,-19.80055,0.0],[34.83277,-19.82928,6.8834],[34.84002,-19.84441,5.3273],[34.84848,-19.85166,0.0],[34.88006,-19.86338,0.0],[34.93458,-19.82928,0.0],[34.96176,-19.79844,2.8207],[34.97316,-19.79095,0.7667],[34.98227,-19.80136,0.0],[35.01254,-19.77947,0.0],[35.06707,-19.72601,0.0],[35.09213,-19.71941,0.0],[35.1268,-19.70501,0.0],[35.2225,-19.61012,4.4525],[35.33985,-19.52068,0.0],[35.44166,-19.41766,0.0],[35.49317,-19.35247,0.0],[35.49871,-19.34319,0.0],[35.50148,-19.33327,2.0547],[35.50522,-19.32537,6.0386],[35.51393,-19.32204,0.8559],[35.5254,-19.32008,0.0],[35.53273,-19.3152,0.0],[35.57732,-19.26637,0.0],[35.5857,-19.25262,0.0],[35.5652,-19.25262,8.9011],[35.61402,-19.20574,8.6799],[35.64047,-19.18548,0.0],[35.66822,-19.17067,0.0],[35.66822,-19.16383,0.0],[35.65382,-19.1657,6.1593],[35.64812,-19.16709,5.6475],[35.64088,-19.17067,7.7841],[35.66228,-19.13299,9.0053],[35.67612,-19.11981,0.0],[35.68873,-19.12282,0.0],[35.69899,-19.11419,2.5588],[35.71437,-19.09238,10.7143],[35.7234,-19.08245,7.1733],[35.86744,-18.98846,5.7327],[35.87355,-18.97259,6.1525],[35.86687,-18.97194,8.8566],[35.85776,-18.97682,6.325],[35.85027,-18.97869,6.0954],[35.84693,-18.96893,8.4035],[35.84938,-18.95908,8.3703],[35.85532,-18.95135,4.1669],[35.86394,-18.94638,3.1559],[35.87355,-18.94411,5.7777],[35.8864,-18.94948,8.3884],[35.89552,-18.96136,0.5],[35.90748,-18.96982,0.0],[35.92897,-18.9651,0.0],[35.94077,-18.95322,4.9696],[35.94679,-18.93613,3.8744],[35.95094,-18.91823,4.8014],[35.9568,-18.90374,4.2162],[35.96892,-18.893,7.1177],[35.97885,-18.89373,8.182],[35.98276,-18.90455,3.7653],[35.97674,-18.9249,0.0],[36.00953,-18.92083,4.0701],[36.03061,-18.90569,5.9157],[36.07846,-18.83782,6.9506],[36.10857,-18.80592,4.8249],[36.11427,-18.80218,2.1831],[36.12379,-18.80071,7.5347],[36.13307,-18.80413,8.7225],[36.13307,-18.80857,0.0],[36.13323,-18.80846,0.0],[36.13457,-18.80753,4.3788],[36.14883,-18.80433,7.6515],[36.16258,-18.79673,2.8225],[36.17426,-18.78593,9.1487],[36.19193,-18.76046,0.0],[36.19038,-18.75431,7.6249],[36.1725,-18.73586,5.2391],[36.15503,-18.71131,3.8008],[36.13049,-18.72025,5.4243],[36.11214,-18.71596,1.5341],[36.10821,-18.70599,10.8593],[36.12708,-18.69767,2.9409],[36.11974,-18.67896,4.0967],[36.11493,-18.6463,3.0003],[36.11886,-18.61525,5.0271],[36.13798,-18.60145,5.9832],[36.15565,-18.59892,7.0861],[36.15803,-18.59194,5.7427],[36.15292,-18.58114,4.2993],[36.14821,-18.56734,6.3657],[36.14945,-18.52125,5.6993],[36.1448,-18.50993,4.9543],[36.13829,-18.4981,5.0107],[36.12444,-18.46001,2.5],[36.12398,-18.4519,9.7598],[36.11715,-18.44673,4.2417],[36.11235,-18.43464,8.9392],[36.10661,-18.4103,6.3233],[36.09793,-18.38709,6.0121],[36.08785,-18.36849,6.5968],[36.07339,-18.35201,5.4728],[36.05199,-18.34203,7.4238],[36.04135,-18.33206,6.6537],[36.02781,-18.31485,7.6475],[36.01721,-18.30787,9.2826],[35.97432,-18.29273,5.5],[35.91308,-18.26333,10.3858],[35.89293,-18.24354,10.0778],[35.89557,-18.21785,12.888],[35.88906,-18.21057,8.5],[35.87386,-18.18375,12.4774],[35.86658,-18.17496,12.0937],[35.84032,-18.14959,11.0],[35.85097,-18.12933,12.8422],[35.83118,-18.11326,11.5],[35.78136,-18.09125,14.8738],[35.74493,-18.06164,13.5],[35.72467,-18.05084,14.0],[35.6931,-18.0436,16.6514],[35.66928,-18.03011,15.6466],[35.65475,-18.02608,17.9152],[35.64519,-18.02732,15.8998],[35.61982,-18.03352,20.0716],[35.60695,-18.03352,32.0556],[35.59347,-18.02815,30.5515],[35.56272,-17.99916,19.0117],[35.55011,-17.99192,21.8177],[35.53745,-17.98665,20.3109],[35.52629,-17.97983,20.9134],[35.51807,-17.96805,20.1684],[35.50608,-17.94097,21.6433],[35.49771,-17.92955,21.8513],[35.48546,-17.91911,23.153199999999998],[35.44882,-17.89979,23.8139],[35.44045,-17.88888,24.0545],[35.43539,-17.87255,26.0231],[35.42913,-17.83679,24.6061],[35.42324,-17.82046,24.6246],[35.41782,-17.81922,25.1078],[35.41332,-17.81147,23.0],[35.39606,-17.79705,25.4503],[35.39017,-17.78734,23.5],[35.37684,-17.78005,25.7024],[35.34361,-17.74031,28.2022],[35.3326,-17.73132,29.4003],[35.32005,-17.72367,30.1353]]]}}