{"type": "Feature","bbox": [33.3891,-21.3166,36.2943,-16.783],"geometry": {"type": "MultiPolygon","coordinates": [[[[35.0543,-20.9568,5.4833],[35.0546,-20.9554,2.8268],[35.0529,-20.9568,5.4833],[35.0532,-20.9588,2.3641],[35.054,-20.9585,2.3641],[35.0543,-20.9568,5.4833]]],
[[[35.0129,-20.7946,0.0],[35.0132,-20.7935,0.0],[35.0104,-20.7935,0.0],[35.0093,-20.7951,0.0],[35.0118,-20.7957,0.0],[35.0129,-20.7946,0.0]]],
[[[34.8549,-20.6918,0.8761],[34.8551,-20.6901,0.0],[34.8532,-20.6926,0.8761],[34.854,-20.6929,0.8761],[34.8549,-20.6918,0.8761]]],
[[[34.8535,-20.6818,0.9814],[34.8524,-20.6807,0.0],[34.8543,-20.6854,0.0],[34.859,-20.686,0.0],[34.8585,-20.6846,0.0],[34.8535,-20.6818,0.9814]]],
[[[34.6626,-20.3907,3.3904],[34.6618,-20.3896,3.3904],[34.6596,-20.3954,2.1954],[34.6615,-20.394,5.7718],[34.6626,-20.3907,3.3904]]],
[[[34.6907,-20.3876,0.0],[34.6913,-20.386,0.0],[34.6899,-20.3854,3.0068],[34.6879,-20.389,0.0],[34.6896,-20.389,0.0],[34.6907,-20.3876,0.0]]],
[[[34.6776,-20.3418,3.3508],[34.6779,-20.3396,3.1259],[34.6751,-20.3393,0.0],[34.6743,-20.3412,3.6083],[34.6765,-20.3435,1.6648],[34.6776,-20.3418,3.3508]]],
[[[34.7018,-20.3101,2.7607],[34.7024,-20.3115,3.0351],[34.7038,-20.3087,2.3631],[34.7024,-20.3087,1.2189],[34.7018,-20.3101,2.7607]]],
[[[35.0949,-20.9532,0.0],[35.0924,-20.9521,1.0346],[35.0921,-20.954,0.6627],[35.0935,-20.9543,0.6627],[35.0949,-20.9532,0.0]]],
[[[35.1054,-20.9013,0.0],[35.1029,-20.9004,0.0],[35.1037,-20.9029,0.5076],[35.1024,-20.9024,0.5076],[35.1018,-20.9049,1.2643],[35.0996,-20.9057,1.0895],[35.0982,-20.9099,2.8135],[35.0943,-20.9115,7.3871],[35.096,-20.9154,7.9739],[35.0926,-20.9135,5.6446],[35.0904,-20.9082,6.158],[35.0874,-20.9071,4.3518],[35.0804,-20.9065,1.3231],[35.0749,-20.9093,0.0],[35.069,-20.9099,0.0],[35.0724,-20.9154,0.326],[35.0704,-20.9229,0.0],[35.059,-20.9343,2.9573],[35.0549,-20.9363,4.4459],[35.046,-20.9371,0.9676],[35.0435,-20.939,3.1243],[35.0429,-20.9424,5.9769],[35.0446,-20.9443,0.0],[35.0554,-20.9415,0.0],[35.0588,-20.9443,1.3797],[35.059,-20.9607,5.5],[35.0551,-20.9679,0.6632],[35.0521,-20.9704,1.8987],[35.0526,-20.9729,1.6947],[35.0565,-20.974,2.8614],[35.0668,-20.9726,4.3017],[35.0696,-20.9682,0.0],[35.074,-20.966,2.7902],[35.0749,-20.9635,0.9557],[35.0732,-20.9632,2.5396],[35.0782,-20.9576,1.7827],[35.0832,-20.9574,1.4387],[35.0874,-20.961,0.0],[35.0915,-20.9615,0.0],[35.0935,-20.959,1.1115],[35.0913,-20.9582,3.591],[35.0971,-20.9562,0.0],[35.0951,-20.9549,1.0762],[35.0863,-20.9554,1.234],[35.081,-20.9515,1.0034],[35.0863,-20.9546,1.234],[35.0932,-20.9493,2.7656],[35.0996,-20.9529,1.071],[35.106,-20.9524,0.7823],[35.121,-20.9454,0.0],[35.1149,-20.9418,0.5953],[35.1146,-20.936,2.8554],[35.1096,-20.9371,1.361],[35.1121,-20.9351,0.0],[35.1157,-20.936,2.8554],[35.1165,-20.9404,0.445],[35.1232,-20.9413,0.0],[35.1263,-20.9451,0.0],[35.1279,-20.9451,0.0],[35.1293,-20.9382,0.0],[35.1246,-20.9349,4.1198],[35.1162,-20.9207,0.3124],[35.1124,-20.9188,0.0],[35.1135,-20.9168,0.0],[35.1054,-20.9013,0.0]]],
[[[35.1018,-20.891,0.0],[35.1012,-20.8899,0.0],[35.0999,-20.8896,0.0],[35.1024,-20.8926,0.0],[35.1018,-20.891,0.0]]],
[[[35.0993,-19.7138,0.0],[35.0996,-19.7126,1.8551],[35.0893,-19.716,0.1615],[35.0887,-19.7174,2.0633],[35.0932,-19.7168,1.7804],[35.0993,-19.7138,0.0]]],
[[[34.9474,-20.6782,0.6028],[34.9404,-20.6779,0.0],[34.931,-20.6849,0.0],[34.9463,-20.6829,0.0],[34.9474,-20.6782,0.6028]]],
[[[34.8913,-20.6182,1.3744],[34.8874,-20.6174,0.0],[34.8863,-20.6201,2.2668],[34.8929,-20.6365,0.4702],[34.9057,-20.6426,1.7274],[34.9124,-20.6524,1.6721],[34.9132,-20.6599,2.1259],[34.9082,-20.6721,0.0],[34.9085,-20.676,0.0],[34.9196,-20.6771,0.0],[34.9424,-20.6674,1.2197],[34.9515,-20.6685,0.0],[34.9538,-20.6668,1.895],[34.9562,-20.6701,0.0],[34.9654,-20.6682,0.0],[34.9557,-20.654,0.0],[34.9532,-20.6549,0.9516],[34.9526,-20.6568,3.0679],[34.9504,-20.6565,1.6874],[34.9465,-20.6615,2.7808],[34.936,-20.661,2.3845],[34.9382,-20.6596,1.613],[34.9451,-20.6599,0.0],[34.9501,-20.6537,0.0],[34.9479,-20.6515,0.0],[34.9443,-20.651,0.0],[34.944,-20.6482,0.0],[34.9468,-20.6479,0.0],[34.9471,-20.6462,0.0],[34.9426,-20.6421,0.5117],[34.936,-20.6371,0.0],[34.9338,-20.6407,0.5905],[34.9346,-20.6376,0.4469],[34.9296,-20.6293,0.0],[34.9221,-20.6271,2.7695],[34.9188,-20.6296,2.5539],[34.9118,-20.631,2.1132],[34.8913,-20.6182,1.3744]]],
[[[34.7846,-20.5785,3.7877],[34.7826,-20.5776,6.3614],[34.7815,-20.5793,4.2931],[34.7846,-20.581,2.6934],[34.7857,-20.5799,0.5717],[34.7846,-20.5785,3.7877]]],
[[[34.8054,-19.9471,0.0],[34.8026,-19.9463,0.0],[34.8024,-19.9476,0.0],[34.8051,-19.9485,0.0],[34.8115,-19.9546,0.0],[34.8082,-19.949,0.0],[34.8054,-19.9471,0.0]]],
[[[35.0135,-20.9821,1.9922],[35.0504,-20.9728,0.5294],[35.0485,-20.9688,1.8878],[35.0521,-20.9649,0.0],[35.0518,-20.9574,1.6314],[35.0543,-20.9529,2.4324],[35.0549,-20.9471,0.0],[35.044,-20.9463,3.8024],[35.041,-20.9432,0.0],[35.0404,-20.9393,0.0],[35.0435,-20.9346,0.0],[35.0582,-20.9312,5.2643],[35.0687,-20.9179,0.0],[35.0599,-20.9085,0.0],[35.0579,-20.9085,1.3334],[35.0571,-20.9049,0.1389],[35.044,-20.9076,2.0759],[35.0504,-20.9046,0.5622],[35.049,-20.903199999999998,1.7741],[35.0513,-20.9035,0.0],[35.054,-20.8974,0.0],[35.0535,-20.8924,0.6049],[35.056,-20.8887,0.0],[35.0563,-20.8907,0.3023],[35.0543,-20.8929,0.6049],[35.0551,-20.8946,0.0],[35.0607,-20.8865,0.0],[35.0557,-20.8757,1.0777],[35.0563,-20.874,0.0],[35.0524,-20.8701,2.445],[35.0468,-20.8679,0.2722],[35.0462,-20.864,0.3659],[35.0426,-20.8604,0.0],[35.0438,-20.8596,0.0],[35.0465,-20.8629,2.212],[35.0343,-20.8393,0.0],[35.0285,-20.819,0.0],[35.0262,-20.8165,0.0],[35.0232,-20.8224,0.0],[35.0254,-20.8271,0.9743],[35.024,-20.836,5.6265],[35.0301,-20.8412,4.4604],[35.021,-20.8351,0.1421],[35.0193,-20.8365,0.0],[35.0215,-20.8404,0.0],[35.021,-20.8437,0.0],[35.0176,-20.8476,0.0],[35.0124,-20.8493,1.0056],[35.0115,-20.849,1.0056],[35.0124,-20.8468,0.0],[35.0163,-20.8463,0.0],[35.0182,-20.8424,0.2051],[35.0157,-20.8301,0.0],[35.0137,-20.8285,0.9475],[35.0154,-20.8257,0.3408],[35.0104,-20.8187,0.0],[35.0062,-20.8185,0.0],[35.0068,-20.816,0.0],[35.0013,-20.814,0.0],[34.9999,-20.8162,0.5131],[34.9985,-20.816,0.0],[34.9987,-20.814,1.2581],[35.0046,-20.8121,0.0],[35.004,-20.8035,0.3437],[35.0024,-20.8001,1.0471],[34.9863,-20.8007,0.0],[34.9757,-20.8121,1.164],[34.9643,-20.8124,0.0],[34.9618,-20.8176,0.8531],[34.9643,-20.8237,1.9571],[34.964,-20.8285,0.9129],[34.9599,-20.8301,2.0775],[34.9549,-20.8262,0.893],[34.9493,-20.8293,0.8303],[34.9549,-20.8254,0.893],[34.9568,-20.8254,1.0156],[34.9604,-20.829,0.6345],[34.9629,-20.8282,0.9129],[34.9632,-20.824,0.0],[34.9601,-20.8199,1.1233],[34.961,-20.8137,2.3709],[34.964,-20.8104,0.7654],[34.9751,-20.8082,0.0],[34.9793,-20.7999,0.4011],[34.9851,-20.7951,1.064],[35.0032,-20.7924,0.7839],[35.0126,-20.7929,0.6053],[35.0118,-20.791,0.0],[35.006,-20.789,2.8363],[35.0088,-20.7885,1.7294],[35.0135,-20.7904,0.0],[35.0187,-20.7971,0.0],[35.0204,-20.7971,0.0],[35.0243,-20.7899,0.0],[35.0221,-20.7799,0.5174],[35.0171,-20.7685,1.4879],[35.0113,-20.761,0.0],[35.0099,-20.7621,0.0],[35.014,-20.7679,0.0],[35.0099,-20.7749,2.3298],[35.0074,-20.7743,0.8083],[35.011,-20.7715,1.6908],[35.0113,-20.7668,0.3305],[35.0082,-20.7637,0.0],[35.0035,-20.7637,0.0],[35.0004,-20.7668,1.2652],[34.9968,-20.7654,0.0],[34.9949,-20.7668,2.0619],[34.9921,-20.7663,2.4462],[34.9976,-20.7637,0.0],[34.9976,-20.7615,0.0],[34.9943,-20.7626,0.5459],[34.9901,-20.7604,0.6387],[34.9843,-20.7607,0.0],[34.9749,-20.7657,0.8758],[34.9721,-20.7687,0.0],[34.9688,-20.7693,0.0],[34.9646,-20.7674,0.269],[34.9635,-20.7612,0.0],[34.9604,-20.7588,0.4579],[34.9524,-20.7604,1.0888],[34.9485,-20.7585,0.78],[34.946,-20.7615,1.951],[34.9471,-20.7582,0.6651],[34.9449,-20.7571,1.7041],[34.9529,-20.7596,1.0888],[34.9618,-20.7574,1.084],[34.9646,-20.7593,2.5225],[34.9668,-20.7654,2.0587],[34.9696,-20.7665,0.0],[34.9746,-20.7615,1.4945],[34.9765,-20.7621,0.4065],[34.9868,-20.756,1.9088],[34.9996,-20.7576,0.168],[35.0065,-20.7532,0.0],[35.009,-20.7471,0.0],[35.0113,-20.7462,0.0],[35.0093,-20.7387,0.68],[34.9996,-20.7237,2.318],[34.9979,-20.7154,1.0559],[34.991,-20.7129,0.0],[34.9912,-20.7213,4.0413],[34.9888,-20.7243,0.8711],[34.9882,-20.7285,2.1092],[34.9851,-20.731,1.1214],[34.981,-20.7315,3.8396],[34.9779,-20.7351,1.9842],[34.9751,-20.7351,2.2637],[34.9735,-20.7371,1.507],[34.9743,-20.7349,1.1439],[34.9779,-20.7343,2.8577],[34.9793,-20.7307,2.1264],[34.9846,-20.7301,0.7569],[34.9879,-20.7218,3.1514],[34.9874,-20.7185,0.7735],[34.9829,-20.714,0.652],[34.9782,-20.7043,0.0],[34.9726,-20.6999,0.0],[34.9718,-20.7012,0.0],[34.9726,-20.7024,2.5127],[34.9693,-20.7029,1.2173],[34.9651,-20.6982,0.2824],[34.9604,-20.6971,1.2668],[34.9576,-20.6932,2.2427],[34.9493,-20.6915,1.8888],[34.9476,-20.689,0.0],[34.9421,-20.6887,2.1715],[34.9401,-20.6863,1.9856],[34.9326,-20.6876,0.0],[34.9301,-20.6896,2.9486],[34.9254,-20.7007,0.8617],[34.9263,-20.7107,0.0],[34.9318,-20.7104,0.0],[34.9351,-20.7062,2.7626],[34.9437,-20.7035,1.6065],[34.9488,-20.7068,1.0422],[34.9532,-20.7168,0.0],[34.9518,-20.7226,0.0],[34.9443,-20.7237,1.4429],[34.9396,-20.7262,1.0049],[34.9401,-20.7279,2.6047],[34.9446,-20.729,2.6055],[34.9449,-20.731,1.6168],[34.9426,-20.7335,1.8455],[34.9435,-20.729,1.5906],[34.9396,-20.7285,1.8486],[34.9388,-20.7274,1.3944],[34.9396,-20.7254,1.0049],[34.9437,-20.7235,1.4429],[34.9413,-20.7218,1.8238],[34.9485,-20.7229,2.4921],[34.9518,-20.7199,0.9027],[34.9457,-20.7068,0.0],[34.9424,-20.7062,0.0],[34.9318,-20.7126,0.6387],[34.9257,-20.7126,0.636],[34.9229,-20.7099,2.991],[34.9221,-20.7024,1.2841],[34.9274,-20.6865,0.0],[34.9151,-20.691,0.4482],[34.9043,-20.691,0.0],[34.9035,-20.6932,1.8173],[34.9012,-20.6921,0.5514],[34.8913,-20.6963,1.2748],[34.8879,-20.6999,0.0],[34.8887,-20.7035,0.0],[34.8926,-20.7085,3.9851],[34.8915,-20.7213,0.0],[34.8954,-20.7268,1.2024],[34.8957,-20.7313,0.9804],[34.8918,-20.7418,1.8178],[34.8835,-20.7443,0.0],[34.8821,-20.7462,1.0572],[34.8865,-20.7488,2.3904],[34.8871,-20.7554,0.0],[34.8904,-20.7596,0.4584],[34.886,-20.7557,0.0],[34.8857,-20.7499,1.4313],[34.8807,-20.7471,0.5815],[34.8763,-20.7485,2.1844],[34.8721,-20.756,0.7082],[34.8662,-20.7565,1.7826],[34.8629,-20.759,0.8559],[34.8587,-20.7579,1.0365],[34.8596,-20.7571,1.2565],[34.8638,-20.7579,1.6797],[34.866,-20.7557,1.3046],[34.8715,-20.7549,0.0],[34.8729,-20.7529,1.5579],[34.8713,-20.7488,2.867],[34.8721,-20.7468,0.6778],[34.8774,-20.7457,1.0477],[34.8812,-20.741,2.7639],[34.889,-20.7362,2.3516],[34.8899,-20.7299,2.4003],[34.8843,-20.721,0.0],[34.8829,-20.7121,1.9717],[34.8763,-20.709,0.0],[34.8735,-20.7046,2.8543],[34.8724,-20.6949,1.0315],[34.8735,-20.6904,2.9163],[34.8765,-20.6871,0.0],[34.8929,-20.679,0.0],[34.9038,-20.6632,0.0],[34.9057,-20.659,1.3406],[34.9051,-20.6551,0.4009],[34.8993,-20.6482,2.0563],[34.8879,-20.6451,0.0],[34.8821,-20.6499,0.0],[34.8815,-20.653199999999998,0.0],[34.8782,-20.6549,0.691],[34.8771,-20.6579,0.3937],[34.8751,-20.6579,0.0],[34.8715,-20.6629,0.0],[34.8662,-20.6646,4.2496],[34.8607,-20.6718,1.9707],[34.8546,-20.6757,0.0],[34.8537,-20.6804,0.7479],[34.8576,-20.6824,3.2268],[34.8599,-20.6857,2.941],[34.8537,-20.7001,1.5048],[34.8557,-20.7099,2.0908],[34.8521,-20.714,0.7029],[34.8524,-20.7187,0.7266],[34.8471,-20.7221,1.5125],[34.8499,-20.7254,2.5827],[34.8485,-20.7287,2.0816],[34.8479,-20.7282,2.0816],[34.8488,-20.7251,2.9379],[34.8462,-20.7218,2.8024],[34.8474,-20.7196,0.665],[34.8515,-20.7185,0.7266],[34.8504,-20.714,1.5316],[34.8543,-20.7093,1.726],[34.854,-20.7074,0.0],[34.8515,-20.709,0.7868],[34.8526,-20.706,1.1923],[34.8504,-20.7026,1.5674],[34.8499,-20.6965,1.497],[34.8518,-20.6963,0.0],[34.854,-20.6871,0.8775],[34.8513,-20.6863,2.5762],[34.8499,-20.6879,0.0],[34.8488,-20.6793,0.0],[34.8363,-20.6785,0.8317],[34.8301,-20.6843,1.5232],[34.8254,-20.6843,0.0],[34.8218,-20.6868,1.0741],[34.8193,-20.6918,1.4785],[34.8179,-20.6901,2.6908],[34.8201,-20.6865,1.6517],[34.8179,-20.6863,0.0],[34.816,-20.6887,3.3562],[34.8126,-20.6896,1.8863],[34.8093,-20.696,0.637],[34.8088,-20.6957,0.637],[34.8107,-20.691,0.0],[34.7988,-20.6907,0.4785],[34.7979,-20.6937,2.2586],[34.8004,-20.6951,2.7402],[34.7988,-20.6951,1.307],[34.7974,-20.6946,5.485],[34.7962,-20.6904,0.0],[34.7912,-20.6882,0.8513],[34.7893,-20.6926,2.7698],[34.7918,-20.6979,3.0917],[34.7915,-20.7007,7.2312],[34.7865,-20.7018,1.6007],[34.791,-20.6999,1.0686],[34.7885,-20.6949,1.2403],[34.7893,-20.6871,0.5444],[34.7988,-20.6885,0.0],[34.8107,-20.6874,1.3339],[34.8215,-20.6807,0.4895],[34.8099,-20.6785,1.6608],[34.8118,-20.6779,2.4163],[34.8199,-20.679,1.4709],[34.8226,-20.6776,0.0],[34.8182,-20.6729,0.6377],[34.8143,-20.6729,0.0],[34.8121,-20.6701,1.0266],[34.8182,-20.6715,0.6377],[34.8218,-20.6743,0.0],[34.8304,-20.676,0.0],[34.8318,-20.6754,0.0],[34.8307,-20.6712,2.9956],[34.8324,-20.6746,0.0],[34.8363,-20.6754,1.4613],[34.8413,-20.674,0.0],[34.8462,-20.6701,2.0146],[34.8457,-20.6621,0.585],[34.8424,-20.6607,1.5447],[34.8354,-20.6493,0.0],[34.8299,-20.6504,2.4343],[34.8265,-20.6476,0.7511],[34.8235,-20.6474,1.7407],[34.8229,-20.6457,1.8992],[34.8268,-20.6465,0.7511],[34.8304,-20.6496,1.4505],[34.8363,-20.6476,2.5386],[34.8379,-20.6513,1.0635],[34.8404,-20.6521,1.9642],[34.8462,-20.6593,1.6884],[34.8479,-20.6565,1.1421],[34.8488,-20.6415,2.861],[34.8435,-20.6385,2.1577],[34.8376,-20.6437,1.6448],[34.8326,-20.6443,0.5],[34.8293,-20.6421,3.7419],[34.8279,-20.6371,1.0488],[34.8221,-20.639,3.0408],[34.8199,-20.6357,1.0],[34.8154,-20.6354,1.5832],[34.8213,-20.6351,1.4515],[34.8235,-20.6382,0.5],[34.826,-20.6354,2.5224],[34.8296,-20.6354,1.3618],[34.8318,-20.6399,0.5],[34.8357,-20.6421,1.114],[34.8404,-20.6365,0.8129],[34.8451,-20.6357,1.8625],[34.849,-20.6376,0.0],[34.8504,-20.6351,0.0],[34.8468,-20.6279,0.0],[34.8413,-20.6262,0.0],[34.8393,-20.6218,0.0],[34.8349,-20.6207,0.0],[34.8301,-20.6132,2.2062],[34.8276,-20.6046,0.0],[34.824,-20.6007,0.0],[34.8193,-20.599,0.8455],[34.8085,-20.5843,0.0],[34.8007,-20.5851,2.4767],[34.7996,-20.5874,0.6494],[34.7985,-20.5843,0.4253],[34.8004,-20.5832,0.0],[34.7982,-20.5812,0.0],[34.7951,-20.5812,0.0],[34.7926,-20.5854,1.0051],[34.7851,-20.584,0.0],[34.7832,-20.5871,4.041],[34.7757,-20.5868,0.8259],[34.7749,-20.5901,3.1047],[34.7735,-20.5904,1.7714],[34.774,-20.5862,2.2324],[34.7721,-20.5849,1.4821],[34.7818,-20.586,0.6459],[34.7829,-20.5849,0.6459],[34.779,-20.5793,5.9487],[34.7807,-20.5754,3.7053],[34.784,-20.5751,5.1954],[34.7888,-20.5785,0.0],[34.7854,-20.5635,0.866],[34.7821,-20.5604,1.6453],[34.779,-20.5615,2.708],[34.779,-20.5596,1.6504],[34.7743,-20.556,1.8225],[34.7729,-20.5512,0.0],[34.7682,-20.5526,2.8671],[34.7693,-20.5501,0.0],[34.7668,-20.5474,0.0],[34.7576,-20.5485,1.6313],[34.7554,-20.5507,0.3992],[34.7538,-20.5454,0.0],[34.7499,-20.5457,1.3477],[34.7432,-20.5412,0.0],[34.7396,-20.5412,0.0],[34.7382,-20.544,2.7033],[34.7407,-20.5468,0.5103],[34.7396,-20.5501,2.8603],[34.7365,-20.541,1.6825],[34.7493,-20.5376,1.9019],[34.7501,-20.5351,3.0959],[34.7501,-20.5249,7.0473],[34.7451,-20.5165,0.6253],[34.7363,-20.5121,0.0],[34.7363,-20.5149,1.8018],[34.7326,-20.5135,0.0],[34.7246,-20.5176,0.0],[34.7107,-20.5187,0.7262],[34.706,-20.5224,0.0],[34.7049,-20.5249,0.7656],[34.7062,-20.5257,0.7656],[34.704,-20.5263,2.331],[34.7024,-20.531,0.0],[34.7088,-20.5365,0.0],[34.7171,-20.5387,0.0],[34.7243,-20.5476,0.9215],[34.7257,-20.5579,3.4857],[34.7243,-20.5621,0.0],[34.7285,-20.5618,0.7832],[34.7324,-20.5646,0.0],[34.7349,-20.5687,2.5991],[34.7351,-20.5713,3.4848],[34.7329,-20.5732,0.5869],[34.7343,-20.5762,3.6787],[34.7315,-20.5737,3.6283],[34.7335,-20.5696,3.9168],[34.7313,-20.5657,2.1314],[34.7285,-20.5637,0.0],[34.7235,-20.5632,2.7713],[34.724,-20.5554,1.6964],[34.7218,-20.5468,0.7825],[34.7165,-20.541,2.2445],[34.7079,-20.5382,2.4581],[34.7054,-20.536,0.0],[34.7015,-20.5357,0.353],[34.7018,-20.5385,1.1072],[34.7043,-20.5404,1.1447],[34.7051,-20.5435,1.0359],[34.704,-20.5435,2.9208],[34.6999,-20.5374,1.3947],[34.701,-20.5349,0.353],[34.6993,-20.5312,0.0],[34.7001,-20.526,0.0],[34.6968,-20.526,0.6007],[34.6965,-20.524,0.0],[34.6943,-20.5237,1.2117],[34.6949,-20.5215,0.1274],[34.6876,-20.5221,2.2114],[34.6846,-20.5199,0.8406],[34.6829,-20.5212,0.6964],[34.6865,-20.5346,0.0],[34.6943,-20.5382,0.474],[34.6943,-20.5424,0.5295],[34.6918,-20.5476,2.828],[34.6935,-20.5518,1.9794],[34.6924,-20.559,0.9021],[34.7015,-20.5626,3.3985],[34.7079,-20.5754,1.7152],[34.7101,-20.5762,3.2873],[34.7124,-20.5804,1.5512],[34.7068,-20.5757,3.366],[34.7021,-20.5649,1.5458],[34.6996,-20.5624,0.7915],[34.6924,-20.5613,3.7517],[34.6893,-20.559,2.6593],[34.6888,-20.5562,2.536],[34.6921,-20.5526,1.0],[34.689,-20.5465,1.8994],[34.6926,-20.5426,0.5295],[34.6929,-20.5387,0.474],[34.6849,-20.536,0.7427],[34.6832,-20.5343,0.0],[34.6832,-20.5299,0.0],[34.6793,-20.528199999999998,0.7971],[34.6763,-20.5349,2.3511],[34.681,-20.5426,1.1706],[34.681,-20.5451,0.5],[34.6801,-20.5479,0.5],[34.6743,-20.5529,3.0975],[34.6735,-20.5626,1.9955],[34.6768,-20.5668,0.5],[34.6813,-20.5649,3.1065],[34.6843,-20.5668,3.4302],[34.6854,-20.5696,0.5],[34.6915,-20.5713,4.0565],[34.6849,-20.5715,4.5055],[34.6818,-20.5671,0.5],[34.6782,-20.5687,1.9323],[34.6729,-20.5679,0.5],[34.674,-20.571,2.5944],[34.6732,-20.5818,2.9193],[34.6693,-20.5835,3.1771],[34.6668,-20.5774,1.5254],[34.6679,-20.5715,0.5],[34.6668,-20.5682,0.5],[34.6635,-20.5646,3.7099],[34.6624,-20.5607,1.1571],[34.6599,-20.5596,1.7924],[34.6626,-20.549,3.5366],[34.6671,-20.5418,1.1538],[34.6671,-20.5243,1.8111],[34.6693,-20.5204,2.692],[34.6746,-20.5182,0.0],[34.6726,-20.5157,0.0],[34.6618,-20.5179,0.0],[34.6529,-20.5237,2.027],[34.636,-20.5229,0.5],[34.6276,-20.5271,0.5],[34.6268,-20.529,2.0372],[34.6188,-20.528199999999998,5.2871],[34.6118,-20.5235,1.6318],[34.6087,-20.5268,2.2093],[34.609,-20.5321,1.21],[34.6032,-20.5321,3.146],[34.6021,-20.5376,4.1253],[34.5993,-20.5393,2.5421],[34.6013,-20.5379,4.577],[34.6018,-20.5312,4.9492],[34.6079,-20.5318,0.5],[34.6085,-20.5304,0.5],[34.6076,-20.528199999999998,2.2933],[34.6054,-20.5299,3.2278],[34.6021,-20.529,1.9272],[34.6018,-20.5243,1.8737],[34.5988,-20.526,3.0905],[34.5999,-20.5232,4.5695],[34.6024,-20.5226,3.8018],[34.604,-20.529,1.9272],[34.6063,-20.5276,0.5],[34.6063,-20.524,0.5],[34.6115,-20.5204,2.6485],[34.6235,-20.5246,0.5],[34.6296,-20.5182,0.5],[34.6332,-20.5168,0.5],[34.6329,-20.511,1.1541],[34.6346,-20.5085,2.3442],[34.6354,-20.5085,2.0551],[34.634,-20.5112,1.1541],[34.6346,-20.5151,1.556],[34.6368,-20.5165,0.5],[34.6479,-20.5182,0.125],[34.6549,-20.5165,0.0],[34.6563,-20.5149,0.0],[34.6546,-20.5101,3.5441],[34.6571,-20.5024,1.1608],[34.6504,-20.4887,1.3422],[34.6451,-20.4849,3.6108],[34.6418,-20.4785,1.7292],[34.6393,-20.4779,1.653],[34.6385,-20.4796,2.4686],[34.6399,-20.4926,2.9649],[34.6376,-20.494,2.9132],[34.6276,-20.4879,2.7669],[34.6251,-20.4796,2.2427],[34.6154,-20.4749,2.9457],[34.616,-20.4737,2.2721],[34.6257,-20.4782,1.5572],[34.6288,-20.4868,4.6572],[34.6351,-20.4896,1.7291],[34.6376,-20.4926,2.3584],[34.6387,-20.4924,2.3584],[34.6371,-20.4796,2.4686],[34.6382,-20.4768,1.8803],[34.6421,-20.4774,2.7084],[34.6465,-20.4846,3.0257],[34.6512,-20.4868,1.0712],[34.6571,-20.4735,3.9354],[34.6493,-20.4687,4.2813],[34.646,-20.4643,1.4066],[34.6368,-20.4612,1.6395],[34.639,-20.4518,2.5448],[34.6376,-20.4499,1.6396],[34.6399,-20.4504,3.0038],[34.6387,-20.4599,0.5],[34.651,-20.4662,4.1028],[34.6613,-20.4549,2.2827],[34.6599,-20.4496,0.5],[34.6699,-20.4435,0.0],[34.671,-20.439,1.3464],[34.6768,-20.4354,0.0],[34.676,-20.4246,1.7327],[34.6738,-20.421,0.0],[34.6638,-20.4146,0.5394],[34.6618,-20.4162,0.7359],[34.6629,-20.4265,0.0],[34.6593,-20.4346,3.0122],[34.6404,-20.4407,1.2019],[34.641,-20.439,3.6727],[34.6446,-20.4376,4.1344],[34.6557,-20.4354,1.2203],[34.6587,-20.4326,1.9833],[34.6582,-20.4268,0.5645],[34.6596,-20.4235,0.0],[34.6565,-20.4176,0.0],[34.6568,-20.401,0.7413],[34.6535,-20.3999,5.7701],[34.6457,-20.403199999999998,1.946],[34.6501,-20.3993,2.8322],[34.6563,-20.3974,0.0],[34.6621,-20.3876,3.3187],[34.6601,-20.3838,1.3016],[34.6515,-20.3785,1.3001],[34.6515,-20.3749,1.0],[34.6554,-20.3735,3.7105],[34.6529,-20.3757,1.0],[34.6529,-20.3782,1.3001],[34.6649,-20.3849,4.1291],[34.666,-20.3915,3.8577],[34.6621,-20.3999,0.5988],[34.6632,-20.4021,0.0],[34.6662,-20.4024,0.0],[34.6676,-20.4001,0.8999],[34.6757,-20.401,0.0],[34.6768,-20.3949,0.0],[34.6826,-20.3901,0.0],[34.6832,-20.3849,0.375],[34.6804,-20.3821,1.9765],[34.6821,-20.3793,4.1487],[34.684,-20.3799,1.5386],[34.6846,-20.3815,2.1032],[34.6826,-20.3804,1.5386],[34.6826,-20.3815,1.99],[34.6876,-20.3868,1.9476],[34.6896,-20.3829,4.6756],[34.6935,-20.3821,0.0],[34.6979,-20.3771,2.2237],[34.7035,-20.3782,0.0],[34.7071,-20.3754,0.488],[34.7101,-20.3762,2.2788],[34.711,-20.3746,2.2788],[34.7065,-20.3707,4.1936],[34.7038,-20.3651,2.1982],[34.7001,-20.3632,3.4769],[34.6996,-20.3593,0.5258],[34.7018,-20.3582,0.0],[34.7012,-20.3557,0.0],[34.6985,-20.354,6.5249],[34.6979,-20.3476,0.0],[34.6907,-20.3365,0.0],[34.6862,-20.336,0.0],[34.6813,-20.339,0.0],[34.6785,-20.3463,4.3204],[34.6726,-20.3404,0.0],[34.6712,-20.3404,0.0],[34.6701,-20.3437,1.5422],[34.6696,-20.3401,2.9438],[34.6726,-20.3385,0.0],[34.6724,-20.3354,0.0],[34.6662,-20.3335,1.7373],[34.6587,-20.3349,3.3272],[34.6538,-20.3304,2.376],[34.6529,-20.3265,3.1037],[34.654,-20.3262,2.816],[34.6551,-20.3307,2.376],[34.6579,-20.3324,2.763],[34.6662,-20.329,4.7023],[34.6732,-20.3324,1.3956],[34.6765,-20.3318,0.0],[34.6793,-20.3299,0.0],[34.6818,-20.3235,2.2633],[34.6851,-20.3229,0.4098],[34.6901,-20.3165,4.5702],[34.6937,-20.3162,3.2143],[34.6982,-20.3104,6.0161],[34.7001,-20.3118,1.4567],[34.7007,-20.3087,3.2591],[34.7032,-20.3068,1.3326],[34.7107,-20.3043,4.0917],[34.7171,-20.2843,2.3247],[34.7168,-20.2829,0.3907],[34.7143,-20.2832,1.708],[34.7201,-20.2757,0.0],[34.7196,-20.2721,3.3421],[34.721,-20.2721,3.3421],[34.7207,-20.2687,5.5333],[34.7221,-20.2687,1.886],[34.7215,-20.2676,3.0845],[34.7246,-20.2643,0.6307],[34.7246,-20.2593,2.4749],[34.7287,-20.2568,0.0],[34.7337,-20.2462,0.0],[34.7337,-20.2426,0.91],[34.7374,-20.2396,0.0],[34.7404,-20.2318,0.0],[34.7401,-20.2287,0.0],[34.7349,-20.2304,0.7884],[34.7321,-20.2343,0.5],[34.7296,-20.2451,3.4252],[34.7251,-20.2474,3.0282],[34.7246,-20.251,4.8596],[34.7243,-20.2474,3.0282],[34.7276,-20.2443,1.0],[34.7293,-20.2379,2.7814],[34.7287,-20.231,1.4162],[34.7307,-20.2268,0.9721],[34.7346,-20.2221,0.0],[34.7404,-20.221,0.0],[34.7418,-20.2154,0.0],[34.7343,-20.2151,1.6593],[34.7337,-20.2176,5.1325],[34.7315,-20.2182,4.0156],[34.7279,-20.2146,0.0],[34.7271,-20.2196,2.7656],[34.7243,-20.224,1.6608],[34.7185,-20.224,0.0],[34.7179,-20.2257,5.8745],[34.7199,-20.2276,2.4604],[34.7168,-20.2271,4.291],[34.7168,-20.2237,3.6422],[34.721,-20.2221,2.6362],[34.7218,-20.2201,3.083],[34.7238,-20.2229,2.5001],[34.7263,-20.219,0.7779],[34.7276,-20.2124,0.0],[34.7249,-20.2104,0.0],[34.7196,-20.2099,3.9939],[34.7193,-20.2082,0.5777],[34.7118,-20.2046,2.7948],[34.7085,-20.2007,0.0],[34.7082,-20.1954,0.3672],[34.7051,-20.1971,1.085],[34.7068,-20.1932,2.9538],[34.7051,-20.1887,1.0002],[34.6979,-20.1837,2.7827],[34.6949,-20.1835,3.822],[34.6988,-20.1832,3.68],[34.7082,-20.1863,2.3094],[34.7085,-20.1829,7.4078],[34.7035,-20.1751,4.4747],[34.6985,-20.1726,0.3954],[34.6949,-20.1729,0.0],[34.6835,-20.1824,2.6387],[34.686,-20.1793,0.0],[34.6754,-20.1785,2.4533],[34.6732,-20.1743,0.375],[34.6696,-20.174,0.5],[34.6699,-20.1757,3.2998],[34.6685,-20.1757,2.7915],[34.6671,-20.1726,0.5],[34.6629,-20.1712,2.9558],[34.6626,-20.1643,2.8623],[34.6671,-20.1507,5.9093],[34.6668,-20.1432,2.3088],[34.6632,-20.1413,3.7203],[34.6679,-20.1421,3.5217],[34.669,-20.1443,1.5902],[34.6674,-20.1479,2.2856],[34.671,-20.1485,1.5455],[34.6693,-20.1554,1.5029],[34.6649,-20.1626,3.5434],[34.6651,-20.1679,3.9642],[34.6682,-20.1712,5.2456],[34.6735,-20.1724,2.9077],[34.6793,-20.1765,0.0],[34.6829,-20.1749,0.0],[34.6915,-20.1657,5.2981],[34.6985,-20.1654,0.0],[34.6999,-20.1635,0.0],[34.6982,-20.1624,6.9171],[34.6993,-20.1593,6.7653],[34.7004,-20.1593,6.7653],[34.7001,-20.1612,8.2454],[34.7085,-20.1601,0.0],[34.7146,-20.1518,2.3103],[34.7207,-20.1521,0.0],[34.7199,-20.1471,0.5],[34.7238,-20.144,2.4581],[34.7243,-20.1443,2.4581],[34.721,-20.1468,0.5],[34.724,-20.151,4.9659],[34.7235,-20.1535,3.6117],[34.7188,-20.1543,0.0],[34.7151,-20.1582,0.0],[34.721,-20.1599,0.0],[34.7263,-20.1574,1.8909],[34.7329,-20.159,2.073],[34.7424,-20.1574,4.625],[34.746,-20.1593,1.7496],[34.7513,-20.1685,0.0],[34.7624,-20.1726,0.8819],[34.7674,-20.169,1.0296],[34.7701,-20.164,1.8804],[34.7679,-20.1612,4.759],[34.7699,-20.1615,0.0],[34.7726,-20.1571,1.1925],[34.7762,-20.1557,4.0874],[34.7801,-20.1474,0.0],[34.779,-20.1451,0.0],[34.7751,-20.144,0.5481],[34.7801,-20.1418,0.0],[34.7804,-20.1393,1.1287],[34.7718,-20.1046,0.0],[34.764,-20.0915,4.4078],[34.7615,-20.0901,4.4484],[34.7576,-20.0785,1.6169],[34.7538,-20.0754,5.6757],[34.7543,-20.0724,1.2081],[34.7568,-20.0701,2.3075],[34.7551,-20.0671,0.0],[34.7529,-20.0462,0.0],[34.7524,-20.0232,0.0],[34.7499,-20.0207,0.5],[34.7479,-20.0215,0.5],[34.7487,-20.031,3.1949],[34.7457,-20.0229,2.7954],[34.7465,-20.0193,1.2741],[34.7487,-20.0182,0.375],[34.7496,-20.0054,3.735],[34.7521,-20.0065,3.471],[34.7499,-20.0121,3.6422],[34.7507,-20.014,0.0],[34.7549,-20.0074,0.0],[34.7551,-20.0015,0.5557],[34.7574,-19.9982,0.0],[34.7574,-19.9746,0.6712],[34.7599,-19.9718,2.003],[34.7615,-19.9654,0.0],[34.7632,-19.9549,0.0],[34.7626,-19.9465,0.0],[34.7651,-19.9354,0.0],[34.764,-19.9268,0.0],[34.7612,-19.9229,0.7293],[34.7621,-19.9029,0.0],[34.761,-19.8974,0.0],[34.7574,-19.8921,1.0749],[34.7743,-19.8557,0.0],[34.8424,-19.8482,2.525],[34.8604,-19.8493,6.2328],[34.8774,-19.8524,3.1749],[34.8904,-19.8496,0.0],[34.9157,-19.8321,0.9041],[34.9329,-19.816,1.4841],[34.9451,-19.8099,0.0],[34.9596,-19.7999,2.9738],[34.9643,-19.7996,0.4],[34.9646,-19.7965,2.0877],[34.9685,-19.7915,0.0],[34.9807,-19.7893,1.8622],[34.9799,-19.7921,3.1779],[34.9815,-19.7921,0.7217],[34.9826,-19.7904,3.9884],[34.981,-19.7887,1.8622],[34.9829,-19.7854,2.9835],[34.9893,-19.7807,1.3374],[34.9946,-19.781,2.1374],[34.9996,-19.776,1.1286],[35.0024,-19.7801,3.2396],[34.9996,-19.7821,3.4273],[35.0029,-19.7807,3.2396],[35.0346,-19.7515,0.843],[35.0401,-19.7485,1.8589],[35.0407,-19.7454,0.0],[35.0443,-19.7457,0.0],[35.059,-19.7337,0.0],[35.0618,-19.7287,3.5581],[35.079,-19.721,0.0],[35.0818,-19.7182,0.2026],[35.0838,-19.7121,0.427],[35.0882,-19.7132,0.0],[35.0938,-19.7104,2.5436],[35.0965,-19.7129,6.0332],[35.1037,-19.7085,1.8539],[35.1049,-19.7054,4.2367],[35.1057,-19.7071,2.7844],[35.1049,-19.709,0.7412],[35.1063,-19.709,0.0],[35.1218,-19.6965,0.0],[35.1271,-19.6899,0.0],[35.1387,-19.686,3.4322],[35.1793,-19.6504,3.7134],[35.1793,-19.6485,8.2732],[35.1824,-19.6482,0.0],[35.1988,-19.6324,2.0543],[35.226,-19.6121,0.0],[35.2271,-19.609,4.202],[35.2324,-19.6051,1.1365],[35.2296,-19.6043,2.3668],[35.2313,-19.6001,2.85],[35.2346,-19.5999,4.1845],[35.2307,-19.604,2.3668],[35.236,-19.6049,0.0],[35.2513,-19.590699999999998,3.4911],[35.2501,-19.5876,4.2746],[35.2521,-19.5882,2.2337],[35.2565,-19.5849,0.0],[35.2604,-19.5796,2.5354],[35.269,-19.574,0.0],[35.2685,-19.5724,2.956],[35.2713,-19.5724,0.8012],[35.2768,-19.5685,3.0839],[35.2776,-19.5663,4.0807],[35.2782,-19.5676,4.0807],[35.2765,-19.5699,0.375],[35.2665,-19.5779,0.0],[35.2624,-19.5835,0.4753],[35.2637,-19.5826,0.0],[35.2996,-19.5487,0.7086],[35.3271,-19.5265,0.6835],[35.3271,-19.5257,0.9115],[35.3232,-19.5265,1.8915],[35.3215,-19.5279,4.0185],[35.3185,-19.526,2.4605],[35.326,-19.5237,1.9107],[35.3293,-19.5199,0.9672],[35.329,-19.5179,1.9893],[35.3329,-19.5176,0.0],[35.3363,-19.514,5.19],[35.3404,-19.5129,1.8373],[35.3432,-19.5082,2.4442],[35.3485,-19.5068,1.2338],[35.3518,-19.5021,1.5085],[35.3529,-19.5035,0.9551],[35.3554,-19.5021,0.0],[35.4046,-19.4546,0.0],[35.4065,-19.4496,2.504],[35.4029,-19.4501,3.5073],[35.4018,-19.4557,3.0461],[35.3904,-19.4643,1.4844],[35.3929,-19.4599,0.0],[35.396,-19.4593,6.6677],[35.4012,-19.454,0.0],[35.4018,-19.4487,0.6563],[35.4093,-19.4454,0.0],[35.4146,-19.4399,0.0],[35.4157,-19.4354,2.9958],[35.4193,-19.4326,0.0],[35.421,-19.4282,0.9331],[35.4274,-19.4243,0.5],[35.4285,-19.421,0.8207],[35.4257,-19.4185,3.0455],[35.4282,-19.419,4.5254],[35.4318,-19.4226,2.5872],[35.4443,-19.4074,3.9844],[35.459,-19.3926,0.0],[35.4588,-19.3913,0.0],[35.4543,-19.3913,1.8307],[35.4512,-19.3882,2.206],[35.4488,-19.3899,2.6207],[35.449,-19.3946,2.3881],[35.4474,-19.389,3.4558],[35.4493,-19.3871,0.7353],[35.449,-19.3846,1.1414],[35.4538,-19.3801,4.8163],[35.454,-19.3729,3.7169],[35.4654,-19.3671,0.375],[35.4643,-19.3607,1.2248],[35.4674,-19.3582,3.1386],[35.4685,-19.359,5.1474],[35.4654,-19.3621,2.6435],[35.4679,-19.369,1.0991],[35.4665,-19.3718,3.3307],[35.4607,-19.3724,0.0],[35.4585,-19.3746,0.9135],[35.4596,-19.3774,0.0],[35.4588,-19.384,0.0],[35.4635,-19.3818,1.7685],[35.4668,-19.3821,0.0],[35.476,-19.3665,7.2063],[35.4874,-19.3546,0.0],[35.4879,-19.3513,0.0],[35.4832,-19.3535,0.0],[35.4868,-19.3476,5.5645],[35.4851,-19.3443,1.7406],[35.4874,-19.3404,3.0954],[35.4893,-19.3415,2.2321],[35.4921,-19.3399,0.5],[35.4924,-19.3362,3.3907],[35.4954,-19.3393,3.1311],[35.501,-19.3318,1.7399],[35.5021,-19.3337,2.0547],[35.4993,-19.3351,2.5313],[35.499,-19.3388,1.1971],[35.506,-19.3301,0.8832],[35.516,-19.3215,0.0],[35.5179,-19.3129,0.0],[35.5157,-19.316,0.0],[35.5146,-19.3151,0.0],[35.519,-19.3076,3.2164],[35.519,-19.3062,0.5],[35.5165,-19.3054,0.5],[35.5243,-19.3032,0.5],[35.5243,-19.2985,0.5],[35.5268,-19.2946,0.5],[35.5276,-19.296,0.5],[35.5262,-19.2988,1.3445],[35.5279,-19.3001,0.5],[35.5285,-19.3046,0.0],[35.5296,-19.3043,1.6325],[35.5515,-19.2796,0.7914],[35.5729,-19.2599,1.4221],[35.5735,-19.2576,1.8506],[35.5768,-19.2568,0.0],[35.5896,-19.2451,0.8718],[35.5968,-19.2368,0.0],[35.5962,-19.2357,0.0],[35.5932,-19.2365,0.4822],[35.5896,-19.2438,1.5434],[35.5826,-19.2443,0.5],[35.581,-19.2468,2.3772],[35.5807,-19.2424,2.5662],[35.5868,-19.2407,0.8304],[35.5885,-19.2362,0.0],[35.5876,-19.236,0.4058],[35.5854,-19.2379,4.4698],[35.5849,-19.2349,3.1269],[35.5868,-19.2357,0.4058],[35.589,-19.2307,0.4736],[35.5901,-19.2324,0.6609],[35.5921,-19.2321,0.0],[35.5993,-19.2229,0.6616],[35.6007,-19.2235,0.0],[35.6046,-19.2204,0.0],[35.6071,-19.2151,1.7609],[35.6129,-19.2112,3.2282],[35.6115,-19.2165,0.0],[35.6054,-19.224,0.0],[35.6063,-19.2251,0.0],[35.6129,-19.2165,0.0],[35.6215,-19.2001,4.3762],[35.6512,-19.1707,5.114],[35.6768,-19.1487,0.0],[35.6774,-19.1474,1.6225],[35.6704,-19.1474,2.1298],[35.6654,-19.1429,0.5],[35.6629,-19.1462,0.5],[35.6618,-19.1524,1.5584],[35.6604,-19.1449,2.769],[35.6565,-19.1454,2.0354],[35.6615,-19.1432,1.5901],[35.6632,-19.139,7.6595],[35.6676,-19.1362,9.7461],[35.6712,-19.131,8.1691],[35.671,-19.1274,8.1437],[35.6743,-19.1243,0.0],[35.6746,-19.1199,0.0],[35.6787,-19.121,2.2044],[35.6843,-19.1185,0.9437],[35.6849,-19.1151,0.0],[35.6813,-19.1099,0.5],[35.6879,-19.0996,2.4436],[35.6857,-19.0954,5.3953],[35.6874,-19.0899,4.5881],[35.684,-19.0907,1.8554],[35.6846,-19.089,2.031],[35.6871,-19.0884,0.5],[35.6882,-19.0896,4.5881],[35.6876,-19.0957,0.5],[35.6904,-19.0996,0.5],[35.6849,-19.1085,5.163],[35.689,-19.1171,0.0],[35.6918,-19.1171,0.0],[35.6946,-19.1124,6.9675],[35.6985,-19.1099,1.9113],[35.7004,-19.1113,2.0777],[35.7001,-19.1162,1.5287],[35.7074,-19.1149,0.0],[35.7185,-19.1018,1.6346],[35.7343,-19.0901,0.0],[35.7337,-19.0888,0.0],[35.7276,-19.0946,0.0],[35.7199,-19.096,0.5],[35.7196,-19.0985,8.4133],[35.7171,-19.1004,1.7927],[35.7126,-19.0996,5.7582],[35.7146,-19.099,4.8424],[35.7165,-19.0999,1.7927],[35.7185,-19.0946,0.5],[35.7188,-19.0862,0.5],[35.7149,-19.0871,3.0427],[35.7174,-19.0807,1.3977],[35.7218,-19.0782,1.6585],[35.7185,-19.0829,2.074],[35.7263,-19.0843,0.0],[35.7374,-19.074,5.4226],[35.7407,-19.0735,0.7223],[35.7421,-19.0774,0.0],[35.7457,-19.0701,5.1976],[35.7549,-19.0615,3.2479],[35.7899,-19.0371,1.4883],[35.8404,-19.0065,3.4208],[35.8946,-18.9796,0.0],[35.9065,-18.9713,0.0],[35.9076,-18.9674,0.0],[35.8993,-18.9674,0.5],[35.8913,-18.9604,0.5],[35.8771,-18.9649,6.7937],[35.8707,-18.9693,2.6502],[35.8649,-18.9693,7.9797],[35.8701,-18.9685,2.6502],[35.8774,-18.964,3.2155],[35.8779,-18.9621,6.6454],[35.8818,-18.9612,14.1683],[35.8882,-18.9532,0.5],[35.8935,-18.9524,2.3736],[35.9087,-18.956,0.0],[35.9129,-18.9532,0.0],[35.9199,-18.9529,4.4392],[35.926,-18.956,2.254],[35.9254,-18.9571,0.721],[35.9324,-18.9624,2.8513],[35.9501,-18.9557,0.0],[35.9549,-18.9518,0.0],[35.9579,-18.9449,0.0],[35.9576,-18.9387,0.0],[35.951,-18.9329,1.8738],[35.951,-18.9238,0.0],[35.9549,-18.9149,0.0],[35.9615,-18.9101,3.2128],[35.9676,-18.909,0.9672],[35.9699,-18.9068,2.4932],[35.9874,-18.9029,4.3445],[35.9912,-18.9049,0.0],[36.0043,-18.9054,2.7456],[36.0076,-18.9154,2.2503],[35.9982,-18.9196,4.6868],[35.9918,-18.9271,4.5056],[35.9843,-18.9307,0.0],[35.9863,-18.9343,3.1388],[35.9907,-18.9365,0.5294],[36.0113,-18.9349,0.0],[36.0404,-18.9265,0.0],[36.0426,-18.924,0.0],[36.0426,-18.9218,0.0],[36.0399,-18.9201,0.0],[36.039,-18.9174,0.0],[36.0407,-18.9115,0.0],[36.0429,-18.9099,0.0],[36.0557,-18.9082,0.0],[36.0646,-18.9018,4.2633],[36.0687,-18.9007,1.6224],[36.0774,-18.8937,4.3136],[36.0804,-18.8946,2.345],[36.0765,-18.8987,4.4605],[36.0685,-18.903199999999998,2.3833],[36.0685,-18.9049,0.0],[36.0774,-18.9085,2.0326],[36.0829,-18.9088,2.1475],[36.0926,-18.8999,11.7075],[36.0924,-18.9029,9.2029],[36.081,-18.9132,2.2919],[36.0768,-18.9104,0.3651],[36.0668,-18.911,2.4701],[36.0649,-18.9146,2.1952],[36.0574,-18.9185,1.8603],[36.0585,-18.9204,2.2079],[36.0612,-18.9221,2.7253],[36.0682,-18.9224,1.487],[36.0896,-18.9174,3.5571],[36.1115,-18.916,0.5666],[36.1176,-18.9112,0.0],[36.119,-18.9024,0.0],[36.1213,-18.8993,0.0],[36.1215,-18.8935,0.0],[36.1196,-18.8943,0.6298],[36.1188,-18.8987,0.0],[36.1168,-18.899,0.8389],[36.1176,-18.8924,3.4919],[36.1237,-18.8893,0.0],[36.1226,-18.8874,3.7695],[36.1268,-18.8854,0.0],[36.1304,-18.881,0.0],[36.1288,-18.8743,2.0972],[36.1312,-18.8685,0.0],[36.1396,-18.8679,9.6528],[36.1401,-18.8715,0.0],[36.1454,-18.8765,2.43],[36.1529,-18.8893,0.0],[36.1585,-18.891,3.6809],[36.1954,-18.8796,1.1789],[36.2051,-18.8738,0.5],[36.2115,-18.8668,1.6594],[36.224,-18.861,3.3116],[36.2215,-18.8637,4.5393],[36.2146,-18.8665,2.0529],[36.2049,-18.876,0.5],[36.1943,-18.8815,3.7991],[36.1632,-18.8926,0.0],[36.1501,-18.8943,0.0],[36.1465,-18.8979,0.0],[36.1479,-18.9007,0.0],[36.1585,-18.9018,0.0],[36.2251,-18.8899,0.0],[36.2485,-18.8879,0.0],[36.2649,-18.8843,1.8065],[36.2707,-18.8851,0.0],[36.2785,-18.8829,5.8031],[36.2826,-18.8796,3.416],[36.2874,-18.8804,0.0],[36.2863,-18.8779,7.2246],[36.2824,-18.8776,7.3611],[36.2776,-18.8749,9.7153],[36.2818,-18.8749,6.9667],[36.2829,-18.871,5.2111],[36.2849,-18.8732,6.3667],[36.2871,-18.8726,4.123],[36.2874,-18.8704,3.205],[36.289,-18.8704,3.205],[36.2885,-18.8693,1.8715],[36.2935,-18.864,0.0],[36.2943,-18.8599,0.0],[36.2935,-18.8568,0.0],[36.2912,-18.8574,14.0902],[36.2849,-18.8549,10.5334],[36.2757,-18.8557,0.0],[36.271,-18.8582,9.3063],[36.2654,-18.8571,8.4432],[36.2629,-18.8482,1.0],[36.2557,-18.8454,5.931],[36.251,-18.8371,7.0564],[36.2476,-18.8346,12.0715],[36.2476,-18.8326,4.6708],[36.2518,-18.8371,7.0564],[36.2568,-18.8451,1.0],[36.2635,-18.8465,4.4217],[36.2676,-18.8551,1.4477],[36.2743,-18.8551,0.25],[36.281,-18.8526,6.5682],[36.2813,-18.8507,3.5215],[36.2618,-18.8249,5.1426],[36.2557,-18.8118,2.8303],[36.1491,-18.7202,4.2356],[36.1478,-18.7139,1.9317],[36.1073,-18.6795,2.8327],[36.1074,-18.6656,3.3634],[36.1117,-18.6521,4.7125],[36.1036,-18.6231,2.054],[36.1272,-18.6086,4.4732],[36.1331,-18.5915,3.5373],[36.1458,-18.5928,6.7603],[36.1392,-18.5814,6.0705],[36.1393,-18.566,4.5665],[36.1425,-18.5458,5.4945],[36.1406,-18.5288,4.3327],[36.1279,-18.4834,2.0],[36.1187,-18.4643,3.4339],[36.0813,-18.3684,4.8013],[36.0743,-18.355,5.6266],[36.0585,-18.3423,6.5395],[36.0326,-18.3394,5.0],[36.0259,-18.3336,7.3763],[36.0259,-18.3248,7.1641],[36.0138,-18.3054,7.6863],[35.9976,-18.3068,5.5],[35.9853,-18.3001,5.5],[35.9698,-18.2907,5.5],[35.9494,-18.269,6.0],[35.933,-18.2658,9.3079],[35.909,-18.2658,6.5],[35.903,-18.2616,10.4733],[35.8928,-18.2469,7.5],[35.8873,-18.2254,8.0],[35.8611,-18.174,12.5368],[35.8414,-18.151,11.0],[35.8374,-18.1225,11.0],[35.8275,-18.1102,11.8881],[35.8163,-18.1041,11.5],[35.7941,-18.0977,15.4904],[35.7811,-18.0914,14.8738],[35.7553,-18.0748,13.0],[35.7295,-18.0641,13.5],[35.7054,-18.0476,14.0],[35.6905,-18.0422,16.7456],[35.677,-18.0344,15.0],[35.5838,-18.0181,17.6797],[35.5656,-18.0099,19.4767],[35.5599,-18.0041,19.3536],[35.556399999999996,-17.9961,18.9786],[35.5372,-17.9907,19.8333],[35.5209,-17.9837,20.8156],[35.5107,-17.9663,20.1525],[35.5026,-17.9577,20.1412],[35.4911,-17.9487,22.2344],[35.4765,-17.9299,21.804],[35.4467,-17.8742,24.6753],[35.4198,-17.8361,22.5],[35.3903,-17.8021,23.5],[35.3649,-17.7582,25.5],[35.3516,-17.7569,28.8057],[35.3477,-17.7493,28.4953],[35.3496,-17.7373,27.5077],[35.3445,-17.7257,26.5],[35.3299,-17.7149,28.3371],[35.284,-17.7012,29.3076],[35.229,-17.6759,31.8299],[35.2102,-17.6655,32.1523],[35.1892,-17.6504,32.5512],[35.1713,-17.6294,32.5],[35.1594,-17.6094,33.5],[35.1407,-17.5658,34.5],[35.0951,-17.5134,37.8014],[35.0829,-17.4973,39.4956],[35.0631,-17.4543,40.7126],[35.0568,-17.4354,41.0],[35.0214,-17.3633,45.8692],[35.0149,-17.355,44.9131],[35.0084,-17.3523,45.6094],[34.9995,-17.352,45.0],[34.9783,-17.3136,46.8068],[34.9757,-17.2821,46.5],[34.9711,-17.2671,47.941],[34.9598,-17.2592,47.5],[34.9545,-17.2475,49.372],[34.9581,-17.2391,48.5],[34.9217,-17.1717,54.2158],[34.9156,-17.1546,53.6139],[34.9036,-17.1064,57.4486],[34.8948,-17.0872,55.5],[34.8886,-17.0684,58.4836],[34.8648,-17.0299,59.815],[34.8377,-17.0105,61.0409],[34.8262,-16.9968,61.6847],[34.8187,-16.9762,61.5],[34.797,-16.9444,63.0],[34.7653,-16.9109,66.2507],[34.7513,-16.8999,66.4509],[34.7304,-16.8908,69.0738],[34.6916,-16.8841,68.5197],[34.661,-16.8767,69.8909],[34.6294,-16.8603,70.5],[34.6012,-16.8404,72.5892],[34.5867,-16.8285,73.0],[34.5661,-16.8071,74.9424],[34.5335,-16.783,78.1742],[34.534,-16.8084,78.4889],[34.5308,-16.8188,78.6416],[34.5142,-16.837,76.9176],[34.5074,-16.8528,87.8498],[34.5074,-16.8639,96.005],[34.5349,-16.8664,103.9698],[34.4662,-16.9931,223.1731],[34.4496,-16.999,209.2107],[34.3042,-17.0316,306.2115],[34.2632,-17.0604,330.7361],[34.1748,-17.2225,262.2729],[34.2068,-17.239,229.7724],[34.2247,-17.2432,219.3344],[34.2304,-17.2609,226.7504],[34.2292,-17.2688,233.2339],[34.2255,-17.2754,240.5273],[34.2076,-17.2905,275.1368],[34.1878,-17.3848,430.98],[34.202,-17.4118,340.9278],[34.2037,-17.422,303.1297],[34.1768,-17.5162,393.1235],[34.1404,-17.5927,453.9521],[34.1628,-17.6286,405.4287],[34.161,-17.6903,464.5283],[34.1718,-17.6996,437.3807],[34.2027,-17.7144,404.8038],[34.2086,-17.7449,401.9001],[34.1996,-17.8222,360.9056],[34.1926,-17.8452,349.2096],[34.194,-17.8716,361.8837],[34.2144,-17.87,351.3932],[34.2324,-17.8769,319.8269],[34.2394,-17.8776,325.6593],[34.2538,-17.8966,304.805],[34.2629,-17.9035,293.8641],[34.2718,-17.9077,282.0931],[34.2769,-17.9149,267.2556],[34.2787,-17.9205,264.5167],[34.2881,-17.9334,295.0992],[34.2793,-17.9539,328.6069],[34.2741,-17.9599,387.6405],[34.2651,-17.9766,395.2136],[34.2785,-17.9988,433.7843],[34.2902,-18.0671,335.3583],[34.2892,-18.0716,246.4329],[34.2822,-18.0792,225.8391],[34.2458,-18.2106,295.1254],[34.23,-18.2099,318.6812],[34.196,-18.1842,364.1736],[34.1896,-18.1844,370.5789],[34.1497,-18.253,330.1078],[34.1368,-18.2587,332.7931],[34.1241,-18.2582,412.5114],[34.1119,-18.2523,365.7003],[34.1035,-18.2426,439.3963],[34.0725,-18.2145,391.3723],[34.0693,-18.2151,385.148],[34.0637,-18.2194,380.5878],[34.0584,-18.2143,386.4448],[34.0567,-18.2049,387.1039],[34.0502,-18.1973,388.8404],[34.045,-18.1865,392.686],[34.0456,-18.1778,396.2482],[34.0487,-18.1706,388.7576],[34.0439,-18.1656,391.1505],[34.0325,-18.1602,400.9132],[34.0273,-18.1544,415.3786],[34.026,-18.1391,400.0023],[34.0277,-18.1313,409.4312],[34.0261,-18.127,416.9459],[34.0138,-18.1206,425.1751],[34.0078,-18.1233,416.5219],[33.9992,-18.1323,410.8896],[33.952,-18.1259,431.0618],[33.9235,-18.1684,502.4866],[33.8673,-18.2253,550.3442],[33.8585,-18.2321,533.8845],[33.8468,-18.2366,524.6511],[33.837,-18.2624,503.7094],[33.8268,-18.2706,500.3814],[33.814,-18.2766,482.726],[33.8065,-18.2825,473.4238],[33.8062,-18.2897,470.0861],[33.8125,-18.2932,477.8727],[33.8237,-18.2921,477.0243],[33.8263,-18.3057,470.0833],[33.8237,-18.3175,462.2663],[33.8199,-18.3256,471.487],[33.8236,-18.344,470.5081],[33.8426,-18.3745,459.6101],[33.8315,-18.4074,446.6712],[33.8334,-18.4171,446.0607],[33.8412,-18.4202,438.3511],[33.8505,-18.4083,437.6094],[33.8588,-18.4058,435.9662],[33.8556,-18.4443,431.949],[33.8582,-18.4518,445.7431],[33.8701,-18.4622,421.3287],[33.8668,-18.4699,420.3717],[33.8681,-18.4914,411.1287],[33.8714,-18.5004,417.0674],[33.8821,-18.5173,407.6431],[33.8745,-18.5221,408.0725],[33.8627,-18.5137,408.0808],[33.8458,-18.5152,425.7344],[33.8379,-18.5225,437.4596],[33.836,-18.5267,433.1424],[33.8098,-18.5296,457.2556],[33.7854,-18.5258,488.8312],[33.7739,-18.522,510.0569],[33.7723,-18.601,447.1941],[33.7295,-18.6377,413.2056],[33.7283,-18.6657,384.3767],[33.7219,-18.6758,378.8062],[33.7197,-18.6844,370.8843],[33.7222,-18.6958,356.1276],[33.7411,-18.7154,341.5791],[33.7465,-18.7191,338.6258],[33.7522,-18.7166,323.2892],[33.7619,-18.7152,332.9942],[33.8041,-18.7441,284.9637],[33.8161,-18.7657,300.0814],[33.8363,-18.7834,296.7726],[33.8475,-18.7855,249.3653],[33.872,-18.7845,282.4728],[33.8904,-18.7869,239.0784],[33.9201,-18.8347,226.4898],[33.9217,-18.848,217.8001],[33.9256,-18.8598,212.2503],[33.9294,-18.8677,210.8027],[33.9359,-18.8741,216.3896],[33.951,-18.8863,168.8741],[34.0056,-18.9199,151.5615],[34.0104,-18.9257,141.1087],[34.0145,-18.9215,145.8142],[34.0162,-18.9167,148.3866],[34.0229,-18.917,132.6731],[34.0282,-18.9209,164.928],[34.0391,-18.9211,213.2628],[34.0543,-18.9467,150.2984],[34.0444,-18.9632,259.3723],[34.0319,-18.9995,218.773],[33.9382,-19.2428,179.8384],[33.9363,-19.597,147.6802],[33.7408,-19.5987,108.1946],[33.7431,-19.6089,102.3668],[33.7422,-19.6179,92.2699],[33.7492,-19.6306,87.3046],[33.7637,-19.6446,84.8164],[33.7685,-19.6548,79.1873],[33.83,-19.7291,69.3249],[33.833,-19.7431,67.8862],[33.8481,-19.77,50.9546],[33.827,-19.8123,119.1167],[33.8286,-19.9265,39.4294],[33.7857,-19.9511,52.8645],[33.7721,-19.9699,47.652],[33.7609,-19.9889,62.2582],[33.7324,-19.9877,68.2814],[33.6847,-19.9471,121.5176],[33.6647,-19.9328,131.3928],[33.631,-19.9448,129.3191],[33.6123,-19.9363,131.6436],[33.6009,-19.9188,135.5604],[33.5982,-19.9362,126.4115],[33.5546,-19.9594,131.3022],[33.5372,-19.9827,137.4321],[33.5301,-19.9883,138.0642],[33.5179,-19.9852,140.8869],[33.5103,-19.9886,138.7684],[33.5038,-20.0087,141.6817],[33.4854,-19.9937,140.7597],[33.4796,-19.9984,142.9624],[33.4768,-20.0038,144.8898],[33.4694,-20.0339,148.1714],[33.4568,-20.0502,155.4819],[33.4486,-20.0517,150.2146],[33.4378,-20.0499,150.1749],[33.4263,-20.0545,150.6843],[33.4187,-20.0614,154.6752],[33.4155,-20.0698,160.1034],[33.4096,-20.0735,158.7463],[33.3992,-20.0755,155.9086],[33.391,-20.0795,156.3403],[33.3891,-20.0892,157.3919],[33.4055,-20.1144,167.728],[33.4425,-20.1485,187.2858],[33.4594,-20.1673,171.4811],[33.4631,-20.1801,160.4482],[33.4787,-20.2057,139.5447],[33.4832,-20.2184,140.0612],[33.4912,-20.2325,128.5887],[33.4975,-20.255,121.2178],[33.5073,-20.2637,115.6745],[33.5114,-20.2708,108.6821],[33.4948,-20.2778,122.4942],[33.4784,-20.2931,119.053],[33.4756,-20.3,126.0564],[33.4742,-20.3081,124.4008],[33.476,-20.3181,128.7567],[33.4932,-20.3411,161.4745],[33.4961,-20.3477,160.1831],[33.4958,-20.3532,163.5327],[33.4934,-20.3554,165.0304],[33.4768,-20.4171,195.7546],[33.6087,-20.5417,270.7093],[33.6199,-20.5366,269.9075],[33.634,-20.5389,266.6163],[33.6453,-20.5375,264.8774],[33.661,-20.5285,250.5706],[33.6612,-20.5402,259.7737],[33.6552,-20.5543,268.4812],[33.6487,-20.5819,261.4808],[33.647,-20.5969,241.3049],[33.6577,-20.6043,236.0433],[33.6674,-20.6178,232.1126],[33.6824,-20.6272,219.1397],[33.7178,-20.6446,198.1054],[33.7241,-20.7024,170.1387],[33.7297,-20.7087,160.1652],[33.7529,-20.7194,141.6902],[33.7802,-20.7276,131.3302],[33.7967,-20.7288,126.0711],[33.8197,-20.7397,117.4162],[33.8329,-20.7377,113.144],[33.8463,-20.7381,108.9448],[33.8549,-20.7511,102.969],[33.8675,-20.7608,97.0656],[33.9106,-20.8048,72.1318],[33.8967,-21.0021,85.454],[33.9947,-21.0066,72.8706],[34.1082,-21.0751,83.1916],[34.0936,-21.1299,92.7208],[34.0399,-21.1666,103.6084],[34.0319,-21.2234,113.1516],[34.0123,-21.2436,121.4048],[34.0052,-21.2686,88.9683],[34.0063,-21.3111,44.3097],[34.0388,-21.3068,48.1552],[34.0508,-21.3018,42.7524],[34.0808,-21.2938,45.0426],[34.1047,-21.2901,41.5696],[34.1292,-21.3104,43.2035],[34.1428,-21.3166,39.4845],[34.1723,-21.3137,37.2929],[34.1875,-21.3079,37.8767],[34.2033,-21.2808,42.6652],[34.2094,-21.2673,36.4603],[34.2286,-21.2607,33.0835],[34.2445,-21.265,37.8401],[34.2564,-21.2732,32.9417],[34.2669,-21.284,33.8764],[34.2929,-21.3005,28.3156],[34.2999,-21.3073,32.1533],[34.324,-21.3141,29.2428],[34.3361,-21.3091,27.2417],[34.3478,-21.2937,33.493],[34.3741,-21.2737,24.0594],[34.386,-21.2561,29.6228],[34.4401,-21.214,24.1237],[34.4507,-21.1793,24.3574],[34.4671,-21.165,20.7701],[34.4843,-21.1643,19.0353],[34.4982,-21.1599,19.02],[34.5132,-21.1435,18.6962],[34.5288,-21.1385,18.0143],[34.5661,-21.1351,20.1368],[34.5783,-21.1308,16.3622],[34.6007,-21.1176,17.5613],[34.6113,-21.1081,16.8308],[34.621,-21.1022,17.7981],[34.6409,-21.0931,14.6101],[34.6717,-21.092,14.3806],[34.6935,-21.102,13.5071],[34.7043,-21.1126,12.6844],[34.7216,-21.122,14.2158],[34.7519,-21.1221,15.3603],[34.7722,-21.1127,9.9921],[34.8072,-21.0791,10.8837],[34.869,-21.0335,8.0668],[34.93,-21.0042,7.189],[34.9415,-20.9965,4.1918],[34.9514,-20.9928,2.0336],[34.9637,-20.99,2.3983],[34.9904,-20.9871,3.8186],[35.0135,-20.9821,1.9922]]],
[[[34.6712,-20.5781,3.7028],[34.6715,-20.5729,0.5],[34.6693,-20.5762,0.5],[34.6699,-20.5796,0.5],[34.6712,-20.5781,3.7028]]],
[[[34.6901,-20.5571,1.515],[34.6915,-20.5582,0.9021],[34.6918,-20.556,0.0],[34.6904,-20.5562,2.536],[34.6901,-20.5571,1.515]]],
[[[34.6768,-20.5415,3.7691],[34.6749,-20.541,1.3375],[34.6682,-20.5512,1.4558],[34.6685,-20.559,2.4756],[34.6704,-20.5604,0.5],[34.6726,-20.5593,1.0499],[34.6732,-20.5526,1.422],[34.6785,-20.5457,0.5],[34.6768,-20.5415,3.7691]]],
[[[34.6721,-20.528199999999998,0.0],[34.6735,-20.5279,0.0],[34.6738,-20.5246,0.5009],[34.6718,-20.5257,0.0],[34.6721,-20.528199999999998,0.0]]],
[[[34.629,-20.5221,0.5],[34.6282,-20.5232,0.5],[34.6301,-20.521,0.5],[34.6293,-20.5212,0.5],[34.629,-20.5221,0.5]]],
[[[34.7007,-20.4335,2.9522],[34.6999,-20.4321,0.0],[34.6951,-20.4329,0.0],[34.6888,-20.4376,0.0],[34.684,-20.4437,1.6382],[34.6862,-20.4468,1.1564],[34.6779,-20.4421,0.0],[34.6632,-20.4485,0.5],[34.6615,-20.4507,0.5],[34.6621,-20.4557,1.9713],[34.6529,-20.4662,0.992],[34.6529,-20.4685,0.5],[34.6587,-20.4735,1.8332],[34.6585,-20.4782,3.3991],[34.6543,-20.4843,0.5],[34.6538,-20.4887,3.6498],[34.6599,-20.5004,3.3796],[34.6587,-20.5132,0.0],[34.6771,-20.5104,1.6576],[34.6821,-20.5129,0.6806],[34.6843,-20.516,1.446],[34.6871,-20.5154,0.473],[34.6901,-20.5104,1.5938],[34.6849,-20.5065,1.4683],[34.6829,-20.4968,0.967],[34.6807,-20.496,0.5],[34.6724,-20.4985,2.224],[34.676,-20.496,3.7274],[34.6818,-20.4951,0.5],[34.6801,-20.4915,1.9901],[34.6846,-20.4979,3.4587],[34.6865,-20.506,2.7884],[34.6899,-20.5071,0.0],[34.6926,-20.506,0.0],[34.6937,-20.504,0.0],[34.6913,-20.4954,2.136],[34.6946,-20.4993,0.0],[34.6937,-20.4935,1.4413],[34.6971,-20.4915,0.375],[34.6979,-20.489,3.7105],[34.7012,-20.4882,0.5],[34.701,-20.4835,0.625],[34.6976,-20.4771,3.3847],[34.7021,-20.474,2.062],[34.7026,-20.4718,2.8515],[34.7035,-20.4732,2.7308],[34.6993,-20.4785,5.002],[34.7018,-20.4829,4.4042],[34.7035,-20.4829,3.8096],[34.7035,-20.4885,2.3922],[34.6993,-20.4926,2.087],[34.699,-20.4951,4.6071],[34.6976,-20.4937,0.0],[34.6957,-20.4971,0.0],[34.6965,-20.4993,0.0],[34.6982,-20.4985,0.679],[34.6982,-20.5029,0.0],[34.6999,-20.5029,0.8654],[34.7188,-20.4749,0.0],[34.7132,-20.4579,0.0],[34.711,-20.4574,1.4732],[34.7126,-20.4543,1.7656],[34.7118,-20.4496,0.6541],[34.7101,-20.4493,1.2052],[34.7121,-20.4474,0.0],[34.7101,-20.4424,0.0958],[34.7054,-20.4349,0.7214],[34.7007,-20.4335,2.9522]]],
[[[35.3282,-19.5246,0.9115],[35.3271,-19.5257,0.9115],[35.3343,-19.5201,0.0],[35.3288,-19.5232,0.9247],[35.3282,-19.5246,0.9115]]],
[[[35.466,-19.3704,5.9623],[35.4663,-19.3682,1.0991],[35.4626,-19.3707,6.4773],[35.4649,-19.3713,1.4886],[35.466,-19.3704,5.9623]]],
[[[35.4912,-19.344,0.5394],[35.4918,-19.3415,1.3771],[35.4871,-19.3429,0.0],[35.4879,-19.3449,0.0],[35.4912,-19.344,0.5394]]],
[[[35.4976,-19.3404,0.0],[35.4985,-19.3388,1.1971],[35.4954,-19.3404,0.9777],[35.494,-19.3443,0.125],[35.4949,-19.3443,0.125],[35.496,-19.3432,1.1243],[35.4976,-19.3404,0.0]]],
[[[35.6832,-19.1413,0.0],[35.6843,-19.1421,0.0],[35.6862,-19.1407,0.0],[35.6874,-19.1374,0.0],[35.6851,-19.1382,1.0919],[35.6832,-19.1413,0.0]]],
[[[35.6824,-19.1249,0.0],[35.6754,-19.124,0.0],[35.6693,-19.1362,0.5],[35.6746,-19.1374,1.661],[35.6813,-19.1324,3.4983],[35.6862,-19.1332,0.0],[35.6876,-19.1304,0.0],[35.6843,-19.129,2.8692],[35.6824,-19.1249,0.0]]],
[[[35.696,-19.1146,1.6946],[35.6946,-19.1135,1.7364],[35.6932,-19.1165,1.1035],[35.6901,-19.119,0.0],[35.6904,-19.1224,0.0],[35.6946,-19.121,0.0],[35.696,-19.1146,1.6946]]],
[[[35.7218,-19.089,0.1504],[35.7204,-19.0868,0.5605],[35.7199,-19.0915,0.655],[35.7215,-19.091,0.471],[35.7218,-19.089,0.1504]]],
[[[35.8993,-18.9604,0.5],[35.8965,-18.9593,0.5],[35.8954,-18.9596,0.5],[35.8982,-18.9621,0.5],[35.8993,-18.9604,0.5]]],
[[[35.8896,-18.9565,0.5],[35.8876,-18.9557,1.0164],[35.8865,-18.9601,0.5],[35.8882,-18.9587,0.5],[35.8896,-18.9565,0.5]]],
[[[35.5201,-19.3124,0.125],[35.5199,-19.311,0.5],[35.5187,-19.3104,0.25],[35.5199,-19.3137,0.0],[35.5201,-19.3124,0.125]]],
[[[35.676,-19.1418,0.125],[35.676,-19.1387,0.0],[35.6718,-19.1404,0.5],[35.6726,-19.1426,0.805],[35.676,-19.1418,0.125]]],
[[[35.9846,-18.9215,0.0],[35.9835,-18.9207,0.0],[35.9813,-18.921,0.0],[35.9832,-18.9218,0.0],[35.9846,-18.9215,0.0]]],
[[[36.0029,-18.911,1.4721],[35.9949,-18.9101,0.523],[35.9918,-18.9118,1.2592],[35.9957,-18.9115,4.64],[35.9963,-18.9157,1.686],[35.999,-18.9162,3.9704],[36.0038,-18.9126,0.0],[36.0029,-18.911,1.4721]]],
[[[34.9901,-19.7865,3.0494],[34.989,-19.7857,2.5108],[34.9871,-19.7871,2.1645],[34.986,-19.7926,1.711],[34.9824,-19.7957,2.7177],[34.9774,-19.7965,2.6046],[34.9749,-19.8001,3.3565],[34.9715,-19.8007,1.2089],[34.9724,-19.8054,0.8617],[34.9821,-19.7999,0.0],[34.9915,-19.791,0.0],[34.9924,-19.7887,1.758],[34.9901,-19.7865,3.0494]]],
[[[34.9868,-19.7868,2.1645],[34.9874,-19.7854,2.8969],[34.9865,-19.7849,3.8287],[34.9857,-19.7874,3.2234],[34.9868,-19.7868,2.1645]]]]}
,"properties": {"GID_1": "MOZ.9_1","GID_0": "MOZ","country": "Mozambique","province": "Sofala","VARNAME_1": "NA","NL_NAME_1": "NA","TYPE_1": "Provincia","ENGTYPE_1": "Province","CC_1": "NA","HASC_1": "MZ.SO","ISO_1": "MZ-S","name": "Sofala.province","area_km2": 68282.57,"hist_schema_id": "Elevation0-9000","hist_area_km2": {"0": 9854.77,"25": 9624.9,"50": 8409.16,"75": 8235.93,"100": 5396.07,"125": 4237.06,"150": 4058.97,"175": 3817.87,"200": 2970.59,"225": 2601.44,"250": 2197.46,"275": 1587.24,"300": 1004.62,"325": 720.57,"350": 649.38,"375": 558.26,"400": 457.14,"425": 383.73,"450": 316.57,"475": 257.68,"500": 206.64,"525": 169.15,"550": 102.85,"575": 29.34,"600": 16.68,"625": 16.62,"650": 16.19,"675": 13.72,"700": 12.69,"725": 12.93,"750": 12.51,"775": 12.47,"800": 12.93,"825": 13.7,"850": 12.79,"875": 12.05,"900": 9.66,"925": 9.86,"950": 10.36,"975": 11.1,"1000": 10.62,"1025": 10.4,"1050": 10.82,"1075": 11.14,"1100": 11.2,"1125": 9.61,"1150": 8.55,"1175": 8.83,"1200": 8.11,"1225": 6.96,"1250": 6.94,"1275": 6.7,"1300": 6.16,"1325": 5.65,"1350": 6.84,"1375": 6.48,"1400": 8.23,"1425": 9.52,"1450": 9.68,"1475": 10.44,"1500": 10.02,"1525": 8.29,"1550": 6.52,"1575": 5.55,"1600": 5.45,"1625": 4.75,"1650": 4.73,"1675": 4.27,"1700": 1.95,"1725": 1.21,"1750": 1.25,"1775": 0.8,"1800": 0.78}}}