{"type": "Feature","bbox": [32.1665,-14.9103,32.8219,-14.2034],"geometry": {"type": "MultiPolygon","coordinates": [[[[32.8217,-14.7139,449.6412],[32.8124,-14.7187,465.3434],[32.7947,-14.7035,500.0759],[32.779,-14.6684,518.0694],[32.7738,-14.6382,526.7386],[32.7668,-14.6228,538.426],[32.7659,-14.6112,531.4286],[32.7555,-14.6003,541.8447],[32.7562,-14.5879,541.3678],[32.7539,-14.5779,540.9249],[32.7403,-14.5329,641.5613],[32.7248,-14.517,553.6145],[32.7034,-14.4818,579.2922],[32.6809,-14.4574,581.6562],[32.6826,-14.4351,602.9368],[32.6812,-14.4127,621.457],[32.673,-14.3932,805.3901],[32.6563,-14.3652,652.7116],[32.6479,-14.3421,661.3271],[32.6435,-14.3232,656.6031],[32.6486,-14.2866,675.8627],[32.6442,-14.2786,675.2425],[32.6434,-14.2664,680.6773],[32.6417,-14.2588,686.7566],[32.6392,-14.2553,689.6997],[32.6422,-14.2431,704.7784],[32.6396,-14.2347,711.4838],[32.6432,-14.2034,731.0227],[32.6107,-14.2145,751.908],[32.5357,-14.2464,877.2034],[32.5272,-14.2484,865.6858],[32.4512,-14.2828,1151.65],[32.3959,-14.2945,929.696],[32.3581,-14.2996,908.2444],[32.3345,-14.3046,919.7023],[32.3214,-14.3054,926.5189],[32.3151,-14.3079,912.6179],[32.2423,-14.323,932.3549],[32.2054,-14.3359,931.5583],[32.1827,-14.3419,915.3079],[32.1665,-14.3489,890.8269],[32.1848,-14.3655,866.5659],[32.1884,-14.3805,860.9439],[32.1859,-14.3878,883.4341],[32.2018,-14.4165,847.143],[32.2101,-14.4286,843.3667],[32.2162,-14.4359,845.5538],[32.2355,-14.4485,836.6266],[32.2439,-14.4729,816.151],[32.2464,-14.5108,814.2273],[32.254,-14.5297,793.5208],[32.2597,-14.5286,794.5184],[32.2642,-14.5309,788.7914],[32.2661,-14.5428,774.1318],[32.3089,-14.6001,660.6688],[32.3193,-14.6029,664.2237],[32.3903,-14.5954,615.1127],[32.4006,-14.6028,622.2856],[32.4077,-14.619,609.8771],[32.4178,-14.6334,608.3505],[32.4433,-14.6605,627.3512],[32.4538,-14.683,555.7223],[32.4542,-14.6923,554.2778],[32.4589,-14.7045,569.5349],[32.4811,-14.7322,553.4351],[32.49,-14.7496,534.8041],[32.521,-14.7543,517.0264],[32.5312,-14.7632,521.5905],[32.5375,-14.7742,521.4564],[32.5606,-14.7743,503.4109],[32.5629,-14.7789,496.5112],[32.5604,-14.7875,499.0465],[32.5663,-14.8291,499.0573],[32.5739,-14.8417,476.9592],[32.5889,-14.8497,477.0972],[32.5961,-14.8701,474.5798],[32.6072,-14.8798,462.5654],[32.6138,-14.8912,463.9923],[32.6127,-14.9012,467.4535],[32.6169,-14.9103,464.675],[32.626,-14.9052,466.2867],[32.6372,-14.8588,483.915],[32.6437,-14.8447,490.0021],[32.6539,-14.8372,496.2802],[32.7002,-14.812,532.3631],[32.7392,-14.7798,493.927],[32.8219,-14.7164,459.049],[32.8217,-14.7139,449.6412]]]]}
,"properties": {"GID_3": "MOZ.10.4.3_1","GID_0": "MOZ","country": "Mozambique","GID_1": "MOZ.10_1","province": "Tete","NL_NAME_1": "NA","GID_2": "MOZ.10.4_1","county": "Chifunde","NL_NAME_2": "NA","city": "N'Sadzo","VARNAME_3": "NA","NL_NAME_3": "NA","TYPE_3": "Localidad","ENGTYPE_3": "Locality","CC_3": "NA","HASC_3": "NA","name": "N'Sadzo.city","area_km2": 2595.443,"hist_schema_id": "Elevation0-9000","hist_area_km2": {"450": 0.841,"475": 19.49,"500": 104.27,"525": 154.276,"550": 178.216,"575": 133.69,"600": 121.461,"625": 123.207,"650": 149.332,"675": 147.422,"700": 145.098,"725": 137.913,"750": 131.162,"775": 119.243,"800": 116.892,"825": 126.59,"850": 143.38,"875": 157.319,"900": 134.348,"925": 95.454,"950": 57.271,"975": 31.942,"1000": 16.66,"1025": 13.251,"1050": 9.923,"1075": 7.047,"1100": 5.033,"1125": 3.863,"1150": 2.239,"1175": 1.87,"1200": 1.603,"1225": 1.315,"1250": 0.884,"1275": 0.842,"1300": 0.678,"1325": 0.966,"1350": 0.431,"1375": 0.021}}}