{"type":"Feature","properties":{"GID_3":"MOZ.1.11.4_1","GID_0":"MOZ","country":"Mozambique","GID_1":"MOZ.1_1","province":"CaboDelgado","NL_NAME_1":"NA","GID_2":"MOZ.1.11_1","county":"Namuno","NL_NAME_2":"NA","city":"Meloco","VARNAME_3":"NA","NL_NAME_3":"NA","TYPE_3":"Localidad","ENGTYPE_3":"Locality","CC_3":"NA","HASC_3":"NA","name":"Meloco.city"},
"geometry":{"type": "MultiPolygon","coordinates": [[[[39.186,-13.3047,403.9268],[39.1724,-13.3127,406.1378],[39.1686,-13.3215,400.0515],[39.1576,-13.3224,410.2628],[39.1505,-13.3273,405.6165],[39.1302,-13.3474,418.3176],[39.098,-13.3559,419.8825],[39.0835,-13.3566,424.8315],[39.0709,-13.3541,423.4662],[39.0633,-13.36,421.6982],[39.0567,-13.3628,427.0822],[39.0409,-13.3613,431.6684],[39.0204,-13.374,434.1981],[39.0148,-13.374,439.4796],[38.9962,-13.3894,441.4203],[38.9763,-13.3883,446.9863],[38.9676,-13.386,446.4469],[38.9604,-13.3801,448.0959],[38.9496,-13.3804,454.6971],[38.9387,-13.3829,454.075],[38.9324,-13.3823,455.2325],[38.9323,-13.4072,473.358],[38.9536,-13.4324,462.7817],[38.9535,-13.4428,466.9286],[38.9513,-13.4487,472.1364],[38.9465,-13.4543,478.0424],[38.9994,-13.5154,456.1914],[39.0393,-13.5684,431.1587],[39.0426,-13.5777,417.4925],[39.0547,-13.5834,409.2804],[39.068,-13.5947,383.7865],[39.0727,-13.6737,343.6299],[39.0669,-13.6804,342.5455],[39.0712,-13.6874,344.1362],[39.0766,-13.6916,339.2757],[39.0804,-13.6981,330.8867],[39.0853,-13.7018,323.0909],[39.0841,-13.7105,335.6969],[39.0891,-13.7191,320.3336],[39.0907,-13.7298,309.2573],[39.0962,-13.7374,322.7268],[39.1042,-13.7403,312.4062],[39.1275,-13.7441,308.7002],[39.133,-13.7666,303.1922],[39.1483,-13.7816,299.0465],[39.1582,-13.7835,294.5379],[39.1647,-13.7801,296.4524],[39.1796,-13.7786,298.5055],[39.1818,-13.7866,292.3966],[39.1897,-13.7878,289.4526],[39.2003,-13.7923,289.3069],[39.2093,-13.802,292.0622],[39.2204,-13.8079,282.9899],[39.2211,-13.7995,289.6891],[39.2197,-13.7897,295.6961],[39.2249,-13.773,299.3821],[39.2311,-13.7675,303.9716],[39.2414,-13.763,315.3817],[39.2455,-13.7529,319.5886],[39.2655,-13.7419,334.7693],[39.3167,-13.7243,315.9276],[39.32,-13.7184,314.533],[39.3186,-13.7063,306.4325],[39.328,-13.6988,313.2001],[39.3494,-13.6701,289.6573],[39.3646,-13.6635,290.5222],[39.3747,-13.6618,286.4551],[39.3781,-13.6586,284.1283],[39.368899999999996,-13.6367,297.145],[39.3761,-13.6282,299.8571],[39.3691,-13.6254,302.5677],[39.366,-13.604,311.5117],[39.3605,-13.6003,306.2424],[39.3326,-13.5391,322.8618],[39.3233,-13.5393,329.3712],[39.3071,-13.5255,344.4414],[39.3042,-13.5165,342.874],[39.3054,-13.5068,347.2616],[39.3014,-13.4958,340.0667],[39.295,-13.4925,344.6121],[39.2862,-13.4928,359.2503],[39.2808,-13.4868,357.4963],[39.2732,-13.4837,361.7914],[39.2675,-13.4735,357.2125],[39.2634,-13.4619,371.5782],[39.2719,-13.4531,375.1193],[39.2733,-13.4338,393.2412],[39.2566,-13.4096,428.4164],[39.2482,-13.4082,415.4328],[39.2426,-13.4041,423.3069],[39.2244,-13.379,475.9465],[39.2208,-13.3686,469.2416],[39.1977,-13.3312,437.1342],[39.186,-13.3047,403.9268]]]]}}