{"type":"Feature","properties":{"GID_3":"MOZ.4.3.3_1","GID_0":"MOZ","country":"Mozambique","GID_1":"MOZ.4_1","province":"Manica","NL_NAME_1":"NA","GID_2":"MOZ.4.3_1","county":"Guro","NL_NAME_2":"NA","city":"Mandie","VARNAME_3":"NA","NL_NAME_3":"NA","TYPE_3":"Localidad","ENGTYPE_3":"Locality","CC_3":"NA","HASC_3":"NA","name":"Mandie.city"},
"geometry":{"type": "MultiPolygon","coordinates": [[[[33.8888,-16.6374,164.0863],[33.8986,-16.6174,146.9839],[33.9107,-16.6071,134.0544],[33.9312,-16.5948,120.4382],[33.9411,-16.5863,114.0176],[33.9619,-16.5777,102.1668],[33.9458,-16.5623,100.875],[33.9213,-16.5453,102.0],[33.9032,-16.5283,103.0],[33.8867,-16.4992,104.0],[33.8669,-16.4776,105.5],[33.8486,-16.461,106.5],[33.8323,-16.4309,108.0],[33.8121,-16.407,109.0],[33.8047,-16.3958,117.7774],[33.7924,-16.3871,121.8275],[33.7847,-16.3853,110.5],[33.7563,-16.3965,116.1369],[33.7248,-16.4121,125.5956],[33.7166,-16.4268,124.1791],[33.709,-16.4307,123.3709],[33.6848,-16.4201,149.6425],[33.6171,-16.4294,131.7361],[33.6053,-16.4293,134.0619],[33.5937,-16.4247,135.7662],[33.569,-16.4256,138.7201],[33.5425,-16.4321,144.7719],[33.5291,-16.4391,145.0087],[33.52,-16.4469,145.1603],[33.5009,-16.4696,149.6709],[33.4719,-16.4848,152.6371],[33.461,-16.5048,156.207],[33.4508,-16.5161,203.995],[33.4368,-16.5269,155.8397],[33.4353,-16.5382,196.4176],[33.4389,-16.5488,165.9805],[33.4431,-16.5804,185.3555],[33.44,-16.5898,168.6593],[33.4363,-16.5939,170.1512],[33.4454,-16.6336,221.0558],[33.4506,-16.6414,244.8966],[33.4681,-16.6533,256.1956],[33.4869,-16.6722,289.1626],[33.5001,-16.6816,310.0586],[33.5267,-16.6791,342.2248],[33.5536,-16.668,376.5388],[33.5639,-16.6633,398.6415],[33.5895,-16.644,428.734],[33.6026,-16.6362,410.6817],[33.6145,-16.6325,400.9601],[33.704,-16.6314,356.185],[33.7184,-16.6344,339.7815],[33.7353,-16.6438,310.9526],[33.7512,-16.6452,292.6066],[33.7779,-16.6434,259.7842],[33.7974,-16.645,255.6079],[33.8259,-16.653,219.9413],[33.8615,-16.6591,183.0271],[33.8743,-16.6455,173.628],[33.8888,-16.6374,164.0863]]]]}}