{"type":"Feature","properties":{"GID_3":"MOZ.4.2.6_1","GID_0":"MOZ","country":"Mozambique","GID_1":"MOZ.4_1","province":"Manica","NL_NAME_1":"NA","GID_2":"MOZ.4.2_1","county":"Gondola","NL_NAME_2":"NA","city":"Matsinho","VARNAME_3":"NA","NL_NAME_3":"NA","TYPE_3":"Localidad","ENGTYPE_3":"Locality","CC_3":"NA","HASC_3":"NA","name":"Matsinho.city"},
"geometry":{"type": "MultiPolygon","coordinates": [[[[33.4522,-18.6662,402.6434],[33.4411,-18.6879,428.7486],[33.4396,-18.7146,421.5533],[33.4316,-18.741,428.9761],[33.4332,-18.7643,478.0162],[33.4291,-18.7889,492.2734],[33.4316,-18.8286,534.1676],[33.4342,-18.8401,551.8604],[33.4323,-18.8566,575.3162],[33.4089,-18.9469,639.8475],[33.405,-18.9566,645.0331],[33.401,-18.9759,666.4122],[33.3953,-18.9816,685.0174],[33.3879,-18.9982,686.774],[33.3698,-19.03,648.8482],[33.3576,-19.0595,617.4257],[33.3369,-19.0758,607.6558],[33.3315,-19.0896,598.2365],[33.386,-19.1071,632.9271],[33.3861,-19.0883,675.9777],[33.3953,-19.0734,686.0728],[33.4905,-19.0686,647.0994],[33.4981,-19.0756,608.6652],[33.5072,-19.0719,594.5955],[33.5185,-19.0619,574.1658],[33.5238,-19.0438,564.0974],[33.5238,-19.034,562.2543],[33.528,-19.0268,552.1442],[33.541,-19.0105,529.8463],[33.5745,-18.9921,503.3533],[33.5781,-18.9799,499.7064],[33.5825,-18.9725,494.2886],[33.5969,-18.9564,487.7843],[33.6027,-18.9543,475.1461],[33.6096,-18.9546,480.9795],[33.6235,-18.9455,473.8884],[33.6376,-18.9461,465.4803],[33.6549,-18.9432,456.3532],[33.6562,-18.9345,442.3693],[33.6618,-18.9302,440.7243],[33.6787,-18.9415,436.7778],[33.6821,-18.9409,451.6668],[33.6864,-18.9303,428.399],[33.6946,-18.9213,423.9603],[33.7052,-18.9129,425.008],[33.6978,-18.908,413.1251],[33.6941,-18.9008,410.0195],[33.6998,-18.8935,408.3417],[33.7167,-18.8869,403.7896],[33.7431,-18.8835,392.2591],[33.7499,-18.8777,396.9441],[33.753,-18.8679,382.8672],[33.7713,-18.8637,381.3957],[33.7803,-18.8224,351.4772],[33.7882,-18.8192,347.0296],[33.8112,-18.7964,300.6246],[33.8363,-18.7834,296.7726],[33.8161,-18.7657,300.0814],[33.8041,-18.7441,284.9637],[33.7619,-18.7152,332.9942],[33.7522,-18.7166,323.2892],[33.7377,-18.7339,343.1932],[33.7161,-18.7307,340.2502],[33.6968,-18.722,347.1332],[33.6728,-18.7075,343.3192],[33.6477,-18.6748,346.6402],[33.6355,-18.6694,354.269],[33.6136,-18.6784,365.4633],[33.5842,-18.6874,375.2057],[33.5682,-18.6751,384.4446],[33.5104,-18.6655,396.915],[33.4878,-18.6632,397.8969],[33.4522,-18.6662,402.6434]]]]}}