{"type": "Feature","bbox": [39.3986,-15.0095,39.9683,-14.3979],"geometry": {"type": "MultiPolygon","coordinates": [[[[39.7398,-14.3982,280.9774],[39.7237,-14.3979,282.9116],[39.7192,-14.4023,283.6407],[39.7189,-14.4105,285.6104],[39.713,-14.4095,284.1392],[39.7083,-14.4053,284.632],[39.6894,-14.4152,289.0872],[39.685,-14.4253,293.4439],[39.6813,-14.4252,302.0069],[39.6727,-14.4334,301.5237],[39.6572,-14.4328,321.3689],[39.6438,-14.4439,316.3781],[39.6358,-14.4529,321.8705],[39.6182,-14.4625,330.833],[39.6178,-14.4723,342.3013],[39.6052,-14.5154,357.8993],[39.6123,-14.5368,372.2806],[39.6174,-14.546,393.3886],[39.6315,-14.5608,406.9221],[39.6457,-14.579,395.9146],[39.6552,-14.6151,364.7364],[39.6833,-14.6188,350.1904],[39.6842,-14.6264,346.7915],[39.6756,-14.6368,359.1928],[39.6613,-14.6464,383.3083],[39.631,-14.6602,316.2453],[39.6302,-14.6478,327.4175],[39.6167,-14.6338,335.084],[39.597,-14.6326,350.5341],[39.5821,-14.629,369.7355],[39.5653,-14.6273,373.2757],[39.5479,-14.6423,395.1296],[39.5425,-14.6542,374.8493],[39.5189,-14.68,370.1406],[39.5081,-14.6952,366.9388],[39.5063,-14.7005,358.1581],[39.5199,-14.7413,324.4724],[39.5222,-14.7695,324.9637],[39.4936,-14.8142,337.6399],[39.4821,-14.8573,288.3103],[39.479,-14.8633,311.1116],[39.4674,-14.8745,315.1068],[39.446,-14.8832,332.2932],[39.4248,-14.8897,341.1337],[39.4046,-14.9065,360.4351],[39.3988,-14.9307,389.5585],[39.3986,-14.9498,403.7979],[39.4117,-14.9791,355.6952],[39.4404,-15.0037,293.6203],[39.4556,-15.0078,276.132],[39.4691,-15.0073,271.8849],[39.4808,-15.0047,268.2899],[39.4946,-15.0095,269.7123],[39.521,-14.9948,267.11],[39.5359,-14.9925,265.6882],[39.5435,-14.9959,266.7481],[39.5479,-14.9922,258.7708],[39.5524,-14.9921,286.1514],[39.5736,-14.9986,243.3352],[39.5781,-14.9985,248.6813],[39.587,-14.9946,263.534],[39.5996,-15.0037,249.737],[39.6078,-15.007,235.0492],[39.6141,-15.0058,247.3805],[39.6256,-14.99,238.6482],[39.6294,-14.9782,230.2136],[39.6409,-14.9695,233.6395],[39.6594,-14.9379,231.6151],[39.7058,-14.919,213.758],[39.7317,-14.9181,205.7806],[39.749,-14.9046,206.1249],[39.7689,-14.8935,205.5081],[39.8007,-14.8992,211.1741],[39.8128,-14.8865,193.9828],[39.821,-14.8829,193.7013],[39.8278,-14.884,205.5676],[39.8338,-14.8823,196.8563],[39.8398,-14.8771,188.9812],[39.8502,-14.8732,185.6912],[39.858,-14.8675,181.0964],[39.8675,-14.8661,187.1901],[39.8706,-14.8714,178.2826],[39.8728,-14.8839,183.091],[39.8762,-14.8895,187.5916],[39.8811,-14.8932,170.9951],[39.8881,-14.8956,180.4423],[39.9102,-14.8983,166.7021],[39.9283,-14.9064,164.793],[39.9447,-14.9068,161.8441],[39.9683,-14.8985,163.9947],[39.9649,-14.889,165.2772],[39.9579,-14.8832,168.2906],[39.9579,-14.8444,175.4016],[39.9641,-14.8265,169.0799],[39.9425,-14.8235,188.8873],[39.924,-14.8265,195.2245],[39.9151,-14.8179,196.0739],[39.9171,-14.8121,195.6401],[39.8983,-14.8143,214.5],[39.8746,-14.8056,214.5],[39.8638,-14.7962,215.5485],[39.8528,-14.7909,215.7292],[39.8443,-14.7807,226.1349],[39.8405,-14.7624,227.6009],[39.8315,-14.749,242.9756],[39.8057,-14.6886,255.2259],[39.8058,-14.6781,258.9333],[39.8098,-14.6685,266.4232],[39.8239,-14.6522,298.9146],[39.8253,-14.6469,306.5636],[39.8253,-14.6386,310.6953],[39.8222,-14.6267,336.6703],[39.8222,-14.6058,348.958],[39.8253,-14.5877,353.6794],[39.8309,-14.5681,337.0462],[39.8046,-14.4875,368.3672],[39.7992,-14.4656,341.4017],[39.7878,-14.4393,336.6498],[39.7761,-14.4283,305.7842],[39.769,-14.4327,304.383],[39.7583,-14.4356,320.5591],[39.7425,-14.4442,335.6968],[39.7259,-14.4461,354.1123],[39.7275,-14.44,355.1162],[39.7378,-14.4312,319.8374],[39.7447,-14.4077,285.3618],[39.7442,-14.4033,282.2029],[39.7398,-14.3982,280.9774]]]]}
,"properties": {"GID_3": "MOZ.7.13.3_1","GID_0": "MOZ","country": "Mozambique","GID_1": "MOZ.7_1","province": "Nampula","NL_NAME_1": "NA","GID_2": "MOZ.7.13_1","county": "Muecate","NL_NAME_2": "NA","city": "Muecate","VARNAME_3": "NA","NL_NAME_3": "NA","TYPE_3": "Localidad","ENGTYPE_3": "Locality","CC_3": "NA","HASC_3": "NA","name": "Muecate.city","area_km2": 1905.184,"hist_schema_id": "Elevation0-9000","hist_area_km2": {"150": 0.594,"175": 26.435,"200": 50.945,"225": 116.953,"250": 191.389,"275": 258.597,"300": 298.361,"325": 287.856,"350": 299.763,"375": 237.435,"400": 102.766,"425": 19.348,"450": 3.158,"475": 1.763,"500": 1.845,"525": 1.189,"550": 1.21,"575": 0.861,"600": 0.861,"625": 0.677,"650": 0.738,"675": 0.759,"700": 0.615,"725": 0.328,"750": 0.082,"775": 0.185,"800": 0.082,"825": 0.103,"850": 0.062,"875": 0.041,"900": 0.062,"925": 0.082,"950": 0.041}}}