{"type": "Feature","bbox": [39.8833,-15.2204,40.4424,-14.8116],"geometry": {"type": "MultiPolygon","coordinates": [[[[39.9085,-15.1945,137.6025],[39.9201,-15.1804,161.5154],[39.9382,-15.1673,193.9856],[39.9516,-15.1646,187.8924],[39.9647,-15.1677,171.8276],[39.9706,-15.1655,167.4907],[39.9838,-15.1656,167.4269],[40.0,-15.1713,151.154],[40.009,-15.1853,143.5928],[40.0173,-15.1912,139.9023],[40.0256,-15.1932,135.6602],[40.03,-15.1965,138.9489],[40.035,-15.2067,131.3288],[40.0442,-15.2125,138.7181],[40.0531,-15.213,130.1695],[40.0752,-15.2197,113.2439],[40.108,-15.2204,103.8222],[40.1097,-15.2163,109.391],[40.1092,-15.1919,133.9536],[40.1129,-15.1839,144.4648],[40.1285,-15.171,155.5838],[40.1324,-15.1566,163.775],[40.1883,-15.1076,103.1385],[40.1954,-15.0997,98.0214],[40.2216,-15.0945,92.4484],[40.2314,-15.0945,99.3336],[40.2377,-15.0916,95.9338],[40.257,-15.0774,79.3697],[40.268,-15.0619,74.7908],[40.2792,-15.0576,75.3207],[40.2983,-15.0652,65.7577],[40.3063,-15.0715,63.0614],[40.3178,-15.0755,60.9335],[40.3302,-15.0736,57.0982],[40.3682,-15.04,42.6453],[40.3899,-15.0346,39.3284],[40.3975,-15.0377,34.815],[40.4234,-15.0346,33.4622],[40.4407,-15.029,26.5771],[40.4424,-15.0267,27.4511],[40.4392,-15.0234,29.2021],[40.4176,-15.0174,30.1154],[40.3991,-15.0144,32.1043],[40.3867,-15.0025,28.9084],[40.3847,-14.9948,49.1398],[40.3783,-14.992,53.4762],[40.3713,-14.9935,37.8718],[40.362,-15.0025,38.0057],[40.3565,-15.0007,40.5805],[40.3506,-14.9898,33.2286],[40.3408,-14.965,36.1874],[40.3399,-14.9369,55.7491],[40.3343,-14.9369,38.1551],[40.3189,-14.9249,72.9363],[40.3082,-14.9095,80.1036],[40.2688,-14.8834,82.1915],[40.2047,-14.8417,121.4323],[40.2047,-14.8444,112.5946],[40.1657,-14.8449,133.0968],[40.1495,-14.8221,132.4824],[40.1122,-14.8116,123.7819],[40.0971,-14.8378,141.3747],[40.069,-14.8385,144.1776],[40.0597,-14.8295,128.8091],[40.0488,-14.8542,136.4564],[40.0591,-14.8532,133.049],[40.0637,-14.8613,142.4835],[40.0687,-14.8766,153.8253],[40.0672,-14.8843,156.9578],[40.0531,-14.8949,175.7676],[40.0473,-14.9036,182.1476],[40.0441,-14.9133,164.062],[40.0368,-14.9421,148.305],[40.0367,-14.9616,153.3925],[40.0299,-14.9858,150.9303],[40.0299,-14.9988,140.4116],[40.0268,-15.0023,132.6991],[40.031,-15.0069,129.1504],[40.0433,-15.0079,123.7156],[40.0508,-15.0108,125.654],[40.0553,-15.0185,119.9191],[40.0485,-15.0209,117.8522],[40.0253,-15.0345,144.0509],[40.0096,-15.0407,155.1157],[40.0001,-15.041,169.0428],[39.9899,-15.0465,175.8973],[39.9779,-15.0469,194.206],[39.9615,-15.0508,213.5181],[39.9616,-15.0616,212.9483],[39.9407,-15.0619,227.3155],[39.9324,-15.0644,217.9887],[39.8833,-15.1087,247.1404],[39.888,-15.1194,216.1696],[39.8966,-15.133,190.3616],[39.8889,-15.1505,182.7013],[39.8931,-15.1598,170.5673],[39.9012,-15.171,151.1016],[39.9085,-15.1945,137.6025]]]]}
,"properties": {"GID_3": "MOZ.7.10.2_1","GID_0": "MOZ","country": "Mozambique","GID_1": "MOZ.7_1","province": "Nampula","NL_NAME_1": "NA","GID_2": "MOZ.7.10_1","county": "Monapo","NL_NAME_2": "NA","city": "Monapo-Sede","VARNAME_3": "NA","NL_NAME_3": "NA","TYPE_3": "Localidad","ENGTYPE_3": "Locality","CC_3": "NA","HASC_3": "NA","name": "Monapo-Sede.city","area_km2": 1213.9437,"hist_schema_id": "Elevation0-9000","hist_area_km2": {"25": 13.5365,"50": 47.1427,"75": 98.5681,"100": 189.6701,"125": 281.2809,"150": 291.3512,"175": 198.1027,"200": 78.9799,"225": 13.7968,"250": 1.4534,"275": 0.0614}}}