{"type":"Feature","properties":{"GID_3":"MOZ.1.9.2_1","GID_0":"MOZ","country":"Mozambique","GID_1":"MOZ.1_1","province":"CaboDelgado","NL_NAME_1":"NA","GID_2":"MOZ.1.9_1","county":"Mueda","NL_NAME_2":"NA","city":"Imbuho","VARNAME_3":"NA","NL_NAME_3":"NA","TYPE_3":"Localidad","ENGTYPE_3":"Locality","CC_3":"NA","HASC_3":"NA","name":"Imbuho.city"},
"geometry":{"type": "MultiPolygon","coordinates": [[[[39.793,-11.4433,374.4476],[39.5465,-11.3896,667.1364],[39.59,-11.3992,667.4105],[39.5916,-11.4856,740.0266],[39.6618,-11.62,631.8804],[39.6833,-11.6347,642.4343],[39.7105,-11.6321,531.7753],[39.738,-11.6318,509.5781],[39.7648,-11.6529,278.9703],[39.7649,-11.6597,286.3169],[39.772,-11.6318,254.4728],[39.7931,-11.6265,211.8428],[39.8068,-11.6309,192.6315],[39.8222,-11.6282,169.6726],[39.8344,-11.6326,174.7958],[39.8541,-11.6262,175.7698],[39.8706,-11.5478,318.1744],[39.793,-11.4433,374.4476]]]]}}