{"type":"Feature","properties":{"GID_3":"MOZ.7.8.3_1","GID_0":"MOZ","country":"Mozambique","GID_1":"MOZ.7_1","province":"Nampula","NL_NAME_1":"NA","GID_2":"MOZ.7.8_1","county":"Mogovolas","NL_NAME_2":"NA","city":"Muatua","VARNAME_3":"NA","NL_NAME_3":"NA","TYPE_3":"Localidad","ENGTYPE_3":"Locality","CC_3":"NA","HASC_3":"NA","name":"Muatua.city"},
"geometry":{"type": "MultiPolygon","coordinates": [[[[39.6647,-15.9265,79.3399],[39.6996,-15.9269,89.9287],[39.7058,-15.9209,75.4404],[39.712,-15.918,72.7403],[39.7244,-15.915,62.5037],[39.7383,-15.915,58.8138],[39.7337,-15.906,72.6511],[39.7089,-15.8881,82.6192],[39.6996,-15.8792,92.6247],[39.678,-15.8494,131.5121],[39.6811,-15.8285,119.0968],[39.689,-15.8209,106.5678],[39.7058,-15.8195,107.1283],[39.717,-15.8277,102.1747],[39.7237,-15.8295,101.9712],[39.743,-15.8292,86.0884],[39.7677,-15.8344,101.702],[39.7801,-15.8285,92.221],[39.7832,-15.8255,82.9818],[39.7925,-15.8225,73.9687],[39.8172,-15.8225,49.7359],[39.8203,-15.8195,50.8285],[39.8122,-15.8053,53.2922],[39.7934,-15.7982,66.4239],[39.7823,-15.7814,75.1646],[39.7645,-15.7684,76.8694],[39.777,-15.739,107.3755],[39.7841,-15.7331,90.1219],[39.7889,-15.7255,79.4826],[39.8053,-15.7138,72.814],[39.7849,-15.7064,67.2045],[39.7739,-15.7002,72.8546],[39.7615,-15.6853,82.4442],[39.7439,-15.6724,82.7887],[39.7342,-15.6621,90.2122],[39.7399,-15.6376,108.188],[39.7361,-15.6307,92.0706],[39.7117,-15.6158,103.771],[39.7014,-15.6064,107.57],[39.6936,-15.605,110.5854],[39.6766,-15.6083,118.0895],[39.6454,-15.6251,171.5447],[39.62,-15.629,192.5705],[39.6099,-15.6406,159.8261],[39.5775,-15.6215,194.9364],[39.5759,-15.6466,175.719],[39.5734,-15.6586,172.264],[39.5591,-15.664,143.3906],[39.5294,-15.6794,158.2448],[39.5207,-15.696,157.3872],[39.523,-15.7123,178.6508],[39.5276,-15.7241,175.849],[39.5222,-15.7326,182.189],[39.5185,-15.7452,191.741],[39.5327,-15.7487,204.0021],[39.5455,-15.7956,182.1016],[39.5463,-15.8059,153.2729],[39.5448,-15.8063,143.2661],[39.5944,-15.8055,131.2462],[39.6131,-15.8189,132.539],[39.6179,-15.8243,122.9492],[39.6205,-15.8481,126.3668],[39.6285,-15.8559,108.4874],[39.6292,-15.8692,110.392],[39.632,-15.8744,115.555],[39.6412,-15.8807,101.795],[39.6471,-15.9023,102.2795],[39.6593,-15.9162,84.6555],[39.6612,-15.9226,86.3647],[39.6647,-15.9265,79.3399]]]]}}