{"type": "Feature","bbox": [39.4818,-14.2576,40.2316,-13.8072],"geometry": {"type": "MultiPolygon","coordinates": [[[[40.2316,-14.2455,96.1986],[40.2308,-14.2289,119.0599],[40.22,-14.2116,145.8012],[40.2163,-14.2086,162.9645],[40.2085,-14.1868,181.2675],[40.2041,-14.1811,216.2006],[40.1778,-14.1574,218.1738],[40.1605,-14.1481,244.7782],[40.1513,-14.1396,253.9331],[40.1426,-14.1258,258.2908],[40.1121,-14.1047,277.2161],[40.1153,-14.0988,249.4542],[40.1312,-14.0827,207.1215],[40.1353,-14.0752,244.117],[40.1335,-14.0694,215.7622],[40.1341,-14.0645,192.2729],[40.1485,-14.0594,177.9226],[40.1519,-14.0548,179.7145],[40.1527,-14.0488,175.3299],[40.1473,-14.0505,178.4526],[40.1433,-14.0491,188.9559],[40.138,-14.0347,186.687],[40.1326,-14.0303,203.0335],[40.1182,-14.0245,214.9382],[40.1112,-14.0193,201.8686],[40.0967,-14.0202,209.7094],[40.0857,-14.0236,224.2861],[40.0796,-14.0189,231.6681],[40.065,-14.0156,232.4483],[40.0618,-14.0076,234.2475],[40.064,-13.9979,248.2548],[40.05,-13.9826,252.8262],[40.0369,-13.9796,262.3362],[40.0216,-13.9554,283.7737],[40.0159,-13.9497,275.9357],[40.019,-13.9437,288.8534],[40.0201,-13.9354,309.5367],[40.0248,-13.9311,323.1806],[40.0285,-13.9223,315.2722],[40.0363,-13.8855,262.5706],[40.0437,-13.8855,243.2261],[40.053,-13.8817,252.5181],[40.0732,-13.8779,249.0689],[40.1177,-13.8801,231.0831],[40.1656,-13.8721,183.1197],[40.1567,-13.8321,237.2895],[40.1497,-13.8099,277.1675],[40.1231,-13.8257,268.8038],[40.104,-13.8146,333.3362],[40.0707,-13.8072,352.5238],[39.9621,-13.8229,383.9114],[39.9441,-13.8422,339.4633],[39.9209,-13.8337,278.9682],[39.9116,-13.834,289.5039],[39.883,-13.8488,329.1871],[39.867,-13.8725,328.6591],[39.8335,-13.8719,290.1322],[39.8072,-13.8606,469.0406],[39.755,-13.8636,323.9584],[39.7086,-13.872,293.5818],[39.6812,-13.8934,311.8088],[39.6871,-13.9134,309.0123],[39.6801,-13.9228,309.7644],[39.6535,-13.9228,333.9608],[39.6382,-13.9255,327.0661],[39.6132,-13.9264,315.6714],[39.5933,-13.935,307.73],[39.5734,-13.9459,316.9973],[39.5395,-13.9294,323.7121],[39.5245,-13.9381,323.4445],[39.5092,-13.956,295.5226],[39.4876,-13.9709,430.407],[39.4818,-13.9822,355.5406],[39.4876,-13.9948,317.755],[39.4846,-14.0037,312.1508],[39.4936,-14.0387,333.9443],[39.5061,-14.0574,347.1724],[39.5276,-14.0664,366.2476],[39.5429,-14.0634,359.6643],[39.5552,-14.0514,356.3934],[39.5852,-14.0573,335.7818],[39.5868,-14.0679,318.3299],[39.5909,-14.0712,326.4911],[39.6013,-14.0753,316.9539],[39.6198,-14.0664,303.1644],[39.6505,-14.0843,293.8302],[39.702,-14.1068,272.5321],[39.7192,-14.1049,270.7321],[39.7449,-14.1336,235.6322],[39.7642,-14.1439,225.6309],[39.7857,-14.1499,242.75],[39.7888,-14.1588,214.8015],[39.7951,-14.1621,195.1283],[39.8057,-14.1565,194.9894],[39.8182,-14.1549,195.153],[39.8217,-14.1621,205.9117],[39.8273,-14.1687,189.7629],[39.8621,-14.1535,187.8567],[39.8723,-14.1425,198.8492],[39.893,-14.1469,177.6008],[39.9143,-14.1599,164.1031],[39.9363,-14.1673,166.2415],[39.9439,-14.1724,159.3245],[39.9607,-14.1606,165.4004],[39.9755,-14.1673,164.8643],[39.9894,-14.1694,161.7316],[39.9943,-14.1747,150.4352],[39.9994,-14.1904,149.4549],[40.0086,-14.1892,167.2763],[40.0313,-14.201,152.6162],[40.0368,-14.1978,151.2004],[40.0355,-14.1902,140.8031],[40.0376,-14.1849,147.0415],[40.0419,-14.1837,148.5405],[40.0511,-14.1861,154.93],[40.07,-14.1814,139.0368],[40.0764,-14.1838,150.5229],[40.1007,-14.204,141.6672],[40.107,-14.2115,122.8896],[40.1108,-14.2192,126.0832],[40.1198,-14.2281,123.8587],[40.1426,-14.2243,115.6942],[40.1616,-14.2293,113.7764],[40.1646,-14.2315,113.6482],[40.1685,-14.2492,119.5391],[40.187,-14.2485,102.5267],[40.1922,-14.2555,94.9308],[40.1994,-14.2576,103.3256],[40.2194,-14.2512,105.8185],[40.2316,-14.2455,96.1986]]]]}
,"properties": {"GID_3": "MOZ.7.16.1_1","GID_0": "MOZ","country": "Mozambique","GID_1": "MOZ.7_1","province": "Nampula","NL_NAME_1": "NA","GID_2": "MOZ.7.16_1","county": "Namapa","NL_NAME_2": "NA","city": "Alua","VARNAME_3": "NA","NL_NAME_3": "NA","TYPE_3": "Localidad","ENGTYPE_3": "Locality","CC_3": "NA","HASC_3": "NA","name": "Alua.city","area_km2": 1984.653,"hist_schema_id": "Elevation0-9000","hist_area_km2": {"100": 4.11,"125": 21.785,"150": 46.597,"175": 92.304,"200": 121.167,"225": 153.264,"250": 180.461,"275": 197.603,"300": 280.104,"325": 407.257,"350": 345.675,"375": 86.055,"400": 17.139,"425": 10.782,"450": 6.79,"475": 4.794,"500": 3.169,"525": 1.873,"550": 1.605,"575": 0.947,"600": 0.597,"625": 0.37,"650": 0.185,"675": 0.021}}}