{"type":"Feature","properties":{"GID_3":"MOZ.1.11.3_1","GID_0":"MOZ","country":"Mozambique","GID_1":"MOZ.1_1","province":"CaboDelgado","NL_NAME_1":"NA","GID_2":"MOZ.1.11_1","county":"Namuno","NL_NAME_2":"NA","city":"Machoca","VARNAME_3":"NA","NL_NAME_3":"NA","TYPE_3":"Localidad","ENGTYPE_3":"Locality","CC_3":"NA","HASC_3":"NA","name":"Machoca.city"},
"geometry":{"type": "MultiPolygon","coordinates": [[[[38.7754,-13.8062,437.4805],[38.7775,-13.8125,433.1886],[38.7775,-13.8244,424.6482],[38.7428,-13.8487,388.0928],[38.7406,-13.8573,396.9321],[38.7406,-13.8692,401.0099],[38.7191,-13.8781,396.5139],[38.7068,-13.8781,395.063],[38.676,-13.902,358.4765],[38.6778,-13.9139,355.2784],[38.6847,-13.9255,360.1939],[38.7037,-13.9348,357.6767],[38.7222,-13.9348,349.3994],[38.7191,-13.9497,352.6167],[38.7099,-13.9557,341.0856],[38.717,-13.9695,335.1326],[38.7289,-13.9857,328.5603],[38.7806,-14.0302,324.922],[38.7868,-14.0511,325.5673],[38.8237,-14.0392,308.6053],[38.8315,-14.0467,309.5547],[38.8451,-14.0665,309.6002],[38.8593,-14.0742,302.7902],[38.867,-14.0806,289.0819],[38.8798,-14.0713,286.5334],[38.898,-14.0619,287.4868],[38.9225,-14.0538,286.499],[38.955,-14.0373,281.0],[38.9862,-14.0172,286.5628],[39.006,-14.0101,290.0522],[39.0334,-14.0114,284.9557],[39.0481,-14.0075,279.6454],[39.0558,-14.0035,271.3076],[39.0756,-13.9859,283.084],[39.0856,-13.9722,276.2632],[39.1067,-13.9586,265.5],[39.1185,-13.9486,275.1944],[39.1421,-13.934,274.7953],[39.1631,-13.932,273.6943],[39.1636,-13.9232,275.8954],[39.1599,-13.9169,276.7756],[39.1469,-13.9075,278.0057],[39.1497,-13.9031,281.4126],[39.1482,-13.8959,290.9741],[39.1395,-13.8927,286.0195],[39.136,-13.8857,286.9808],[39.1281,-13.8807,293.7038],[39.1167,-13.8833,293.0942],[39.1033,-13.8703,296.3968],[39.087,-13.8606,303.7681],[39.0745,-13.8647,305.8503],[39.0629,-13.8753,314.4495],[39.0579,-13.8737,317.4446],[39.0496,-13.8664,311.1464],[39.0432,-13.856,318.698],[39.0257,-13.8345,329.5905],[39.0171,-13.8284,327.8558],[39.0086,-13.8306,324.8795],[38.9805,-13.8493,330.9497],[38.9752,-13.8512,335.9364],[38.9657,-13.8456,339.7606],[38.9529,-13.8274,345.9166],[38.9344,-13.8334,357.2118],[38.9129,-13.8334,357.3506],[38.8975,-13.8274,361.6043],[38.8745,-13.8335,370.5269],[38.8668,-13.8382,373.3445],[38.8573,-13.8369,376.229],[38.8524,-13.8304,382.4941],[38.8358,-13.8278,387.924],[38.8253,-13.8238,391.8772],[38.7803,-13.8212,419.9236],[38.7794,-13.8098,433.2676],[38.7754,-13.8062,437.4805]]]]}}