{"type":"Feature","properties":{"GID_3":"MOZ.10.11.2_1","GID_0":"MOZ","country":"Mozambique","GID_1":"MOZ.10_1","province":"Tete","NL_NAME_1":"NA","GID_2":"MOZ.10.11_1","county":"Tsangano","NL_NAME_2":"NA","city":"Tsangano","VARNAME_3":"NA","NL_NAME_3":"NA","TYPE_3":"Localidad","ENGTYPE_3":"Locality","CC_3":"NA","HASC_3":"NA","name":"Tsangano.city"},
"geometry":{"type": "MultiPolygon","coordinates": [[[[34.4937,-15.4095,1157.0],[34.5049,-15.4098,1171.6014],[34.5146,-15.399,1167.1154],[34.5136,-15.3983,1167.1154],[34.5165,-15.3898,1194.8672],[34.5201,-15.3844,1223.8157],[34.5168,-15.3719,1247.7354],[34.5186,-15.3512,1181.3628],[34.5206,-15.347,1205.25],[34.5312,-15.3423,1190.0059],[34.5326,-15.3332,1203.5234],[34.5403,-15.3262,1167.2466],[34.5556,-15.3368,1251.9883],[34.559,-15.3328,1335.9001],[34.5746,-15.3218,1485.9045],[34.5748,-15.3125,1569.048],[34.5727,-15.3086,1620.1125],[34.5742,-15.3052,1585.7372],[34.5858,-15.2952,1582.4989],[34.5979,-15.2814,1518.9905],[34.6005,-15.2693,1431.4238],[34.6017,-15.2679,1449.0767],[34.6033,-15.269,1419.9517],[34.6041,-15.2672,1409.9762],[34.5992,-15.2514,1458.2524],[34.6011,-15.2426,1547.3174],[34.6006,-15.2353,1585.7819],[34.5926,-15.2252,1598.2404],[34.5886,-15.2107,1566.3267],[34.5806,-15.2056,1612.6765],[34.5794,-15.1999,1606.7378],[34.5828,-15.1811,1684.8071],[34.5754,-15.1645,1627.8125],[34.5765,-15.1624,1637.5289],[34.5815,-15.1611,1646.7377],[34.5773,-15.1473,1580.0739],[34.5743,-15.1476,1602.8864],[34.5767,-15.1409,1605.0706],[34.5762,-15.1349,1612.4517],[34.5734,-15.1294,1546.5703],[34.5686,-15.1254,1563.6346],[34.5706,-15.1127,1605.7664],[34.5852,-15.0992,1589.9468],[34.558,-15.0998,1410.3643],[34.5471,-15.0937,1436.7371],[34.5113,-15.0846,1309.4623],[34.4949,-15.0845,1290.2008],[34.4817,-15.0756,1265.7006],[34.4734,-15.0723,1276.4071],[34.4638,-15.0747,1227.7498],[34.4566,-15.0717,1251.4083],[34.396,-15.0603,1150.1926],[34.3928,-15.0572,1138.866],[34.3813,-15.0527,1125.7375],[34.3773,-15.0522,1136.933],[34.3723,-15.0546,1105.1404],[34.3688,-15.0522,1114.1001],[34.3626,-15.0526,1092.7003],[34.3488,-15.0468,1116.1875],[34.3295,-15.0334,1062.3164],[34.3172,-15.0321,1078.587],[34.3135,-15.0348,1041.8105],[34.3052,-15.0295,1067.597],[34.287,-15.0348,1001.6168],[34.2729,-15.0359,1009.8372],[34.2588,-15.0421,994.1115],[34.2527,-15.042,975.3547],[34.2468,-15.0327,973.4266],[34.2343,-15.0334,945.8444],[34.2255,-15.04,942.2047],[34.2194,-15.042,938.146],[34.2122,-15.0415,935.4997],[34.1999,-15.036,915.6629],[34.1954,-15.0373,910.3071],[34.1893,-15.0362,915.5479],[34.1834,-15.0408,899.0764],[34.1708,-15.0406,891.3677],[34.1596,-15.0438,875.1981],[34.1525,-15.0412,875.5737],[34.15,-15.0616,863.9007],[34.1578,-15.0942,853.0264],[34.1494,-15.0945,867.7046],[34.1356,-15.1048,850.3289],[34.108,-15.11,821.5441],[34.1036,-15.1134,805.2237],[34.0935,-15.1429,779.3848],[34.0904,-15.1457,794.6537],[34.0641,-15.1403,750.2769],[34.0586,-15.1546,742.4794],[34.0456,-15.1636,738.6537],[34.0418,-15.1685,736.1526],[34.0395,-15.1856,743.4949],[34.0235,-15.1971,720.515],[34.0137,-15.2191,719.6068],[34.0084,-15.2247,675.8693],[34.0079,-15.2277,668.1451],[34.0108,-15.2336,679.0217],[34.0189,-15.2379,678.4551],[34.0225,-15.2432,666.1276],[34.0298,-15.2628,667.4172],[34.0316,-15.2762,653.1307],[34.0397,-15.2874,627.1498],[34.0345,-15.303,634.012],[34.0333,-15.3176,621.6014],[34.0342,-15.3287,604.6976],[34.0312,-15.3359,629.3372],[34.0187,-15.3536,570.3435],[34.0078,-15.3823,562.6809],[34.0054,-15.3935,563.2638],[34.0,-15.4025,563.6487],[34.004,-15.4136,573.6921],[34.0072,-15.4151,584.559],[34.0124,-15.4219,580.6146],[34.0294,-15.4296,591.4675],[34.0404,-15.4297,618.3776],[34.0545,-15.4232,650.9342],[34.0579,-15.4168,643.7885],[34.0678,-15.4098,670.1789],[34.0751,-15.4086,674.5054],[34.0846,-15.4251,687.4676],[34.1023,-15.4363,724.2126],[34.1526,-15.4445,630.2442],[34.1575,-15.4487,631.8577],[34.159,-15.4532,600.501],[34.1585,-15.4632,597.9529],[34.1541,-15.4808,582.8335],[34.1581,-15.4874,585.6028],[34.168,-15.4748,584.7461],[34.173,-15.472,600.3574],[34.177,-15.4668,604.9671],[34.1872,-15.4611,615.3862],[34.1877,-15.4573,609.1752],[34.1824,-15.449,628.2554],[34.1948,-15.449,619.436],[34.2057,-15.4528,640.4352],[34.213,-15.4491,634.6868],[34.2095,-15.4413,666.5743],[34.2185,-15.4316,658.144],[34.2148,-15.4262,662.4117],[34.2202,-15.4217,654.8589],[34.2189,-15.4175,661.2285],[34.425,-15.4289,990.3925],[34.4376,-15.4456,1052.322],[34.4419,-15.4547,1069.9293],[34.4437,-15.4509,1071.994],[34.4383,-15.4353,1103.4559],[34.4389,-15.4271,1087.5964],[34.4418,-15.4224,1102.661],[34.4487,-15.4316,1048.7732],[34.4518,-15.4437,1013.2517],[34.4546,-15.4461,1018.7075],[34.4586,-15.4578,946.563],[34.4614,-15.4559,948.4264],[34.4593,-15.4489,1021.0615],[34.4655,-15.4331,1066.7561],[34.4722,-15.4241,1161.7053],[34.4814,-15.4191,1113.009],[34.4919,-15.4086,1152.1572],[34.4937,-15.4095,1157.0]]]]}}