{"type": "Feature","bbox": [36.6973,-15.1915,37.9465,-14.2743],"geometry": {"type": "MultiPolygon","coordinates": [[[[37.7293,-14.5841,501.988],[37.7152,-14.5829,505.1801],[37.6985,-14.5693,638.0114],[37.6985,-14.5095,591.8226],[37.7015,-14.4886,580.6518],[37.6804,-14.4301,474.3576],[37.6761,-14.4134,483.0711],[37.6738,-14.3962,512.3755],[37.6738,-14.3723,471.994],[37.6831,-14.3634,477.3467],[37.6862,-14.3544,461.8363],[37.6862,-14.3425,453.6591],[37.692,-14.3198,436.8263],[37.6985,-14.3156,432.7585],[37.7108,-14.3037,429.2265],[37.7195,-14.2998,424.9341],[37.7185,-14.2978,437.75],[37.7107,-14.2966,419.1486],[37.6954,-14.2778,422.2382],[37.6832,-14.2743,419.1632],[37.6678,-14.2764,421.5771],[37.6454,-14.2876,420.3504],[37.6313,-14.2904,422.427],[37.6201,-14.2879,436.9327],[37.6083,-14.2964,432.2676],[37.6114,-14.3493,438.2911],[37.6,-14.3604,440.6567],[37.5877,-14.3693,436.5465],[37.5686,-14.391,450.4707],[37.5471,-14.4,452.9306],[37.5155,-14.3872,458.5167],[37.5044,-14.3872,444.5023],[37.4857,-14.394,460.8638],[37.4703,-14.4149,453.1853],[37.4304,-14.4417,461.7785],[37.4271,-14.45,466.6037],[37.4245,-14.4648,468.7553],[37.4153,-14.4767,461.9778],[37.3968,-14.4946,483.8804],[37.3599,-14.5184,490.6695],[37.3475,-14.5304,481.5115],[37.3383,-14.5423,485.6106],[37.3321,-14.5542,481.3136],[37.3014,-14.5721,488.203],[37.2962,-14.5713,481.8474],[37.283,-14.5759,487.8954],[37.2584,-14.5909,490.1149],[37.2549,-14.5909,482.079],[37.2401,-14.5996,493.4835],[37.2339,-14.6088,494.6657],[37.2001,-14.6088,491.149],[37.1817,-14.5909,496.2352],[37.1648,-14.5938,497.9412],[37.1571,-14.5968,500.2907],[37.1202,-14.6147,495.1473],[37.0957,-14.6386,501.6541],[37.0826,-14.6423,505.8239],[37.0789,-14.642,499.6337],[37.0527,-14.6635,505.5503],[37.0431,-14.6682,509.9267],[37.0302,-14.6674,508.387],[37.0198,-14.6719,510.8824],[37.0057,-14.6734,514.5979],[36.9983,-14.6773,507.5281],[36.9852,-14.6953,502.3128],[36.9736,-14.7045,501.1041],[36.9639,-14.7071,510.4403],[36.9611,-14.7106,516.6107],[36.9526,-14.7121,506.3142],[36.9462,-14.7178,504.8896],[36.9426,-14.7257,506.4431],[36.9435,-14.7342,518.4948],[36.9372,-14.7445,518.4292],[36.9081,-14.7567,517.8055],[36.9019,-14.7621,508.7949],[36.8945,-14.7655,514.1989],[36.8862,-14.7671,512.6263],[36.884,-14.7699,515.5472],[36.8837,-14.7796,514.8966],[36.8688,-14.7887,523.9474],[36.8656,-14.7887,524.7581],[36.8502,-14.8026,527.1982],[36.8397,-14.8171,533.2078],[36.8381,-14.8238,530.3007],[36.84,-14.8287,541.2787],[36.8456,-14.8328,539.0386],[36.8467,-14.8363,534.0864],[36.8418,-14.8398,531.4333],[36.8353,-14.8389,537.7443],[36.8317,-14.8407,536.4201],[36.8291,-14.8491,533.9603],[36.8295,-14.8557,535.6937],[36.834,-14.8581,537.1191],[36.8354,-14.8616,534.7939],[36.814,-14.8684,542.0635],[36.8005,-14.8812,551.0943],[36.7973,-14.8892,547.3414],[36.7917,-14.893,548.567],[36.7852,-14.9028,548.425],[36.7717,-14.9069,547.0497],[36.7665,-14.9112,547.381],[36.7687,-14.9158,551.7222],[36.7663,-14.9285,550.176],[36.7571,-14.9398,553.4744],[36.7462,-14.9494,559.9798],[36.7312,-14.9692,561.9082],[36.7141,-14.9858,562.4123],[36.6973,-14.9992,561.2633],[37.003,-14.9959,616.1622],[37.192,-14.9973,1653.4681],[37.2016,-15.0051,1389.0027],[37.2123,-15.005,953.5238],[37.2202,-15.0075,849.5629],[37.2216,-15.0138,828.9099],[37.215,-15.0252,733.7779],[37.2178,-15.0291,716.5925],[37.2244,-15.032,703.1271],[37.2355,-15.0209,687.1439],[37.2419,-15.0208,679.9869],[37.2423,-15.0351,698.6048],[37.2399,-15.0481,719.8971],[37.2444,-15.0687,852.946],[37.2469,-15.077,779.7471],[37.2579,-15.0874,799.6748],[37.2645,-15.0983,917.4797],[37.2828,-15.0948,800.0337],[37.2883,-15.1004,807.7141],[37.2922,-15.1105,803.6346],[37.2957,-15.1153,757.443],[37.309,-15.1239,728.0685],[37.3085,-15.1252,729.7333],[37.3139,-15.1321,748.7648],[37.3234,-15.1348,764.109],[37.3377,-15.133,786.4878],[37.3557,-15.111,1247.5927],[37.3624,-15.1055,1348.1821],[37.3805,-15.1183,1303.8149],[37.3999,-15.1395,1287.0228],[37.406,-15.1597,1090.1382],[37.4085,-15.1766,811.2647],[37.4153,-15.1845,798.605],[37.4205,-15.1858,766.9275],[37.4368,-15.1805,791.5266],[37.4491,-15.1746,795.2949],[37.4645,-15.1656,768.3739],[37.4768,-15.1537,755.1359],[37.5168,-15.1328,714.0221],[37.5322,-15.1477,699.4975],[37.5384,-15.1477,692.3416],[37.5455,-15.1511,688.3672],[37.5924,-15.1913,661.5156],[37.5948,-15.1915,659.0594],[37.6123,-15.1656,836.6016],[37.6215,-15.1627,748.514],[37.6369,-15.1656,686.3466],[37.6431,-15.1567,662.9973],[37.6706,-15.13,681.7958],[37.681399999999996,-15.124,630.9163],[37.6821,-15.1202,633.7421],[37.6805,-15.1138,640.0963],[37.6707,-15.1011,642.8754],[37.6669,-15.0873,648.2232],[37.6433,-15.0637,666.5347],[37.6469,-15.0538,679.5137],[37.6606,-15.0332,720.3947],[37.6595,-15.0221,743.7709],[37.6677,-15.0195,752.6003],[37.6954,-14.9837,714.9989],[37.7077,-14.9718,670.0102],[37.7305,-14.958,646.2626],[37.7313,-14.9549,646.908],[37.7392,-14.9498,641.2954],[37.7631,-14.9389,616.3187],[37.7761,-14.9301,617.696],[37.7959,-14.9271,598.6326],[37.8052,-14.9224,596.0789],[37.8096,-14.9163,589.6746],[37.8247,-14.9181,588.347],[37.8316,-14.9159,582.1763],[37.8382,-14.9218,573.3654],[37.8554,-14.9172,561.0271],[37.8635,-14.9092,568.6032],[37.8713,-14.9061,569.9195],[37.8829,-14.9113,547.811],[37.8901,-14.9065,544.7327],[37.9077,-14.8849,541.2776],[37.9111,-14.8478,526.4347],[37.9156,-14.8386,524.0267],[37.9465,-14.8077,512.371],[37.9197,-14.8136,529.7096],[37.9111,-14.8115,536.2279],[37.8821,-14.7928,559.6418],[37.8711,-14.7928,564.2654],[37.8577,-14.7778,599.5339],[37.8555,-14.769,616.0336],[37.8493,-14.76,723.3835],[37.8401,-14.763,642.9707],[37.8185,-14.763,708.0964],[37.8062,-14.757,634.3304],[37.799,-14.757,606.0421],[37.7934,-14.7442,590.1874],[37.7847,-14.708,565.84],[37.7707,-14.6997,573.3804],[37.7662,-14.6914,552.031],[37.7662,-14.6735,527.1917],[37.7785,-14.6616,519.8234],[37.7813,-14.6509,515.1422],[37.7761,-14.617,511.522],[37.7724,-14.6109,501.6967],[37.7662,-14.587,495.2688],[37.7477,-14.5721,486.6177],[37.7293,-14.5841,501.988]]]]}
,"properties": {"GID_2": "MOZ.7.4_1","GID_0": "MOZ","country": "Mozambique","GID_1": "MOZ.7_1","province": "Nampula","NL_NAME_1": "NA","county": "Malema","VARNAME_2": "NA","NL_NAME_2": "NA","TYPE_2": "Distrito","ENGTYPE_2": "District","CC_2": "NA","HASC_2": "MZ.NM.MA","name": "Malema.county","area_km2": 6060.824,"hist_schema_id": "Elevation0-9000","hist_area_km2": {"425": 21.387,"450": 73.472,"475": 158.437,"500": 393.96,"525": 601.661,"550": 627.926,"575": 603.119,"600": 610.7,"625": 627.258,"650": 460.842,"675": 366.007,"700": 300.901,"725": 216.729,"750": 148.73,"775": 101.47,"800": 69.319,"825": 52.729,"850": 43.554,"875": 40.031,"900": 36.999,"925": 33.15,"950": 32.228,"975": 29.69,"1000": 28.542,"1025": 24.792,"1050": 22.414,"1075": 21.737,"1100": 19.156,"1125": 18.398,"1150": 21.589,"1175": 24.089,"1200": 22.511,"1225": 21.935,"1250": 22.078,"1275": 22.794,"1300": 20.994,"1325": 19.949,"1350": 20.032,"1375": 16.651,"1400": 15.299,"1425": 11.428,"1450": 8.744,"1475": 6.163,"1500": 5.323,"1525": 3.808,"1550": 2.661,"1575": 2.231,"1600": 2.027,"1625": 1.802,"1650": 1.392,"1675": 0.962,"1700": 0.369,"1725": 0.307,"1750": 0.102,"1775": 0.164,"1800": 0.082}}}