{"type": "Feature","bbox": [39.4147,-14.5757,40.4527,-14.1425],"geometry": {"type": "MultiPolygon","coordinates": [[[[40.1091,-14.4686,190.2072],[40.1245,-14.4627,188.9815],[40.1368,-14.4478,188.1401],[40.1769,-14.4269,159.5841],[40.1856,-14.417,159.1402],[40.1899,-14.4076,144.5143],[40.1933,-14.4038,148.1519],[40.2199,-14.3889,140.9057],[40.2596,-14.3918,127.2414],[40.2686,-14.3905,120.4874],[40.2706,-14.3888,118.3048],[40.3237,-14.3937,101.6692],[40.325,-14.3911,107.1855],[40.3404,-14.3881,106.2367],[40.3466,-14.3851,101.6558],[40.3466,-14.3706,92.1398],[40.3598,-14.3607,84.4547],[40.3631,-14.3521,81.5282],[40.3746,-14.3502,90.7401],[40.3767,-14.3423,77.7344],[40.3758,-14.3284,74.4548],[40.3776,-14.3166,71.3436],[40.3842,-14.3127,80.8204],[40.3915,-14.3116,71.2333],[40.398,-14.307,71.1082],[40.4145,-14.3019,64.0964],[40.4162,-14.2996,60.1006],[40.4164,-14.2946,79.2343],[40.4119,-14.2859,57.5556],[40.4223,-14.2816,61.2569],[40.4296,-14.276,85.6189],[40.4332,-14.2664,56.6442],[40.4388,-14.2642,46.7342],[40.4527,-14.2634,37.7531],[40.4454,-14.2386,29.5106],[40.4341,-14.2372,43.9862],[40.4277,-14.2402,29.1161],[40.419,-14.2513,36.3069],[40.3954,-14.2588,41.3919],[40.3702,-14.2736,47.8779],[40.3536,-14.2853,49.9274],[40.3454,-14.2862,72.3584],[40.3397,-14.2829,59.7901],[40.3267,-14.271,65.6352],[40.29,-14.2742,61.7733],[40.2797,-14.2726,82.8617],[40.2727,-14.266,84.0888],[40.2678,-14.2488,83.045],[40.2608,-14.2435,93.7403],[40.243899999999996,-14.2473,104.645],[40.2316,-14.2455,96.1986],[40.2194,-14.2512,105.8185],[40.1994,-14.2576,103.3256],[40.1922,-14.2555,94.9308],[40.187,-14.2485,102.5267],[40.1685,-14.2492,119.5391],[40.1646,-14.2315,113.6482],[40.1616,-14.2293,113.7764],[40.1426,-14.2243,115.6942],[40.1198,-14.2281,123.8587],[40.1108,-14.2192,126.0832],[40.107,-14.2115,122.8896],[40.1007,-14.204,141.6672],[40.0764,-14.1838,150.5229],[40.07,-14.1814,139.0368],[40.0511,-14.1861,154.93],[40.0419,-14.1837,148.5405],[40.0376,-14.1849,147.0415],[40.0355,-14.1902,140.8031],[40.0368,-14.1978,151.2004],[40.0313,-14.201,152.6162],[40.0086,-14.1892,167.2763],[39.9994,-14.1904,149.4549],[39.9943,-14.1747,150.4352],[39.9894,-14.1694,161.7316],[39.9755,-14.1673,164.8643],[39.9607,-14.1606,165.4004],[39.9439,-14.1724,159.3245],[39.9363,-14.1673,166.2415],[39.9143,-14.1599,164.1031],[39.893,-14.1469,177.6008],[39.8723,-14.1425,198.8492],[39.8621,-14.1535,187.8567],[39.8273,-14.1687,189.7629],[39.8217,-14.1621,205.9117],[39.8182,-14.1549,195.153],[39.8057,-14.1565,194.9894],[39.7489,-14.1916,204.9112],[39.7154,-14.1835,224.6938],[39.6856,-14.2034,230.6535],[39.6765,-14.206,240.9005],[39.6645,-14.2079,253.7567],[39.6339,-14.2043,252.7902],[39.6124,-14.2046,243.8914],[39.5711,-14.2156,249.6301],[39.5422,-14.2155,260.267],[39.519,-14.2118,267.1596],[39.508,-14.2188,269.0402],[39.4985,-14.222,273.407],[39.4807,-14.2242,284.0268],[39.4663,-14.2301,287.9563],[39.4557,-14.2371,295.5502],[39.4507,-14.2489,288.2195],[39.4476,-14.2666,291.1666],[39.4351,-14.2782,297.2192],[39.4253,-14.29,304.2926],[39.4147,-14.3067,307.6162],[39.4245,-14.325,316.3801],[39.4302,-14.3268,321.9777],[39.4373,-14.336,338.3782],[39.4502,-14.3403,347.044],[39.4701,-14.3512,365.9311],[39.482,-14.3669,417.1258],[39.4961,-14.3776,404.2216],[39.5056,-14.3877,382.2565],[39.5109,-14.3895,373.3456],[39.5203,-14.3886,365.1923],[39.5413,-14.377,347.7242],[39.5481,-14.3748,347.3059],[39.5618,-14.3803,338.8923],[39.5747,-14.3789,337.1571],[39.6042,-14.3945,328.3356],[39.6093,-14.4043,318.0866],[39.6182,-14.4043,320.9255],[39.6322,-14.4134,319.1732],[39.637,-14.4039,313.8439],[39.642,-14.3989,315.7216],[39.6491,-14.4024,308.1251],[39.6541,-14.4087,311.1559],[39.6619,-14.4128,304.6505],[39.6627,-14.4174,304.6842],[39.6661,-14.4217,300.5292],[39.6788,-14.4201,297.9742],[39.6813,-14.4252,302.0069],[39.685,-14.4253,293.4439],[39.6894,-14.4152,289.0872],[39.7083,-14.4053,284.632],[39.713,-14.4095,284.1392],[39.7189,-14.4105,285.6104],[39.7192,-14.4023,283.6407],[39.7237,-14.3979,282.9116],[39.7398,-14.3982,280.9774],[39.7442,-14.4033,282.2029],[39.7447,-14.4077,285.3618],[39.7378,-14.4312,319.8374],[39.7275,-14.44,355.1162],[39.7259,-14.4461,354.1123],[39.7425,-14.4442,335.6968],[39.7583,-14.4356,320.5591],[39.769,-14.4327,304.383],[39.7761,-14.4283,305.7842],[39.7878,-14.4393,336.6498],[39.7992,-14.4656,341.4017],[39.8046,-14.4875,368.3672],[39.8309,-14.5681,337.0462],[39.8407,-14.5641,337.5465],[39.8531,-14.5492,321.7732],[39.8805,-14.5492,312.3304],[39.8855,-14.5593,305.7905],[39.8981,-14.5732,342.4489],[39.9104,-14.5757,323.737],[39.9506,-14.5669,308.1096],[39.9681,-14.5578,292.9497],[39.9814,-14.5554,292.9471],[40.0042,-14.5462,286.9712],[40.0279,-14.5487,259.2485],[40.0491,-14.5342,246.6755],[40.0536,-14.5342,248.3923],[40.0536,-14.5363,260.9905],[40.0539,-14.5315,246.6984],[40.0751,-14.4895,221.142],[40.0875,-14.4835,214.0761],[40.1091,-14.4686,190.2072]]]]}
,"properties": {"GID_2": "MOZ.7.2_1","GID_0": "MOZ","country": "Mozambique","GID_1": "MOZ.7_1","province": "Nampula","NL_NAME_1": "NA","county": "Erati","VARNAME_2": "NA","NL_NAME_2": "NA","TYPE_2": "Distrito","ENGTYPE_2": "District","CC_2": "NA","HASC_2": "NA","name": "Erati.county","area_km2": 2720.774,"hist_schema_id": "Elevation0-9000","hist_area_km2": {"25": 2.096,"50": 14.199,"75": 36.018,"100": 61.718,"125": 90.996,"150": 132.956,"175": 176.122,"200": 236.561,"225": 283.41,"250": 288.339,"275": 330.577,"300": 325.756,"325": 317.399,"350": 221.822,"375": 128.526,"400": 58.421,"425": 15.159,"450": 0.473,"475": 0.205}}}