{"type":"Feature","properties":{"GID_2":"MOZ.9.3_1","GID_0":"MOZ","country":"Mozambique","GID_1":"MOZ.9_1","province":"Sofala","NL_NAME_1":"NA","county":"Chemba","VARNAME_2":"NA","NL_NAME_2":"NA","TYPE_2":"Distrito","ENGTYPE_2":"District","CC_2":"NA","HASC_2":"MZ.SO.CM","name":"Chemba.county"},
"geometry":{"type": "MultiPolygon","coordinates": [[[[34.921,-17.4239,100.9708],[34.9232,-17.406,86.3064],[34.9422,-17.3898,75.1733],[34.965,-17.3744,65.6958],[34.978,-17.3749,53.5113],[35.026,-17.3719,45.119],[35.0149,-17.355,44.9131],[35.0084,-17.3523,45.6094],[34.9995,-17.352,45.0],[34.9783,-17.3136,46.8068],[34.9757,-17.2821,46.5],[34.9711,-17.2671,47.941],[34.9598,-17.2592,47.5],[34.9545,-17.2475,49.372],[34.9581,-17.2391,48.5],[34.9217,-17.1717,54.2158],[34.9156,-17.1546,53.6139],[34.9036,-17.1064,57.4486],[34.8948,-17.0872,55.5],[34.8886,-17.0684,58.4836],[34.8648,-17.0299,59.815],[34.8377,-17.0105,61.0409],[34.8262,-16.9968,61.6847],[34.8187,-16.9762,61.5],[34.797,-16.9444,63.0],[34.7653,-16.9109,66.2507],[34.7513,-16.8999,66.4509],[34.7304,-16.8908,69.0738],[34.6916,-16.8841,68.5197],[34.661,-16.8767,69.8909],[34.6294,-16.8603,70.5],[34.6012,-16.8404,72.5892],[34.5867,-16.8285,73.0],[34.5661,-16.8071,74.9424],[34.5335,-16.783,78.1742],[34.534,-16.8084,78.4889],[34.5308,-16.8188,78.6416],[34.5142,-16.837,76.9176],[34.5074,-16.8528,87.8498],[34.5074,-16.8639,96.005],[34.5349,-16.8664,103.9698],[34.4662,-16.9931,223.1731],[34.4496,-16.999,209.2107],[34.3042,-17.0316,306.2115],[34.2632,-17.0604,330.7361],[34.1748,-17.2225,262.2729],[34.2068,-17.239,229.7724],[34.2247,-17.2432,219.3344],[34.2507,-17.2401,207.8441],[34.2911,-17.2216,194.5104],[34.3339,-17.2116,179.2299],[34.3526,-17.215,171.8079],[34.3572,-17.2179,169.4534],[34.3599,-17.2237,169.3421],[34.358,-17.2382,175.6025],[34.3608,-17.2436,183.3453],[34.3813,-17.2494,220.2839],[34.3893,-17.2542,221.5772],[34.3948,-17.2622,236.8106],[34.3972,-17.2707,249.8182],[34.4114,-17.2955,277.3893],[34.4104,-17.3031,285.0509],[34.3963,-17.3255,301.8418],[34.3867,-17.3442,291.2406],[34.4011,-17.3468,271.3117],[34.4116,-17.3557,252.2603],[34.4217,-17.3846,240.7529],[34.4297,-17.4399,298.474],[34.4365,-17.4497,317.7221],[34.4436,-17.4564,330.5151],[34.4555,-17.4622,349.0584],[34.4831,-17.4706,349.7451],[34.5083,-17.465,309.3087],[34.539,-17.4753,290.6821],[34.5713,-17.4818,266.2654],[34.6407,-17.4881,279.5571],[34.6753,-17.4897,231.294],[34.6846,-17.4852,224.4516],[34.6921,-17.4852,216.1384],[34.7012,-17.5044,237.6175],[34.6977,-17.5314,281.9723],[34.7038,-17.5612,261.1255],[34.7102,-17.5844,238.9154],[34.7147,-17.5912,233.4898],[34.7207,-17.5966,223.5082],[34.7249,-17.6047,216.071],[34.7178,-17.6132,199.3446],[34.7233,-17.6226,188.7482],[34.7224,-17.6357,182.2127],[34.7268,-17.6422,180.7757],[34.7378,-17.6502,171.9311],[34.7517,-17.6253,187.0726],[34.7575,-17.6065,168.7334],[34.7674,-17.5923,184.7953],[34.789,-17.5497,235.1993],[34.8254,-17.4961,199.104],[34.852,-17.4699,158.3619],[34.8749,-17.4514,134.5003],[34.9082,-17.439,115.2669],[34.921,-17.4239,100.9708]]]]}}