{"type": "Feature","bbox": [32.9828,-25.2299,33.3385,-25.0325],"geometry": {"type": "MultiPolygon","coordinates": [[[[33.0694,-25.0543,23.6714],[33.061,-25.0648,21.7338],[33.0528,-25.0712,21.0327],[33.0134,-25.0906,10.7374],[32.9958,-25.0949,10.2316],[32.9908,-25.102,9.8106],[32.9876,-25.1107,9.7517],[32.9828,-25.1177,9.7611],[32.9845,-25.1262,10.5108],[32.9898,-25.1332,9.6071],[32.9976,-25.1356,9.4289],[33.0037,-25.1316,9.9061],[33.0095,-25.1303,10.3811],[33.0123,-25.1337,9.378],[33.0103,-25.146,10.874],[33.0122,-25.1491,12.6411],[33.0117,-25.1537,7.9931],[33.0072,-25.1565,8.4319],[32.9958,-25.1721,8.9235],[32.9946,-25.1757,8.4896],[32.9969,-25.1801,8.0337],[32.9926,-25.1993,7.5968],[32.9906,-25.2022,7.4423],[32.9943,-25.2034,6.7683],[33.1011,-25.203,43.3146],[33.1183,-25.2299,44.5713],[33.1257,-25.2243,42.295],[33.144,-25.2195,49.994],[33.2011,-25.1979,51.6251],[33.2358,-25.1968,40.2432],[33.2827,-25.2008,43.2018],[33.3184,-25.1868,31.6104],[33.3365,-25.155,30.8747],[33.3385,-25.1434,28.8654],[33.3377,-25.1287,21.7756],[33.3311,-25.0908,26.922],[33.3223,-25.0839,20.3457],[33.3218,-25.0712,22.4287],[33.3186,-25.0704,26.9145],[33.3081,-25.0614,4.9892],[33.2481,-25.0541,34.0516],[33.2202,-25.0485,57.0297],[33.1987,-25.0421,52.6641],[33.1775,-25.0325,68.7842],[33.1775,-25.0421,68.0872],[33.1633,-25.0646,63.3481],[33.1281,-25.0742,81.535],[33.1245,-25.0935,65.2573],[33.1069,-25.0967,58.746],[33.0789,-25.0744,50.6775],[33.0694,-25.0543,23.6714]]]]}
,"properties": {"GID_3": "MOZ.2.1.3_1","GID_0": "MOZ","country": "Mozambique","GID_1": "MOZ.2_1","province": "Gaza","NL_NAME_1": "NA","GID_2": "MOZ.2.1_1","county": "Bilene","NL_NAME_2": "NA","city": "Macuane","VARNAME_3": "NA","NL_NAME_3": "NA","TYPE_3": "Localidad","ENGTYPE_3": "Locality","CC_3": "NA","HASC_3": "NA","name": "Macuane.city","area_km2": 513.3236,"hist_schema_id": "Elevation0-9000","hist_area_km2": {"0": 83.5275,"25": 189.0247,"50": 181.3627,"75": 58.7947,"100": 0.6141}}}