{"type":"Feature","properties":{"GID_3":"MOZ.7.12.4_1","GID_0":"MOZ","country":"Mozambique","GID_1":"MOZ.7_1","province":"Nampula","NL_NAME_1":"NA","GID_2":"MOZ.7.12_1","county":"Mossuril","NL_NAME_2":"NA","city":"Mossuril-Sede","VARNAME_3":"NA","NL_NAME_3":"NA","TYPE_3":"Localidad","ENGTYPE_3":"Locality","CC_3":"NA","HASC_3":"NA","name":"Mossuril-Sede.city"},
"geometry":{"type": "MultiPolygon","coordinates": [[[[40.5918,-15.1196,0.7378],[40.5918,-15.1215,1.9926],[40.5935,-15.1224,0.4219],[40.5935,-15.1212,2.3168],[40.5918,-15.1196,0.7378]]],
[[[40.7965,-14.9751,0.0],[40.7935,-14.9815,0.0],[40.7971,-14.9846,0.0],[40.7982,-14.9829,0.0],[40.7965,-14.9751,0.0]]],
[[[40.3416,-14.9327,60.515],[40.3396,-14.9388,58.2366],[40.3411,-14.948,40.2168],[40.3408,-14.965,36.1874],[40.3506,-14.9898,33.2286],[40.3565,-15.0007,40.5805],[40.362,-15.0025,38.0057],[40.3713,-14.9935,37.8718],[40.3779,-14.9919,51.3014],[40.3847,-14.9948,49.1398],[40.3867,-15.0025,28.9084],[40.3991,-15.0144,32.1043],[40.4176,-15.0174,30.1154],[40.4392,-15.0234,29.2021],[40.4422,-15.0263,27.4511],[40.455,-15.0515,45.4649],[40.496,-15.0539,38.7647],[40.5357,-15.0359,17.9715],[40.5469,-15.0383,14.0365],[40.5586,-15.0458,13.2477],[40.5588,-15.0592,11.1477],[40.5558,-15.086,8.5002],[40.5585,-15.0968,5.6423],[40.5628,-15.1038,8.0639],[40.5784,-15.1185,2.6499],[40.5879,-15.1162,4.8207],[40.5924,-15.1187,5.3855],[40.5954,-15.1226,1.6941],[40.5993,-15.1143,4.513],[40.6026,-15.111,0.6149],[40.5999,-15.1076,1.3011],[40.6049,-15.109,0.0],[40.6165,-15.096,2.9748],[40.6226,-15.0935,0.6068],[40.624,-15.0901,1.0217],[40.6246,-15.0912,1.0217],[40.6235,-15.0935,0.0],[40.6176,-15.0988,1.6479],[40.6218,-15.0962,0.0],[40.6274,-15.0893,1.9311],[40.6338,-15.0868,1.4788],[40.6446,-15.0858,0.5585],[40.6473,-15.0825,2.4341],[40.6438,-15.058,11.5175],[40.6465,-15.032,7.439],[40.6617,-15.0117,3.2679],[40.6657,-15.009,1.3874],[40.6582,-15.0004,1.0051],[40.6582,-14.9929,0.0],[40.6568,-14.9904,0.6776],[40.6546,-14.9926,1.754],[40.656,-14.9979,2.608],[40.6549,-15.0043,0.6084],[40.6571,-15.0085,0.779],[40.656,-15.0124,1.1335],[40.6557,-15.0079,0.0],[40.6535,-15.0057,1.7412],[40.6521,-15.0004,0.0],[40.6451,-14.9926,0.0],[40.6396,-14.9918,1.3869],[40.6279,-14.9851,0.9309],[40.6257,-14.986,0.5],[40.6232,-14.9915,2.8657],[40.6218,-14.9918,1.0577],[40.6246,-14.984,4.1772],[40.631,-14.9829,6.9563],[40.6354,-14.986,2.0486],[40.6387,-14.986,1.282],[40.6435,-14.9849,0.0],[40.6501,-14.9793,0.0],[40.6485,-14.9749,3.3274],[40.6449,-14.9757,0.4177],[40.6424,-14.9726,0.0],[40.6365,-14.9704,0.6935],[40.6357,-14.9668,0.5],[40.6379,-14.961,0.5],[40.6332,-14.9515,4.1373],[40.6368,-14.9532,2.874],[40.6374,-14.9574,4.1718],[40.6415,-14.9599,2.6409],[40.6418,-14.9632,4.9372],[40.6396,-14.9649,3.532],[40.641,-14.9676,1.2369],[40.6476,-14.969,3.7235],[40.6496,-14.9676,12.2068],[40.6579,-14.9671,3.1344],[40.6635,-14.969,8.5762],[40.6688,-14.981,0.2683],[40.6787,-14.9846,0.9851],[40.6757,-14.9868,0.0],[40.6757,-14.989,0.0],[40.6776,-14.9904,0.0],[40.6896,-14.9904,0.0],[40.6915,-14.9885,0.7397],[40.6968,-14.9899,0.0],[40.6976,-14.9885,0.6908],[40.7038,-14.9907,0.2965],[40.706,-14.9893,4.3493],[40.7135,-14.9904,1.0669],[40.7143,-14.9929,0.196],[40.7218,-14.9935,0.0],[40.7324,-14.9896,0.0],[40.7343,-14.9851,0.6948],[40.7354,-14.9854,0.6948],[40.7351,-14.9896,0.0],[40.744,-14.9835,0.552],[40.746,-14.9876,0.4776],[40.7476,-14.9862,0.6527],[40.7471,-14.9824,0.8338],[40.7485,-14.9818,0.0],[40.7493,-14.986,0.0],[40.756,-14.9921,0.4001],[40.754,-14.991,0.0],[40.7521,-14.9926,0.0],[40.7515,-14.9976,3.667],[40.7457,-15.0001,0.0],[40.7562,-14.9996,0.0],[40.7657,-15.0029,1.5643],[40.7651,-15.0149,0.0],[40.7696,-15.0115,0.0],[40.7749,-15.0013,2.3024],[40.7754,-14.9963,0.0],[40.766,-14.9918,3.1531],[40.7599,-14.9862,0.0],[40.7524,-14.9776,3.2255],[40.7501,-14.9715,7.7093],[40.7451,-14.9668,1.2372],[40.7404,-14.9521,0.0],[40.7388,-14.9351,0.0],[40.7343,-14.9324,0.0],[40.724,-14.9337,0.7091],[40.7154,-14.9307,0.0],[40.7104,-14.934,0.5393],[40.7054,-14.9335,1.5016],[40.699,-14.9301,3.3015],[40.6988,-14.9282,0.6605],[40.696,-14.9274,1.8938],[40.6965,-14.9257,1.4884],[40.6946,-14.9249,0.4127],[40.6937,-14.9285,1.9665],[40.6882,-14.9293,0.0],[40.6907,-14.9371,0.2956],[40.689,-14.939,0.613],[40.6865,-14.9326,0.0],[40.684,-14.9324,0.0],[40.6832,-14.9349,1.7596],[40.6807,-14.9351,1.2826],[40.6782,-14.9329,0.0],[40.6749,-14.9335,3.2712],[40.6721,-14.931,0.0],[40.6632,-14.929,2.552],[40.661,-14.9254,1.5525],[40.6582,-14.9254,3.8201],[40.6549,-14.9229,0.0],[40.6479,-14.9154,0.3033],[40.646,-14.8904,0.0],[40.6488,-14.8835,1.521],[40.6435,-14.8787,1.3772],[40.6404,-14.8787,1.4439],[40.6376,-14.8715,0.0],[40.6275,-14.8686,26.6797],[40.5934,-14.8504,54.6409],[40.5687,-14.8325,46.3758],[40.5965,-14.8146,36.0569],[40.6088,-14.8027,25.1917],[40.608,-14.7964,39.1435],[40.5841,-14.7878,63.5415],[40.5445,-14.7357,88.6142],[40.5393,-14.744,104.1078],[40.5334,-14.7698,65.744],[40.5186,-14.7636,66.2625],[40.4885,-14.7573,65.0023],[40.4641,-14.7577,90.9315],[40.4361,-14.7669,101.4018],[40.3866,-14.806,129.1792],[40.3675,-14.8084,154.9462],[40.3713,-14.8427,139.6305],[40.3713,-14.8742,123.3016],[40.3613,-14.9056,108.8963],[40.3566,-14.9157,105.075],[40.3416,-14.9327,60.515]]]]}}