{"type":"Feature","properties":{"GID_3":"MOZ.6.6.3_1","GID_0":"MOZ","country":"Mozambique","GID_1":"MOZ.6_1","province":"Maputo","NL_NAME_1":"NA","GID_2":"MOZ.6.6_1","county":"Moamba","NL_NAME_2":"NA","city":"RessanoGarcia","VARNAME_3":"NA","NL_NAME_3":"NA","TYPE_3":"Localidad","ENGTYPE_3":"Locality","CC_3":"NA","HASC_3":"NA","name":"Ressano_Garcia.city"},
"geometry":{"type": "MultiPolygon","coordinates": [[[[32.1208,-25.5189,93.7828],[32.1202,-25.5133,90.871],[32.1242,-25.5093,90.8273],[32.0993,-25.4889,97.169],[32.0668,-25.4774,91.0942],[32.0619,-25.4736,93.721],[32.0507,-25.4625,101.3],[32.0409,-25.4454,119.7768],[32.0322,-25.4373,127.194],[32.0171,-25.4328,150.8794],[31.9943,-25.4334,152.0812],[31.989,-25.4364,105.631],[31.9895,-25.4377,105.631],[31.9796,-25.4571,341.9621],[31.9774,-25.4747,388.5603],[31.9774,-25.5098,362.9562],[31.9813,-25.5238,348.7969],[31.9958,-25.5263,305.9691],[31.9976,-25.5479,285.9298],[32.0423,-25.5535,215.9924],[32.0529,-25.558,170.5607],[32.0939,-25.5855,130.4454],[32.1246,-25.6099,144.7249],[32.1422,-25.62,126.9173],[32.151,-25.6238,119.274],[32.1562,-25.6242,115.6607],[32.1595,-25.6178,125.252],[32.1608,-25.6098,111.0697],[32.1593,-25.6065,108.1813],[32.1659,-25.5919,117.9357],[32.1621,-25.5826,127.4777],[32.1562,-25.5772,97.2213],[32.1563,-25.5633,116.3634],[32.1532,-25.5523,114.8077],[32.1517,-25.5488,113.6071],[32.1312,-25.5395,114.0167],[32.1298,-25.5339,121.4075],[32.1208,-25.5189,93.7828]]]]}}