{"type": "Feature","bbox": [40.1009,-11.7442,40.5626,-11.4832],"geometry": {"type": "MultiPolygon","coordinates": [[[[40.5612,-11.6376,0.0],[40.559,-11.6374,0.0],[40.5582,-11.6396,0.0],[40.5621,-11.6404,0.0],[40.5626,-11.6387,1.0497],[40.5612,-11.6376,0.0]]],
[[[40.275,-11.7433,14.9627],[40.2777,-11.7442,24.0726],[40.275,-11.7349,14.2298],[40.2794,-11.7198,17.2864],[40.294,-11.7201,15.4708],[40.2959,-11.7119,11.6303],[40.2955,-11.6991,23.9474],[40.3011,-11.7002,12.3592],[40.3079,-11.7073,14.8313],[40.3213,-11.6958,9.1575],[40.3291,-11.6859,8.3304],[40.3314,-11.6791,8.7839],[40.3383,-11.6727,15.9936],[40.3463,-11.6749,5.6767],[40.3516,-11.6798,4.654],[40.3597,-11.6806,4.2173],[40.3816,-11.6916,4.0624],[40.3872,-11.6872,3.4993],[40.3915,-11.6809,4.5528],[40.3976,-11.6811,3.7457],[40.4051,-11.6772,9.941],[40.4222,-11.6728,8.989],[40.436,-11.6726,1.6999],[40.4401,-11.6704,0.2781],[40.4421,-11.6679,0.3365],[40.4407,-11.6593,6.7383],[40.444,-11.6568,0.0],[40.4443,-11.6515,0.0],[40.4426,-11.6499,3.5745],[40.4382,-11.649,2.6115],[40.4343,-11.6515,7.357],[40.4365,-11.6474,1.9395],[40.4318,-11.6471,2.4139],[40.4307,-11.6496,7.7696],[40.4257,-11.6504,3.2542],[40.421,-11.6535,2.5648],[40.4176,-11.659,6.9939],[40.4174,-11.6574,5.6792],[40.426,-11.6462,2.5085],[40.4315,-11.6418,2.0186],[40.4318,-11.6401,0.9318],[40.4299,-11.6387,0.5],[40.4332,-11.636,4.0239],[40.4315,-11.634,6.6158],[40.4313,-11.6285,6.9503],[40.4346,-11.6351,0.375],[40.4368,-11.6343,5.812],[40.4399,-11.6357,0.5904],[40.4518,-11.6246,2.1302],[40.4568,-11.6265,0.0],[40.4588,-11.6243,0.0965],[40.461,-11.6112,0.0],[40.4554,-11.6007,0.4407],[40.4504,-11.6001,2.1722],[40.4493,-11.6012,2.1245],[40.4493,-11.5993,0.5763],[40.4465,-11.6004,1.7008],[40.4454,-11.596,0.1629],[40.4307,-11.589,1.4485],[40.4268,-11.5854,1.185],[40.4221,-11.5785,2.2326],[40.4235,-11.5746,0.0],[40.4224,-11.5699,2.8383],[40.4243,-11.5668,4.0928],[40.4235,-11.5629,0.0],[40.4207,-11.5632,3.43],[40.4176,-11.5546,0.0],[40.4276,-11.5426,1.039],[40.4351,-11.5387,0.1435],[40.4332,-11.5329,2.1116],[40.4362,-11.5368,0.5397],[40.4399,-11.5371,0.0],[40.4478,-11.5312,3.9453],[40.4282,-11.5262,3.9652],[40.4057,-11.5243,7.6171],[40.3925,-11.5162,17.3932],[40.3863,-11.5099,18.5849],[40.3678,-11.4992,33.8495],[40.3519,-11.4936,34.2123],[40.2703,-11.5056,54.7839],[40.2442,-11.5121,93.5984],[40.226,-11.506,94.1507],[40.1894,-11.4856,116.3297],[40.1656,-11.4832,111.0201],[40.1367,-11.4984,99.2704],[40.108,-11.5034,117.1326],[40.1009,-11.4988,133.3319],[40.1325,-11.6299,160.2092],[40.1282,-11.7303,34.0372],[40.1481,-11.7278,27.4306],[40.1762,-11.7196,29.6687],[40.1815,-11.7273,30.0016],[40.1906,-11.7232,25.765],[40.198,-11.7219,23.023],[40.2024,-11.719,52.5365],[40.2223,-11.7354,29.9633],[40.2336,-11.7368,37.0714],[40.2489,-11.7428,66.224],[40.275,-11.7433,14.9627]]],
[[[40.4938,-11.6096,0.0],[40.4912,-11.6093,0.0],[40.491,-11.6101,0.0],[40.4949,-11.6112,0.0],[40.4938,-11.6096,0.0]]]]}
,"properties": {"GID_3": "MOZ.1.7.2_1","GID_0": "MOZ","country": "Mozambique","GID_1": "MOZ.1_1","province": "CaboDelgado","NL_NAME_1": "NA","GID_2": "MOZ.1.7_1","county": "MocimboadaPraia","NL_NAME_2": "NA","city": "Mbau","VARNAME_3": "NA","NL_NAME_3": "NA","TYPE_3": "Localidad","ENGTYPE_3": "Locality","CC_3": "NA","HASC_3": "NA","name": "Mbau.city","area_km2": 787.322,"hist_schema_id": "Elevation0-9000","hist_area_km2": {"0": 89.7595,"25": 98.4401,"50": 121.2066,"75": 117.8828,"100": 130.7825,"125": 110.3288,"150": 75.8708,"175": 30.5493,"200": 12.0864,"225": 0.4153}}}