{"type": "Feature","bbox": [35.278,-16.381,35.5746,-16.1119],"geometry": {"type": "MultiPolygon","coordinates": [[[[35.4392,-16.1126,547.6042],[35.4297,-16.1119,546.1621],[35.4272,-16.1158,537.2527],[35.4212,-16.1175,552.6923],[35.4201,-16.1194,541.7505],[35.4061,-16.1232,531.7082],[35.4018,-16.1288,523.9258],[35.4022,-16.1329,519.7432],[35.3877,-16.1519,513.9729],[35.3837,-16.1544,517.0308],[35.3742,-16.1549,495.5734],[35.3496,-16.1771,442.9333],[35.3475,-16.1841,439.5925],[35.3446,-16.1855,438.4068],[35.3429,-16.1888,429.3755],[35.3399,-16.1905,423.6627],[35.3352,-16.1901,409.0167],[35.3316,-16.1955,395.7317],[35.3234,-16.1989,407.0307],[35.3202,-16.2035,381.7679],[35.3141,-16.2067,381.6046],[35.3084,-16.2125,390.5009],[35.3065,-16.2241,373.9063],[35.2967,-16.2297,364.692],[35.2933,-16.2378,359.5484],[35.2932,-16.2509,353.066],[35.2979,-16.265,325.4987],[35.2938,-16.2759,322.626],[35.2949,-16.2832,327.2489],[35.292,-16.2859,325.6413],[35.278,-16.3221,227.7437],[35.2871,-16.3397,313.5287],[35.2957,-16.3446,215.0226],[35.2976,-16.3492,205.375],[35.2956,-16.3571,175.1547],[35.313,-16.3564,199.9091],[35.3249,-16.3527,247.7412],[35.3339,-16.3593,288.8081],[35.3416,-16.368,319.9716],[35.3476,-16.3641,304.6983],[35.3589,-16.3708,320.4611],[35.3722,-16.359,348.8293],[35.3748,-16.3539,371.1381],[35.3819,-16.3537,392.0553],[35.3917,-16.3576,408.4606],[35.4033,-16.3517,409.0076],[35.4098,-16.3514,418.5755],[35.4206,-16.354,435.0459],[35.4279,-16.3587,453.674],[35.4331,-16.3597,446.6298],[35.4411,-16.3505,469.4543],[35.4461,-16.347,486.3768],[35.4491,-16.347,474.5278],[35.4541,-16.3418,481.2022],[35.4529,-16.3352,486.0961],[35.4686,-16.3234,535.8511],[35.4831,-16.3156,545.0127],[35.5218,-16.381,390.4084],[35.5298,-16.3774,398.113],[35.5398,-16.3777,404.101],[35.5669,-16.3713,431.9513],[35.5705,-16.368,430.0014],[35.5571,-16.3332,483.3772],[35.5515,-16.3279,507.3704],[35.5574,-16.3071,545.3397],[35.5568,-16.2992,576.7585],[35.5607,-16.2854,602.2104],[35.5746,-16.2536,681.6431],[35.5734,-16.2262,660.9171],[35.5703,-16.2185,659.3281],[35.5642,-16.1902,651.7084],[35.5689,-16.1551,608.9825],[35.5658,-16.1502,598.5764],[35.5443,-16.1491,574.8229],[35.5459,-16.1526,579.2933],[35.5408,-16.1609,615.4922],[35.5291,-16.1615,575.3003],[35.5254,-16.1668,573.08],[35.5195,-16.1662,574.0193],[35.5194,-16.1578,581.0532],[35.5182,-16.1563,581.0532],[35.513,-16.1537,577.4078],[35.5059,-16.1552,574.8805],[35.5026,-16.1534,579.3278],[35.4986,-16.145,568.3542],[35.4918,-16.141,566.0096],[35.4886,-16.1419,566.8137],[35.4859,-16.1369,564.6294],[35.4877,-16.131,558.6818],[35.4854,-16.1266,551.2606],[35.4862,-16.1208,553.5344],[35.4851,-16.1196,553.5344],[35.4793,-16.1181,556.1758],[35.4732,-16.1209,550.8162],[35.4653,-16.1206,551.9469],[35.4514,-16.1158,541.0126],[35.4485,-16.1133,546.9819],[35.4392,-16.1126,547.6042]]]]}
,"properties": {"GID_3": "MOZ.11.9.1_1","GID_0": "MOZ","country": "Mozambique","GID_1": "MOZ.11_1","province": "Zambezia","NL_NAME_1": "NA","GID_2": "MOZ.11.9_1","county": "Milange","NL_NAME_2": "NA","city": "Majaua","VARNAME_3": "NA","NL_NAME_3": "NA","TYPE_3": "Localidad","ENGTYPE_3": "Locality","CC_3": "NA","HASC_3": "NA","name": "Majaua.city","area_km2": 655.3268,"hist_schema_id": "Elevation0-9000","hist_area_km2": {"175": 0.2441,"200": 0.9562,"225": 1.9939,"250": 2.1363,"275": 3.5402,"300": 7.0806,"325": 11.9441,"350": 13.7963,"375": 21.4905,"400": 30.6082,"425": 38.4427,"450": 50.7582,"475": 51.9822,"500": 48.321,"525": 52.2945,"550": 56.899,"575": 69.7865,"600": 72.0691,"625": 60.3598,"650": 40.2257,"675": 11.5421,"700": 3.0332,"725": 1.7914,"750": 1.2416,"775": 0.8142,"800": 0.7736,"825": 0.3665,"850": 0.1833,"875": 0.1629,"900": 0.1018,"925": 0.1833,"950": 0.0611,"975": 0.0204,"1000": 0.0611,"1025": 0.0204,"1050": 0.0204,"1075": 0.0204}}}