{"type":"Feature","properties":{"GID_3":"MOZ.2.3.2_1","GID_0":"MOZ","country":"Mozambique","GID_1":"MOZ.2_1","province":"Gaza","NL_NAME_1":"NA","GID_2":"MOZ.2.3_1","county":"Chicualacuala","NL_NAME_2":"NA","city":"Mapai","VARNAME_3":"NA","NL_NAME_3":"NA","TYPE_3":"Localidad","ENGTYPE_3":"Locality","CC_3":"NA","HASC_3":"NA","name":"Mapai.city"},
"geometry":{"type": "MultiPolygon","coordinates": [[[[31.7409,-22.4801,209.2023],[31.7748,-22.5656,159.8512],[31.7803,-22.5728,158.6572],[31.7852,-22.5852,156.9696],[31.8009,-22.6089,155.0082],[31.8012,-22.6212,155.3209],[31.8118,-22.6279,155.154],[31.8183,-22.6351,152.3038],[31.8162,-22.6405,151.0801],[31.812,-22.6438,144.073],[31.8112,-22.6622,149.0613],[31.8247,-22.6906,147.2943],[31.8432,-22.7036,145.3138],[31.8969,-22.7541,139.1824],[31.9077,-22.7669,140.5083],[31.9183,-22.7984,132.9137],[31.9268,-22.8126,135.9512],[31.9419,-22.821,133.9022],[31.9464,-22.8332,133.8116],[31.9466,-22.8464,134.5942],[31.9536,-22.8678,132.1786],[31.9609,-22.8762,129.2994],[32.005,-22.883,122.7729],[32.0201,-22.8877,124.4606],[32.0278,-22.8933,123.8573],[32.025,-22.9127,120.9964],[32.0159,-22.9263,120.1253],[32.0115,-22.9381,119.3494],[32.0158,-22.9507,125.4168],[32.0265,-22.9567,122.4585],[32.0431,-22.9596,121.5555],[32.0571,-22.9672,120.5758],[32.0693,-22.9769,117.9199],[32.0738,-22.9867,112.2755],[32.0751,-23.0011,111.0],[32.0827,-23.0165,117.4403],[32.0866,-23.0212,116.2826],[32.0936,-23.0234,115.4878],[32.11,-23.023,115.0311],[32.1209,-23.0249,116.8529],[32.144,-23.0371,116.0092],[32.1895,-23.0666,107.4402],[32.2012,-23.076,109.6743],[32.2172,-23.0933,102.2236],[32.2457,-23.1145,104.0442],[32.2503,-23.1237,99.0],[32.2492,-23.1314,100.2232],[32.2437,-23.1428,104.0226],[32.2234,-23.1684,98.6932],[32.2209,-23.1756,97.8359],[32.2233,-23.1868,104.2189],[32.2426,-23.2012,100.2497],[32.2461,-23.2081,98.9635],[32.244,-23.2366,96.3901],[32.2449,-23.2486,96.4035],[32.2493,-23.2566,98.5703],[32.2706,-23.2695,100.2171],[32.2832,-23.2825,100.0208],[32.2809,-23.2715,109.8586],[32.2812,-23.2616,105.1211],[32.2754,-23.2585,107.9009],[32.2796,-23.2297,135.0202],[32.2835,-23.2164,161.1075],[32.2854,-23.1912,168.7046],[32.2998,-23.1593,185.3517],[32.3343,-23.0897,169.6355],[32.3962,-22.9989,158.0238],[32.4195,-22.9855,153.2439],[32.9053,-22.9816,94.0919],[32.7459,-22.8158,99.3864],[32.6623,-22.6192,103.3964],[32.6413,-22.4531,127.6584],[32.6103,-22.458,129.3814],[32.6088,-22.3506,142.7339],[32.5926,-22.2785,154.259],[32.6063,-22.1557,160.3735],[32.5919,-22.0682,176.6908],[32.5799,-22.0845,176.3961],[32.5667,-22.0919,178.6008],[32.5439,-22.0976,183.1096],[32.528,-22.1042,183.5599],[32.5023,-22.1086,191.683],[32.4721,-22.1213,196.8937],[32.454,-22.1316,197.1328],[32.4138,-22.1507,201.9756],[32.377,-22.1732,199.1616],[32.2578,-22.426,182.9281],[32.0012,-22.4297,265.9869],[31.9601,-22.4356,276.9388],[31.8717,-22.4368,329.2596],[31.8111,-22.473,352.7396],[31.7912,-22.4722,316.8673],[31.743,-22.4783,214.2854],[31.7409,-22.4801,209.2023]]]]}}