{"type": "Feature","bbox": [33.78,-24.8343,33.9941,-24.7365],"geometry": {"type": "MultiPolygon","coordinates": [[[[33.78,-24.8224,70.7558],[33.7891,-24.8242,78.2304],[33.7972,-24.8236,76.0413],[33.8061,-24.8204,75.9165],[33.8343,-24.8227,73.3875],[33.8524,-24.8343,77.8836],[33.8844,-24.8217,81.2962],[33.9292,-24.8144,74.264],[33.9448,-24.804,63.9129],[33.9453,-24.7926,60.311],[33.9547,-24.7974,58.8438],[33.9941,-24.7683,49.2268],[33.968,-24.7531,63.5104],[33.9378,-24.7531,85.5866],[33.927,-24.751,69.429],[33.904,-24.7531,76.2248],[33.8905,-24.7615,72.7634],[33.8767,-24.7742,79.8075],[33.8616,-24.7751,79.5826],[33.8494,-24.7719,79.2563],[33.8436,-24.7626,73.6475],[33.835,-24.7365,76.8846],[33.7873,-24.8137,74.4029],[33.78,-24.8224,70.7558]]]]}
,"properties": {"GID_3": "MOZ.2.8.6_1","GID_0": "MOZ","country": "Mozambique","GID_1": "MOZ.2_1","province": "Gaza","NL_NAME_1": "NA","GID_2": "MOZ.2.8_1","county": "Mandlakazi","NL_NAME_2": "NA","city": "Mazucane","VARNAME_3": "NA","NL_NAME_3": "NA","TYPE_3": "Localidad","ENGTYPE_3": "Locality","CC_3": "NA","HASC_3": "NA","name": "Mazucane.city","area_km2": 115.95363,"hist_schema_id": "Elevation0-9000","hist_area_km2": {"50": 12.93633,"75": 88.60059,"100": 14.41671}}}