{"type": "Feature","bbox": [32.5643,-25.9565,32.6817,-25.872],"geometry": {"type": "MultiPolygon","coordinates": [[[[32.6085,-25.9565,0.7662],[32.624,-25.9424,2.1958],[32.6318,-25.9318,1.5541],[32.6546,-25.9082,4.4454],[32.6624,-25.9026,1.6157],[32.6651,-25.8979,2.5685],[32.6699,-25.8957,0.3835],[32.6707,-25.8893,2.0046],[32.6751,-25.8863,0.0],[32.6774,-25.8871,0.6908],[32.6817,-25.8854,0.8745],[32.6716,-25.8738,2.237],[32.669,-25.872,5.0028],[32.6613,-25.8727,2.313],[32.6478,-25.8804,2.74],[32.6423,-25.8896,2.6477],[32.6401,-25.9002,2.2002],[32.6349,-25.9112,2.8447],[32.6254,-25.9145,7.2485],[32.617,-25.9105,32.4368],[32.6089,-25.9215,45.8929],[32.5796,-25.9295,39.5009],[32.5778,-25.9255,39.7651],[32.5759,-25.9244,41.5861],[32.5737,-25.9255,38.1859],[32.573,-25.9365,32.8962],[32.5643,-25.9525,39.4259],[32.5745,-25.9504,27.0665],[32.577,-25.9427,28.1442],[32.5866,-25.9453,46.2255],[32.5858,-25.9468,46.7089],[32.5877,-25.9482,51.8894],[32.5891,-25.9453,49.2245],[32.5965,-25.9424,47.1864],[32.6031,-25.9468,41.3799],[32.6064,-25.9435,29.8767],[32.6045,-25.9537,26.7505],[32.6085,-25.9565,0.7662]]]]}
,"properties": {"GID_3": "MOZ.5.2.5_1","GID_0": "MOZ","country": "Mozambique","GID_1": "MOZ.5_1","province": "MaputoCity","NL_NAME_1": "NA","GID_2": "MOZ.5.2_1","county": "Maputo","NL_NAME_2": "NA","city": "Maputo4","VARNAME_3": "NA","NL_NAME_3": "NA","TYPE_3": "Localidad","ENGTYPE_3": "Locality","CC_3": "NA","HASC_3": "NA","name": "Maputo4.city","area_km2": 29.71077,"hist_schema_id": "Elevation0-9000","hist_area_km2": {"0": 18.88068,"25": 4.86204,"50": 5.96805}}}