{"type":"Feature","properties":{"ISO3166-1-Alpha-3":"MOZ","country":"Mozambique","fill":"#FF0","id":"1200","name":"Nampula"},
"geometry":{"type": "MultiPolygon","coordinates": [[[[39.9033,-16.40981,2.1528],[39.9088,-16.3957,0.8856],[39.90692,-16.37807,0.0],[39.91515,-16.34898,0.5],[39.9418,-16.32248,3.8972],[39.94637,-16.30219,0.6209],[39.94358,-16.27927,0.3652],[39.90954,-16.27583,0.0],[39.86082,-16.2865,2.9912],[39.83235,-16.29977,3.0417],[39.82134,-16.31741,2.3744],[39.8177,-16.35618,7.0012],[39.83245,-16.39052,1.8479],[39.85639,-16.40987,7.4585],[39.87848,-16.41689,4.48],[39.9033,-16.40981,2.1528]]],
[[[40.21184,-13.48388,86.742],[40.19804,-13.47556,52.2089],[40.18843,-13.46641,58.7531],[40.17587,-13.45897,81.2229],[40.13908,-13.45329,72.0847],[40.1335,-13.44895,75.0085],[40.12843,-13.44812,90.372],[40.11562,-13.45592,106.6306],[40.09123,-13.48238,85.9353],[40.08151,-13.49008,129.4807],[40.03945,-13.50357,128.2968],[40.0209,-13.51225,150.6578],[40.00731,-13.53902,183.416],[39.99351,-13.54977,171.3577],[39.96483,-13.56517,173.1088],[39.93796,-13.58987,185.6908],[39.88147,-13.65777,189.4667],[39.84876,-13.67503,205.1252],[39.83646,-13.67503,194.2315],[39.80468,-13.66821,207.6264],[39.76308,-13.66821,250.2942],[39.74184,-13.6742,219.0683],[39.68428,-13.71601,226.8935],[39.6651,-13.72283,223.7508],[39.6464,-13.72702,226.4683],[39.60542,-13.72965,228.1089],[39.59544,-13.73229,229.3094],[39.58774,-13.73844,230.3084],[39.58113,-13.74526,228.0],[39.57441,-13.75017,231.5324],[39.56418,-13.75301,229.7503],[39.53281,-13.75761,231.5852],[39.51731,-13.76355,234.5615],[39.49933,-13.7728,236.5142],[39.48439,-13.78365,236.3238],[39.47819,-13.79482,238.1253],[39.47075,-13.81306,242.222],[39.45277,-13.83037,253.646],[39.43034,-13.84448,247.6425],[39.40993,-13.85321,244.3197],[39.37205,-13.86003,247.3008],[39.3629,-13.86318,247.8611],[39.35287,-13.87729,247.2163],[39.34476,-13.8805,247.2295],[39.32419,-13.88437,261.4154],[39.30182,-13.89378,255.2693],[39.26652,-13.91527,255.5716],[39.23164,-13.94364,257.9182],[39.20803,-13.95351,257.0],[39.17128,-13.93863,267.6793],[39.1455,-13.93713,262.25],[39.10142,-13.94194,294.5581],[39.07951,-13.95041,292.9321],[39.06002,-13.96452,305.3171],[39.04597,-13.98369,290.3459],[39.04059,-14.00741,287.7515],[39.03083,-14.01237,283.1763],[38.97109,-14.02514,282.64],[38.92825,-14.05475,288.7272],[38.89662,-14.06508,287.5884],[38.84138,-14.10643,301.0032],[38.82257,-14.11232,292.588],[38.75539,-14.12069,309.0783],[38.74066,-14.12503,311.0935],[38.70728,-14.14389,312.6965],[38.68372,-14.1474,306.5847],[38.55809,-14.15082,328.0441],[38.51923,-14.14058,343.6246],[38.48151,-14.12591,335.7714],[38.45097,-14.12126,334.2601],[38.42037,-14.12689,335.2505],[38.38952,-14.14058,348.6204],[38.3504,-14.15164,347.3855],[38.26374,-14.16141,362.7607],[38.22442,-14.18151,358.2043],[38.18995,-14.21613,365.2786],[38.16969,-14.23071,366.3949],[38.00133,-14.26166,384.6966],[37.99167,-14.26781,384.0433],[37.98531,-14.27789,395.8401],[37.97001,-14.29045,391.7243],[37.95177,-14.30109,400.3669],[37.93642,-14.30507,411.3861],[37.9001,-14.2875,413.6912],[37.87932,-14.25608,417.8079],[37.85617,-14.23035,429.6956],[37.81287,-14.22993,439.4958],[37.79504,-14.24109,427.7589],[37.76904,-14.27153,417.8111],[37.75483,-14.27773,427.7455],[37.67634,-14.27091,433.928],[37.65654,-14.27272,436.8469],[37.63474,-14.28078,433.3277],[37.62264,-14.2952,437.1177],[37.63195,-14.31592,458.7829],[37.6322,-14.33416,454.2734],[37.61567,-14.35897,442.4881],[37.59278,-14.38186,453.6252],[37.57391,-14.39442,451.3968],[37.49511,-14.39442,466.3365],[37.48002,-14.40232,463.8599],[37.44111,-14.44144,469.437],[37.4054,-14.4894,482.5038],[37.37677,-14.52041,485.5609],[37.34194,-14.54867,480.5237],[37.23977,-14.60366,496.29],[37.22045,-14.60733,484.7946],[37.2144,-14.605,494.8838],[37.19507,-14.59508,503.3927],[37.18288,-14.59306,490.0099],[37.17063,-14.59451,496.9256],[37.16495,-14.59771,491.82619999999997],[37.16148,-14.60211,499.9828],[37.09632,-14.65482,526.2572],[37.07704,-14.66195,522.3949],[37.06495,-14.66401,508.4705],[37.05612,-14.66934,516.0273],[37.03953,-14.68241,520.6458],[37.02904,-14.68675,526.5809],[37.00785,-14.69202,514.8707],[36.99793,-14.69611,528.7206],[36.98558,-14.70587,517.5078],[36.95597,-14.73734,526.9774],[36.95013,-14.74726,529.2408],[36.94377,-14.75383,521.6737],[36.89023,-14.77496,530.1669],[36.86362,-14.80928,546.7516],[36.84786,-14.83961,544.9133],[36.84383,-14.8501,544.3995],[36.83453,-14.86948,540.7021],[36.78998,-14.91433,579.8585],[36.78254,-14.927,595.4229],[36.78022,-14.93418,649.1182],[36.76673,-14.95397,960.9829],[36.71474,-15.0041,575.3278],[37.21487,-15.01149,900.7139],[37.22184,-15.01851,807.3583],[37.23859,-15.03056,695.2704],[37.25347,-15.04373,725.4442],[37.26701,-15.05825,763.1426],[37.2729,-15.06632,812.3444],[37.27522,-15.07081,803.7624],[37.27708,-15.07577,796.3236],[37.27956,-15.08652,840.444],[37.28189,-15.09107,822.969],[37.28484,-15.09505,801.1953],[37.29166,-15.10223,794.1221],[37.29677,-15.11102,760.7318],[37.31682,-15.16517,781.9775],[37.32147,-15.17075,769.8491],[37.32907,-15.17644,788.735],[37.36209,-15.19199,814.2199],[37.36535,-15.19571,838.6597],[37.37015,-15.20569,864.3036],[37.37356,-15.21116,877.3],[37.37935,-15.21747,863.9095],[37.38493,-15.21886,844.5416],[37.38974,-15.21768,835.3792],[37.41237,-15.20558,798.9965],[37.41749,-15.20388,783.9363],[37.43506,-15.20093,751.8287],[37.44033,-15.19949,756.3352],[37.44529,-15.19742,758.2782],[37.44979,-15.19489,753.8247],[37.45366,-15.19179,756.9961],[37.45986,-15.18409,736.4813],[37.47929,-15.15282,727.3181],[37.48612,-15.14548,743.4411],[37.50022,-15.1352,711.9417],[37.50518,-15.13334,725.8843],[37.51216,-15.13179,707.6871],[37.52487,-15.13112,718.2828],[37.53262,-15.13344,727.415],[37.54911,-15.14192,730.4897],[37.55516,-15.14564,706.7294],[37.55934,-15.14982,725.7213],[37.57019,-15.16646,695.5329],[37.57252,-15.17106,686.8064],[37.57763,-15.17587,688.4492],[37.58523,-15.18083,702.6848],[37.60187,-15.18667,677.0221],[37.6104,-15.19106,683.7699],[37.61536,-15.19587,676.255],[37.61923,-15.20879,656.4411],[37.6259,-15.21607,668.6517],[37.63319,-15.21876,665.9938],[37.64497,-15.21969,644.1714],[37.6521,-15.22134,658.2206],[37.65742,-15.22414,638.7439],[37.6675,-15.23375,644.8789],[37.67851,-15.2399,621.4811],[37.68688,-15.24227,611.223],[37.69447,-15.24284,627.5317],[37.70021,-15.24191,617.8431],[37.71065,-15.23855,625.4629],[37.73747,-15.22367,586.913],[37.74119,-15.22047,597.3896],[37.75111,-15.2091,612.7634],[37.75561,-15.206,599.7122],[37.76155,-15.20429,591.6228],[37.77674,-15.20336,617.1378],[37.78279,-15.20233,633.6326],[37.78791,-15.20073,629.2285],[37.7969,-15.19582,639.7103],[37.80511,-15.18998,603.8694],[37.81132,-15.1876,609.0876],[37.81943,-15.1861,630.8051],[37.83354,-15.18579,843.1848],[37.84129,-15.18765,628.0815],[37.84687,-15.1907,670.437],[37.85012,-15.19432,592.0033],[37.86423,-15.21488,619.2488],[37.87074,-15.22243,616.6525],[37.87493,-15.22656,602.4449],[37.88072,-15.23034,597.1066],[37.88955,-15.23514,561.7208],[37.89668,-15.23654,587.4257],[37.90242,-15.23576,563.1111],[37.91389,-15.23111,547.5526],[37.94991,-15.23173,558.9269],[37.95673,-15.23432,568.397],[37.96154,-15.23747,562.8989],[37.96681,-15.24522,551.5396],[37.97022,-15.24878,614.9142],[37.98169,-15.2586,556.0806],[37.985,-15.26232,550.0196],[37.98758,-15.26666,569.2792],[37.98975,-15.27137,570.8642],[37.99802,-15.27798,537.4019],[38.01182,-15.28558,556.6904],[38.06148,-15.3048,541.0311],[38.07187,-15.31095,558.389],[38.08582,-15.32211,518.6863],[38.09703,-15.32444,501.5903],[38.1099,-15.3294,517.6705],[38.12137,-15.33725,520.3414],[38.13858,-15.34666,492.5455],[38.14261,-15.35105,483.5591],[38.14401,-15.35586,489.4199],[38.14339,-15.36128,506.5719],[38.14199,-15.3664,506.8301],[38.14246,-15.37188,514.2463],[38.14571,-15.37699,490.7616],[38.16018,-15.38588,495.2493],[38.16468,-15.38976,485.4915],[38.16731,-15.39389,475.6678],[38.17646,-15.41219,494.2008],[38.18173,-15.42056,485.0548],[38.19506,-15.43549,485.1807],[38.20969,-15.44464,446.1072],[38.22581,-15.45254,442.4109],[38.23573,-15.4558,431.9012],[38.28896,-15.4634,427.5649],[38.29532,-15.46324,448.4443],[38.30725,-15.46154,453.2545],[38.32994,-15.45559,420.4375],[38.33754,-15.45456,442.4894],[38.34281,-15.45627,425.0772],[38.37273,-15.47141,408.4615],[38.3765,-15.47394,415.7116],[38.38363,-15.47993,405.3638],[38.39557,-15.48841,420.9877],[38.40208,-15.49523,402.1654],[38.40534,-15.49978,396.7059],[38.40658,-15.50112,396.7059],[38.41572,-15.50706,387.0482],[38.42518,-15.51177,410.0583],[38.4303,-15.51611,396.5308],[38.43386,-15.52076,387.9474],[38.43696,-15.5312,373.0224],[38.43949,-15.53626,374.1781],[38.4429,-15.54101,383.984],[38.46089,-15.5513,374.179],[38.47577,-15.56169,396.3987],[38.48569,-15.5652,385.8261],[38.5107,-15.56985,385.8718],[38.51768,-15.57218,389.5074],[38.52621,-15.57802,360.8863],[38.53008,-15.58127,360.9636],[38.53675,-15.58861,390.6995],[38.53923,-15.593,373.8774],[38.54486,-15.60794,358.943],[38.54807,-15.62458,346.9468],[38.54982,-15.62954,350.9492],[38.55757,-15.63625,353.8081],[38.5706,-15.6438,365.8976],[38.61654,-15.66375,303.3992],[38.66558,-15.67532,258.6101],[38.6755,-15.67966,253.7869],[38.68186,-15.68447,255.0699],[38.68372,-15.68933,266.5195],[38.68775,-15.7054,284.227],[38.69224,-15.71465,246.1188],[38.6955,-15.71837,236.0315],[38.69937,-15.72162,227.4119],[38.7124,-15.73046,237.2815],[38.71581,-15.73413,230.6926],[38.71891,-15.73806,223.1025],[38.77203,-15.77237,203.0886],[38.77932,-15.77826,240.576],[38.78428,-15.78679,217.247],[38.79064,-15.80105,216.9363],[38.81094,-15.82937,194.7749],[38.81342,-15.83387,194.8515],[38.81513,-15.83883,207.9298],[38.82025,-15.86058,191.5658],[38.82242,-15.86683,180.0726],[38.82619,-15.8736,192.6315],[38.83425,-15.88254,182.5819],[38.83813,-15.8888,187.4955],[38.83983,-15.89484,215.0876],[38.83921,-15.8998,189.696],[38.84014,-15.9059,192.296],[38.84324,-15.91324,169.6743],[38.86045,-15.93143,167.4571],[38.8651,-15.93717,162.4164],[38.86727,-15.94182,167.747],[38.86851,-15.94724,173.8802],[38.86867,-15.95319,167.0112],[38.8682,-15.95949,177.3854],[38.86572,-15.97122,163.9619],[38.86557,-15.97727,150.8689],[38.86634,-15.98269,154.2169],[38.86867,-15.98776,154.8506],[38.8744,-15.99675,156.1466],[38.89476,-16.02124,137.5116],[38.91616,-16.05525,127.0228],[38.93554,-16.10398,133.5662],[38.93693,-16.10915,119.2485],[38.93791,-16.11483,114.186],[38.93709,-16.12672,113.6569],[38.93554,-16.1323,116.842],[38.93368,-16.13741,129.4774],[38.92329,-16.15565,110.4983],[38.92189,-16.16098,112.6351],[38.92127,-16.16697,101.1131],[38.92205,-16.17881,120.0384],[38.92174,-16.18511,114.3676],[38.91972,-16.19731,99.7293],[38.91957,-16.2034,98.3218],[38.92096,-16.20862,96.4828],[38.93383,-16.24345,80.2133],[38.94329,-16.26128,76.8837],[38.94659,-16.27162,87.964],[38.95156,-16.2804,83.0636],[38.96396,-16.29544,96.425],[38.97512,-16.31187,80.1829],[38.97993,-16.32097,79.2724],[38.98752,-16.3406,70.7718],[38.99868,-16.35642,42.3252],[39.00013,-16.35921,42.1519],[39.00494,-16.37208,56.5493],[39.01083,-16.39972,67.8874],[39.01269,-16.40453,66.655],[39.01517,-16.40897,65.1947],[39.02726,-16.42479,66.4134],[39.03253,-16.43331,64.8597],[39.03641,-16.44303,61.0858],[39.0423,-16.46421,30.3971],[39.04556,-16.48551,53.0488],[39.04571,-16.4884,51.7125],[39.04711,-16.49553,49.0268],[39.04835,-16.50897,39.8778],[39.04773,-16.52147,33.2085],[39.04695,-16.52721,33.3259],[39.04493,-16.53222,34.2523],[39.04183,-16.5362,42.4239],[39.03703,-16.53915,44.0866],[39.03083,-16.54132,66.5809],[39.01501,-16.5439,43.8343],[39.00463,-16.5469,30.7594],[38.99403,-16.55196,43.6013],[38.99047,-16.5548,39.5557],[38.98706,-16.55863,42.8452],[38.98427,-16.56281,40.2321],[38.9821,-16.56783,39.7597],[38.9807,-16.57367,34.3555],[38.97915,-16.60679,37.6462],[38.98024,-16.61873,32.1125],[38.9821,-16.62565,28.918],[38.98504,-16.63294,18.9355],[38.99124,-16.64312,18.0327],[38.9962,-16.64792,17.1176],[39.00029,-16.65077,16.4327],[39.02819,-16.66276,15.1896],[39.03548,-16.66756,19.7601],[39.04059,-16.67206,13.4693],[39.04602,-16.68058,19.0658],[39.05646,-16.7043,26.3639],[39.06468,-16.71691,19.3477],[39.07382,-16.73521,9.9567],[39.0746,-16.74068,8.3479],[39.07739,-16.749,14.2612],[39.08204,-16.75862,10.9216],[39.10752,-16.7889,6.4465],[39.11403,-16.80363,4.2746],[39.11713,-16.80859,9.2856],[39.12519,-16.81892,7.4352],[39.12782,-16.82393,7.1581],[39.1286,-16.82962,3.7664],[39.12875,-16.83577,7.3288],[39.12658,-16.86073,2.4033],[39.12767,-16.87049,2.6622],[39.12908,-16.87181,1.4825],[39.12916,-16.86785,0.5],[39.14747,-16.87664,2.3431],[39.16147,-16.86785,5.9681],[39.18751,-16.83099,6.1759],[39.20436,-16.81699,5.1565],[39.35621,-16.72389,10.7363],[39.53256,-16.63584,1.578],[39.55779,-16.61094,4.9467],[39.56739,-16.60442,4.8853],[39.60768,-16.59189,5.1899],[39.63746,-16.56829,7.5387],[39.6784,-16.54608,2.6788],[39.69825,-16.53216,4.1204],[39.7151,-16.51507,1.768],[39.7199,-16.50726,4.2929],[39.72071,-16.4992,1.0069],[39.71957,-16.49293,2.6864],[39.71827,-16.49114,2.4231],[39.72901,-16.47918,2.0185],[39.73911,-16.47308,4.7254],[39.76596,-16.4638,0.75],[39.76075,-16.45908,4.4373],[39.75131,-16.44793,2.223],[39.7461,-16.44329,3.7087],[39.75668,-16.44411,2.5717],[39.76694,-16.44329,7.1271],[39.77687,-16.44085,3.0593],[39.78639,-16.43646,4.2422],[39.78761,-16.44362,2.8897],[39.79265,-16.45672,2.7699],[39.79379,-16.4638,4.4567],[39.81056,-16.45761,4.6755],[39.85597,-16.42978,0.0],[39.83709,-16.42051,4.1341],[39.82065,-16.40667,4.7313],[39.80795,-16.38893,3.7951],[39.80063,-16.36826,0.7494],[39.79982,-16.35638,2.1063],[39.80128,-16.33172,0.0],[39.80063,-16.31992,2.3907],[39.7894,-16.31845,2.5193],[39.78256,-16.31487,0.0],[39.78094,-16.30625,3.3298],[39.78338,-16.30193,0.0],[39.81332,-16.27695,0.0],[39.87525,-16.24481,0.0],[39.89373,-16.23968,0.0],[39.95777,-16.23854,6.7194],[39.99236,-16.22243,0.0],[40.0193,-16.18499,7.2976],[40.0608,-16.10817,8.056],[40.09303,-16.07952,7.0289],[40.10475,-16.06406,0.0],[40.10922,-16.03924,13.8108],[40.11524,-16.02028,29.9893],[40.1268,-16.00408,47.8166],[40.13478,-15.9865,12.0835],[40.12908,-15.96356,0.0],[40.09352,-15.99798,0.0],[40.07203,-16.00954,0.0],[40.0608,-15.9983,5.2034],[40.06495,-15.98919,6.4015],[40.07618,-15.98252,3.1885],[40.08912,-15.97861,1.979],[40.0984,-15.97723,2.3974],[40.10971,-15.97226,6.3995],[40.11394,-15.96103,3.3921],[40.11606,-15.94842,5.6399],[40.12224,-15.93963,7.4126],[40.16456,-15.91562,3.5469],[40.36362,-15.71478,40.1728],[40.42579,-15.615,7.8351],[40.44068,-15.59734,2.2376],[40.48072,-15.56911,0.0],[40.49594,-15.55153,2.6109],[40.49903,-15.52532,3.4627],[40.52426,-15.53167,1.8506],[40.53338,-15.53094,0.0],[40.54672,-15.52532,0.0],[40.56186,-15.51588,0.0],[40.57325,-15.50498,0.0],[40.5818,-15.49212,0.0],[40.58839,-15.47763,0.0],[40.57618,-15.47861,0.0],[40.57276,-15.46819,0.0],[40.57635,-15.45306,0.0],[40.58465,-15.43971,0.0],[40.58823,-15.43231,0.0],[40.58668,-15.41611,0.0],[40.58839,-15.40862,0.0],[40.59344,-15.40228,0.0],[40.61264,-15.38502,0.0],[40.61834,-15.37835,0.0],[40.62355,-15.36981,0.0],[40.62664,-15.36142,0.0],[40.62485,-15.34564,1.9103],[40.62941,-15.33904,0.6404],[40.66684,-15.29925,0.0],[40.66928,-15.28672,0.0],[40.65659,-15.27158,1.8283],[40.6775,-15.26092,1.986],[40.68165,-15.23301,0.0],[40.67416,-15.2011,0.0],[40.66041,-15.17897,0.0],[40.63543,-15.16465,0.0],[40.60963,-15.16131,3.1457],[40.58953,-15.17303,0.0],[40.5809,-15.20322,25.3401],[40.56609,-15.19354,0.0],[40.54835,-15.18743,0.0],[40.51271,-15.18206,2.1902],[40.5197,-15.16725,0.0],[40.52801,-15.13104,0.0],[40.53321,-15.1207,4.9631],[40.54721,-15.11696,13.2569],[40.56739,-15.11834,2.4031],[40.58766,-15.12282,6.2438],[40.60206,-15.12811,0.0],[40.62224,-15.09808,0.0],[40.64967,-15.08766,1.432],[40.68084,-15.08367,2.7036],[40.71192,-15.07293,0.0],[40.67457,-15.02361,0.0],[40.66196,-14.99489,0.0],[40.67091,-14.97666,7.1918],[40.72625,-14.99098,1.6007],[40.73927,-14.98838,0.0],[40.74887,-14.98455,0.0],[40.75904,-14.98561,0.0],[40.77394,-14.99774,3.1294],[40.77442,-14.98235,0.0],[40.7671,-14.96038,0.0],[40.75636,-14.93808,0.0],[40.7461,-14.92205,0.0],[40.73439,-14.92449,0.0],[40.68686,-14.92457,0.0],[40.67091,-14.92205,0.0],[40.65366,-14.90846,0.0],[40.64812,-14.89153,0.0],[40.64698,-14.87265,0.0],[40.64308,-14.85377,2.7488],[40.65455,-14.86517,14.7013],[40.6657,-14.89544,3.4187],[40.67408,-14.90154,1.6031],[40.69166,-14.90008,0.0],[40.70973,-14.89528,0.0],[40.72625,-14.8869,0.0],[40.73927,-14.87428,11.1342],[40.77516,-14.83807,12.834],[40.78012,-14.82952,17.1596],[40.78761,-14.82195,35.4007],[40.83546,-14.80234,0.0],[40.8401,-14.79827,0.0],[40.84254,-14.7929,0.0],[40.84246,-14.7872,0.0],[40.83888,-14.78143,0.0],[40.83269,-14.77402,0.1855],[40.8322,-14.76914,5.4113],[40.83416,-14.7636,6.6341],[40.84799,-14.70501,0.0],[40.84571,-14.68922,0.0],[40.8436,-14.68231,0.0],[40.84352,-14.66855,0.0],[40.8423,-14.66204,0.0],[40.83717,-14.65374,0.0],[40.8309,-14.64813,0.0],[40.82504,-14.64414,0.0],[40.82179,-14.6408,0.0],[40.81324,-14.62371,0.0],[40.81137,-14.61297,0.0],[40.8322,-14.55584,0.0],[40.83375,-14.53875,0.0],[40.82862,-14.52483,0.0],[40.81609,-14.51719,8.7154],[40.80616,-14.52223,2.9708],[40.79713,-14.53216,0.0],[40.78696,-14.53916,0.0],[40.77174,-14.53973,0.0],[40.761,-14.53493,17.4965],[40.76002,-14.52614,24.3997],[40.77329,-14.51483,58.581],[40.78842,-14.50937,48.1334],[40.81902,-14.50254,10.594],[40.83204,-14.49407,0.0],[40.84254,-14.46445,0.0],[40.82838,-14.43426,0.0],[40.80144,-14.41074,0.0],[40.77329,-14.4013,0.0],[40.76075,-14.40374,0.0],[40.70053,-14.43206,0.0],[40.69264,-14.43971,0.0],[40.66529,-14.52386,0.0],[40.65056,-14.54705,0.0],[40.62941,-14.56634,0.0],[40.62875,-14.55071,1.0522],[40.63624,-14.50433,0.0],[40.6338,-14.50482,0.0],[40.62908,-14.50156,2.6831],[40.62452,-14.49619,12.3516],[40.62257,-14.49066,11.0427],[40.64308,-14.47015,0.0],[40.63063,-14.46111,0.0],[40.62965,-14.44988,14.7709],[40.63885,-14.44354,14.2184],[40.65659,-14.44915,0.0],[40.63624,-14.33994,0.0],[40.65162,-14.34352,17.6499],[40.67075,-14.36305,51.7473],[40.68458,-14.36712,35.9106],[40.69516,-14.36273,6.6057],[40.71876,-14.34433,7.4876],[40.73243,-14.33994,0.0],[40.72999,-14.32366,11.7928],[40.73024,-14.30413,9.7294],[40.73504,-14.28525,5.8753],[40.7461,-14.27093,0.0],[40.72934,-14.26141,0.0],[40.72413,-14.25018,0.0],[40.72625,-14.21982,0.0],[40.72071,-14.20477,0.0],[40.70851,-14.19069,0.0],[40.6963,-14.18255,0.0],[40.64715,-14.20257,0.0],[40.62233,-14.22129,8.3075],[40.62257,-14.25042,21.2725],[40.61215,-14.25823,0.0],[40.6019,-14.26312,0.0],[40.59148,-14.26328,3.3934],[40.5809,-14.25726,16.5268],[40.58709,-14.25449,13.9912],[40.60206,-14.24358,0.0],[40.59018,-14.2348,0.0],[40.59181,-14.2247,12.9603],[40.5949,-14.21461,0.0],[40.58806,-14.20615,0.0],[40.57911,-14.20664,0.0],[40.56788,-14.22576,0.0],[40.55421,-14.23008,0.0],[40.56007,-14.20184,0.0],[40.54542,-14.18133,0.0],[40.53858,-14.16448,0.0],[40.56788,-14.14739,18.4897],[40.59669,-14.14316,10.0199],[40.60963,-14.1386,0.0],[40.61948,-14.12721,0.0],[40.62159,-14.11338,0.0],[40.61647,-14.1015,0.0],[40.6067,-14.09205,0.0],[40.59523,-14.08538,6.1189],[40.63429,-14.07073,0.0],[40.64568,-14.05869,0.0],[40.65056,-14.03191,0.0],[40.64869,-14.01133,0.0],[40.63852,-13.96746,0.0],[40.63624,-13.94256,0.0],[40.63396,-13.9345,0.0],[40.62843,-13.92506,0.0],[40.62176,-13.91668,0.0],[40.60621,-13.90203,0.0],[40.60418,-13.89105,0.0],[40.60353,-13.88014,0.0],[40.59059,-13.85329,0.0],[40.57496,-13.73455,4.3521],[40.57,-13.7164,9.9749],[40.54265,-13.65887,0.0],[40.5394,-13.63641,0.0],[40.55055,-13.61679,0.0],[40.58334,-13.58701,3.3667],[40.59645,-13.57171,0.0],[40.59523,-13.5652,9.7931],[40.57455,-13.55853,0.0],[40.55909,-13.5429,0.0],[40.54444,-13.52467,0.0],[40.52704,-13.5106,0.0],[40.5051,-13.52057,2.024],[40.47782,-13.52005,3.8669],[40.45446,-13.50884,5.5398],[40.44459,-13.48698,7.8295],[40.43777,-13.46486,9.9387],[40.42041,-13.45608,9.4046],[40.37323,-13.45592,13.2065],[40.3353,-13.46311,15.9131],[40.25251,-13.48796,52.3084],[40.21184,-13.48388,86.742]]]]}}