{"type":"Feature","properties":{"GID_1":"MOZ.7_1","GID_0":"MOZ","country":"Mozambique","province":"Nampula","VARNAME_1":"Moçambique|Mozambique","NL_NAME_1":"NA","TYPE_1":"Provincia","ENGTYPE_1":"Province","CC_1":"NA","HASC_1":"MZ.NM","ISO_1":"MZ-N","name":"Nampula.province"},
"geometry":{"type": "MultiPolygon","coordinates": [[[[40.5276,-15.1504,0.0],[40.5282,-15.149,0.0],[40.5265,-15.1482,0.0],[40.5265,-15.1518,0.0],[40.5276,-15.1504,0.0]]],
[[[40.5929,-15.1207,2.3168],[40.5918,-15.1193,0.4429],[40.5913,-15.1193,0.4429],[40.5935,-15.1224,0.4219],[40.5929,-15.1207,2.3168]]],
[[[40.7746,-15.079,1.5294],[40.7732,-15.0751,0.0],[40.7693,-15.0793,3.0107],[40.766,-15.0796,0.0],[40.7701,-15.0813,0.2613],[40.7713,-15.0849,0.0],[40.7732,-15.086,0.0],[40.7754,-15.0821,0.0],[40.7746,-15.079,1.5294]]],
[[[40.7885,-15.051,0.0],[40.7826,-15.0504,0.0],[40.781,-15.0551,0.0],[40.7871,-15.0554,0.0],[40.7885,-15.051,0.0]]],
[[[40.7443,-15.0299,4.3715],[40.7443,-15.0282,6.1117],[40.7399,-15.029,0.0],[40.7304,-15.0351,1.6965],[40.7274,-15.0401,0.0],[40.7257,-15.0479,0.5461],[40.7315,-15.0451,0.0],[40.7318,-15.041,9.424],[40.7351,-15.0365,1.7728],[40.7443,-15.0299,4.3715]]],
[[[40.7974,-14.9768,0.0],[40.796,-14.9749,0.0],[40.7935,-14.981,0.0],[40.7962,-14.9846,0.0],[40.7982,-14.9835,0.0],[40.7974,-14.9768,0.0]]],
[[[40.8293,-14.8521,0.0],[40.8293,-14.8482,0.0],[40.824,-14.8537,1.8257],[40.819,-14.8532,2.6521],[40.8124,-14.849,0.0],[40.8107,-14.8496,0.0],[40.8154,-14.8532,0.0],[40.8168,-14.8565,0.0],[40.8099,-14.8643,0.0],[40.8104,-14.8657,0.0],[40.8154,-14.8613,0.0],[40.8185,-14.8629,0.0],[40.824,-14.8599,0.0],[40.8238,-14.8643,1.3388],[40.821,-14.8685,3.7358],[40.8201,-14.8679,0.0],[40.8213,-14.8654,0.0],[40.819,-14.8651,0.0],[40.819,-14.869,0.7751],[40.8165,-14.8735,0.3886],[40.8196,-14.8735,0.4187],[40.8235,-14.869,0.0],[40.8293,-14.8521,0.0]]],
[[[40.5632,-15.454,0.0],[40.5624,-15.4526,0.0],[40.5612,-15.4526,0.0],[40.5638,-15.4554,0.0],[40.5632,-15.454,0.0]]],
[[[40.5776,-15.4285,0.0],[40.5782,-15.4243,1.215],[40.5746,-15.4332,0.0],[40.5757,-15.4354,0.0],[40.5768,-15.4343,0.0],[40.5776,-15.4285,0.0]]],
[[[40.5771,-15.4085,0.0],[40.5788,-15.4087,0.0],[40.5793,-15.4068,0.3118],[40.5776,-15.4068,0.5544],[40.5771,-15.4085,0.0]]],
[[[40.5871,-15.403,0.0],[40.5876,-15.4012,0.0],[40.584,-15.4035,0.6738],[40.5849,-15.406,0.4378],[40.5857,-15.4057,0.4378],[40.5871,-15.403,0.0]]],
[[[40.664,-15.196,0.0],[40.6618,-15.1949,0.0],[40.6626,-15.2107,0.059],[40.6649,-15.2099,0.0],[40.6651,-15.2076,0.0],[40.664,-15.196,0.0]]],
[[[40.8304,-14.7885,0.0],[40.826,-14.7874,0.0],[40.8262,-14.7915,0.0],[40.8279,-14.7924,0.0],[40.8271,-14.7962,0.0],[40.8288,-14.7965,0.0],[40.8307,-14.7926,0.837],[40.8332,-14.7929,1.5698],[40.834,-14.7982,1.995],[40.8329,-14.7985,1.995],[40.8324,-14.7957,0.0],[40.8304,-14.799,0.0],[40.834,-14.801,1.1724],[40.836,-14.796,2.027],[40.8351,-14.7885,0.0],[40.8304,-14.7885,0.0]]],
[[[40.6213,-14.5962,0.3723],[40.6204,-14.5976,0.0],[40.6232,-14.5954,0.0],[40.6215,-14.5957,0.3723],[40.6213,-14.5962,0.3723]]],
[[[40.8368,-14.5404,4.7037],[40.8349,-14.5393,0.0],[40.8307,-14.5429,0.0],[40.8324,-14.5512,2.7586],[40.8371,-14.5485,0.0],[40.8318,-14.544,2.0437],[40.8335,-14.5413,0.0],[40.8368,-14.5432,0.0],[40.8374,-14.5468,0.0],[40.8393,-14.5451,0.0],[40.8393,-14.5415,0.0],[40.8368,-14.5404,4.7037]]],
[[[40.6285,-14.0851,1.1123],[40.6254,-14.0843,0.0],[40.6263,-14.0863,0.0],[40.6293,-14.0871,0.0],[40.6285,-14.0851,1.1123]]],
[[[40.5307,-13.5429,1.3875],[40.5329,-13.5432,0.3023],[40.5343,-13.5413,1.774],[40.5329,-13.5413,1.774],[40.5307,-13.5429,1.3875]]],
[[[40.1376,-15.9388,0.0],[40.1346,-15.9376,2.9686],[40.1332,-15.9399,0.0],[40.1349,-15.9401,0.0],[40.1376,-15.9388,0.0]]],
[[[40.464,-15.5793,0.0],[40.4632,-15.5799,0.0],[40.4629,-15.5824,0.0],[40.4663,-15.5774,0.0],[40.464,-15.5793,0.0]]],
[[[40.5179,-15.5401,0.0],[40.5179,-15.5363,1.0058],[40.5154,-15.536,0.0],[40.5113,-15.5462,0.0],[40.5151,-15.544,0.0],[40.5179,-15.5401,0.0]]],
[[[40.4993,-15.5629,1.877],[40.4999,-15.5604,1.2169],[40.496,-15.5612,0.0],[40.4871,-15.569,0.0],[40.4829,-15.5701,0.234],[40.4824,-15.5732,0.7119],[40.4888,-15.5704,0.0],[40.4993,-15.5629,1.877]]],
[[[40.4876,-15.5654,0.0],[40.4865,-15.5643,1.3855],[40.4857,-15.5646,1.5054],[40.4865,-15.5671,0.7178],[40.4876,-15.5654,0.0]]],
[[[40.5163,-15.5279,0.7871],[40.5168,-15.5265,0.7871],[40.5157,-15.5257,0.0],[40.5151,-15.5282,0.4303],[40.5163,-15.5279,0.7871]]],
[[[40.5349,-15.5226,0.0],[40.5324,-15.5212,1.1195],[40.5301,-15.5235,2.4738],[40.5304,-15.5287,0.7278],[40.5326,-15.5279,0.478],[40.5349,-15.5226,0.0]]],
[[[40.5407,-15.5171,0.0],[40.5404,-15.5143,1.0543],[40.5374,-15.5201,0.0],[40.5385,-15.5204,0.0],[40.5407,-15.5171,0.0]]],
[[[40.556,-15.4524,1.0032],[40.5549,-15.4513,2.6331],[40.5479,-15.4521,0.5],[40.5465,-15.454,0.5],[40.5524,-15.4574,1.947],[40.556,-15.4546,0.8044],[40.556,-15.4524,1.0032]]],
[[[39.7565,-16.2646,2.5191],[39.7532,-16.2546,0.6015],[39.7468,-16.2485,1.0596],[39.7538,-16.2537,1.0413],[39.7618,-16.266,2.3998],[39.7707,-16.2726,1.1016],[39.7718,-16.2729,0.5713],[39.7751,-16.266,2.7087],[39.7724,-16.2737,0.0],[39.7765,-16.2815,0.0],[39.7818,-16.2849,0.0],[39.7868,-16.2849,0.0],[39.8007,-16.2812,1.6295],[39.8093,-16.276,1.5746],[39.8201,-16.2746,0.0],[39.8301,-16.2704,0.2651],[39.8396,-16.2696,0.0],[39.849,-16.2646,0.0],[39.8551,-16.2646,0.0],[39.8607,-16.2585,0.0],[39.8635,-16.2482,2.2741],[39.8576,-16.239,0.0],[39.8515,-16.2401,1.1413],[39.8376,-16.249,0.0],[39.836,-16.251,0.0],[39.8354,-16.2576,0.5938],[39.8321,-16.2629,0.7127],[39.8226,-16.2582,1.066],[39.8157,-16.2571,1.4508],[39.8218,-16.2565,0.4277],[39.8301,-16.2601,0.0],[39.8324,-16.2599,0.0],[39.834,-16.2571,1.1901],[39.834,-16.2546,1.0718],[39.8318,-16.2521,0.2924],[39.8229,-16.2451,0.5065],[39.8132,-16.244,0.4763],[39.8168,-16.2424,0.9434],[39.8232,-16.2437,0.0],[39.8257,-16.2424,0.509],[39.826,-16.2379,0.4305],[39.8204,-16.2368,1.2131],[39.821,-16.236,0.6244],[39.8265,-16.2376,0.4305],[39.8271,-16.2407,0.9472],[39.8251,-16.2449,0.4127],[39.8315,-16.249,1.3919],[39.8393,-16.2451,0.0],[39.8457,-16.2385,0.6132],[39.8535,-16.2349,0.2769],[39.8782,-16.2435,0.8608],[39.881,-16.2476,0.4222],[39.8849,-16.2474,0.0],[39.8849,-16.2412,0.3243],[39.886,-16.2412,0.3243],[39.8868,-16.2365,0.3453],[39.884,-16.2368,0.5008],[39.8874,-16.2349,0.0],[39.8879,-16.2301,1.233],[39.8874,-16.2224,0.6454],[39.8854,-16.2193,0.0],[39.8799,-16.2193,0.0],[39.871,-16.224,0.0],[39.864,-16.2251,1.1512],[39.8479,-16.2215,0.8854],[39.8382,-16.214,0.0],[39.8349,-16.2143,0.0],[39.8293,-16.2176,1.3506],[39.8254,-16.2182,0.6562],[39.829,-16.2171,1.3506],[39.8318,-16.2126,1.1538],[39.8379,-16.2115,0.0],[39.8457,-16.2185,0.0],[39.8638,-16.2229,1.0638],[39.8671,-16.2221,0.2727],[39.8699,-16.2187,0.4206],[39.8801,-16.2151,0.0],[39.8801,-16.211,0.0],[39.8771,-16.2068,0.3393],[39.869,-16.2007,0.4935],[39.861,-16.199,0.0],[39.8557,-16.1954,0.0],[39.8529,-16.1837,1.2281],[39.8574,-16.1904,0.0958],[39.8735,-16.201,0.0],[39.8793,-16.2018,0.0],[39.8815,-16.1996,0.666],[39.8818,-16.1965,1.7135],[39.8815,-16.1849,1.4913],[39.8793,-16.1818,1.1123],[39.8838,-16.1851,0.0],[39.8857,-16.1812,0.7588],[39.8851,-16.1771,0.0912],[39.8874,-16.174,0.5338],[39.889,-16.1815,0.0],[39.894,-16.1762,0.4061],[39.8963,-16.1832,0.0],[39.8963,-16.1893,0.0],[39.8999,-16.1949,0.3816],[39.8974,-16.1918,0.2504],[39.894,-16.1912,0.0],[39.8896,-16.1968,0.0],[39.8946,-16.2024,0.8024],[39.8887,-16.1996,1.0323],[39.886,-16.1999,0.2345],[39.8849,-16.2082,0.0],[39.8996,-16.2249,2.223],[39.8985,-16.2268,0.0],[39.9012,-16.2301,5.2093],[39.9012,-16.2354,1.3678],[39.904,-16.2351,2.6557],[39.9043,-16.2382,1.9174],[39.9087,-16.2362,9.685],[39.906,-16.2399,1.8318],[39.9029,-16.2396,2.0752],[39.9018,-16.241,0.7127],[39.9057,-16.246,1.433],[39.9093,-16.2457,0.2362],[39.9143,-16.2404,2.0309],[39.9154,-16.2424,0.45],[39.919,-16.2407,0.4896],[39.9193,-16.2376,0.9828],[39.9207,-16.2379,0.9828],[39.9199,-16.241,1.0032],[39.914,-16.246,0.0],[39.9362,-16.2421,2.7667],[39.9599,-16.2429,4.4864],[39.9768,-16.231,5.806],[39.9865,-16.2187,7.6192],[39.9987,-16.2071,2.1269],[40.0224,-16.189,1.8064],[40.0274,-16.1871,0.6572],[40.0315,-16.1757,0.0],[40.0335,-16.1643,5.8909],[40.0507,-16.1287,1.4493],[40.0721,-16.1137,0.0],[40.0929,-16.0862,1.6602],[40.1043,-16.0779,0.3958],[40.104,-16.0724,0.0],[40.1026,-16.0704,0.0],[40.1001,-16.0713,9.4014],[40.0988,-16.069,0.9961],[40.099,-16.0632,1.5655],[40.109,-16.0507,0.0],[40.1063,-16.0485,11.9024],[40.106,-16.0454,9.3858],[40.1096,-16.0385,13.8108],[40.1185,-16.024,12.615],[40.1274,-16.0146,0.0],[40.1354,-16.0026,0.0],[40.1387,-15.976,2.1113],[40.1351,-15.9721,0.7095],[40.1332,-15.9721,0.7095],[40.1346,-15.979,0.0],[40.1326,-15.9846,7.4187],[40.1237,-15.9924,1.6322],[40.121,-15.9987,12.4281],[40.1138,-16.0054,2.765],[40.1035,-16.0062,0.0],[40.1013,-16.0085,1.0882],[40.1004,-16.0054,0.0],[40.0824,-16.0046,1.5962],[40.0799,-16.0062,0.0],[40.066,-16.0274,1.3695],[40.0668,-16.0329,1.7135],[40.0646,-16.0507,0.0],[40.0549,-16.0646,0.0],[40.0451,-16.0851,1.1073],[40.0332,-16.0954,1.4919],[40.0318,-16.0999,8.4634],[40.0265,-16.1051,8.6141],[40.0204,-16.1068,0.4389],[40.0276,-16.1015,0.2701],[40.0285,-16.0974,1.1992],[40.0388,-16.0882,0.0],[40.0454,-16.0776,0.0],[40.0482,-16.0668,0.9351],[40.0612,-16.0474,0.0],[40.0624,-16.0393,0.986],[40.061,-16.0285,1.4772],[40.0476,-16.029,1.6597],[40.0618,-16.0254,0.0],[40.0654,-16.0215,0.0],[40.0657,-16.019,0.0],[40.0574,-16.0121,0.9898],[40.0521,-16.011,2.4091],[40.056,-16.0107,2.1264],[40.0618,-16.0151,0.0],[40.0649,-16.0151,0.0],[40.0707,-16.0063,0.7874],[40.0812,-15.9987,3.0489],[40.0901,-15.9971,1.1632],[40.0985,-15.9987,0.0],[40.0996,-15.9968,2.7617],[40.0965,-15.9924,1.113],[40.0965,-15.9896,1.625],[40.0976,-15.9882,0.5283],[40.1015,-15.9876,0.8821],[40.1021,-15.9854,1.0026],[40.0962,-15.9854,1.7019],[40.0979,-15.9843,4.3795],[40.1012,-15.984,1.8529],[40.1026,-15.9849,2.2361],[40.1024,-15.9882,1.9704],[40.0979,-15.9888,0.5283],[40.0971,-15.9901,1.625],[40.1015,-15.9976,1.8748],[40.1051,-15.9982,0.0],[40.109,-15.9957,1.5642],[40.1138,-15.9896,0.0],[40.114,-15.984,2.4316],[40.1218,-15.9682,0.0],[40.1165,-15.9607,1.4045],[40.1182,-15.9543,2.1667],[40.1174,-15.9493,3.983],[40.1199,-15.9457,1.8026],[40.1285,-15.9429,0.8533],[40.134,-15.9371,2.9686],[40.1401,-15.9365,0.0],[40.1424,-15.9268,1.7451],[40.1437,-15.9268,0.0],[40.1421,-15.921,1.8514],[40.1426,-15.9121,1.7621],[40.1429,-15.9199,1.8514],[40.1451,-15.9235,0.0],[40.1432,-15.9376,0.0],[40.1368,-15.9412,0.0],[40.1324,-15.9468,2.1374],[40.126,-15.9485,0.2136],[40.1204,-15.954,0.0],[40.1207,-15.956,0.0],[40.1485,-15.9429,6.013],[40.1538,-15.9443,0.0],[40.1565,-15.9382,1.0729],[40.1643,-15.9321,0.0],[40.1646,-15.9285,2.7496],[40.1693,-15.9207,8.4206],[40.1763,-15.914,2.2207],[40.181,-15.906,0.0],[40.1985,-15.889,5.1754],[40.2085,-15.8826,1.2394],[40.2199,-15.8682,0.0],[40.2343,-15.8582,0.0],[40.2374,-15.8551,0.0],[40.2374,-15.8532,0.6908],[40.2346,-15.8538,0.5],[40.2326,-15.8576,0.9611],[40.2299,-15.8588,1.5796],[40.2276,-15.8582,3.4934],[40.2271,-15.854,0.9044],[40.2207,-15.8546,1.8728],[40.2257,-15.8529,4.4081],[40.2313,-15.8543,3.9231],[40.2388,-15.8504,0.0],[40.2496,-15.8382,6.5536],[40.2593,-15.8313,0.0],[40.2649,-15.824,4.4209],[40.2796,-15.8132,0.0],[40.2865,-15.8057,1.2603],[40.2932,-15.8015,1.3551],[40.3107,-15.7857,4.2943],[40.3224,-15.7687,5.2666],[40.3501,-15.7463,0.0],[40.3718,-15.716,15.3056],[40.3771,-15.7012,5.8086],[40.3821,-15.6946,6.1935],[40.3876,-15.6826,15.1842],[40.3935,-15.6779,1.7829],[40.3985,-15.6626,11.7484],[40.421,-15.6351,3.4875],[40.424,-15.6285,1.3882],[40.4229,-15.6226,6.3583],[40.4254,-15.6185,0.0],[40.441,-15.6037,6.2596],[40.4543,-15.594,3.8037],[40.469,-15.5871,0.0],[40.4721,-15.5846,0.8406],[40.4729,-15.5801,0.0],[40.4704,-15.579,0.0],[40.4682,-15.5801,0.0],[40.4593,-15.5885,1.8251],[40.4485,-15.5896,3.8844],[40.4401,-15.5974,2.2376],[40.4238,-15.5957,0.5],[40.4193,-15.6001,3.2578],[40.4215,-15.5957,0.8936],[40.4404,-15.5954,0.5],[40.4482,-15.5874,0.7431],[40.4596,-15.5857,0.2368],[40.4562,-15.579,2.6516],[40.4615,-15.581,0.2316],[40.4635,-15.5768,1.1453],[40.4671,-15.5737,0.9349],[40.4799,-15.5687,0.0],[40.4815,-15.5649,0.0],[40.4826,-15.5671,0.0],[40.486,-15.5685,0.0],[40.484,-15.5654,0.8883],[40.4849,-15.5626,3.2232],[40.4957,-15.5607,0.0],[40.5007,-15.5563,0.6791],[40.4999,-15.5512,0.0],[40.5013,-15.5451,2.9086],[40.4971,-15.5412,0.0],[40.4932,-15.5426,0.5],[40.4879,-15.5482,3.5922],[40.4832,-15.5485,2.6454],[40.4793,-15.5468,2.325],[40.4787,-15.5443,2.7363],[40.4857,-15.546,3.2785],[40.4899,-15.5418,0.5],[40.4851,-15.539,1.3807],[40.4907,-15.5412,3.0859],[40.4949,-15.5371,2.5341],[40.4999,-15.5357,1.2229],[40.504,-15.5393,2.1749],[40.5074,-15.5393,1.038],[40.5143,-15.5332,0.0],[40.5143,-15.5251,0.0],[40.5199,-15.5246,1.6555],[40.5243,-15.5221,1.6613],[40.5251,-15.5201,0.0],[40.5215,-15.519,2.9176],[40.5224,-15.5185,1.4891],[40.526,-15.5193,1.468],[40.526,-15.521,0.0],[40.5221,-15.5251,1.9841],[40.5174,-15.5262,0.0],[40.5168,-15.5337,0.7406],[40.521,-15.5351,0.0],[40.5243,-15.5343,0.0],[40.5265,-15.5324,0.0],[40.5296,-15.5232,2.4738],[40.5315,-15.521,2.1466],[40.5351,-15.521,0.5859],[40.5396,-15.514,1.0543],[40.5412,-15.5135,1.8344],[40.5426,-15.5151,0.0],[40.5501,-15.5085,0.5463],[40.554,-15.5018,2.3429],[40.559,-15.5007,1.8363],[40.5638,-15.4968,0.0],[40.5696,-15.4871,0.0],[40.5687,-15.4832,0.0],[40.5679,-15.4843,0.0],[40.5687,-15.4868,0.0],[40.566,-15.4879,0.0],[40.5638,-15.4946,0.0],[40.5621,-15.4943,0.3343],[40.5643,-15.4918,0.0],[40.5624,-15.4907,0.7714],[40.5618,-15.4862,0.0],[40.5576,-15.4876,0.4705],[40.5515,-15.4854,1.2278],[40.5504,-15.4907,0.9564],[40.5493,-15.4862,0.9514],[40.5524,-15.4838,1.237],[40.5574,-15.4838,0.0],[40.5604,-15.481,0.4182],[40.564,-15.4815,0.0],[40.5638,-15.4829,0.0],[40.5663,-15.4824,0.0],[40.5665,-15.4807,0.0],[40.5638,-15.4801,0.1803],[40.564,-15.4757,1.4479],[40.5671,-15.471,0.0],[40.5651,-15.466,1.9659],[40.5654,-15.4601,0.0],[40.5615,-15.4568,0.0],[40.5501,-15.4596,3.4827],[40.5479,-15.4585,2.3463],[40.5479,-15.4563,1.8014],[40.5404,-15.4535,1.3772],[40.539,-15.4482,0.5],[40.541,-15.4471,2.2508],[40.5432,-15.4518,0.8484],[40.5465,-15.4521,1.506],[40.5504,-15.4493,2.1906],[40.5585,-15.449,0.6426],[40.561,-15.4462,3.8828],[40.5643,-15.4454,0.5471],[40.5632,-15.4476,0.3434],[40.5612,-15.4471,0.9848],[40.5601,-15.4485,0.8528],[40.5635,-15.4501,0.0],[40.5685,-15.4429,0.0],[40.5649,-15.439,3.5506],[40.5715,-15.4368,0.0],[40.5732,-15.4276,3.6392],[40.5768,-15.4232,0.0],[40.576,-15.4199,0.2131],[40.5726,-15.4238,0.5196],[40.5671,-15.426,0.0],[40.5626,-15.4251,2.3622],[40.560400883179447,-15.420401886792451,1.042],[40.5671,-15.4246,0.0],[40.571,-15.4226,0.7668],[40.576,-15.4076,0.5544],[40.5724,-15.4065,2.9945],[40.571,-15.4032,2.0429],[40.5671,-15.404,2.0148],[40.5713,-15.4026,2.4674],[40.5724,-15.4054,0.9485],[40.576,-15.4068,0.5544],[40.5807,-15.4054,0.0],[40.5868,-15.399,0.0],[40.589,-15.3926,3.8919],[40.5932,-15.3896,0.6767],[40.5863,-15.3854,2.0446],[40.5943,-15.389,2.2095],[40.5938,-15.3915,2.4532],[40.589,-15.3949,0.0],[40.5893,-15.3985,0.0],[40.6162,-15.366,1.1694],[40.6232,-15.3607,0.5604],[40.6263,-15.3604,0.0],[40.6285,-15.3576,0.0],[40.6332,-15.356,0.0],[40.6315,-15.3532,0.0],[40.6307,-15.356,0.0],[40.6215,-15.3546,0.0],[40.6199,-15.3621,1.1559],[40.6051,-15.3743,1.1091],[40.6076,-15.3704,2.6765],[40.6121,-15.3671,0.4281],[40.6118,-15.366,0.0],[40.6079,-15.3671,2.0707],[40.6057,-15.3657,2.1021],[40.6104,-15.3662,3.2546],[40.6118,-15.3615,0.874],[40.6162,-15.3585,1.1624],[40.6196,-15.3532,0.0],[40.619,-15.3515,0.0],[40.6257,-15.3465,0.0],[40.6312,-15.3379,0.8683],[40.6371,-15.3224,1.62],[40.6465,-15.3124,0.0],[40.6693,-15.279,0.0],[40.6704,-15.2746,0.0],[40.6646,-15.2846,0.0],[40.6596,-15.2899,1.5131],[40.661,-15.2854,2.6255],[40.676,-15.2643,3.4746],[40.6787,-15.2562,0.0],[40.6785,-15.2518,0.0],[40.6757,-15.2462,0.0],[40.6671,-15.2379,2.1101],[40.6646,-15.2137,0.0],[40.6638,-15.2165,0.0],[40.6649,-15.2237,1.3891],[40.6587,-15.2321,0.7008],[40.6599,-15.2371,0.0],[40.6563,-15.2421,4.0181],[40.6574,-15.2443,1.4647],[40.6638,-15.2454,0.6584],[40.6613,-15.2515,0.4051],[40.6604,-15.2512,2.1133],[40.6632,-15.246,0.6584],[40.6574,-15.2451,3.4039],[40.6557,-15.2415,0.6618],[40.6585,-15.2376,0.0],[40.6574,-15.2315,3.0768],[40.6585,-15.2293,0.0],[40.6551,-15.2301,1.5791],[40.6524,-15.2351,0.0],[40.6526,-15.239,0.0],[40.6563,-15.2462,3.4039],[40.656,-15.2504,2.6855],[40.6551,-15.2446,0.5221],[40.6512,-15.2374,3.7754],[40.6543,-15.2279,0.5048],[40.6599,-15.2232,2.121],[40.6593,-15.196,0.7551],[40.6576,-15.1885,1.4754],[40.6504,-15.1787,0.0],[40.6474,-15.1774,0.0],[40.6476,-15.1751,0.0],[40.6429,-15.1715,0.0],[40.6413,-15.1737,0.0],[40.6424,-15.1746,1.5335],[40.6401,-15.1746,2.1343],[40.634,-15.1701,2.092],[40.6257,-15.1571,0.0],[40.626,-15.1604,0.0],[40.6312,-15.1704,3.9546],[40.6315,-15.1749,3.0004],[40.6293,-15.1818,3.2396],[40.6304,-15.1729,0.0],[40.6285,-15.1671,0.0],[40.6165,-15.1532,2.7511],[40.6138,-15.1521,1.6928],[40.6079,-15.1515,0.5406],[40.6029,-15.1587,2.6787],[40.5949,-15.164,1.7974],[40.5918,-15.1637,3.3727],[40.5893,-15.1615,0.0],[40.5835,-15.1643,0.0],[40.5812,-15.1637,0.0],[40.5838,-15.1665,0.0],[40.5893,-15.166,2.8375],[40.5938,-15.1707,2.7165],[40.5962,-15.1743,3.4722],[40.5965,-15.1821,3.9068],[40.5943,-15.1849,3.4125],[40.5887,-15.1865,2.0446],[40.5835,-15.1843,0.0],[40.5743,-15.1924,0.0],[40.5665,-15.2029,0.3234],[40.5571,-15.2021,0.944],[40.5457,-15.196,0.0],[40.5432,-15.1971,0.4853],[40.5393,-15.1951,0.2337],[40.5357,-15.1962,0.0],[40.5232,-15.1921,1.8393],[40.5135,-15.1779,0.0],[40.5118,-15.1779,0.0],[40.5068,-15.1846,2.0023],[40.5046,-15.1996,3.129],[40.4985,-15.201,0.0],[40.4938,-15.1996,1.4833],[40.4996,-15.2001,0.2008],[40.5038,-15.1979,6.1092],[40.5043,-15.1901,0.0],[40.5024,-15.1838,0.0],[40.504,-15.1813,0.0],[40.5043,-15.1754,0.0],[40.509,-15.1735,0.7179],[40.5107,-15.169,1.7866],[40.5137,-15.1737,0.0],[40.5179,-15.1726,0.674],[40.5193,-15.1604,1.0037],[40.5165,-15.1587,0.0],[40.5182,-15.1563,0.0],[40.5215,-15.1568,0.839],[40.524,-15.1532,0.0],[40.5251,-15.139,0.0],[40.5238,-15.1324,1.1387],[40.5282,-15.1268,3.9546],[40.5337,-15.1257,1.9972],[40.539,-15.1268,5.1746],[40.5388,-15.1349,0.0],[40.5407,-15.1362,0.0],[40.5421,-15.1313,0.0],[40.5474,-15.1246,0.0],[40.5599,-15.1246,0.0],[40.5629,-15.1263,0.0],[40.564,-15.1304,0.6272],[40.5687,-15.1279,2.5371],[40.566,-15.1324,3.3085],[40.5682,-15.1315,4.575],[40.569,-15.1337,0.7264],[40.5729,-15.1346,0.0],[40.5754,-15.1376,0.0],[40.5771,-15.1349,0.4269],[40.5796,-15.1379,0.0],[40.5801,-15.1424,1.9008],[40.5818,-15.1426,2.4601],[40.5863,-15.1321,0.9359],[40.5935,-15.1243,0.0],[40.5879,-15.1176,0.0],[40.5793,-15.119,2.6499],[40.5757,-15.1179,4.7916],[40.5879,-15.1162,4.8207],[40.5924,-15.1187,5.3855],[40.596,-15.1226,1.6941],[40.5993,-15.1143,4.513],[40.6026,-15.111,0.6149],[40.5999,-15.1076,1.3011],[40.6049,-15.109,0.0],[40.6165,-15.096,2.9748],[40.6226,-15.0935,0.6068],[40.624,-15.0901,1.0217],[40.6246,-15.0912,1.0217],[40.6235,-15.0935,0.0],[40.6176,-15.0988,1.6479],[40.6218,-15.0962,0.0],[40.6265,-15.0899,1.2656],[40.6338,-15.0868,1.4788],[40.6446,-15.0851,0.5585],[40.6454,-15.0871,0.0],[40.6557,-15.0899,0.0],[40.6771,-15.0929,1.5017],[40.689,-15.0907,0.0],[40.7049,-15.0851,0.9721],[40.7093,-15.0807,2.5441],[40.7099,-15.0738,0.0],[40.7049,-15.0726,3.3458],[40.6937,-15.0537,2.2336],[40.6937,-15.0488,4.0014],[40.6963,-15.0437,2.7198],[40.6957,-15.0332,2.0852],[40.6926,-15.031,0.0],[40.6901,-15.0321,0.8301],[40.6849,-15.0312,0.0],[40.6832,-15.0285,0.0],[40.679,-15.0274,0.7417],[40.6782,-15.0249,1.442],[40.6743,-15.0243,1.3543],[40.6715,-15.0215,4.2391],[40.6682,-15.0118,8.6298],[40.6582,-15.0004,1.0051],[40.6574,-14.991,0.6776],[40.6554,-14.9907,0.5152],[40.6546,-14.9926,1.754],[40.656,-14.9979,2.608],[40.6549,-15.0043,0.6084],[40.6571,-15.0085,0.779],[40.656,-15.0124,1.1335],[40.6557,-15.0079,0.0],[40.6535,-15.0057,1.7412],[40.6521,-15.0004,0.0],[40.6451,-14.9926,0.0],[40.6396,-14.9918,1.3869],[40.6279,-14.9851,0.9309],[40.6257,-14.986,0.5],[40.6232,-14.9915,2.8657],[40.6218,-14.9918,1.0577],[40.6246,-14.984,4.1772],[40.631,-14.9829,6.9563],[40.6354,-14.986,2.0486],[40.6387,-14.986,1.282],[40.6435,-14.9849,0.0],[40.6501,-14.9793,0.0],[40.6485,-14.9749,3.3274],[40.6449,-14.9757,0.4177],[40.6424,-14.9726,0.0],[40.6365,-14.9704,0.6935],[40.6357,-14.9668,0.5],[40.6379,-14.961,0.5],[40.6332,-14.9515,4.1373],[40.6368,-14.9532,2.874],[40.6374,-14.9574,4.1718],[40.6415,-14.9599,2.6409],[40.6418,-14.9632,4.9372],[40.6396,-14.9649,3.532],[40.641,-14.9676,1.2369],[40.6476,-14.969,3.7235],[40.6496,-14.9676,12.2068],[40.6579,-14.9671,3.1344],[40.6635,-14.969,8.5762],[40.6688,-14.981,0.2683],[40.6787,-14.9846,0.9851],[40.6757,-14.9868,0.0],[40.6757,-14.989,0.0],[40.6785,-14.9907,0.584],[40.6896,-14.9904,0.0],[40.6915,-14.9885,0.7397],[40.6968,-14.9899,0.0],[40.6976,-14.9885,0.6908],[40.7038,-14.9907,0.2965],[40.706,-14.9893,4.3493],[40.7135,-14.9904,1.0669],[40.7143,-14.9929,0.196],[40.7218,-14.9935,0.0],[40.7324,-14.9896,0.0],[40.7343,-14.9851,0.6948],[40.7354,-14.9854,0.6948],[40.7351,-14.9896,0.0],[40.744,-14.9835,0.552],[40.746,-14.9876,0.4776],[40.7476,-14.9862,0.6527],[40.7471,-14.9824,0.8338],[40.7485,-14.9818,0.0],[40.7493,-14.986,0.0],[40.756,-14.9921,0.4001],[40.754,-14.991,0.0],[40.7521,-14.9926,0.0],[40.7515,-14.9976,3.667],[40.7457,-15.0001,0.0],[40.7562,-14.9996,0.0],[40.7657,-15.0029,1.5643],[40.7651,-15.0149,0.0],[40.7718,-15.0082,0.0],[40.7713,-15.0065,0.0],[40.7749,-15.0013,2.3024],[40.7754,-14.9971,0.0],[40.7729,-14.9943,0.8039],[40.766,-14.9918,3.1531],[40.7593,-14.9857,0.0],[40.7524,-14.9776,3.2255],[40.7501,-14.9715,7.7093],[40.7451,-14.9668,1.2372],[40.7404,-14.9521,0.0],[40.7388,-14.9351,0.0],[40.7343,-14.9324,0.0],[40.724,-14.9337,0.7091],[40.7154,-14.9307,0.0],[40.7104,-14.934,0.5393],[40.7054,-14.9335,1.5016],[40.699,-14.9301,3.3015],[40.6988,-14.9282,0.6605],[40.696,-14.9274,1.8938],[40.6965,-14.9257,1.4884],[40.6946,-14.9249,0.4127],[40.6937,-14.9285,1.9665],[40.6882,-14.9293,0.0],[40.6907,-14.9371,0.2956],[40.689,-14.939,0.613],[40.6865,-14.9326,0.0],[40.684,-14.9324,0.0],[40.6832,-14.9349,1.7596],[40.6807,-14.9351,1.2826],[40.6782,-14.9329,0.0],[40.6749,-14.9335,3.2712],[40.6721,-14.931,0.0],[40.6632,-14.929,2.552],[40.661,-14.9254,1.5525],[40.6582,-14.9254,3.8201],[40.649,-14.9174,2.5356],[40.6468,-14.9096,2.3257],[40.646,-14.8915,0.0],[40.6488,-14.8835,1.521],[40.6435,-14.8787,1.3772],[40.6404,-14.8787,1.4439],[40.6376,-14.8715,0.0],[40.6338,-14.8696,4.6138],[40.6332,-14.8674,3.3471],[40.636,-14.866,0.0],[40.6374,-14.8607,0.0],[40.6357,-14.849,0.3714],[40.6379,-14.8479,0.9933],[40.639,-14.8429,3.5157],[40.6485,-14.8407,1.2504],[40.6415,-14.8443,1.1952],[40.6393,-14.8504,0.0],[40.6446,-14.8657,0.0],[40.6496,-14.8721,0.0],[40.6549,-14.8737,1.7378],[40.6568,-14.884,1.7128],[40.656,-14.8896,0.8277],[40.6624,-14.8954,3.345],[40.6601,-14.9012,1.2518],[40.6515,-14.906,0.0],[40.6538,-14.9071,1.271],[40.6599,-14.906,7.4705],[40.6629,-14.9035,0.0],[40.6879,-14.9012,6.3599],[40.6918,-14.8979,7.9294],[40.6985,-14.896,1.4748],[40.7065,-14.8874,3.0144],[40.7146,-14.8879,1.9035],[40.7201,-14.8865,0.0],[40.7257,-14.8804,4.2631],[40.7318,-14.8771,7.8235],[40.7401,-14.876,6.8141],[40.7424,-14.8771,0.0],[40.7465,-14.8746,0.0],[40.7549,-14.8729,2.9897],[40.7701,-14.8621,0.0],[40.766,-14.861,2.4614],[40.7654,-14.8576,6.2953],[40.771,-14.8515,3.0193],[40.7896,-14.8451,1.4418],[40.7985,-14.8443,3.7586],[40.8065,-14.8462,1.0761],[40.8085,-14.8368,1.7153],[40.814,-14.8296,1.534],[40.8187,-14.8265,1.0552],[40.8257,-14.826,3.256],[40.8312,-14.8276,3.7027],[40.8299,-14.8307,1.6345],[40.8304,-14.839,0.4599],[40.8326,-14.8357,1.6564],[40.8346,-14.8176,2.3141],[40.834,-14.804,0.9343],[40.8296,-14.8049,1.234],[40.826,-14.8082,0.0],[40.8262,-14.8118,2.0121],[40.8213,-14.8118,1.7955],[40.8168,-14.8043,0.8144],[40.8165,-14.7993,0.8702],[40.819,-14.7949,1.8362],[40.8229,-14.7921,0.7363],[40.8213,-14.781,1.0004],[40.8249,-14.7757,3.1099],[40.831,-14.7768,0.0],[40.8324,-14.7751,0.0],[40.8343,-14.781,0.0],[40.836,-14.7804,2.1696],[40.8376,-14.7499,0.0],[40.8371,-14.7349,0.0],[40.8351,-14.7335,4.1271],[40.8368,-14.7321,5.6299],[40.8351,-14.7293,3.6774],[40.8376,-14.7268,0.0],[40.8354,-14.7251,4.1033],[40.8371,-14.724,0.0],[40.8351,-14.7212,0.0],[40.8365,-14.7132,6.0508],[40.8349,-14.711,2.1492],[40.8363,-14.7057,4.2217],[40.8338,-14.6982,2.4888],[40.8374,-14.6857,0.0],[40.8368,-14.6801,6.51],[40.8346,-14.6768,6.3183],[40.8326,-14.666,2.0834],[40.8293,-14.6649,2.0347],[40.8307,-14.6635,0.9447],[40.8299,-14.6596,0.9019],[40.8274,-14.6576,0.0],[40.8243,-14.6587,3.9065],[40.8235,-14.6565,0.7431],[40.821,-14.6557,0.0],[40.8196,-14.6576,0.0],[40.8149,-14.6571,2.1338],[40.8146,-14.6543,0.0],[40.8085,-14.6501,5.5434],[40.8085,-14.6474,0.0],[40.8063,-14.6457,0.0],[40.8074,-14.6385,1.0613],[40.8032,-14.6374,0.0],[40.8032,-14.6346,0.7336],[40.8004,-14.6337,4.6975],[40.7985,-14.6293,3.7191],[40.8007,-14.6196,4.4327],[40.8082,-14.6118,1.4923],[40.8104,-14.6129,2.721],[40.8121,-14.6118,2.721],[40.8185,-14.6043,0.5626],[40.8226,-14.5918,0.0],[40.8226,-14.576,0.9156],[40.8265,-14.5721,3.6903],[40.8299,-14.5579,0.0],[40.8257,-14.5537,1.9462],[40.8265,-14.5493,4.7707],[40.8279,-14.549,1.5618],[40.8312,-14.5546,0.0],[40.8321,-14.5524,0.6212],[40.8301,-14.5518,0.5941],[40.8296,-14.5476,0.4848],[40.8268,-14.5457,0.897],[40.8251,-14.5332,0.7393],[40.8182,-14.5282,4.2598],[40.8126,-14.5299,5.9099],[40.8096,-14.5274,2.0058],[40.8054,-14.5279,0.0],[40.8015,-14.5262,0.0],[40.8001,-14.5276,1.6218],[40.7999,-14.5379,0.0],[40.7971,-14.5401,4.142],[40.7888,-14.5399,0.4957],[40.7921,-14.5487,4.7181],[40.7896,-14.5601,1.6817],[40.7835,-14.5613,4.5507],[40.7788,-14.5593,0.0],[40.7813,-14.5632,0.0],[40.7804,-14.5646,2.8817],[40.7749,-14.5618,1.5704],[40.7657,-14.5613,18.8601],[40.7601,-14.556,0.0],[40.7607,-14.5512,1.6566],[40.7632,-14.5474,0.0],[40.766,-14.5465,0.3022],[40.7674,-14.5407,0.0],[40.7812,-14.5326,2.6887],[40.7846,-14.5265,3.308],[40.7951,-14.5224,2.1076],[40.7988,-14.5193,13.3712],[40.8043,-14.5201,4.6402],[40.8076,-14.5226,2.9708],[40.811,-14.5201,0.9363],[40.8201,-14.5221,1.6013],[40.8254,-14.5193,2.2308],[40.8226,-14.5093,2.8363],[40.8268,-14.5076,1.5171],[40.8299,-14.5024,0.0],[40.8257,-14.4535,1.1127],[40.8151,-14.4276,0.0],[40.8104,-14.4213,3.302],[40.8082,-14.4115,0.0],[40.8035,-14.4099,2.6143],[40.801,-14.4149,4.0429],[40.7935,-14.4171,2.7658],[40.7879,-14.4168,2.3819],[40.7846,-14.419,3.4798],[40.7788,-14.4176,0.0],[40.7715,-14.4187,1.2001],[40.7699,-14.4229,2.0345],[40.7629,-14.4224,3.3881],[40.7612,-14.4199,0.0],[40.7571,-14.4204,1.3014],[40.7576,-14.4235,1.7488],[40.7476,-14.4288,0.6561],[40.7432,-14.4335,5.6005],[40.7385,-14.4346,2.6733],[40.7332,-14.4399,6.6361],[40.7235,-14.4393,0.0],[40.7199,-14.4412,0.0],[40.7079,-14.4418,3.2926],[40.7046,-14.4435,0.6674],[40.7015,-14.4482,4.5669],[40.6888,-14.4515,7.5014],[40.6826,-14.456,0.0],[40.6763,-14.4579,0.0],[40.6768,-14.4601,0.0],[40.681,-14.4621,22.0467],[40.6796,-14.4676,0.0],[40.6815,-14.4682,9.6204],[40.6826,-14.4815,1.893],[40.6782,-14.4996,3.9929],[40.6726,-14.5015,5.6004],[40.6735,-14.5037,5.4256],[40.6721,-14.5071,2.3895],[40.6765,-14.5157,16.5157],[40.6754,-14.5196,1.5224],[40.6768,-14.5235,9.6688],[40.6763,-14.5321,0.9941],[40.6729,-14.5376,12.1842],[40.6693,-14.5371,0.0],[40.6649,-14.5418,2.4763],[40.6701,-14.5471,0.0],[40.6699,-14.5499,0.0],[40.6724,-14.5549,18.5821],[40.6712,-14.5588,8.9843],[40.6613,-14.5671,0.0],[40.6593,-14.5704,0.8128],[40.6524,-14.5732,0.9114],[40.6499,-14.576,0.6824],[40.6393,-14.5751,0.0],[40.6324,-14.5946,1.4051],[40.6282,-14.5976,0.4622],[40.6221,-14.599,0.5649],[40.6224,-14.6007,0.6962],[40.626,-14.6007,0.9955],[40.6257,-14.6024,0.3705],[40.6193,-14.6032,0.4143],[40.6176,-14.5979,3.2009],[40.619,-14.5949,0.0],[40.6257,-14.5932,0.0],[40.6276,-14.5899,0.0],[40.626,-14.5835,1.4315],[40.6274,-14.5804,0.0],[40.6251,-14.5776,0.8032],[40.6304,-14.5665,0.0],[40.6285,-14.564,0.7506],[40.6288,-14.561,0.0],[40.626,-14.5587,7.7686],[40.6265,-14.5518,6.4165],[40.6326,-14.5479,5.9999],[40.6329,-14.5393,11.4123],[40.646,-14.526,0.0],[40.6449,-14.524,1.0604],[40.6379,-14.5207,0.0],[40.6299,-14.5229,0.0],[40.621,-14.5215,0.617],[40.6204,-14.5193,2.0166],[40.6312,-14.5107,0.0],[40.6321,-14.5071,1.0457],[40.6307,-14.501,2.3115],[40.6326,-14.4971,4.7482],[40.6443,-14.496,2.2086],[40.6471,-14.4921,2.7415],[40.6529,-14.4904,2.3014],[40.656,-14.4876,0.0],[40.6568,-14.4835,0.0],[40.6601,-14.4801,0.0],[40.659,-14.4768,0.5278],[40.6579,-14.4771,0.0],[40.6557,-14.4821,1.3986],[40.6501,-14.4824,0.8256],[40.6468,-14.489,1.4473],[40.6399,-14.4926,1.9299],[40.6363,-14.4918,1.7563],[40.6296,-14.4876,0.0],[40.6221,-14.4743,3.7236],[40.6246,-14.4668,1.9771],[40.6237,-14.4624,3.6046],[40.6312,-14.4593,4.2046],[40.6346,-14.4618,0.0],[40.6449,-14.4643,5.8375],[40.6471,-14.4671,0.0],[40.6524,-14.4671,3.0466],[40.6568,-14.4712,2.97],[40.6682,-14.4696,0.8693],[40.6496,-14.4551,7.7691],[40.6426,-14.441,6.7379],[40.6374,-14.4199,0.0],[40.6379,-14.4096,0.0],[40.6413,-14.3993,10.4559],[40.6485,-14.391,0.8006],[40.6493,-14.384,0.5873],[40.6471,-14.3837,0.9105],[40.6465,-14.386,3.0745],[40.6437,-14.3865,4.3807],[40.6393,-14.3843,1.9312],[40.6387,-14.381,1.8416],[40.6407,-14.3749,1.8071],[40.6371,-14.3704,1.7923],[40.6368,-14.3657,1.4651],[40.6401,-14.3629,0.0],[40.6349,-14.3582,3.9979],[40.6349,-14.3543,2.3634],[40.6335,-14.3535,2.3634],[40.6354,-14.3496,0.0],[40.6354,-14.3476,0.0],[40.6335,-14.3468,2.5476],[40.6349,-14.3435,2.5827],[40.6338,-14.3385,0.5647],[40.631,-14.3346,3.3249],[40.6235,-14.3349,3.2137],[40.621,-14.329,0.5606],[40.6263,-14.3263,0.0],[40.6321,-14.3301,0.0],[40.6376,-14.329,4.8306],[40.639,-14.3301,0.5173],[40.6399,-14.3337,1.8523],[40.646,-14.3418,6.0455],[40.6515,-14.3529,0.0],[40.6551,-14.3549,1.5569],[40.6571,-14.3638,0.0],[40.6632,-14.3713,2.8003999999999998],[40.6654,-14.3779,0.9516],[40.6732,-14.3837,0.9452],[40.6774,-14.3835,0.7236],[40.6854,-14.371,8.9435],[40.6946,-14.366,6.5025],[40.6982,-14.3574,4.9155],[40.7046,-14.349,12.8028],[40.7129,-14.3485,0.7322],[40.7196,-14.3457,3.3298],[40.7243,-14.3404,0.0],[40.7287,-14.3382,0.0],[40.7307,-14.3332,1.9832],[40.734,-14.3329,2.7017],[40.7324,-14.3299,0.0],[40.7349,-14.3196,0.0],[40.7321,-14.3171,0.0],[40.7313,-14.3129,8.0753],[40.7332,-14.2965,0.0],[40.7388,-14.2751,0.7461],[40.7346,-14.2699,0.8667],[40.7287,-14.2682,6.4739],[40.7176,-14.2604,2.5266],[40.7135,-14.2537,4.2571],[40.7126,-14.2471,11.2451],[40.7143,-14.2371,5.9431],[40.7132,-14.226,27.7853],[40.7182,-14.2065,1.5755],[40.711,-14.2026,12.992],[40.706,-14.1899,0.0],[40.699,-14.1868,3.692],[40.6932,-14.1865,4.4644],[40.6899,-14.1912,1.303],[40.6885,-14.1987,0.0],[40.6838,-14.2026,2.2425],[40.6782,-14.2026,1.705],[40.6701,-14.199,10.3827],[40.6654,-14.1921,0.9289],[40.664,-14.196,1.4342],[40.6507,-14.1987,1.5038],[40.6454,-14.2049,1.8774],[40.6415,-14.2065,8.6905],[40.6404,-14.2096,0.0],[40.6418,-14.2126,3.4953],[40.6393,-14.214,0.0],[40.6385,-14.2176,2.6502],[40.634,-14.219,3.4878999999999998],[40.6301,-14.2151,2.4451],[40.6229,-14.2157,0.0],[40.6207,-14.2193,2.0403],[40.6207,-14.2246,5.5547],[40.6165,-14.2274,0.0],[40.6185,-14.2288,0.0],[40.6168,-14.2299,1.1784],[40.6157,-14.2374,1.4531],[40.6135,-14.2407,2.6481],[40.6126,-14.2465,0.0],[40.6165,-14.249,0.9564],[40.6179,-14.2568,1.0702],[40.616,-14.2599,0.0],[40.6168,-14.2615,3.0235],[40.6149,-14.2643,1.3227],[40.6146,-14.2701,0.0],[40.6096,-14.2793,2.5833],[40.6093,-14.276,3.3517],[40.6132,-14.2704,0.0],[40.6135,-14.2674,0.0],[40.5993,-14.2762,0.0],[40.5971,-14.2762,0.0],[40.5951,-14.274,1.5245],[40.5965,-14.2699,0.0],[40.5935,-14.2657,0.7721],[40.5935,-14.2626,2.3323],[40.5954,-14.2599,1.0766],[40.6004,-14.2579,0.0],[40.6015,-14.254,0.0],[40.5996,-14.2537,4.6735],[40.5999,-14.2501,4.89],[40.5962,-14.2451,0.0],[40.5899,-14.2437,4.9263],[40.5863,-14.2376,0.0],[40.5879,-14.236,3.1888],[40.5871,-14.2346,3.1888],[40.5924,-14.2312,0.0],[40.5915,-14.2288,9.4512],[40.5938,-14.2279,1.5072],[40.594,-14.2221,3.0256],[40.5974,-14.2207,1.2045],[40.5921,-14.2193,1.2466],[40.5904,-14.2163,4.1508],[40.5871,-14.216,1.7856],[40.5879,-14.214,4.5288],[40.5851,-14.2124,3.2122],[40.5863,-14.2074,0.0],[40.5851,-14.206,0.0],[40.5804,-14.2082,0.0],[40.5815,-14.2129,0.0],[40.5796,-14.2163,3.1076],[40.5774,-14.2165,2.9699],[40.5749,-14.2126,0.7834],[40.5724,-14.2121,0.536],[40.5718,-14.214,1.8528],[40.5701,-14.2118,0.607],[40.5687,-14.2124,1.5416],[40.5682,-14.2165,8.6116],[40.5657,-14.2187,7.449],[40.574,-14.2299,2.3632],[40.5701,-14.2335,3.8816],[40.5674,-14.2329,0.0],[40.5626,-14.2249,4.359],[40.5579,-14.2246,7.3338],[40.5612,-14.2338,0.0],[40.561,-14.2362,0.0],[40.5585,-14.2368,1.8709],[40.5457,-14.2304,2.5903],[40.5471,-14.2271,2.7465],[40.5529,-14.2265,1.6933],[40.5546,-14.2201,11.4025],[40.5568,-14.2193,8.1567],[40.5568,-14.2176,4.1917],[40.5549,-14.2165,9.3829],[40.5549,-14.2146,6.8261],[40.546,-14.2085,7.8737],[40.544,-14.2029,0.0],[40.5387,-14.2024,3.1183],[40.5363,-14.1999,10.2984],[40.5307,-14.1835,0.0],[40.5274,-14.1812,6.2982],[40.5262,-14.1746,3.4088],[40.5199,-14.1757,1.7004],[40.5082,-14.174,3.8636],[40.5032,-14.1746,3.935],[40.5013,-14.1765,3.9749],[40.4999,-14.1754,4.5893],[40.5015,-14.1729,7.9015],[40.5099,-14.1707,5.1185],[40.5132,-14.1715,2.1156],[40.5182,-14.1693,5.2899],[40.526,-14.1687,1.0239],[40.526,-14.1651,3.1616],[40.5282,-14.1651,1.4259],[40.531,-14.1613,0.0],[40.5365,-14.159,1.8492],[40.5401,-14.151,2.5557],[40.541,-14.1563,0.0],[40.5468,-14.1551,1.7956],[40.5565,-14.156,1.4978],[40.559,-14.1529,3.0502],[40.5604,-14.1454,1.5578],[40.5612,-14.1551,0.0],[40.5724,-14.1532,1.1291],[40.5815,-14.1543,1.8239],[40.584,-14.1526,8.0609],[40.5865,-14.1538,0.0],[40.5899,-14.149,7.3497],[40.5985,-14.1479,5.5839],[40.6004,-14.1449,2.9524],[40.6018,-14.1457,2.9524],[40.6046,-14.1435,1.5447],[40.6101,-14.1426,9.0019],[40.6051,-14.1379,1.4454],[40.6035,-14.1332,4.2585],[40.6037,-14.1304,4.4498],[40.6126,-14.1231,1.4499],[40.6124,-14.1218,4.4794],[40.6068,-14.1224,4.4837],[40.6051,-14.111,3.5272],[40.6071,-14.1112,4.7416],[40.6079,-14.1085,6.4969],[40.6026,-14.109,1.4571],[40.6007,-14.1057,0.0],[40.6007,-14.1018,0.0],[40.5976,-14.1021,6.7245],[40.5954,-14.1004,3.0163],[40.5901,-14.1018,2.2625],[40.5851,-14.096,2.5781],[40.5871,-14.0926,2.4374],[40.5932,-14.0893,3.1279],[40.6024,-14.0937,0.0],[40.6043,-14.0893,9.7217],[40.6115,-14.0901,0.0],[40.6143,-14.086,13.3936],[40.6215,-14.0829,0.0],[40.6232,-14.0799,0.0],[40.6276,-14.0813,0.0],[40.6254,-14.0779,4.0008],[40.6268,-14.0704,12.8425],[40.6288,-14.0699,0.0],[40.6318,-14.0635,0.0],[40.6307,-14.0588,5.7499],[40.6321,-14.0532,0.0],[40.6304,-14.0532,9.8179],[40.6296,-14.051,0.0],[40.6329,-14.0479,6.7738],[40.6338,-14.0426,0.0],[40.6321,-14.0349,3.1659],[40.6343,-14.0299,3.1732],[40.6382,-14.0271,0.0],[40.6365,-14.0179,0.0],[40.6312,-14.0176,0.8844],[40.6263,-14.0137,7.1341],[40.6224,-13.9982,2.9309],[40.6196,-13.9988,2.299],[40.6171,-13.9968,1.4194],[40.6124,-13.999,1.2373],[40.6101,-13.9976,0.0],[40.6074,-14.0013,0.0],[40.6085,-14.0071,2.8604],[40.604,-14.0085,3.1758],[40.5976,-14.006,0.0],[40.591,-14.0085,4.9962],[40.5843,-14.0024,0.0],[40.5779,-14.0007,0.5699],[40.5751,-13.9949,4.9956],[40.5757,-13.9862,0.719],[40.5801,-13.9824,0.0],[40.5804,-13.9799,1.6006],[40.5821,-13.9801,0.0],[40.5863,-13.9765,0.0],[40.5915,-13.9765,0.0],[40.594,-13.979,0.0],[40.5962,-13.9782,2.6865],[40.5974,-13.9812,0.6379],[40.5957,-13.9835,1.0306],[40.5993,-13.9851,0.0],[40.6121,-13.9801,0.9119],[40.6179,-13.9846,0.0],[40.6229,-13.9843,6.3749],[40.621,-13.9693,0.0],[40.6174,-13.9665,7.964],[40.6196,-13.9537,0.0],[40.6176,-13.9463,6.2786],[40.6179,-13.9379,2.9627],[40.616,-13.9265,3.499],[40.6065,-13.916,1.3818],[40.6026,-13.9085,0.0],[40.5929,-13.8996,3.0746],[40.5882,-13.8888,1.0384],[40.5882,-13.8496,1.091],[40.5854,-13.834,1.9125],[40.5857,-13.8182,3.771],[40.5826,-13.8107,6.0818],[40.5838,-13.7976,9.9035],[40.581,-13.7951,9.8343],[40.5793,-13.7871,1.6767],[40.5762,-13.784,0.0],[40.5732,-13.7687,12.0093],[40.5746,-13.759,5.1918],[40.5738,-13.7137,0.0],[40.5704,-13.7087,0.0],[40.5654,-13.706,0.0],[40.5599,-13.6996,1.6107],[40.5563,-13.6974,0.0],[40.5476,-13.696,1.3689],[40.5424,-13.6926,1.4877],[40.5376,-13.6765,5.1993],[40.5385,-13.6699,11.2934],[40.5374,-13.6674,9.2995],[40.5393,-13.6618,0.0],[40.5363,-13.6513,14.6998],[40.5374,-13.6451,2.5563],[40.5351,-13.6379,2.5485],[40.5365,-13.6335,6.2036],[40.5415,-13.6271,0.628],[40.5407,-13.6204,0.0],[40.5429,-13.6154,0.703],[40.5557,-13.6062,4.9412],[40.5604,-13.5968,2.3347],[40.564,-13.5932,2.0293],[40.5762,-13.5882,0.6614],[40.5865,-13.5865,0.0],[40.5921,-13.5824,0.0],[40.5949,-13.5782,0.0],[40.5962,-13.5685,0.0],[40.5988,-13.5688,0.0],[40.6013,-13.5663,0.0],[40.6007,-13.5568,0.0],[40.5979,-13.5515,4.8038],[40.5929,-13.5507,1.1624],[40.5893,-13.5549,0.0],[40.5887,-13.5596,0.0],[40.5915,-13.5626,0.4707],[40.5899,-13.5676,0.0],[40.5857,-13.5701,5.7457],[40.5704,-13.5696,6.2566],[40.5579,-13.5632,3.7984],[40.5488,-13.5537,6.1068],[40.5451,-13.5457,0.0],[40.5435,-13.5451,0.6908],[40.5401,-13.5518,2.0371],[40.5415,-13.5543,4.319],[40.5457,-13.5562,3.1702],[40.546,-13.5587,1.0],[40.5421,-13.5643,2.4961],[40.5443,-13.5576,2.0971],[40.541,-13.5565,5.4186],[40.5379,-13.5529,3.9592],[40.5382,-13.5479,1.7722],[40.536,-13.5449,1.8858],[40.5249,-13.5435,3.381],[40.526,-13.5418,1.0304],[40.5246,-13.541,3.6748],[40.5215,-13.5421,4.2955],[40.5199,-13.5404,2.5615],[40.5182,-13.541,2.5615],[40.5187,-13.5401,2.5615],[40.5215,-13.5399,1.4436],[40.5282,-13.5421,0.5],[40.5335,-13.5385,0.0],[40.5388,-13.5374,0.0],[40.5288,-13.5251,4.1449],[40.5246,-13.5085,0.0],[40.5254,-13.4998,2.3444],[40.5162,-13.4986,5.6012],[40.4965,-13.5052,26.5837],[40.4754,-13.5085,10.8467],[40.4705,-13.5086,11.004],[40.4652,-13.5039,29.1937],[40.4635,-13.5078,17.8513],[40.4507,-13.4996,5.915],[40.437,-13.4753,17.7681],[40.4252,-13.4622,10.1034],[40.4168,-13.4569,10.3928],[40.4034,-13.4545,13.0322],[40.3845,-13.454,12.5743],[40.3431,-13.4586,15.2153],[40.3097,-13.4716,16.7524],[40.2921,-13.4714,18.3635],[40.2384,-13.4843,42.4873],[40.2206,-13.492,62.1931],[40.2114,-13.492,69.7587],[40.1933,-13.4736,52.8752],[40.1688,-13.4585,70.6677],[40.1486,-13.4563,77.2051],[40.1403,-13.4484,68.1559],[40.1165,-13.4415,106.0801],[40.1033,-13.448,73.38],[40.1095,-13.4596,78.1459],[40.1098,-13.4675,99.9383],[40.1079,-13.4729,93.3085],[40.0747,-13.4855,98.34],[40.0509,-13.4915,96.2172],[40.0101,-13.5057,154.6111],[39.9979,-13.5291,157.6583],[39.9761,-13.561,166.9911],[39.9725,-13.565,168.6521],[39.9469,-13.577,176.3279],[39.9375,-13.584,177.4327],[39.9225,-13.6129,186.1528],[39.9097,-13.6312,185.5131],[39.8964,-13.6399,191.0081],[39.8671,-13.6671,189.9875],[39.8423,-13.6737,201.0868],[39.8125,-13.6754,198.0571],[39.7751,-13.6636,210.4633],[39.7686,-13.6623,217.9071],[39.7581,-13.6637,214.2458],[39.7192,-13.6841,224.0162],[39.7058,-13.6936,226.4973],[39.6891,-13.7007,222.8581],[39.6697,-13.712,230.9187],[39.6599,-13.72,225.7477],[39.6312,-13.7314,226.9797],[39.6091,-13.7342,228.2519],[39.5683,-13.7454,239.3837],[39.506,-13.7732,239.5949],[39.4848,-13.7885,236.8397],[39.4614,-13.8176,240.3668],[39.4537,-13.8332,239.1906],[39.4415,-13.8427,243.5267],[39.4176,-13.8514,244.7292],[39.4168,-13.8533,245.6673],[39.3997,-13.8522,246.2702],[39.3709,-13.8606,247.216],[39.334,-13.8814,255.2875],[39.3155,-13.8904,255.9426],[39.3104,-13.8912,257.4835],[39.3111,-13.8926,253.6394],[39.2991,-13.8954,254.0],[39.2803,-13.9034,251.5],[39.2657,-13.9124,257.2937],[39.2422,-13.9306,258.2303],[39.196,-13.9556,262.4099],[39.1871,-13.9533,272.7965],[39.1723,-13.9385,274.4478],[39.1631,-13.932,273.6943],[39.1421,-13.934,274.7953],[39.1185,-13.9486,275.1944],[39.1067,-13.9586,265.5],[39.0856,-13.9722,276.2632],[39.0756,-13.9859,283.084],[39.0558,-14.0035,271.3076],[39.0481,-14.0075,279.6454],[39.0334,-14.0114,284.9557],[39.006,-14.0101,290.0522],[38.9862,-14.0172,286.5628],[38.955,-14.0373,281.0],[38.9225,-14.0538,286.499],[38.9045,-14.059,287.5586],[38.8798,-14.0713,286.5334],[38.8509,-14.0936,290.7679],[38.8223,-14.1127,292.192],[38.8106,-14.1129,303.9992],[38.7948,-14.1065,297.5559],[38.7795,-14.106,304.5265],[38.7672,-14.1181,298.1381],[38.7506,-14.1236,306.4063],[38.7358,-14.132,309.6502],[38.7155,-14.1525,300.881],[38.7035,-14.1525,300.5551],[38.6861,-14.1482,305.8782],[38.6753,-14.1415,306.86],[38.6699,-14.1358,308.1838],[38.6624,-14.1329,315.812],[38.6487,-14.1407,316.1444],[38.6201,-14.151,325.3249],[38.6086,-14.157,322.5218],[38.5756,-14.1463,326.4884],[38.5629,-14.1436,334.7357],[38.5437,-14.1451,332.7483],[38.5334,-14.1515,333.1233],[38.5224,-14.1555,333.4475],[38.5103,-14.1516,328.8763],[38.4815,-14.1269,338.0344],[38.4697,-14.1216,338.9105],[38.4406,-14.1139,341.2453],[38.4299,-14.1145,345.4547],[38.3733,-14.1384,350.3966],[38.355,-14.1417,345.3794],[38.3353,-14.1545,355.5743],[38.3041,-14.1469,352.5123],[38.2787,-14.1593,356.4263],[38.2485,-14.1669,365.4173],[38.237,-14.1747,368.3837],[38.2121,-14.2021,363.52],[38.1832,-14.2289,371.623],[38.1731,-14.2313,361.5393],[38.1617,-14.2281,364.7278],[38.148,-14.2362,367.8543],[38.1346,-14.2466,377.6569],[38.1253,-14.2562,376.7177],[38.1191,-14.2599,369.6398],[38.1062,-14.2516,373.4703],[38.095,-14.2514,371.2854],[38.0844,-14.258,365.2469],[38.0708,-14.259,379.1959],[38.0619,-14.2522,380.9039],[38.0489,-14.2535,389.9769],[38.0367,-14.2506,382.6247],[38.0319,-14.2477,389.3783],[38.0189,-14.2474,394.4643],[37.9991,-14.2596,393.7463],[37.9877,-14.2717,394.0469],[37.9833,-14.2736,385.2661],[37.961,-14.2957,390.4849],[37.9404,-14.3132,393.8143],[37.928,-14.3164,391.2741],[37.9128,-14.3092,399.6208],[37.8793,-14.2743,407.1441],[37.8677,-14.2563,412.3185],[37.8575,-14.2506,408.5317],[37.8403,-14.2532,408.8484],[37.8235,-14.2531,410.6174],[37.7965,-14.2487,416.3814],[37.7855,-14.2552,415.8941],[37.7787,-14.2651,415.2092],[37.7721,-14.2711,422.7705],[37.7245,-14.2949,424.4707],[37.7195,-14.2998,424.9341],[37.7185,-14.2978,437.75],[37.7107,-14.2966,419.1486],[37.6954,-14.2778,422.2382],[37.6832,-14.2743,419.1632],[37.6678,-14.2764,421.5771],[37.6454,-14.2876,420.3504],[37.6313,-14.2904,422.427],[37.6201,-14.2879,436.9327],[37.6083,-14.2964,432.2676],[37.6114,-14.3493,438.2911],[37.6,-14.3604,440.6567],[37.5877,-14.3693,436.5465],[37.5686,-14.391,450.4707],[37.5471,-14.4,452.9306],[37.5155,-14.3872,458.5167],[37.5044,-14.3872,444.5023],[37.4857,-14.394,460.8638],[37.4703,-14.4149,453.1853],[37.4304,-14.4417,461.7785],[37.4271,-14.45,466.6037],[37.4245,-14.4648,468.7553],[37.4153,-14.4767,461.9778],[37.3968,-14.4946,483.8804],[37.3599,-14.5184,490.6695],[37.3475,-14.5304,481.5115],[37.3383,-14.5423,485.6106],[37.3321,-14.5542,481.3136],[37.3014,-14.5721,488.203],[37.2962,-14.5713,481.8474],[37.283,-14.5759,487.8954],[37.2584,-14.5909,490.1149],[37.2549,-14.5909,482.079],[37.2401,-14.5996,493.4835],[37.2339,-14.6088,494.6657],[37.2001,-14.6088,491.149],[37.1817,-14.5909,496.2352],[37.1648,-14.5938,497.9412],[37.1571,-14.5968,500.2907],[37.1202,-14.6147,495.1473],[37.0957,-14.6386,501.6541],[37.0826,-14.6423,505.8239],[37.0789,-14.642,499.6337],[37.0527,-14.6635,505.5503],[37.0431,-14.6682,509.9267],[37.0302,-14.6674,508.387],[37.0198,-14.6719,510.8824],[37.0057,-14.6734,514.5979],[36.9983,-14.6773,507.5281],[36.9852,-14.6953,502.3128],[36.9736,-14.7045,501.1041],[36.9639,-14.7071,510.4403],[36.9611,-14.7106,516.6107],[36.9526,-14.7121,506.3142],[36.9462,-14.7178,504.8896],[36.9426,-14.7257,506.4431],[36.9435,-14.7342,518.4948],[36.9372,-14.7445,518.4292],[36.9081,-14.7567,517.8055],[36.9019,-14.7621,508.7949],[36.8945,-14.7655,514.1989],[36.8862,-14.7671,512.6263],[36.884,-14.7699,515.5472],[36.8837,-14.7796,514.8966],[36.8688,-14.7887,523.9474],[36.8656,-14.7887,524.7581],[36.8502,-14.8026,527.1982],[36.8397,-14.8171,533.2078],[36.8381,-14.8238,530.3007],[36.84,-14.8287,541.2787],[36.8456,-14.8328,539.0386],[36.8467,-14.8363,534.0864],[36.8418,-14.8398,531.4333],[36.8353,-14.8389,537.7443],[36.8317,-14.8407,536.4201],[36.8291,-14.8491,533.9603],[36.8295,-14.8557,535.6937],[36.834,-14.8581,537.1191],[36.8354,-14.8616,534.7939],[36.814,-14.8684,542.0635],[36.8005,-14.8812,551.0943],[36.7973,-14.8892,547.3414],[36.7917,-14.893,548.567],[36.7852,-14.9028,548.425],[36.7717,-14.9069,547.0497],[36.7665,-14.9112,547.381],[36.7687,-14.9158,551.7222],[36.7663,-14.9285,550.176],[36.7571,-14.9398,553.4744],[36.7462,-14.9494,559.9798],[36.7312,-14.9692,561.9082],[36.7141,-14.9858,562.4123],[36.6973,-14.9992,561.2633],[37.003,-14.9959,616.1622],[37.192,-14.9973,1653.4681],[37.2016,-15.0051,1389.0027],[37.2123,-15.005,953.5238],[37.2202,-15.0075,849.5629],[37.2216,-15.0138,828.9099],[37.215,-15.0252,733.7779],[37.2178,-15.0291,716.5925],[37.2244,-15.032,703.1271],[37.2355,-15.0209,687.1439],[37.2419,-15.0208,679.9869],[37.2423,-15.0351,698.6048],[37.2399,-15.0481,719.8971],[37.2444,-15.0687,852.946],[37.2469,-15.077,779.7471],[37.2579,-15.0874,799.6748],[37.2645,-15.0983,917.4797],[37.2828,-15.0948,800.0337],[37.2883,-15.1004,807.7141],[37.2922,-15.1105,803.6346],[37.2957,-15.1153,757.443],[37.309,-15.1239,728.0685],[37.3085,-15.1252,729.7333],[37.3139,-15.1321,748.7648],[37.3234,-15.1348,764.109],[37.3377,-15.133,786.4878],[37.3557,-15.111,1247.5927],[37.3624,-15.1055,1348.1821],[37.3805,-15.1183,1303.8149],[37.3999,-15.1395,1287.0228],[37.406,-15.1597,1090.1382],[37.4085,-15.1766,811.2647],[37.4153,-15.1845,798.605],[37.4205,-15.1858,766.9275],[37.4368,-15.1805,791.5266],[37.4491,-15.1746,795.2949],[37.4645,-15.1656,768.3739],[37.4768,-15.1537,755.1359],[37.5168,-15.1328,714.0221],[37.5322,-15.1477,699.4975],[37.5384,-15.1477,692.3416],[37.5455,-15.1511,688.3672],[37.5924,-15.1913,661.5156],[37.5975,-15.1917,660.1962],[37.6175,-15.2073,648.7844],[37.6184,-15.2156,646.7182],[37.6253,-15.232,650.8353],[37.634,-15.2368,628.1942],[37.675,-15.2439,622.0254],[37.6832,-15.2439,622.1635],[37.6912,-15.2471,612.9564],[37.7108,-15.2424,601.6985],[37.7234,-15.2352,603.9771],[37.7402,-15.2224,585.5485],[37.7603,-15.2135,582.2231],[37.7967,-15.2166,575.9104],[37.8335,-15.2055,568.4542],[37.8447,-15.2111,567.6232],[37.8489,-15.2174,567.5702],[37.8671,-15.2262,577.3029],[37.8735,-15.2326,556.3413],[37.8844,-15.2367,552.3066],[37.9003,-15.2266,551.7352],[37.9056,-15.2308,548.6822],[37.925,-15.2305,546.9529],[37.9492,-15.2383,549.812],[37.9802,-15.259,560.1227],[38.0019,-15.2617,540.5452],[38.0047,-15.2915,521.5218],[38.0197,-15.2986,534.4534],[38.0041,-15.2926,521.5218],[38.0347,-15.3187,526.3823],[38.0358,-15.3192,526.3823],[38.0452,-15.3122,515.4539],[38.0507,-15.3158,511.1921],[38.0543,-15.3253,509.3685],[38.0645,-15.3295,507.709],[38.0748,-15.3291,514.7643],[38.0884,-15.3246,503.2799],[38.0952,-15.3241,497.9092],[38.0987,-15.3356,494.3554],[38.1083,-15.3421,488.5222],[38.1222,-15.3422,507.0041],[38.1339,-15.3402,502.6129],[38.1399,-15.3413,478.3365],[38.1402,-15.349,478.7788],[38.1306,-15.3612,493.7079],[38.1272,-15.3728,476.309],[38.1308,-15.3811,478.0998],[38.1381,-15.3816,477.711],[38.1493,-15.391,476.6389],[38.1605,-15.3916,473.9332],[38.1655,-15.3952,470.3062],[38.1675,-15.4076,472.9248],[38.1748,-15.4221,467.1072],[38.1875,-15.4323,478.0125],[38.2107,-15.4448,446.1072],[38.2386,-15.4453,434.4013],[38.2533,-15.437,408.4197],[38.2592,-15.441,417.2213],[38.2641,-15.4494,423.6416],[38.2758,-15.4526,421.5403],[38.2989,-15.4526,411.4269],[38.319,-15.4475,409.3281],[38.3292,-15.46,405.539],[38.3416,-15.463,401.5521],[38.3561,-15.4608,400.4596],[38.3668,-15.4621,396.828],[38.3747,-15.476,405.819],[38.3974,-15.5012,398.5127],[38.4339,-15.5247,378.1741],[38.44,-15.5421,374.168],[38.4493,-15.5532,375.3194],[38.5128,-15.5779,366.4818],[38.5238,-15.5879,362.3365],[38.5406,-15.6177,349.1049],[38.5643,-15.6466,340.3376],[38.5838,-15.659,331.5563],[38.6002,-15.6744,326.4696],[38.6187,-15.6756,288.3675],[38.6253,-15.6789,277.4745],[38.6537,-15.6789,263.4184],[38.6806,-15.6756,249.3704],[38.693,-15.6925,235.9845],[38.6973,-15.7072,230.5453],[38.6973,-15.7186,222.1467],[38.7008,-15.727,219.6966],[38.727,-15.7443,232.5181],[38.7363,-15.7562,212.0162],[38.7517,-15.7711,215.2503],[38.7605,-15.7719,207.3668],[38.7765,-15.7681,203.183],[38.7855,-15.7675,212.0376],[38.7891,-15.7755,212.8597],[38.7883,-15.7766,205.6111],[38.8018,-15.7916,207.9059],[38.8043,-15.8012,198.797],[38.8044,-15.8166,193.5932],[38.8071,-15.8261,193.4778],[38.8147,-15.8356,190.9868],[38.8215,-15.8412,190.9815],[38.8246,-15.874,192.6315],[38.8282,-15.8833,187.5234],[38.839,-15.8865,174.6051],[38.8483,-15.8915,167.1025],[38.8448,-15.915,168.7317],[38.852,-15.9245,169.4491],[38.8599,-15.9268,159.1202],[38.8715,-15.9417,163.5398],[38.8739,-15.954,156.1667],[38.8691,-15.9826,146.378],[38.8708,-15.9979,138.8999],[38.8841,-16.0046,135.6093],[38.8959,-16.0203,137.5116],[38.8973,-16.0294,128.6959],[38.915,-16.0478,137.0042],[38.9118,-16.0653,121.6024],[38.9134,-16.0751,124.3999],[38.9225,-16.0912,115.5945],[38.9268,-16.1087,111.613],[38.9375,-16.1192,114.7146],[38.9345,-16.1239,115.4701],[38.9248,-16.1322,118.58],[38.9179,-16.146,109.3543],[38.9235,-16.1622,105.3284],[38.9178,-16.1707,108.4812],[38.9179,-16.1849,100.9858],[38.9212,-16.2038,104.0313],[38.9288,-16.221,95.2346],[38.9323,-16.239,82.9234],[38.9463,-16.2628,73.9052],[38.957,-16.2747,65.6223],[38.9622,-16.2767,62.9649],[38.9794,-16.2744,67.6902],[38.9859,-16.2784,61.5562],[38.9867,-16.2882,59.8076],[38.9971,-16.3221,50.8476],[39.0051,-16.3316,44.6853],[39.0038,-16.3457,45.0653],[39.0149,-16.3778,48.3967],[39.0162,-16.3925,37.5687],[39.0231,-16.4005,52.5623],[39.029,-16.4119,35.0973],[39.0351,-16.418,48.4078],[39.0281,-16.4732,32.7364],[39.0215,-16.4829,33.2179],[39.0291,-16.5,27.9899],[39.0398,-16.5139,26.992],[39.0407,-16.5209,26.598],[39.0096,-16.532,33.8233],[39.005,-16.5344,31.5713],[39.0002,-16.5401,23.6003],[39.0003,-16.5607,31.203],[38.9966,-16.5737,25.4777],[38.9945,-16.5946,19.9909],[38.9851,-16.6199,18.4359],[38.9861,-16.6287,18.1585],[38.9889,-16.6361,17.6126],[39.0,-16.6495,22.1325],[39.0281,-16.6593,16.6317],[39.0356,-16.6628,14.4475],[39.0444,-16.67,14.2726],[39.0482,-16.6787,12.6731],[39.0495,-16.691,13.1222],[39.0479,-16.7108,11.2377],[39.0512,-16.7213,10.4873],[39.0698,-16.7309,12.6511],[39.0738,-16.7394,9.2325],[39.0747,-16.7599,8.3476],[39.0793,-16.7734,7.8331],[39.1132,-16.7984,5.2559],[39.1159,-16.8102,4.6045],[39.1208,-16.8197,6.4964],[39.1294,-16.8518,1.485],[39.1266,-16.8606,2.4033],[39.1297,-16.8724,1.4825],[39.137,-16.8856,0.8476],[39.1268,-16.8968,3.1907],[39.1288,-16.8987,0.9293],[39.1288,-16.9015,1.916],[39.124,-16.9068,0.0],[39.1265,-16.911,0.7198],[39.1371,-16.8982,0.0],[39.1371,-16.8951,1.98],[39.1407,-16.8929,0.0],[39.1418,-16.8946,0.0],[39.1446,-16.8918,2.5037],[39.1574,-16.8712,6.0205],[39.1735,-16.8563,0.0],[39.1735,-16.8529,3.5625],[39.1757,-16.8499,2.5076],[39.1743,-16.8493,0.5024],[39.1743,-16.8465,0.5073],[39.1782,-16.8446,1.5761],[39.1796,-16.8482,0.0],[39.1813,-16.8482,0.0],[39.2085,-16.8279,3.4805],[39.2185,-16.8229,0.0],[39.2254,-16.8168,0.0],[39.2418,-16.8074,1.7217],[39.2429,-16.8051,0.8699],[39.2613,-16.7968,0.0],[39.269,-16.7896,0.0],[39.2687,-16.7874,0.0],[39.2651,-16.7865,2.2491],[39.2621,-16.7901,0.7363],[39.2568,-16.791,0.5374],[39.2549,-16.7926,2.4593],[39.2554,-16.7968,2.3233],[39.2518,-16.8004,1.176],[39.2485,-16.801,1.4908],[39.2535,-16.7954,1.5051],[39.2521,-16.7951,2.2166],[39.2526,-16.7935,0.4711],[39.2501,-16.789,8.0096],[39.2412,-16.7838,2.783],[39.2426,-16.7818,1.0817],[39.2404,-16.7804,0.0],[39.2285,-16.789,1.4072],[39.221,-16.7887,1.0752],[39.2171,-16.7946,5.557],[39.2113,-16.7951,2.3561],[39.2107,-16.7938,1.756],[39.2154,-16.7929,3.8286],[39.2193,-16.7879,4.4095],[39.2268,-16.7882,0.8901],[39.2296,-16.7868,0.8261],[39.2357,-16.7799,0.3187],[39.2249,-16.7787,0.6308],[39.2168,-16.7718,1.1523],[39.2129,-16.7729,2.9981],[39.2129,-16.7701,1.7359],[39.2054,-16.7746,0.8548],[39.1946,-16.7749,2.3644],[39.1943,-16.7729,1.0],[39.191,-16.7726,1.0],[39.1832,-16.7763,4.9583],[39.1746,-16.7746,3.5632],[39.1751,-16.774,3.1977],[39.1815,-16.7757,1.5903],[39.1918,-16.7712,4.187],[39.2021,-16.7732,0.5],[39.2068,-16.7721,0.5],[39.2124,-16.7679,1.8789],[39.211,-16.7635,2.3241],[39.206,-16.7593,1.3863],[39.1915,-16.7557,1.0672],[39.1888,-16.7535,1.3018],[39.1865,-16.7476,3.2788],[39.1879,-16.7454,3.6428],[39.1838,-16.7385,1.5002],[39.1885,-16.7429,0.5],[39.189,-16.749,2.0498],[39.1915,-16.7546,1.0672],[39.1957,-16.7543,1.728],[39.2074,-16.7579,2.3486],[39.2179,-16.7671,2.2566],[39.2388,-16.769,0.3223],[39.2432,-16.7665,0.0],[39.2435,-16.7635,0.3623],[39.2385,-16.7579,0.0],[39.2363,-16.7496,0.6114],[39.2374,-16.7404,1.0862],[39.2363,-16.7376,0.911],[39.239,-16.7315,0.3535],[39.2388,-16.7254,0.3901],[39.2357,-16.7162,0.0],[39.2318,-16.715699999999998,2.3051],[39.2335,-16.7146,1.3597],[39.2332,-16.7074,0.0],[39.2307,-16.6993,0.555],[39.229,-16.6968,1.3825],[39.226,-16.6971,2.1675],[39.2301,-16.696,3.7215],[39.234,-16.6999,0.0],[39.2412,-16.6926,3.368],[39.2418,-16.6885,3.1985],[39.2363,-16.6818,0.0],[39.2363,-16.6751,0.0],[39.2379,-16.6749,0.0],[39.2371,-16.6785,0.5647],[39.2401,-16.6801,0.7969],[39.2446,-16.6879,4.1629],[39.2463,-16.6882,0.0],[39.2788,-16.6765,0.0],[39.2851,-16.676,2.7979],[39.299,-16.6651,1.0683],[39.2882,-16.676,1.9831],[39.264,-16.6837,0.975],[39.2543,-16.6896,4.7612],[39.2457,-16.6924,0.7532],[39.2371,-16.7024,0.774],[39.2379,-16.7107,0.0],[39.2418,-16.7185,0.0],[39.2471,-16.7246,0.0],[39.2487,-16.724,2.4119],[39.2476,-16.7276,0.0],[39.2493,-16.7296,0.5544],[39.2501,-16.7365,2.4849],[39.2454,-16.7426,0.8868],[39.2457,-16.7521,0.0],[39.2557,-16.7651,0.3471],[39.2585,-16.7654,1.8008],[39.261,-16.7632,2.976],[39.261,-16.7649,4.9408],[39.2571,-16.7679,0.0],[39.2593,-16.7729,3.0618],[39.2649,-16.7749,0.0],[39.2713,-16.7732,2.4907],[39.2762,-16.774,2.4498],[39.2818,-16.7707,6.5587],[39.2962,-16.7704,0.0],[39.3063,-16.7637,3.7881],[39.311,-16.7632,1.0016],[39.3265,-16.7493,6.5308],[39.334,-16.7451,5.5142],[39.3976,-16.719,3.5592],[39.4604,-16.6904,0.0],[39.5174,-16.6557,4.791],[39.5254,-16.6482,9.0498],[39.5354,-16.6437,3.7593],[39.5407,-16.6362,0.0],[39.5412,-16.6332,0.0],[39.5401,-16.6326,0.0],[39.5438,-16.6254,1.9807],[39.5499,-16.6201,0.6934],[39.554,-16.619,0.0],[39.564,-16.6121,6.7994],[39.5793,-16.6087,2.6799],[39.6063,-16.5976,6.7249],[39.6101,-16.5954,5.3468],[39.614,-16.5904,7.0708],[39.6176,-16.5901,4.1826],[39.6226,-16.5868,1.8376],[39.629,-16.5765,1.89],[39.6329,-16.5732,3.3784],[39.6749,-16.5557,0.0],[39.6937,-16.5412,9.7481],[39.7099,-16.5318,0.0],[39.7143,-16.5257,0.0],[39.7293,-16.516,4.1197],[39.7846,-16.4887,3.6355],[39.7893,-16.4849,3.4281],[39.791,-16.4771,0.0],[39.7887,-16.4787,2.7222],[39.7857,-16.476,0.534],[39.7779,-16.484,1.2449],[39.7749,-16.4846,3.7929],[39.7621,-16.4813,2.8969],[39.7615,-16.4768,0.9679],[39.764,-16.474,0.9744],[39.7632,-16.4721,0.9783],[39.7646,-16.4735,0.9744],[39.7632,-16.476,1.6196],[39.764,-16.4804,1.1275],[39.7738,-16.4821,0.5],[39.7785,-16.4785,0.5],[39.7876,-16.4671,1.8905],[39.7868,-16.466,0.5],[39.7785,-16.4668,2.3416],[39.7746,-16.4657,1.3828],[39.7754,-16.464,2.4282],[39.7813,-16.4654,0.7662],[39.786,-16.4624,1.9492],[39.7915,-16.4629,3.6667],[39.7935,-16.4587,2.8597],[39.789,-16.4579,2.0222],[39.794,-16.4571,3.1313],[39.8001,-16.4621,2.425],[39.799,-16.4629,1.5256],[39.7974,-16.4607,1.3092],[39.7949,-16.4604,2.5957],[39.7929,-16.4626,1.006],[39.7932,-16.4721,0.5],[39.7946,-16.4729,3.8896],[39.8001,-16.4668,1.0124],[39.8101,-16.4612,3.8873],[39.8418,-16.4499,0.0],[39.8613,-16.4401,2.8244],[39.8632,-16.4351,6.8456],[39.8604,-16.4335,2.7141],[39.8546,-16.436,1.1456],[39.8462,-16.4332,1.7815],[39.8382,-16.4329,2.1545],[39.8387,-16.4382,1.3081],[39.8374,-16.439,1.3081],[39.8368,-16.4332,4.4778],[39.8379,-16.4315,2.1545],[39.8407,-16.4326,2.3354],[39.8438,-16.4315,0.0],[39.844,-16.4268,0.5282],[39.8371,-16.4185,1.3312],[39.831,-16.4201,1.7572],[39.8301,-16.4185,2.0101],[39.8324,-16.4179,1.8742],[39.829,-16.4146,1.1648],[39.8232,-16.4157,1.1146],[39.8224,-16.4249,1.8198],[39.8199,-16.4279,0.8078],[39.8154,-16.4276,2.0136],[39.8215,-16.424,0.5],[39.8218,-16.416,0.5],[39.8182,-16.4137,0.7461],[39.7962,-16.4193,0.5],[39.794,-16.4212,2.0505],[39.7938,-16.4188,0.5],[39.791,-16.4185,3.1083],[39.804,-16.416,1.0638],[39.8101,-16.4135,0.5],[39.8121,-16.4107,3.2696],[39.8235,-16.4112,1.6933],[39.8251,-16.4096,0.375],[39.8224,-16.409,2.5225],[39.826,-16.4079,1.6482],[39.8224,-16.4024,1.8524],[39.8249,-16.4013,0.0],[39.8201,-16.399,0.7209],[39.8221,-16.3985,1.0916],[39.8229,-16.399,0.0],[39.8226,-16.3971,0.0],[39.8171,-16.3935,0.9083],[39.8112,-16.381,0.4746],[39.801,-16.3707,1.1725],[39.8007,-16.3685,0.7494],[39.7988,-16.369,0.467],[39.8013,-16.3662,0.0],[39.7993,-16.3657,0.3113],[39.7943,-16.3571,0.0],[39.7918,-16.3579,0.0],[39.7896,-16.354,0.0],[39.789,-16.3404,1.5767],[39.7954,-16.346,0.7052],[39.796,-16.3357,0.0],[39.8035,-16.3251,0.0],[39.8057,-16.3093,0.0],[39.804,-16.3079,0.0],[39.7993,-16.3085,0.605],[39.7857,-16.314,2.0238],[39.784,-16.3218,0.0],[39.7879,-16.3276,3.0885],[39.7887,-16.3343,2.1604],[39.7871,-16.3299,1.2433],[39.7863,-16.3371,3.8157],[39.7779,-16.339,1.4201],[39.776,-16.349,1.9069],[39.7762,-16.3401,1.7195],[39.7779,-16.3371,0.9081],[39.7799,-16.3346,0.9557],[39.7832,-16.3371,0.5],[39.7857,-16.336,2.4044],[39.786,-16.3276,0.5],[39.7821,-16.3229,0.9812],[39.781,-16.3168,0.3718],[39.7765,-16.324,0.0],[39.7788,-16.3329,1.4982],[39.7757,-16.3251,0.8591],[39.7601,-16.3249,1.8434],[39.7476,-16.3196,1.8553],[39.7401,-16.3146,1.9362],[39.7412,-16.3135,1.3092],[39.7579,-16.3226,0.9757],[39.7721,-16.3226,1.5624],[39.7743,-16.3213,0.0],[39.7768,-16.314,3.3743],[39.776,-16.3121,1.264],[39.7729,-16.3121,1.6181],[39.7765,-16.3115,1.264],[39.7774,-16.3129,0.2927],[39.7813,-16.3071,3.3298],[39.7854,-16.3049,1.1338],[39.7771,-16.2982,2.4212],[39.7743,-16.294,2.4656],[39.7732,-16.2846,0.0],[39.7699,-16.2768,0.0],[39.7663,-16.274,0.5831],[39.7565,-16.2771,1.5579],[39.7476,-16.2763,2.4818],[39.7385,-16.2793,0.9713],[39.7474,-16.2749,0.5593],[39.756,-16.2757,1.6729],[39.7663,-16.2726,1.9212],[39.7565,-16.2646,2.5191]],
[[40.560400883179447,-15.420401886792451,1.042],[40.560399047206587,-15.420400736249459,1.042],[40.5604,-15.4204,1.042],[40.560400883179447,-15.420401886792451,1.042]],
[[40.560399047206587,-15.420400736249459,1.042],[40.556,-15.4238,2.2327],[40.5596,-15.4199,1.042],[40.560399047206587,-15.420400736249459,1.042]]],
[[[39.1315,-16.9093,1.4025],[39.1326,-16.9082,1.4025],[39.1324,-16.9065,0.0],[39.131,-16.9082,0.0],[39.1315,-16.9093,1.4025]]],
[[[39.2251,-16.774,0.5],[39.2207,-16.7726,0.5],[39.2243,-16.7765,1.8584],[39.2279,-16.7765,0.1762],[39.2251,-16.774,0.5]]],
[[[39.2188,-16.771,0.5],[39.2174,-16.7699,2.3649],[39.2168,-16.7704,2.3649],[39.2196,-16.7721,0.5],[39.2188,-16.771,0.5]]],
[[[39.2485,-16.7371,2.4849],[39.2485,-16.7343,0.4683],[39.2479,-16.7343,0.0],[39.2471,-16.7374,0.8201],[39.2485,-16.7371,2.4849]]],
[[[39.2401,-16.6818,1.972],[39.2376,-16.6807,0.0],[39.2385,-16.684,3.1237],[39.241,-16.6857,0.8789],[39.2404,-16.6818,0.3865],[39.2401,-16.6818,1.972]]],
[[[39.7249,-16.6446,0.0],[39.7268,-16.6429,8.1194],[39.7268,-16.6421,8.1194],[39.7224,-16.6426,1.1861],[39.7249,-16.6446,0.0]]],
[[[39.8085,-16.5651,1.9621],[39.8071,-16.5635,2.9465],[39.806,-16.5662,0.0],[39.8074,-16.5665,0.0],[39.8085,-16.5651,1.9621]]],
[[[40.0315,-16.354,0.0],[40.0315,-16.3521,0.0],[40.0288,-16.3526,0.0],[40.029,-16.3543,0.0],[40.0315,-16.354,0.0]]],
[[[39.794,-16.3463,1.2924],[39.7924,-16.3451,1.1],[39.7918,-16.3465,1.2832],[39.7949,-16.3512,1.1424],[39.7949,-16.354,0.0],[39.7957,-16.3485,1.2758],[39.794,-16.3463,1.2924]]],
[[[39.9212,-16.3274,1.1806],[39.9201,-16.3251,0.0],[39.9165,-16.3265,0.5],[39.9171,-16.3285,0.8217],[39.9212,-16.3274,1.1806]]],
[[[39.9326,-16.3237,1.3131],[39.9332,-16.3232,1.3131],[39.9329,-16.3213,1.1924],[39.9315,-16.3254,0.4547],[39.9326,-16.3237,1.3131]]],
[[[39.9121,-16.3126,1.9575],[39.9126,-16.311,0.0],[39.9063,-16.3157,0.0],[39.909,-16.316,0.3363],[39.9121,-16.3126,1.9575]]],
[[[39.9296,-16.326,0.4547],[39.9301,-16.3237,1.0037],[39.9285,-16.3226,0.3033],[39.9276,-16.3257,1.8459],[39.9296,-16.326,0.4547]]],
[[[39.9285,-16.3201,0.6989],[39.929,-16.3174,1.4212],[39.9279,-16.3162,0.0],[39.9257,-16.3229,1.4783],[39.9285,-16.3201,0.6989]]],
[[[39.9346,-16.3051,0.0],[39.9354,-16.3032,0.0],[39.9332,-16.3043,0.0],[39.9321,-16.3085,0.0],[39.9343,-16.306,0.0],[39.9346,-16.3051,0.0]]],
[[[39.816,-16.3001,1.7163],[39.8165,-16.2976,0.0],[39.8132,-16.2982,1.7146],[39.8079,-16.3029,0.0],[39.8088,-16.3096,0.0],[39.8115,-16.309,2.0931],[39.8115,-16.3065,2.8682],[39.816,-16.3001,1.7163]]],
[[[39.8085,-16.2896,0.0],[39.8068,-16.2871,0.0],[39.7982,-16.291,1.3403],[39.7863,-16.2915,2.6425],[39.7746,-16.2874,0.0],[39.7768,-16.2954,1.1491],[39.781,-16.2996,0.6748],[39.7868,-16.3021,0.7641],[39.7982,-16.2999,0.0],[39.8035,-16.2918,0.4993],[39.8085,-16.2896,0.0]]],
[[[39.7582,-16.2624,3.5325],[39.7557,-16.2612,0.2753],[39.7571,-16.2649,0.4427],[39.7596,-16.266,0.0],[39.7601,-16.2651,0.0],[39.7582,-16.2624,3.5325]]],
[[[39.9693,-16.2615,0.0],[39.969,-16.2601,0.0],[39.9676,-16.2601,0.0],[39.969,-16.2626,0.0],[39.9693,-16.2615,0.0]]],
[[[39.8718,-16.2474,1.1986],[39.8685,-16.2462,0.0],[39.8715,-16.251,0.5309],[39.8771,-16.2518,0.1173],[39.8768,-16.2501,0.0932],[39.8718,-16.2474,1.1986]]],
[[[39.8593,-16.1929,0.2112],[39.8571,-16.1918,0.2879],[39.8599,-16.1957,0.3206],[39.8624,-16.1957,0.2899],[39.8618,-16.194,0.0],[39.8593,-16.1929,0.2112]]],
[[[40.0346,-16.1812,0.0],[40.034,-16.1771,0.0],[40.0324,-16.176,0.0],[40.031,-16.1799,0.0],[40.0335,-16.1885,0.0],[40.0349,-16.1874,0.0],[40.0346,-16.1812,0.0]]],
[[[40.1224,-15.9501,0.0],[40.1232,-15.9485,0.0],[40.1215,-15.9482,0.0],[40.1204,-15.9529,0.0],[40.1218,-15.9526,0.0],[40.1224,-15.9501,0.0]]],
[[[40.1312,-15.9424,1.8617],[40.1307,-15.9438,0.0],[40.131,-15.9446,0.0],[40.1324,-15.9415,1.8617],[40.1312,-15.9424,1.8617]]],
[[[39.8896,-16.1904,1.3074],[39.889,-16.1887,0.4744],[39.8865,-16.1885,0.7075],[39.8829,-16.1924,3.5175],[39.8851,-16.1951,0.1738],[39.8893,-16.1946,0.0],[39.8896,-16.1904,1.3074]]],
[[[39.8607,-16.2635,0.3081],[39.8579,-16.2626,0.0],[39.8568,-16.2643,0.2751],[39.8596,-16.2643,0.3081],[39.8607,-16.2635,0.3081]]],
[[[39.9215,-16.284,0.0],[39.9185,-16.2829,0.0],[39.9199,-16.2871,1.3514],[39.9251,-16.291,0.5511],[39.9254,-16.2876,0.0],[39.9215,-16.284,0.0]]],
[[[39.7956,-16.2849,0.2361],[39.7979,-16.2843,0.4522],[39.7985,-16.2832,0.4522],[39.794,-16.2843,1.321],[39.7956,-16.2849,0.2361]]],
[[[39.9263,-16.2771,0.0],[39.9229,-16.276,0.0],[39.9299,-16.281,0.1966],[39.9293,-16.279,0.3962],[39.9263,-16.2771,0.0]]],
[[[39.9176,-16.2754,0.0],[39.9126,-16.2746,0.0],[39.9165,-16.2785,0.0],[39.921,-16.2799,0.1932],[39.9199,-16.2771,0.0],[39.9176,-16.2754,0.0]]],
[[[39.9188,-16.2701,0.8487],[39.9146,-16.2696,0.0],[39.9276,-16.276,1.6345],[39.9332,-16.2804,0.0],[39.9449,-16.2768,0.0],[39.9446,-16.2743,0.0],[39.9426,-16.2732,1.3708],[39.9346,-16.2751,1.9604],[39.9362,-16.2729,2.1091],[39.9229,-16.2696,1.3699],[39.9188,-16.2701,0.8487]]],
[[[39.8585,-16.419,0.9264],[39.8568,-16.4204,1.1019],[39.8585,-16.4199,0.5314],[39.859,-16.4185,0.9264],[39.8585,-16.419,0.9264]]],
[[[39.8229,-16.3835,0.0],[39.8224,-16.3807,0.7437],[39.8207,-16.3804,0.7437],[39.821,-16.3843,1.379],[39.8229,-16.3835,0.0]]],
[[[39.8112,-16.3751,1.7517],[39.8096,-16.3738,0.5465],[39.8076,-16.3743,0.3128],[39.8118,-16.3785,1.2429],[39.8112,-16.3751,1.7517]]],
[[[39.8074,-16.3701,2.1436],[39.8024,-16.3693,0.0],[39.8046,-16.3724,1.1191],[39.8099,-16.3726,1.334],[39.8096,-16.3707,1.0019],[39.8074,-16.3701,2.1436]]],
[[[39.8101,-16.369,0.955],[39.8096,-16.3679,0.0],[39.8074,-16.3676,0.0],[39.8074,-16.3682,0.0],[39.8101,-16.369,0.955]]],
[[[39.8021,-16.3671,0.8914],[39.8021,-16.3679,0.8914],[39.8046,-16.3674,0.0],[39.8043,-16.3665,0.0],[39.8021,-16.3671,0.8914]]],
[[[39.8857,-16.2763,0.2226],[39.8857,-16.2749,0.1767],[39.8824,-16.2751,0.0],[39.874,-16.2801,2.8097],[39.8693,-16.2804,0.0],[39.8524,-16.2871,0.4182],[39.8454,-16.2868,0.689],[39.8285,-16.2915,0.0],[39.8193,-16.306,0.0],[39.8176,-16.3104,0.0],[39.8185,-16.3129,2.8021],[39.8165,-16.3124,0.6907],[39.8165,-16.3154,2.0392],[39.8176,-16.3162,2.0392],[39.8185,-16.3149,1.4507],[39.8218,-16.3221,0.922],[39.8268,-16.3235,3.6396],[39.8279,-16.3285,0.5],[39.8329,-16.3299,1.6299],[39.8329,-16.3312,1.6299],[39.8265,-16.3299,2.6572],[39.8257,-16.3265,1.1804],[39.8179,-16.3185,1.6371],[39.8176,-16.3215,1.2264],[39.8204,-16.3246,2.305],[39.8163,-16.3232,2.2476],[39.8146,-16.3104,0.0],[39.811,-16.3115,0.7059],[39.8088,-16.3157,1.2413],[39.8079,-16.3271,0.0],[39.8046,-16.3326,1.9947],[39.8071,-16.3357,1.4124],[39.8001,-16.3351,2.7522],[39.7988,-16.3371,0.4164],[39.7957,-16.3557,0.4438],[39.7982,-16.3563,2.1063],[39.8021,-16.361,3.5454],[39.8163,-16.3676,2.9741],[39.829,-16.3843,3.5902],[39.8365,-16.4015,0.0],[39.8396,-16.399,0.0],[39.8415,-16.3932,0.0],[39.8379,-16.386,3.3467],[39.8399,-16.3821,2.4822],[39.8393,-16.3862,4.3391],[39.8429,-16.3932,0.0],[39.8418,-16.3982,3.4012],[39.8382,-16.403199999999998,0.0],[39.8396,-16.409,3.8195],[39.849,-16.4143,1.7175],[39.8537,-16.419,0.535],[39.8568,-16.4162,7.7909],[39.8585,-16.4171,0.8684],[39.8568,-16.4182,0.7213],[39.8649,-16.4171,0.5298],[39.8688,-16.4124,1.809],[39.8732,-16.4129,1.5534],[39.8735,-16.414,2.1029],[39.8688,-16.4135,1.741],[39.866,-16.4182,3.9936],[39.8599,-16.4196,2.4524],[39.8549,-16.4237,0.0],[39.8599,-16.424,3.7606],[39.8632,-16.4224,5.6594],[39.886,-16.419,5.2503],[39.8926,-16.4212,1.2506],[39.8982,-16.4196,0.0],[39.9074,-16.4124,0.0],[39.9079,-16.4074,3.8296],[39.9126,-16.4029,4.5493],[39.9135,-16.3999,1.9365],[39.9118,-16.399,3.8017],[39.9085,-16.401,2.5214],[39.9029,-16.4126,4.4372],[39.899,-16.4154,4.9693],[39.9035,-16.4074,1.6311],[39.9026,-16.401,6.1341],[39.9046,-16.3979,1.5909],[39.8982,-16.3907,2.4938],[39.8968,-16.3812,0.7292],[39.889,-16.3846,3.0584],[39.889,-16.3818,1.4775],[39.8849,-16.3826,0.9776],[39.8807,-16.3801,2.3384],[39.8915,-16.381,1.9049],[39.8913,-16.3826,0.5],[39.8943,-16.3804,1.3043],[39.8954,-16.3743,1.2501],[39.894,-16.3735,1.7383],[39.8949,-16.3699,1.6904],[39.8937,-16.3679,1.8564],[39.8954,-16.3696,1.6904],[39.8946,-16.3732,1.2501],[39.8963,-16.3743,1.2501],[39.8951,-16.3768,0.9205],[39.8963,-16.3785,0.5],[39.8999,-16.3799,0.7778],[39.9015,-16.376,2.291],[39.904,-16.3743,1.9272],[39.9015,-16.3771,1.557],[39.9018,-16.3799,2.5391],[39.9029,-16.3793,5.2694],[39.9046,-16.3762,2.6267],[39.906,-16.3696,3.7894],[39.9132,-16.3576,1.0349],[39.9374,-16.3288,0.8543],[39.9512,-16.3074,3.2849],[39.951,-16.3035,0.6781],[39.9482,-16.3026,0.0],[39.9429,-16.306,0.0],[39.941,-16.3099,1.3353],[39.939,-16.3087,0.3956],[39.9371,-16.311,0.0],[39.9349,-16.3282,5.471],[39.9249,-16.3324,0.9389],[39.9224,-16.3296,1.0915],[39.9193,-16.3304,1.176],[39.9182,-16.334,1.4727],[39.9174,-16.329,0.5],[39.9149,-16.329,0.5],[39.9143,-16.3307,0.5],[39.9165,-16.3318,0.9571],[39.9146,-16.3332,0.5],[39.9149,-16.336,0.5],[39.9182,-16.3424,4.8228],[39.9176,-16.3482,6.7643],[39.9157,-16.3507,3.3919],[39.9107,-16.3543,0.927],[39.9046,-16.3532,1.4702],[39.9001,-16.359,1.9465],[39.8935,-16.3587,1.9751],[39.8932,-16.3568,1.2551],[39.8996,-16.3579,1.7177],[39.9046,-16.3515,2.5453],[39.9079,-16.3526,1.9553],[39.9079,-16.3515,1.9553],[39.9126,-16.3515,1.1194],[39.9162,-16.3446,2.4411],[39.9157,-16.3415,2.0144],[39.9118,-16.3396,1.2972],[39.9113,-16.331,0.5],[39.9176,-16.324,1.9765],[39.9243,-16.3229,3.1667],[39.9251,-16.3171,3.1221],[39.9315,-16.3054,0.7076],[39.9238,-16.3076,0.0],[39.9113,-16.319,1.4268],[39.9057,-16.3174,1.2842],[39.9015,-16.3229,0.8852],[39.901,-16.3274,2.7516],[39.8921,-16.3315,1.8918],[39.8921,-16.3362,0.5],[39.8871,-16.3362,0.8955],[39.8863,-16.334,1.3],[39.8876,-16.3318,1.9049],[39.8896,-16.3321,2.4407],[39.8901,-16.3349,0.5],[39.8915,-16.3293,1.7478],[39.899,-16.3276,0.5],[39.8996,-16.3237,0.0],[39.8957,-16.3235,2.1379],[39.8957,-16.3224,2.1143],[39.8976,-16.3224,0.5386],[39.9007,-16.3168,0.0],[39.9165,-16.3057,1.3022],[39.9074,-16.3049,1.4348],[39.9104,-16.3032,0.7038],[39.9204,-16.3026,1.1668],[39.926,-16.2976,0.0],[39.9238,-16.2946,1.3798],[39.9221,-16.2949,0.9541],[39.916,-16.2818,0.6692],[39.9076,-16.2771,0.8539],[39.8968,-16.2774,0.0],[39.8887,-16.2829,0.0],[39.8868,-16.2874,1.0499],[39.8885,-16.291,1.8239],[39.894,-16.2921,1.0323],[39.8951,-16.2949,1.9664],[39.8901,-16.2996,3.6748],[39.891,-16.2957,1.5674],[39.8937,-16.2935,1.0604],[39.8918,-16.2943,1.3752],[39.8915,-16.2924,0.7155],[39.8863,-16.2918,0.7494],[39.8807,-16.2996,2.4687],[39.8699,-16.3054,1.5834],[39.8701,-16.3082,0.6615],[39.8735,-16.3107,1.6395],[39.8693,-16.309,2.2276],[39.8682,-16.3065,0.6038],[39.8604,-16.3104,0.538],[39.8579,-16.3151,2.7824],[39.8574,-16.3304,0.718],[39.8557,-16.3301,0.718],[39.8563,-16.3099,0.0],[39.8629,-16.3035,1.8423],[39.8796,-16.2951,0.5832],[39.8829,-16.2901,0.0],[39.8829,-16.2824,0.0],[39.8857,-16.2763,0.2226]]]]}}