{"type":"Feature","properties":{"GID_3":"MOZ.11.2.3_1","GID_0":"MOZ","country":"Mozambique","GID_1":"MOZ.11_1","province":"Zambezia","NL_NAME_1":"NA","GID_2":"MOZ.11.2_1","county":"Chinde","NL_NAME_2":"NA","city":"Mecaune(Micaune)","VARNAME_3":"NA","NL_NAME_3":"NA","TYPE_3":"Localidad","ENGTYPE_3":"Locality","CC_3":"NA","HASC_3":"NA","name":"Mecaune(Micaune).city"},
"geometry":{"type": "MultiPolygon","coordinates": [[[[36.5168,-18.5107,1.2091],[36.5157,-18.5107,1.2091],[36.5151,-18.5149,0.0],[36.5176,-18.5138,2.0391],[36.5168,-18.5107,1.2091]]],
[[[36.4263,-18.5484,0.0],[36.4648,-18.5569,1.8575],[36.4634,-18.5582,0.0],[36.4679,-18.5576,1.9147],[36.4868,-18.5687,0.0],[36.491,-18.5621,3.0324],[36.4901,-18.5587,3.8245],[36.4857,-18.5565,11.5938],[36.4888,-18.5562,5.8687],[36.4918,-18.5601,4.418],[36.489,-18.5699,0.0],[36.496,-18.571,2.3233],[36.5004,-18.5571,3.6962],[36.5082,-18.5432,0.0],[36.5085,-18.5401,1.445],[36.5046,-18.5371,4.9235],[36.499,-18.5371,7.1664],[36.4951,-18.5351,8.3886],[36.4946,-18.5312,9.4008],[36.4974,-18.5263,0.0],[36.501,-18.5235,0.0],[36.5032,-18.5182,7.1185],[36.511,-18.5168,0.0],[36.5137,-18.5137,0.0],[36.5121,-18.5101,7.2877],[36.5068,-18.5082,5.951],[36.5082,-18.5043,0.5],[36.5107,-18.5037,2.1208],[36.5137,-18.5054,5.8782],[36.5187,-18.5126,3.239],[36.5168,-18.5168,6.5976],[36.5104,-18.5182,1.7263],[36.506,-18.5237,6.4023],[36.5085,-18.5293,0.0],[36.5113,-18.531,0.0],[36.514,-18.5293,0.0],[36.5249,-18.5293,0.0],[36.5379,-18.511,2.7735],[36.5357,-18.5018,0.0],[36.5376,-18.4935,0.0],[36.536,-18.4924,2.0255],[36.5363,-18.4887,0.0],[36.5321,-18.476,8.7102],[36.5396,-18.4896,0.0],[36.5412,-18.496,3.1404],[36.5435,-18.4982,1.3171],[36.5471,-18.4976,2.3328],[36.624,-18.4199,0.0],[36.621,-18.4112,3.5599],[36.616,-18.4054,2.5019],[36.6204,-18.4074,1.6073],[36.6237,-18.4146,0.0],[36.629,-18.4154,0.0],[36.6318,-18.414,0.0],[36.6554,-18.3924,2.0391],[36.6554,-18.3901,0.7341],[36.6521,-18.3865,2.084],[36.6521,-18.379,0.8605],[36.6496,-18.3796,5.6964],[36.6499,-18.3785,2.4539],[36.6529,-18.3785,0.8605],[36.654,-18.3865,0.0],[36.6563,-18.3843,1.2916],[36.6615,-18.3857,1.7508],[36.664,-18.3849,0.0],[36.6832,-18.3687,0.0],[36.6829,-18.3651,0.0],[36.6871,-18.3646,0.0],[36.6924,-18.361,0.0],[36.7265,-18.3243,1.375],[36.7613,-18.2901,0.0],[36.7613,-18.2887,0.0],[36.756,-18.2882,4.0345],[36.7526,-18.2851,1.6034],[36.7607,-18.2876,0.0],[36.7604,-18.2865,1.1554],[36.7751,-18.2765,0.0],[36.7993,-18.2496,0.511],[36.8096,-18.2407,0.0],[36.8096,-18.239,0.7221],[36.829,-18.2176,0.0],[36.8329,-18.2115,0.0],[36.8332,-18.2071,1.4455],[36.8199,-18.2062,0.0],[36.8154,-18.2096,2.929],[36.8124,-18.2099,3.272],[36.8074,-18.2185,2.681],[36.7965,-18.2313,4.1665],[36.7793,-18.2351,3.4391],[36.7718,-18.2401,2.5127],[36.7682,-18.2403,0.0],[36.7606,-18.2447,0.0],[36.7588,-18.2416,12.3446],[36.7529,-18.2435,12.2837],[36.7482,-18.2415,0.0],[36.7291,-18.2147,0.0],[36.7199,-18.199,8.2454],[36.7145,-18.171,0.0],[36.7068,-18.1607,3.1369],[36.6969,-18.1572,3.8326],[36.6805,-18.1563,0.0],[36.6692,-18.1599,9.8962],[36.664,-18.1759,2.2125],[36.6562,-18.1854,0.0],[36.6465,-18.1922,4.2704],[36.6412,-18.2134,0.0],[36.6375,-18.1717,1.991],[36.6293,-18.157,2.3843],[36.6381,-18.1233,3.2827],[36.6147,-18.0993,9.0224],[36.5799,-18.1084,2.6058],[36.5609,-18.0997,1.7242],[36.5371,-18.0976,1.6308],[36.5463,-18.074,1.7908],[36.5386,-18.0695,2.8367],[36.5302,-18.0497,2.9868],[36.5002,-18.0531,3.074],[36.4762,-18.0521,3.3743],[36.4553,-18.0353,4.4142],[36.4481,-18.0326,4.5559],[36.4432,-18.0382,6.4072],[36.4129,-18.0496,5.6339],[36.4086,-18.0644,4.0702],[36.3908,-18.0729,3.9539],[36.3766,-18.0712,3.8786],[36.3679,-18.0748,4.4401],[36.3536,-18.1028,5.1278],[36.3411,-18.1017,4.3703],[36.3275,-18.0959,4.7724],[36.3185,-18.099,5.0678],[36.3035,-18.0861,6.2216],[36.3022,-18.117,5.4084],[36.3111,-18.1233,4.573],[36.3181,-18.1393,4.7368],[36.3074,-18.1468,5.3016],[36.2823,-18.1431,5.8523],[36.2781,-18.1525,6.2188],[36.2385,-18.1922,5.4731],[36.234,-18.1922,6.1534],[36.2349,-18.1947,6.7436],[36.2034,-18.2262,7.5436],[36.2076,-18.2387,4.9366],[36.208,-18.2544,7.0867],[36.2416,-18.2803,6.3498],[36.2448,-18.2885,7.5555],[36.2416,-18.3004,5.7143],[36.2491,-18.3082,5.2693],[36.2512,-18.3175,6.1375],[36.2595,-18.3267,6.5216],[36.2286,-18.391,4.5878],[36.2335,-18.3995,6.1376],[36.2423,-18.4053,6.3839],[36.2552,-18.4039,5.7415],[36.2637,-18.4134,5.5416],[36.2714,-18.4124,4.679],[36.3065,-18.4405,3.0911],[36.3114,-18.4492,6.4237],[36.3173,-18.4534,8.1841],[36.3274,-18.4671,6.0767],[36.3426,-18.4709,6.7276],[36.3415,-18.4887,3.4372],[36.3447,-18.4918,4.135],[36.3531,-18.4887,5.3616],[36.3453,-18.5014,2.8312],[36.3489,-18.5069,1.5395],[36.3719,-18.5059,2.4382],[36.3656,-18.5174,2.6444],[36.3909,-18.528199999999998,0.7537],[36.41,-18.5329,2.746],[36.4252,-18.5277,1.6125],[36.4274,-18.536,0.0],[36.4263,-18.5484,0.0]]],
[[[36.7868,-18.2307,2.7925],[36.7821,-18.2301,2.1239],[36.7801,-18.2335,0.628],[36.7846,-18.2337,1.8152],[36.7893,-18.2318,2.7023],[36.7868,-18.2307,2.7925]]],
[[[36.8001,-18.2204,0.0],[36.7929,-18.2207,0.0],[36.7854,-18.2237,1.4252],[36.7818,-18.2293,0.0],[36.7924,-18.2301,1.455],[36.7993,-18.2249,0.0],[36.8001,-18.2204,0.0]]],
[[[36.8351,-18.2035,0.0],[36.8343,-18.2024,0.0],[36.8329,-18.2035,0.5686],[36.8321,-18.2062,0.3302],[36.8349,-18.2065,0.0],[36.8351,-18.2035,0.0]]]]}}