{"type": "Feature","bbox": [40.6126,-14.6827,40.8299,-14.4096],"geometry": {"type": "MultiPolygon","coordinates": [[[[40.764,-14.5473,0.0],[40.766,-14.5465,0.3022],[40.7674,-14.5407,0.0],[40.7812,-14.5326,2.6887],[40.7846,-14.5265,3.308],[40.7951,-14.5224,2.1076],[40.7988,-14.5193,13.3712],[40.8043,-14.5201,4.6402],[40.8076,-14.5226,2.9708],[40.811,-14.5201,0.9363],[40.8201,-14.5221,1.6013],[40.8254,-14.5193,2.2308],[40.8226,-14.5093,2.8363],[40.8268,-14.5076,1.5171],[40.8299,-14.5024,0.0],[40.8257,-14.4535,1.1127],[40.8151,-14.4276,0.0],[40.8104,-14.4213,3.302],[40.8085,-14.4121,0.0],[40.8051,-14.4096,2.6693],[40.8015,-14.4115,0.0],[40.8024,-14.4137,5.1679],[40.801,-14.4149,4.0429],[40.7935,-14.4171,2.7658],[40.7879,-14.4168,2.3819],[40.7846,-14.419,3.4798],[40.7788,-14.4176,0.0],[40.7715,-14.4187,1.2001],[40.7699,-14.4229,2.0345],[40.7629,-14.4224,3.3881],[40.7612,-14.4199,0.0],[40.7571,-14.4204,1.3014],[40.7576,-14.4235,1.7488],[40.7476,-14.4288,0.6561],[40.7432,-14.4335,5.6005],[40.7385,-14.4346,2.6733],[40.7332,-14.4399,6.6361],[40.7235,-14.4393,0.0],[40.7199,-14.4412,0.0],[40.7079,-14.4418,3.2926],[40.7046,-14.4435,0.6674],[40.7015,-14.4482,4.5669],[40.6888,-14.4515,7.5014],[40.6826,-14.456,0.0],[40.676,-14.4582,1.1157],[40.6768,-14.4601,0.0],[40.681,-14.4621,22.0467],[40.6796,-14.4676,0.0],[40.6815,-14.4682,9.6204],[40.6826,-14.4799,0.0],[40.6787,-14.4985,7.2069],[40.6771,-14.5004,3.9929],[40.6732,-14.5007,0.0],[40.6721,-14.506,3.9987],[40.6765,-14.5157,16.5157],[40.6754,-14.5196,1.5224],[40.6768,-14.5235,9.6688],[40.6763,-14.5321,0.9941],[40.6729,-14.5376,12.1842],[40.6693,-14.5371,0.0],[40.6649,-14.5418,2.4763],[40.6651,-14.5435,0.0],[40.6699,-14.5465,0.0],[40.6724,-14.5557,18.5821],[40.6696,-14.561,0.6829],[40.666,-14.5626,0.0],[40.6557,-14.5726,0.4987],[40.6524,-14.5732,0.9114],[40.6482,-14.5765,2.8537],[40.6393,-14.5751,0.0],[40.6324,-14.5946,1.4051],[40.6282,-14.5976,0.4622],[40.6221,-14.599,0.5649],[40.6224,-14.6007,0.6962],[40.626,-14.6007,0.9955],[40.6257,-14.6024,0.3705],[40.6188,-14.6026,1.8086],[40.6133,-14.6184,1.5],[40.6126,-14.6296,7.094],[40.6197,-14.644,17.7649],[40.6202,-14.6508,24.521],[40.6258,-14.6573,42.2132],[40.6387,-14.6603,40.3141],[40.6512,-14.6827,70.402],[40.6712,-14.6575,139.8268],[40.7213,-14.6574,59.6833],[40.7199,-14.5626,65.2133],[40.7373,-14.5442,10.7413],[40.764,-14.5473,0.0]]]]}
,"properties": {"GID_3": "MOZ.7.15.1_1","GID_0": "MOZ","country": "Mozambique","GID_1": "MOZ.7_1","province": "Nampula","NL_NAME_1": "NA","GID_2": "MOZ.7.15_1","county": "NacalaVelha","NL_NAME_2": "NA","city": "CidadeDeNacala","VARNAME_3": "NA","NL_NAME_3": "NA","TYPE_3": "Localidad","ENGTYPE_3": "Locality","CC_3": "NA","HASC_3": "NA","name": "Cidade_De_Nacala.city","area_km2": 311.5695,"hist_schema_id": "Elevation0-9000","hist_area_km2": {"0": 56.3678,"25": 68.4529,"50": 67.5245,"75": 42.5636,"100": 30.1677,"125": 25.5266,"150": 11.3247,"175": 9.498,"200": 0.1436}}}