{"type": "Feature","bbox": [33.0161,-23.9467,33.9473,-22.9978],"geometry": {"type": "MultiPolygon","coordinates": [[[[33.6061,-23.9161,40.1456],[33.642,-23.9287,34.6245],[33.6634,-23.9422,31.8155],[33.6751,-23.9467,33.1303],[33.6895,-23.9422,35.4298],[33.9005,-23.6531,32.1513],[33.9101,-23.6472,32.6397],[33.9116,-23.6397,35.2457],[33.9164,-23.6299,33.2997],[33.9257,-23.6227,38.9691],[33.9282,-23.6091,34.4668],[33.9449,-23.5863,37.2111],[33.9355,-23.5806,34.9672],[33.9303,-23.5753,35.0692],[33.9345,-23.5652,33.8678],[33.9452,-23.5564,35.8291],[33.9473,-23.5454,35.0764],[33.9403,-23.539,36.5418],[33.9305,-23.5077,37.0643],[33.9272,-23.5027,37.7585],[33.927,-23.4911,37.5402],[33.9091,-23.4816,37.0095],[33.8953,-23.4842,41.7333],[33.8883,-23.4749,37.5499],[33.8852,-23.467,38.3393],[33.8796,-23.4399,40.0044],[33.8741,-23.4355,40.5952],[33.8709,-23.4371,39.7015],[33.8656,-23.4308,44.1271],[33.8633,-23.4177,39.9724],[33.8634,-23.3979,44.6625],[33.8429,-23.3887,41.1654],[33.8459,-23.3796,41.2567],[33.8416,-23.3582,41.8422],[33.9021,-23.3356,43.8621],[33.9013,-23.3253,44.1788],[33.8791,-23.3221,47.1437],[33.8699,-23.298,45.3163],[33.8712,-23.2813,47.0762],[33.875,-23.2697,46.3316],[33.8678,-23.2562,46.0785],[33.8563,-23.2418,48.3854],[33.8459,-23.2341,46.787],[33.8495,-23.1868,51.8621],[33.8441,-23.179,49.0851],[33.8281,-23.1761,49.6613],[33.8294,-23.153199999999998,47.986],[33.8203,-23.1479,48.7926],[33.81,-23.1444,50.7744],[33.8021,-23.1252,49.8155],[33.793,-23.1162,51.5732],[33.7803,-23.1106,50.4762],[33.7749,-23.0822,56.8272],[33.7551,-23.0828,55.57],[33.7431,-23.0868,51.3358],[33.7101,-23.0801,72.0778],[33.6936,-23.0725,76.4433],[33.6665,-23.0658,76.3525],[33.4828,-22.9978,76.2668],[33.4575,-22.9979,77.0126],[33.3744,-23.032,68.0913],[33.3339,-23.0453,67.6372],[33.2135,-23.0433,69.7294],[33.1853,-23.2395,69.2546],[33.1409,-23.3514,67.0141],[33.1122,-23.3679,71.5862],[33.101,-23.4317,64.7662],[33.0242,-23.5576,79.3714],[33.0161,-23.6269,69.1336],[33.0471,-23.6331,71.022],[33.0751,-23.6483,67.8536],[33.0857,-23.6487,68.2082],[33.1022,-23.6415,69.6511],[33.108,-23.6405,67.6328],[33.1137,-23.6431,68.7598],[33.1186,-23.6508,66.5265],[33.1385,-23.6411,68.5143],[33.1559,-23.6497,66.8087],[33.1651,-23.6513,67.207],[33.2111,-23.6732,64.7072],[33.2345,-23.6852,64.0351],[33.2606,-23.7068,60.8837],[33.2708,-23.7192,61.2894],[33.3267,-23.7697,55.6512],[33.3471,-23.7818,56.4663],[33.3664,-23.788,54.6181],[33.4485,-23.8386,48.1265],[33.4603,-23.8494,47.327],[33.4829,-23.8757,47.8302],[33.4947,-23.8834,44.5373],[33.5284,-23.8878,44.8092],[33.5594,-23.9073,41.9167],[33.592,-23.9114,40.8027],[33.6061,-23.9161,40.1456]]]]}
,"properties": {"GID_3": "MOZ.2.4.2_1","GID_0": "MOZ","country": "Mozambique","GID_1": "MOZ.2_1","province": "Gaza","NL_NAME_1": "NA","GID_2": "MOZ.2.4_1","county": "Chigubo","NL_NAME_2": "NA","city": "Ndindiza","VARNAME_3": "NA","NL_NAME_3": "NA","TYPE_3": "Localidad","ENGTYPE_3": "Locality","CC_3": "NA","HASC_3": "NA","name": "Ndindiza.city","area_km2": 6470.31,"hist_schema_id": "Elevation0-9000","hist_area_km2": {"25": 34.025,"50": 4922.662,"75": 1513.623}}}