{"type":"Feature","properties":{"GID_3":"MOZ.9.3.1_1","GID_0":"MOZ","country":"Mozambique","GID_1":"MOZ.9_1","province":"Sofala","NL_NAME_1":"NA","GID_2":"MOZ.9.3_1","county":"Chemba","NL_NAME_2":"NA","city":"Chemba","VARNAME_3":"NA","NL_NAME_3":"NA","TYPE_3":"Localidad","ENGTYPE_3":"Locality","CC_3":"NA","HASC_3":"NA","name":"Chemba.city"},
"geometry":{"type": "MultiPolygon","coordinates": [[[[35.026,-17.3719,45.119],[35.0149,-17.355,44.9131],[35.0084,-17.3523,45.6094],[34.9995,-17.352,45.0],[34.9783,-17.3136,46.8068],[34.9757,-17.2821,46.5],[34.9711,-17.2671,47.941],[34.9598,-17.2592,47.5],[34.9545,-17.2475,49.372],[34.9581,-17.2391,48.5],[34.9217,-17.1717,54.2158],[34.9156,-17.1546,53.6139],[34.9036,-17.1064,57.4486],[34.8948,-17.0872,55.5],[34.8886,-17.0684,58.4836],[34.8648,-17.0299,59.815],[34.8377,-17.0105,61.0409],[34.8262,-16.9968,61.6847],[34.8187,-16.9762,61.5],[34.797,-16.9444,63.0],[34.7653,-16.9109,66.2507],[34.7513,-16.8999,66.4509],[34.7371,-16.8937,68.4705],[34.7356,-16.9208,69.165],[34.731,-16.9347,82.8758],[34.7256,-16.9431,98.3419],[34.7101,-16.96,134.3272],[34.7011,-16.9774,144.6208],[34.6899,-16.9931,156.6846],[34.6853,-16.9971,164.0527],[34.6794,-17.0315,150.7535],[34.6041,-17.0835,141.6482],[34.6001,-17.103,149.3578],[34.6243,-17.1701,206.2516],[34.6354,-17.1834,227.7876],[34.6354,-17.1947,244.8404],[34.6388,-17.2071,266.2023],[34.6584,-17.2379,204.9206],[34.662,-17.2659,177.9888],[34.6844,-17.2767,163.1768],[34.7037,-17.2827,157.2956],[34.7278,-17.2952,108.8405],[34.7419,-17.2821,113.696],[34.7498,-17.2805,108.5157],[34.7596,-17.2818,99.9705],[34.7776,-17.2742,97.0443],[34.78,-17.2633,91.515],[34.784,-17.2566,89.566],[34.7983,-17.2507,85.7072],[34.8296,-17.2316,75.7588],[34.8333,-17.2425,86.4607],[34.8382,-17.2475,96.7943],[34.8569,-17.2981,142.7892],[34.8675,-17.3174,109.115],[34.8827,-17.3284,95.3601],[34.8878,-17.3348,89.3497],[34.8757,-17.3456,96.6533],[34.8712,-17.356,112.9946],[34.8675,-17.3704,135.3067],[34.8626,-17.3773,146.4792],[34.8607,-17.3921,162.3721],[34.8743,-17.4013,144.0184],[34.8848,-17.4015,125.2438],[34.9135,-17.4067,97.2911],[34.9199,-17.4096,92.6017],[34.9422,-17.3898,75.1733],[34.965,-17.3744,65.6958],[34.978,-17.3749,53.5113],[35.026,-17.3719,45.119]]]]}}