{"type": "Feature","bbox": [30.2194,-15.415,31.0209,-14.7291],"geometry": {"type": "MultiPolygon","coordinates": [[[[31.0209,-14.7291,945.0052],[30.8193,-14.7769,869.6059],[30.7963,-14.7834,883.9366],[30.7755,-14.7935,844.0735],[30.7016,-14.814,767.1631],[30.6873,-14.8199,790.2252],[30.6638,-14.8331,735.3682],[30.6361,-14.8432,694.8574],[30.6017,-14.8606,738.9609],[30.5565,-14.8755,725.798],[30.5316,-14.8869,726.6622],[30.5242,-14.8886,693.4065],[30.481,-14.9062,756.8864],[30.4583,-14.9175,564.0745],[30.4493,-14.9236,542.0723],[30.3743,-14.9603,598.0956],[30.3231,-14.9677,522.1857],[30.2956,-14.9773,503.2304],[30.2581,-14.9836,466.6893],[30.2274,-14.9944,417.7503],[30.2233,-14.9939,419.6508],[30.2194,-14.9979,441.2132],[30.2266,-15.0305,434.7524],[30.2259,-15.0412,477.3738],[30.2226,-15.0498,359.5],[30.2209,-15.0739,359.6197],[30.2264,-15.0878,363.1687],[30.2392,-15.1411,356.0],[30.2499,-15.161,357.8162],[30.2557,-15.1774,352.9236],[30.2601,-15.2076,349.0],[30.274,-15.2441,346.5],[30.2841,-15.2599,345.5],[30.3246,-15.2979,347.4874],[30.3431,-15.3134,346.9157],[30.3591,-15.3224,340.9518],[30.3712,-15.3335,345.2523],[30.3757,-15.3426,344.7823],[30.3796,-15.3667,341.2617],[30.3857,-15.3813,336.0],[30.3845,-15.393,335.5],[30.4519,-15.3941,465.2207],[30.4684,-15.415,412.2901],[30.4734,-15.4143,404.4675],[30.4755,-15.3904,410.3839],[30.481,-15.3684,434.838],[30.4959,-15.3596,460.5417],[30.5059,-15.3601,450.3887],[30.5122,-15.3541,482.1801],[30.5219,-15.3377,508.7761],[30.5269,-15.3249,532.9659],[30.5318,-15.3205,538.8001],[30.5465,-15.3163,559.1473],[30.6528,-15.262,1395.3879],[30.8172,-15.2661,770.8876],[30.8361,-15.2967,708.405],[30.8552,-15.3326,635.5883],[30.8642,-15.3583,600.3639],[30.8693,-15.3671,568.6432],[30.8723,-15.364,575.342],[30.8805,-15.3497,579.7642],[30.8903,-15.3435,585.5098],[30.8939,-15.3308,607.1056],[30.9,-15.3229,615.8256],[30.8977,-15.3173,628.3604],[30.8983,-15.3149,617.3024],[30.9056,-15.3112,634.6813],[30.8995,-15.2985,657.784],[30.8988,-15.2921,649.3893],[30.9122,-15.2755,686.5991],[30.9198,-15.2697,687.0241],[30.9403,-15.2584,707.1282],[30.9444,-15.2528,708.1213],[30.9387,-15.2412,713.3057],[30.9391,-15.235,734.1086],[30.9211,-15.2161,752.5469],[30.9188,-15.1984,771.8958],[30.9336,-15.1813,779.2814],[30.9264,-15.1631,801.231],[30.9346,-15.1381,804.9036],[30.9338,-15.1302,814.6936],[30.9369,-15.1168,821.8809],[30.9445,-15.1115,846.2762],[30.9502,-15.1108,836.9744],[30.9553,-15.1066,837.4975],[30.9611,-15.0854,856.2349],[30.9704,-15.0815,859.3489],[30.9752,-15.0756,881.1063],[30.9737,-15.0681,889.6228],[30.9703,-15.063,888.0932],[30.9758,-14.9948,944.5557],[30.9724,-14.9894,948.63],[30.9739,-14.9864,950.712],[30.9726,-14.9781,967.1655],[30.9748,-14.9756,959.9457],[30.972,-14.969,965.7291],[30.9738,-14.9606,970.9686],[30.9666,-14.9492,987.0981],[30.9616,-14.9372,1004.5281],[30.9736,-14.8078,953.4182],[30.9727,-14.797,924.2921],[30.9708,-14.7919,922.2518],[30.9611,-14.7848,913.7499],[30.9501,-14.7806,907.1249],[30.9465,-14.7773,910.3876],[30.9303,-14.7528,873.2167],[31.0209,-14.7291,945.0052]]]]}
,"properties": {"GID_3": "MOZ.10.12.2_1","GID_0": "MOZ","country": "Mozambique","GID_1": "MOZ.10_1","province": "Tete","NL_NAME_1": "NA","GID_2": "MOZ.10.12_1","county": "Zumbu","NL_NAME_2": "NA","city": "Zambue","VARNAME_3": "NA","NL_NAME_3": "NA","TYPE_3": "Localidad","ENGTYPE_3": "Locality","CC_3": "NA","HASC_3": "NA","name": "Zambue.city","area_km2": 3777.639,"hist_schema_id": "Elevation0-9000","hist_area_km2": {"325": 1.022,"350": 77.056,"375": 187.477,"400": 141.617,"425": 106.321,"450": 103.343,"475": 132.67,"500": 139.803,"525": 121.442,"550": 107.768,"575": 104.551,"600": 89.37,"625": 102.127,"650": 113.724,"675": 115.68,"700": 113.582,"725": 116.467,"750": 106.017,"775": 112.058,"800": 112.73,"825": 111.303,"850": 117.908,"875": 142.663,"900": 166.029,"925": 185.559,"950": 183.099,"975": 168.625,"1000": 148.582,"1025": 101.979,"1050": 54.083,"1075": 43.536,"1100": 39.114,"1125": 28.838,"1150": 22.391,"1175": 16.905,"1200": 13.487,"1225": 10.315,"1250": 7.327,"1275": 4.686,"1300": 2.619,"1325": 1.78,"1350": 1.146,"1375": 0.593,"1400": 0.245}}}