{"type":"Feature","properties":{"GID_3":"MOZ.10.8.1_1","GID_0":"MOZ","country":"Mozambique","GID_1":"MOZ.10_1","province":"Tete","NL_NAME_1":"NA","GID_2":"MOZ.10.8_1","county":"Maravia","NL_NAME_2":"NA","city":"Chipera","VARNAME_3":"NA","NL_NAME_3":"NA","TYPE_3":"Localidad","ENGTYPE_3":"Locality","CC_3":"NA","HASC_3":"NA","name":"Chipera.city"},
"geometry":{"type": "MultiPolygon","coordinates": [[[[32.5991,-15.5649,321.0],[32.6148,-15.5622,321.0],[32.6354,-15.5554,321.0],[32.6468,-15.555,321.0],[32.6668,-15.577,321.0],[32.6783,-15.5835,555.1035],[32.694,-15.5853,321.0],[32.7187,-15.5761,352.6045],[32.7326,-15.5681,518.4418],[32.739,-15.5594,293.049],[32.7482,-15.5539,413.6205],[32.7588,-15.5549,346.0037],[32.8014,-15.5651,321.527],[32.8177,-15.5649,340.9026],[32.8416,-15.5692,373.5907],[32.8554,-15.5691,338.1075],[32.8679,-15.5633,205.0646],[32.8766,-15.5661,171.0],[32.886,-15.5721,173.517],[32.9167,-15.5839,171.2929],[32.9581,-15.5863,183.5203],[32.9844,-15.5827,167.6324],[32.9646,-15.5089,270.0341],[32.9535,-15.4806,205.0358],[32.9197,-15.4273,237.0268],[32.9119,-15.4185,227.1664],[32.8985,-15.3972,269.0582],[32.8735,-15.3693,287.8375],[32.8594,-15.3419,267.2548],[32.8289,-15.3291,291.196],[32.822,-15.3247,304.5219],[32.7998,-15.3311,330.9872],[32.7891,-15.3312,354.8641],[32.7828,-15.3282,333.3011],[32.7738,-15.3267,332.3945],[32.7726,-15.3227,357.8704],[32.7689,-15.3189,410.0308],[32.7572,-15.3193,404.4701],[32.7427,-15.3245,465.7223],[32.7172,-15.3221,447.9127],[32.7114,-15.3185,416.7678],[32.7057,-15.321,407.7965],[32.7015,-15.3251,418.4946],[32.6913,-15.3211,422.7272],[32.6654,-15.3181,460.6379],[32.661,-15.3234,444.0954],[32.6409,-15.3235,459.3911],[32.6264,-15.3207,449.528],[32.6102,-15.3139,518.3261],[32.5692,-15.3034,497.4247],[32.5373,-15.291,576.9782],[32.5063,-15.2847,496.8084],[32.3904,-15.2556,546.9343],[32.2914,-15.2348,575.8662],[32.1946,-15.2207,602.7057],[32.1885,-15.234,615.4689],[32.1846,-15.237,629.5558],[32.1767,-15.2372,627.0964],[32.1683,-15.2407,636.827],[32.1581,-15.2672,707.9306],[32.143,-15.2788,747.4891],[32.1102,-15.2943,776.6826],[32.0844,-15.3019,708.6583],[32.0765,-15.307,655.1076],[32.0734,-15.3138,641.1698],[32.0742,-15.3244,629.8214],[32.0722,-15.3297,599.757],[32.0747,-15.3398,534.8312],[32.0702,-15.3487,520.4279],[32.0686,-15.3589,502.2792],[32.0776,-15.3822,486.9843],[32.0839,-15.3921,480.7037],[32.0951,-15.4309,431.4877],[32.109,-15.4568,409.3534],[32.1289,-15.4706,386.6359],[32.1398,-15.4804,382.1208],[32.1519,-15.4986,357.2257],[32.1432,-15.5226,322.501],[32.1433,-15.5284,321.0],[32.166,-15.5648,321.0],[32.1757,-15.578,321.0],[32.2212,-15.6304,321.0],[32.2381,-15.6471,321.0],[32.3806,-15.5825,321.0],[32.3939,-15.5752,321.0],[32.4119,-15.5685,321.0],[32.4375,-15.5672,321.0],[32.488,-15.5714,321.0],[32.5811,-15.5673,321.0],[32.5991,-15.5649,321.0]]]]}}