{"type": "Feature","bbox": [33.087,-17.5178,33.9619,-16.3853],"geometry": {"type": "MultiPolygon","coordinates": [[[[33.3443,-17.4984,788.7733],[33.3404,-17.5178,796.3793],[33.3645,-17.5177,792.5287],[33.3831,-17.4889,756.8802],[33.4004,-17.475,726.8613],[33.4097,-17.4742,725.7177],[33.4155,-17.4771,721.1846],[33.4251,-17.4754,706.3541],[33.4603,-17.4822,679.9991],[33.4612,-17.475,688.4232],[33.4648,-17.4692,667.9652],[33.4639,-17.4574,684.0984],[33.4752,-17.4454,655.2688],[33.4825,-17.4308,658.6645],[33.4902,-17.4247,644.817],[33.5508,-17.4389,758.3851],[33.5972,-17.4103,712.6322],[33.5994,-17.3898,709.0851],[33.6038,-17.3825,667.1224],[33.6426,-17.3695,613.5529],[33.6511,-17.3675,613.1332],[33.6554,-17.3688,603.7258],[33.6707,-17.3584,575.7367],[33.7118,-17.3448,547.4137],[33.7422,-17.3514,534.0834],[33.7568,-17.3499,523.8594],[33.7615,-17.3481,519.1772],[33.7653,-17.343,523.071],[33.7738,-17.3395,530.1481],[33.8029,-17.3321,510.5332],[33.819,-17.3261,486.3304],[33.8181,-17.3162,504.465],[33.8204,-17.3073,510.5066],[33.8399,-17.2695,590.3547],[33.8659,-17.2421,463.1102],[33.8688,-17.2372,475.8011],[33.876,-17.2176,473.5062],[33.8826,-17.1923,490.8743],[33.8776,-17.155,467.0492],[33.8718,-17.1327,442.5492],[33.8637,-17.1188,424.3929],[33.8646,-17.1107,421.9718],[33.8573,-17.1029,416.6361],[33.8572,-17.0929,406.1628],[33.8492,-17.064,362.6475],[33.8444,-17.0589,372.2493],[33.8392,-17.0574,360.0515],[33.8377,-17.0429,367.8651],[33.8457,-17.0407,340.5717],[33.8476,-17.0361,320.6474],[33.8354,-17.0111,339.4478],[33.8325,-17.0004,343.7341],[33.8246,-16.9941,368.9143],[33.8231,-16.99,380.0273],[33.8282,-16.9898,379.4914],[33.8456,-16.871,421.8568],[33.8253,-16.8518,386.0666],[33.8217,-16.8421,375.0945],[33.8268,-16.8226,340.0582],[33.813,-16.7975,308.9102],[33.8162,-16.7868,296.2276],[33.8166,-16.7756,292.0992],[33.8098,-16.7612,264.8323],[33.8134,-16.7513,265.2438],[33.8204,-16.7432,249.6163],[33.8186,-16.7369,245.8774],[33.8252,-16.7246,243.7697],[33.8269,-16.7129,227.8972],[33.8502,-16.6818,210.5486],[33.8777,-16.658,176.7202],[33.8986,-16.6174,146.9839],[33.9107,-16.6071,134.0544],[33.9312,-16.5948,120.4382],[33.9411,-16.5863,114.0176],[33.9619,-16.5777,102.1668],[33.9458,-16.5623,100.875],[33.9213,-16.5453,102.0],[33.9032,-16.5283,103.0],[33.8867,-16.4992,104.0],[33.8669,-16.4776,105.5],[33.8486,-16.461,106.5],[33.8323,-16.4309,108.0],[33.8121,-16.407,109.0],[33.8047,-16.3958,117.7774],[33.7924,-16.3871,121.8275],[33.7847,-16.3853,110.5],[33.7563,-16.3965,116.1369],[33.7248,-16.4121,125.5956],[33.7166,-16.4268,124.1791],[33.709,-16.4307,123.3709],[33.6848,-16.4201,149.6425],[33.6171,-16.4294,131.7361],[33.6053,-16.4293,134.0619],[33.5937,-16.4247,135.7662],[33.569,-16.4256,138.7201],[33.5425,-16.4321,144.7719],[33.5291,-16.4391,145.0087],[33.52,-16.4469,145.1603],[33.5009,-16.4696,149.6709],[33.4719,-16.4848,152.6371],[33.461,-16.5048,156.207],[33.4508,-16.5161,203.995],[33.4368,-16.5269,155.8397],[33.4353,-16.5382,196.4176],[33.4389,-16.5488,165.9805],[33.4431,-16.5804,185.3555],[33.44,-16.5898,168.6593],[33.4203,-16.6118,189.9913],[33.3963,-16.6342,196.1637],[33.3934,-16.6399,196.3484],[33.3926,-16.6552,194.4903],[33.3887,-16.6624,195.1719],[33.3812,-16.6667,183.9555],[33.3751,-16.6813,187.2828],[33.3685,-16.6897,196.0482],[33.3599,-16.694,200.4674],[33.3355,-16.7002,194.8021],[33.3268,-16.7124,194.875],[33.3139,-16.7394,202.8731],[33.2975,-16.7614,205.303],[33.2916,-16.7873,235.6],[33.2843,-16.8073,215.8272],[33.2841,-16.8314,217.2368],[33.2789,-16.8573,224.1727],[33.254,-16.8805,249.6163],[33.2475,-16.8883,259.3756],[33.2397,-16.9021,279.722],[33.2264,-16.9338,298.3426],[33.2238,-16.9468,314.9149],[33.2165,-16.9563,334.7495],[33.2153,-16.9656,317.9614],[33.2166,-16.9759,357.797],[33.2134,-16.9837,334.3069],[33.2,-16.9964,345.5056],[33.1506,-17.0306,387.259],[33.1429,-17.0387,395.0348],[33.1402,-17.0709,416.4437],[33.1312,-17.0754,431.3293],[33.1271,-17.083,436.3819],[33.125,-17.0918,426.4617],[33.1129,-17.101,435.8024],[33.1058,-17.104,433.8055],[33.1051,-17.1103,445.5517],[33.1123,-17.1242,452.7922],[33.1159,-17.1289,451.5562],[33.1234,-17.1324,455.8656],[33.1235,-17.1374,464.2438],[33.111,-17.1502,463.4871],[33.1066,-17.1562,459.9479],[33.1057,-17.1626,474.2065],[33.1027,-17.1681,473.1443],[33.0948,-17.1752,463.2201],[33.0928,-17.1795,465.8199],[33.0903,-17.1952,471.1352],[33.091,-17.2204,479.9287],[33.0893,-17.2328,488.7999],[33.087,-17.2367,489.7043],[33.1079,-17.261,504.5095],[33.1232,-17.2668,538.4915],[33.1286,-17.2673,552.9222],[33.1346,-17.2716,540.0649],[33.1372,-17.2804,541.2118],[33.1314,-17.2856,543.001],[33.1273,-17.3017,558.9868],[33.1275,-17.3074,562.4863],[33.1447,-17.3127,574.4658],[33.1646,-17.3377,599.5732],[33.1665,-17.3463,591.6036],[33.1776,-17.3489,598.3945],[33.1836,-17.3556,602.9047],[33.2062,-17.361,624.8177],[33.2267,-17.3591,639.0355],[33.2585,-17.4304,693.6702],[33.2673,-17.4401,699.1204],[33.2952,-17.4594,720.5292],[33.3038,-17.459,720.8721],[33.3376,-17.4897,772.7396],[33.3443,-17.4984,788.7733]]]]}
,"properties": {"GID_2": "MOZ.4.3_1","GID_0": "MOZ","country": "Mozambique","GID_1": "MOZ.4_1","province": "Manica","NL_NAME_1": "NA","county": "Guro","VARNAME_2": "NA","NL_NAME_2": "NA","TYPE_2": "Distrito","ENGTYPE_2": "District","CC_2": "NA","HASC_2": "MZ.MN.GU","name": "Guro.county","area_km2": 6957.557,"hist_schema_id": "Elevation0-9000","hist_area_km2": {"100": 38.482,"125": 92.427,"150": 125.329,"175": 114.788,"200": 130.734,"225": 152.604,"250": 186.415,"275": 210.28,"300": 227.455,"325": 256.14,"350": 305.161,"375": 364.038,"400": 432.811,"425": 462.443,"450": 424.592,"475": 452.644,"500": 504.026,"525": 428.726,"550": 335.678,"575": 278.321,"600": 247.171,"625": 226.082,"650": 230.756,"675": 246.235,"700": 163.866,"725": 116.287,"750": 75.935,"775": 48.778,"800": 23.775,"825": 12.447,"850": 9.553,"875": 7.53,"900": 7.105,"925": 5.546,"950": 4.595,"975": 3.036,"1000": 2.105,"1025": 0.931,"1050": 0.87,"1075": 0.465,"1100": 0.425,"1125": 0.303,"1150": 0.101,"1175": 0.142,"1200": 0.243,"1225": 0.101,"1250": 0.081}}}