{"type": "Feature","bbox": [39.7181,-12.4979,40.6349,-11.6726],"geometry": {"type": "MultiPolygon","coordinates": [[[[40.6007,-12.4904,0.0],[40.5993,-12.4896,0.0],[40.5993,-12.4932,0.0],[40.6029,-12.4954,7.6823],[40.6012,-12.4979,4.431],[40.6082,-12.4954,0.0],[40.6074,-12.4949,0.0],[40.606,-12.4957,1.1408],[40.6051,-12.4918,0.9576],[40.6007,-12.4904,0.0]]],
[[[40.631,-12.4724,0.0],[40.6296,-12.4718,0.0],[40.6315,-12.4765,7.1903],[40.6288,-12.4776,0.0],[40.6279,-12.486,5.6488],[40.6324,-12.4876,4.8264],[40.6343,-12.4812,1.8739],[40.6324,-12.4779,7.1903],[40.6349,-12.4754,5.1287],[40.6349,-12.4726,0.8179],[40.631,-12.4724,0.0]]],
[[[40.6079,-12.469,0.0],[40.6068,-12.4671,0.0],[40.6054,-12.4685,0.0],[40.6063,-12.4693,0.0],[40.6079,-12.469,0.0]]],
[[[40.6254,-12.4346,0.0],[40.6254,-12.4335,0.0],[40.6229,-12.4343,0.0],[40.6229,-12.436,0.0],[40.6243,-12.4349,0.0],[40.6254,-12.4346,0.0]]],
[[[40.5971,-12.4049,4.0222],[40.5951,-12.404,0.5556],[40.5901,-12.4065,2.7415],[40.5887,-12.4254,1.2068],[40.5935,-12.4315,3.1387],[40.5935,-12.4388,2.1522],[40.596,-12.4446,0.4394],[40.5951,-12.451,1.6298],[40.5971,-12.4515,1.838],[40.5974,-12.4587,0.0],[40.601,-12.4615,0.0],[40.6099,-12.4626,4.2634],[40.616,-12.4562,3.7212],[40.6176,-12.4512,2.56],[40.6182,-12.4332,4.6582],[40.6162,-12.4285,5.4284],[40.6174,-12.4196,0.8186],[40.5971,-12.4049,4.0222]]],
[[[40.5985,-12.3982,0.0],[40.5985,-12.3971,0.2723],[40.594,-12.3971,0.0],[40.5946,-12.3982,0.0],[40.5985,-12.3982,0.0]]],
[[[40.6124,-12.3715,0.0],[40.6113,-12.3701,0.0],[40.6107,-12.3724,0.0],[40.6132,-12.3735,0.0],[40.6132,-12.3726,0.0],[40.6124,-12.3715,0.0]]],
[[[40.6143,-12.3229,0.0],[40.6126,-12.3221,0.0],[40.6207,-12.331,0.0],[40.6201,-12.3282,0.0],[40.6143,-12.3229,0.0]]],
[[[40.5826,-12.1818,0.5728],[40.5804,-12.181,0.0],[40.5754,-12.1829,0.0],[40.5726,-12.1871,0.0],[40.5676,-12.1879,0.0],[40.5665,-12.1921,4.1893],[40.5612,-12.194,0.0],[40.5593,-12.1965,1.1645],[40.5696,-12.2029,3.2828],[40.571,-12.2082,0.0],[40.5762,-12.2132,0.0],[40.5782,-12.2201,0.0],[40.5815,-12.2226,0.0],[40.5854,-12.2326,2.4411],[40.5857,-12.2421,1.6333],[40.5821,-12.2471,1.5484],[40.5876,-12.2532,0.0],[40.5915,-12.2537,0.0],[40.6026,-12.2476,0.0],[40.6076,-12.2429,5.1857],[40.6104,-12.2376,8.4717],[40.6168,-12.2326,0.0],[40.6168,-12.2307,0.0],[40.6132,-12.2262,0.0],[40.6129,-12.2085,0.0],[40.6093,-12.201,0.0],[40.5965,-12.1854,0.0],[40.5921,-12.1832,0.0],[40.5896,-12.184,0.0],[40.5868,-12.1818,0.0],[40.5826,-12.1818,0.5728]]],
[[[40.5638,-12.1457,2.0598],[40.5632,-12.1443,0.0],[40.5604,-12.1451,2.7721],[40.5568,-12.1507,0.0],[40.5599,-12.1496,0.0],[40.5638,-12.1457,2.0598]]],
[[[40.5465,-12.0443,3.5975],[40.5412,-12.0443,0.9611],[40.5415,-12.0479,6.985],[40.5451,-12.0479,1.4943],[40.5474,-12.0451,0.0],[40.5465,-12.0443,3.5975]]],
[[[40.5532,-12.0451,0.0],[40.5526,-12.0429,0.0],[40.5501,-12.0435,0.0],[40.5496,-12.0454,0.0],[40.551,-12.0446,0.2832],[40.551,-12.0457,0.2832],[40.5496,-12.0482,0.0],[40.5504,-12.0482,0.0],[40.5532,-12.0451,0.0]]],
[[[40.6226,-12.2315,1.2852],[40.6218,-12.231,0.0],[40.6146,-12.2362,0.0],[40.6224,-12.2365,0.0],[40.6226,-12.2315,1.2852]]],
[[[40.594,-12.0068,0.0],[40.5929,-12.0063,0.0],[40.5915,-12.0096,0.0],[40.5929,-12.0088,0.0],[40.594,-12.0068,0.0]]],
[[[40.6093,-11.8165,0.0],[40.6093,-11.8146,0.7403],[40.6026,-11.8149,1.7517],[40.6029,-11.8165,5.4729],[40.5993,-11.8179,0.0],[40.606,-11.8182,0.0],[40.6093,-11.8165,0.0]]],
[[[40.4876,-12.3862,0.5],[40.4888,-12.3776,1.864],[40.4954,-12.3735,0.0],[40.4976,-12.3699,0.0],[40.4979,-12.3654,0.0],[40.4943,-12.3643,0.8896],[40.4924,-12.3665,0.5774],[40.4907,-12.3743,0.9731],[40.4888,-12.376,1.9028],[40.491,-12.3665,3.1427],[40.494,-12.3629,3.996],[40.5024,-12.3596,0.3141],[40.5057,-12.3474,0.0],[40.5035,-12.3418,3.3625],[40.4985,-12.3418,2.3912],[40.4946,-12.3449,3.1796],[40.4899,-12.3457,1.7628],[40.4874,-12.3457,1.8556],[40.4849,-12.3429,3.3828],[40.4899,-12.3449,1.7628],[40.5013,-12.3399,1.2872],[40.5088,-12.3407,0.8951],[40.5076,-12.3321,4.1735],[40.511,-12.3279,5.8535],[40.514,-12.3276,0.0],[40.5146,-12.3251,0.0],[40.5051,-12.3137,1.3839],[40.5051,-12.304,0.4868],[40.5001,-12.2954,1.0354],[40.5001,-12.2846,1.1145],[40.496,-12.2779,0.0],[40.4837,-12.274,0.5981],[40.4776,-12.2751,4.1357],[40.4771,-12.2732,1.9204],[40.4718,-12.271,0.0],[40.4707,-12.2679,0.0],[40.4657,-12.2687,2.5844],[40.4626,-12.2674,0.5],[40.4643,-12.266,0.5],[40.459,-12.2607,2.4398],[40.4576,-12.2415,1.4464],[40.4624,-12.2318,1.5],[40.4646,-12.2312,2.7488],[40.466,-12.2329,1.9736],[40.4685,-12.2307,4.2802],[40.4671,-12.229,0.5],[40.4632,-12.2304,1.1391],[40.4624,-12.2276,7.2788],[40.4637,-12.2296,1.1391],[40.4685,-12.2279,5.9399],[40.469,-12.2318,2.5443],[40.4654,-12.2354,2.2989],[40.4635,-12.2343,0.5],[40.4621,-12.236,0.5],[40.4635,-12.2401,2.1378],[40.4626,-12.2476,6.2541],[40.4682,-12.2526,1.4128],[40.4718,-12.2599,0.8676],[40.4763,-12.2629,1.5132],[40.4804,-12.2704,0.4532],[40.4857,-12.2721,0.0],[40.4912,-12.2712,3.6397],[40.4932,-12.2687,4.6886],[40.4935,-12.2629,1.099],[40.4965,-12.2554,0.0],[40.5049,-12.244,0.0],[40.5096,-12.2265,1.5504],[40.5079,-12.2193,0.0],[40.499,-12.2207,0.7437],[40.5013,-12.2182,1.2164],[40.4987,-12.2182,1.4375],[40.4987,-12.2146,0.973],[40.4949,-12.2118,3.5152],[40.4899,-12.2115,3.1173],[40.4943,-12.2107,2.546],[40.4949,-12.209,3.7577],[40.4976,-12.2132,0.875],[40.4987,-12.2118,2.1114],[40.5001,-12.2143,2.5126],[40.5029,-12.214,3.2497],[40.5065,-12.2104,1.8821],[40.5143,-12.2074,0.0],[40.5157,-12.2046,1.9873],[40.5124,-12.199,3.1418],[40.5124,-12.1957,1.0947],[40.4951,-12.169,5.4612],[40.4888,-12.1537,2.9776],[40.4876,-12.1474,0.0],[40.489,-12.1362,6.0763],[40.5118,-12.0901,5.3889],[40.5115,-12.0804,3.3494],[40.5043,-12.0746,2.7345],[40.5013,-12.0621,0.0],[40.4993,-12.0607,2.2335],[40.4996,-12.0457,0.0],[40.5018,-12.0385,1.6738],[40.506,-12.0318,0.0],[40.5101,-12.0287,0.0],[40.5096,-12.026,5.3397],[40.5174,-12.0157,6.1121],[40.5404,-12.0001,3.173],[40.5488,-12.0015,0.0],[40.5535,-11.9982,0.0],[40.5418,-11.9987,4.5895],[40.5251,-11.9912,0.5065],[40.5249,-11.9876,0.0],[40.5088,-11.9768,2.8084],[40.5018,-11.9701,2.4461],[40.5001,-11.9682,3.119],[40.5015,-11.9662,0.0],[40.4918,-11.9499,1.6551],[40.4879,-11.9301,0.0],[40.4854,-11.9324,1.1915],[40.4843,-11.9263,2.5307],[40.4824,-11.9243,4.2005],[40.4843,-11.9157,1.2509],[40.4821,-11.8996,1.585],[40.4843,-11.8874,5.7524],[40.4874,-11.8799,0.0],[40.501,-11.8632,2.5038],[40.5113,-11.8585,0.0],[40.5149,-11.854,0.0],[40.5057,-11.8474,0.0],[40.4926,-11.846,0.0],[40.484,-11.8421,2.4293],[40.4701,-11.8299,1.9243],[40.4654,-11.8218,2.591],[40.4637,-11.8146,1.0372],[40.4613,-11.8154,0.5295],[40.4604,-11.8082,0.0],[40.4613,-11.8007,0.0],[40.4635,-11.7996,0.0],[40.4637,-11.7976,0.0],[40.4663,-11.7979,0.0],[40.4665,-11.7918,0.1387],[40.4701,-11.786,0.0],[40.4682,-11.7835,0.355],[40.469,-11.7782,0.0],[40.4601,-11.7729,1.3027],[40.461,-11.7726,3.3711],[40.4629,-11.774,0.6302],[40.4649,-11.7735,0.0],[40.4621,-11.7707,1.7982],[40.4643,-11.7696,0.0],[40.4657,-11.764,0.616],[40.4637,-11.754,0.7887],[40.4654,-11.7429,0.0],[40.4599,-11.7451,1.5271],[40.4493,-11.7449,3.1498],[40.4388,-11.7351,1.9059],[40.4371,-11.7287,0.0],[40.4349,-11.7268,0.0],[40.4365,-11.7254,0.0],[40.439,-11.7163,0.0],[40.4396,-11.706,0.0],[40.4354,-11.7032,2.6492],[40.4338,-11.7049,6.6885],[40.4346,-11.7099,5.1184],[40.4335,-11.709,5.5089],[40.4332,-11.7032,1.7519],[40.4362,-11.7029,0.8523],[40.4388,-11.6999,0.0],[40.4351,-11.694,0.0],[40.4315,-11.6935,0.0],[40.4251,-11.699,0.0],[40.4207,-11.6999,4.7228],[40.4201,-11.7018,2.0692],[40.4224,-11.7032,0.5],[40.4221,-11.7054,4.9019],[40.416,-11.7057,3.981],[40.4176,-11.7043,3.8825],[40.4207,-11.7046,2.7717],[40.4193,-11.699,0.5],[40.4238,-11.6985,0.0],[40.4265,-11.6962,0.0],[40.426,-11.6946,0.0],[40.4315,-11.6912,4.8026],[40.4399,-11.691,0.1429],[40.4429,-11.6865,1.2063],[40.4404,-11.6815,3.6083],[40.4432,-11.6796,1.473],[40.4418,-11.6757,1.5449],[40.4246,-11.6754,1.0],[40.4162,-11.6804,2.0385],[40.4243,-11.6737,3.5787],[40.4326,-11.6726,10.18],[40.4222,-11.6728,8.989],[40.4051,-11.6772,9.941],[40.3976,-11.6811,3.7457],[40.3915,-11.6809,4.5528],[40.3872,-11.6872,3.4993],[40.3816,-11.6916,4.0624],[40.3597,-11.6806,4.2173],[40.3516,-11.6798,4.654],[40.3463,-11.6749,5.6767],[40.3383,-11.6727,15.9936],[40.3314,-11.6791,8.7839],[40.3291,-11.6859,8.3304],[40.3213,-11.6958,9.1575],[40.3079,-11.7073,14.8313],[40.3011,-11.7002,12.3592],[40.2955,-11.6991,23.9474],[40.2959,-11.7119,11.6303],[40.294,-11.7201,15.4708],[40.2794,-11.7198,17.2864],[40.2771,-11.7243,13.1108],[40.275,-11.7349,14.2298],[40.2777,-11.7442,24.0726],[40.2733,-11.7428,14.2792],[40.2489,-11.7428,66.224],[40.2336,-11.7368,37.0714],[40.2223,-11.7354,29.9633],[40.2024,-11.719,52.5365],[40.198,-11.7219,23.023],[40.1906,-11.7232,25.765],[40.1815,-11.7273,30.0016],[40.1762,-11.7196,29.6687],[40.1481,-11.7278,27.4306],[40.1282,-11.7303,34.0372],[40.1274,-11.7345,28.8686],[40.1358,-11.7428,27.9385],[40.1395,-11.7571,47.4142],[40.1374,-11.7779,28.3146],[40.1313,-11.8077,32.2164],[40.1175,-11.8293,33.8163],[40.0931,-11.8501,40.4988],[40.0582,-11.8718,44.1724],[40.0185,-11.8913,50.2027],[39.9822,-11.9145,55.0712],[39.922,-11.9396,69.4152],[39.9067,-11.9575,75.0746],[39.8854,-11.9784,76.0984],[39.8701,-11.9993,72.5],[39.8285,-12.0348,82.3581],[39.7956,-12.0478,86.941],[39.7799,-12.0574,88.585],[39.7669,-12.0685,91.385],[39.756,-12.0753,95.3556],[39.7353,-12.0736,95.5317],[39.7417,-12.1059,126.1694],[39.7368,-12.1161,119.7141],[39.7246,-12.1285,145.1879],[39.7248,-12.1359,151.0166],[39.7211,-12.1515,157.6347],[39.7207,-12.1628,164.2197],[39.7243,-12.1946,199.8392],[39.7181,-12.2049,233.5985],[39.7286,-12.2176,243.9751],[39.7351,-12.2284,252.0485],[39.7588,-12.2398,309.2056],[39.8487,-12.2695,296.0396],[39.8879,-12.2733,282.1529],[39.9042,-12.2794,282.7845],[39.9257,-12.2911,247.1095],[39.9397,-12.3057,225.8354],[39.9852,-12.2614,350.8198],[40.0005,-12.2525,371.8873],[40.0738,-12.2854,318.1526],[40.1266,-12.3672,383.4727],[40.1932,-12.3664,155.2849],[40.2362,-12.3951,241.1261],[40.2459,-12.403,236.0199],[40.2575,-12.4171,181.2404],[40.2874,-12.4331,130.5797],[40.2996,-12.438,139.5536],[40.3335,-12.4452,79.6765],[40.344,-12.4489,72.5406],[40.3575,-12.4577,58.6537],[40.3984,-12.4602,37.2512],[40.4045,-12.4572,32.9572],[40.4131,-12.4585,30.9813],[40.4219,-12.4644,23.8211],[40.44,-12.4709,18.4099],[40.4463,-12.4727,12.0684],[40.4525,-12.472,10.6916],[40.4512,-12.4712,9.7751],[40.4577,-12.4662,6.9356],[40.4572,-12.4632,4.9618],[40.4521,-12.4573,18.3939],[40.4562,-12.4522,7.2895],[40.4621,-12.4518,8.6196],[40.4697,-12.4552,3.4412],[40.4714,-12.4508,13.0344],[40.4738,-12.451,11.9267],[40.475,-12.4551,2.4644],[40.4777,-12.4571,2.4924],[40.4884,-12.4537,9.0648],[40.4954,-12.4599,0.0],[40.499,-12.446,1.9383],[40.499,-12.4424,1.5044],[40.4963,-12.4388,3.278],[40.4999,-12.4401,0.0],[40.5115,-12.4301,4.0216],[40.524,-12.4268,0.9517],[40.5332,-12.4187,1.3685],[40.5363,-12.4185,0.8237],[40.5418,-12.4157,0.6735],[40.5426,-12.4137,2.9524],[40.5507,-12.4107,1.3911],[40.551,-12.4085,0.0],[40.5604,-12.4026,4.1493],[40.5685,-12.4015,0.0],[40.5704,-12.3987,0.9984],[40.5615,-12.3888,0.5894],[40.5604,-12.3846,1.9997],[40.5557,-12.3838,3.1989],[40.5543,-12.3818,1.5081],[40.5529,-12.3818,0.0],[40.5507,-12.391,1.5374],[40.5507,-12.3879,0.8501],[40.549,-12.3865,0.8501],[40.5499,-12.3812,0.0],[40.5471,-12.3815,3.5041],[40.5407,-12.3762,0.0],[40.5388,-12.3771,2.622],[40.5418,-12.3826,2.9471],[40.5407,-12.3838,4.5348],[40.5407,-12.3824,2.9471],[40.5388,-12.3824,0.618],[40.541,-12.3865,3.8621],[40.5382,-12.386,0.0],[40.5401,-12.3888,3.3029],[40.5385,-12.3979,4.2418],[40.5382,-12.3971,4.2418],[40.5388,-12.391,2.0648],[40.5343,-12.384,0.7998],[40.531,-12.3868,1.5044],[40.524,-12.3871,0.4564],[40.5229,-12.3943,2.5274],[40.5249,-12.3974,1.4018],[40.5213,-12.394,2.0889],[40.5213,-12.3854,5.0529],[40.5199,-12.3838,0.9845],[40.5118,-12.3838,0.0],[40.5085,-12.3871,1.8457],[40.5085,-12.3846,0.303],[40.506,-12.3835,0.7685],[40.5057,-12.3874,3.0364],[40.5015,-12.3829,0.0],[40.4954,-12.3843,0.5],[40.4912,-12.3882,1.0],[40.4874,-12.3979,3.6421],[40.4765,-12.3965,3.2824],[40.4776,-12.3946,1.5],[40.4779,-12.3957,1.5],[40.4807,-12.3949,1.5],[40.4832,-12.3968,1.5],[40.4857,-12.3965,1.5],[40.4876,-12.3862,0.5]]],
[[[40.4901,-12.3876,1.706],[40.4915,-12.3871,1.4018],[40.4929,-12.3849,2.7318],[40.4904,-12.3862,0.5],[40.4901,-12.3876,1.706]]],
[[[40.5201,-12.3821,0.0],[40.5204,-12.3812,0.0],[40.5185,-12.3807,0.3903],[40.5185,-12.3832,0.9845],[40.5201,-12.3821,0.0]]],
[[[40.5343,-12.3793,0.615],[40.5285,-12.3785,1.5164],[40.5271,-12.3807,0.5859],[40.5299,-12.3835,0.0],[40.534,-12.3824,2.7061],[40.536,-12.3835,0.0],[40.5343,-12.3793,0.615]]],
[[[40.5496,-12.379,0.0],[40.5488,-12.3774,0.0],[40.5479,-12.3776,0.0],[40.5482,-12.3796,0.0],[40.5496,-12.379,0.0]]],
[[[40.6001,-12.3265,3.2637],[40.5988,-12.3257,0.0],[40.5949,-12.331,2.566],[40.581,-12.3382,0.0],[40.5824,-12.341,2.9346],[40.5812,-12.3454,0.0],[40.5874,-12.3454,2.4538],[40.5935,-12.3507,2.5096],[40.5904,-12.354,0.0],[40.5918,-12.3604,2.0121],[40.589,-12.3588,0.4849],[40.5871,-12.3599,3.1771],[40.5824,-12.3512,0.0],[40.5801,-12.3535,3.2371],[40.5782,-12.3532,1.4416],[40.5799,-12.3588,2.097],[40.5743,-12.3574,1.6844],[40.5724,-12.3479,0.8503],[40.5679,-12.3399,1.2731],[40.5671,-12.3435,2.6576],[40.5632,-12.3451,0.0],[40.5557,-12.354,0.7211],[40.554,-12.3532,1.2753],[40.5496,-12.3557,1.5865],[40.5449,-12.3607,2.3603],[40.5446,-12.3632,0.0],[40.5468,-12.3665,0.0],[40.559,-12.371,0.9979],[40.5596,-12.3746,0.0],[40.566,-12.3757,0.0],[40.5676,-12.3735,3.186],[40.5696,-12.3754,1.4133],[40.5782,-12.3757,1.0684],[40.571,-12.3804,1.7557],[40.5612,-12.3787,0.0],[40.5663,-12.3876,3.5972],[40.5704,-12.389,2.9169],[40.5721,-12.3926,2.943],[40.5721,-12.399,1.908],[40.574,-12.4035,3.8702],[40.5721,-12.4079,1.4204],[40.5821,-12.399,3.8708],[40.5835,-12.396,6.7106],[40.5874,-12.3962,5.7174],[40.5943,-12.3926,3.0647],[40.5949,-12.394,6.5676],[40.5938,-12.3957,1.0945],[40.6001,-12.3951,2.1553],[40.601,-12.3926,0.0],[40.5965,-12.3896,1.031],[40.591,-12.3907,1.167],[40.5904,-12.3935,4.217],[40.5899,-12.391,6.3426],[40.5993,-12.3854,2.8796],[40.5999,-12.3835,2.735],[40.5985,-12.3824,2.0189],[40.6093,-12.3735,0.0],[40.6135,-12.364,2.101],[40.6162,-12.3668,0.0],[40.6204,-12.3646,0.0],[40.6196,-12.3535,0.0],[40.6168,-12.3479,2.6237],[40.621,-12.349,0.0],[40.621,-12.3468,0.0],[40.6176,-12.3399,1.5329],[40.6249,-12.3374,2.8431],[40.6246,-12.3329,0.7303],[40.6232,-12.331,0.0],[40.6204,-12.3335,0.0],[40.6093,-12.3321,0.0],[40.6001,-12.3265,3.2637]]],
[[[40.531,-12.3632,0.0],[40.5313,-12.359,0.0],[40.5296,-12.3582,0.5611],[40.5288,-12.3607,1.7699],[40.531,-12.3632,0.0]]],
[[[40.4943,-12.3796,5.1286],[40.494,-12.3765,1.7468],[40.4954,-12.3754,0.0],[40.4929,-12.3754,1.3201],[40.4899,-12.379,3.0111],[40.4904,-12.3843,0.9386],[40.4935,-12.3824,1.5667],[40.4943,-12.3796,5.1286]]],
[[[40.5015,-12.3754,5.7197],[40.501,-12.3737,0.0],[40.4987,-12.3768,4.9481],[40.4971,-12.3765,2.6337],[40.4951,-12.3815,1.5667],[40.4999,-12.3793,1.3851],[40.5015,-12.3754,5.7197]]],
[[[40.4629,-12.2551,0.5],[40.4607,-12.254,0.5],[40.4615,-12.261,2.4487],[40.4668,-12.2626,1.3202],[40.4674,-12.2615,1.3202],[40.4629,-12.2551,0.5]]],
[[[40.536,-12.0174,2.5285],[40.5343,-12.0168,0.0],[40.5337,-12.0185,0.0],[40.5371,-12.0204,0.8564],[40.5399,-12.019,0.0],[40.5396,-12.0179,0.0],[40.536,-12.0174,2.5285]]],
[[[40.5735,-11.974,0.9866],[40.5674,-11.9735,1.888],[40.5676,-11.9818,0.8263],[40.5771,-11.9857,4.2374],[40.5796,-11.9926,0.0],[40.579,-12.0024,1.2135],[40.5865,-11.9954,0.0],[40.5865,-11.9935,0.0],[40.5887,-11.9937,0.0],[40.5913,-11.9871,0.0],[40.5938,-11.9857,0.0],[40.5938,-11.9796,0.0],[40.5926,-11.9768,0.0],[40.5876,-11.9743,0.0],[40.5807,-11.9757,2.6677],[40.5735,-11.974,0.9866]]],
[[[40.5671,-11.8229,0.0],[40.564,-11.8224,0.0],[40.564,-11.8246,0.0],[40.5671,-11.8243,0.0],[40.5671,-11.8229,0.0]]]]}
,"properties": {"GID_2": "MOZ.1.4_1","GID_0": "MOZ","country": "Mozambique","GID_1": "MOZ.1_1","province": "CaboDelgado","NL_NAME_1": "NA","county": "Macomia","VARNAME_2": "NA","NL_NAME_2": "NA","TYPE_2": "Distrito","ENGTYPE_2": "District","CC_2": "NA","HASC_2": "MZ.CD.MA","name": "Macomia.county","area_km2": 4815.013,"hist_schema_id": "Elevation0-9000","hist_area_km2": {"0": 433.847,"25": 524.278,"50": 553.397,"75": 534.309,"100": 506.843,"125": 399.758,"150": 299.308,"175": 256.082,"200": 240.533,"225": 232.339,"250": 226.827,"275": 199.694,"300": 101.485,"325": 54.733,"350": 39.313,"375": 24.993,"400": 18.796,"425": 18.029,"450": 18.382,"475": 21.698,"500": 28.555,"525": 25.113,"550": 16.556,"575": 12.849,"600": 13.057,"625": 8.601,"650": 5.575,"675": 0.062}}}