{"type":"Feature","properties":{"GID_3":"MOZ.10.8.3_1","GID_0":"MOZ","country":"Mozambique","GID_1":"MOZ.10_1","province":"Tete","NL_NAME_1":"NA","GID_2":"MOZ.10.8_1","county":"Maravia","NL_NAME_2":"NA","city":"Fingoe","VARNAME_3":"NA","NL_NAME_3":"NA","TYPE_3":"Localidad","ENGTYPE_3":"Locality","CC_3":"NA","HASC_3":"NA","name":"Fingoe.city"},
"geometry":{"type": "MultiPolygon","coordinates": [[[[32.2381,-15.6471,321.0],[32.2212,-15.6304,321.0],[32.1757,-15.578,321.0],[32.1433,-15.5284,321.0],[32.1432,-15.5226,322.501],[32.1519,-15.4986,357.2257],[32.1398,-15.4804,382.1208],[32.1289,-15.4706,386.6359],[32.109,-15.4568,409.3534],[32.0951,-15.4309,431.4877],[32.0839,-15.3921,480.7037],[32.0776,-15.3822,486.9843],[32.0686,-15.3589,502.2792],[32.0702,-15.3487,520.4279],[32.0747,-15.3398,534.8312],[32.0722,-15.3297,599.757],[32.0742,-15.3244,629.8214],[32.0734,-15.3138,641.1698],[32.0765,-15.307,655.1076],[32.0844,-15.3019,708.6583],[32.1214,-15.2898,714.6989],[32.143,-15.2788,747.4891],[32.1581,-15.2672,707.9306],[32.1683,-15.2407,636.827],[32.1767,-15.2372,627.0964],[32.1846,-15.237,629.5558],[32.1885,-15.234,615.4689],[32.1946,-15.2207,602.7057],[32.1911,-15.2155,632.9169],[32.1926,-15.2093,664.2386],[32.2038,-15.1985,692.6355],[32.2014,-15.1921,713.8776],[32.2031,-15.1797,720.4503],[32.1988,-15.177,723.7249],[32.1984,-15.1734,732.7541],[32.1759,-15.1543,734.9875],[32.1575,-15.1523,748.5178],[32.1526,-15.144,750.5399],[32.1465,-15.1275,779.4855],[32.0864,-15.1123,805.7534],[32.0546,-15.1086,814.1481],[32.0447,-15.1075,807.5193],[32.0304,-15.1149,828.395],[32.0001,-15.0934,939.7939],[31.9817,-15.0872,903.1014],[31.9786,-15.0823,894.09],[31.9736,-15.0806,896.8818],[31.9671,-15.0823,900.6865],[31.9502,-15.0748,930.2531],[31.9407,-15.0728,936.6697],[31.9208,-15.0703,986.8005],[31.9011,-15.0702,964.6083],[31.8967,-15.0662,965.2657],[31.8931,-15.0547,972.5106],[31.8892,-15.0488,979.0599],[31.8833,-15.0466,990.5899],[31.8832,-15.0336,1000.2687],[31.8915,-15.0089,1019.7842],[31.8935,-14.9973,1038.1606],[31.8908,-14.9777,1070.0406],[31.885,-14.9584,1077.9668],[31.8846,-14.9444,1119.8623],[31.874,-14.9322,1116.7743],[31.8684,-14.9304,1111.7505],[31.8607,-14.9253,1110.0803],[31.8291,-14.893,1081.5657],[31.8142,-14.8853,1082.9033],[31.7241,-14.9413,1001.3882],[31.7103,-14.9614,960.8737],[31.6957,-14.9747,935.2482],[31.6861,-14.9771,945.8353],[31.6753,-15.0042,912.9076],[31.6829,-15.0172,919.8552],[31.6839,-15.0217,903.6555],[31.684,-15.0256,904.8022],[31.6791,-15.033,898.4019],[31.6782,-15.0407,895.4997],[31.5904,-15.0867,958.3611],[31.5854,-15.0946,942.6979],[31.5753,-15.1033,913.4214],[31.5556,-15.111,890.002],[31.5518,-15.1078,882.5225],[31.5449,-15.0956,865.6342],[31.5316,-15.099,849.7692],[31.526,-15.0982,850.1752],[31.5148,-15.1019,834.5873],[31.5031,-15.1036,833.2949],[31.4975,-15.1063,829.0942],[31.4908,-15.1056,818.4334],[31.4763,-15.098,810.1298],[31.4735,-15.1068,806.2234],[31.4626,-15.1066,793.9139],[31.4594,-15.1041,784.5795],[31.4599,-15.1097,796.3784],[31.4692,-15.1262,781.6679],[31.4654,-15.1329,774.6935],[31.4458,-15.1522,782.1514],[31.4491,-15.1705,769.2353],[31.4391,-15.1881,754.8058],[31.4513,-15.2044,750.4273],[31.437,-15.228,768.9898],[31.4284,-15.2319,737.6176],[31.4254,-15.235,736.5822],[31.4301,-15.2432,739.9113],[31.4375,-15.2463,786.7229],[31.438,-15.2512,739.0161],[31.453,-15.2701,742.2556],[31.4499,-15.2775,701.0095],[31.4465,-15.2811,699.1337],[31.4554,-15.2921,697.1057],[31.4494,-15.3428,772.9752],[31.4459,-15.3484,676.3585],[31.4548,-15.3707,647.5051],[31.4701,-15.3985,591.4577],[31.492,-15.4208,569.239],[31.5065,-15.4303,565.5178],[31.5142,-15.4416,672.3864],[31.5378,-15.4877,517.0032],[31.5451,-15.4978,486.2465],[31.556,-15.508,491.4719],[31.5735,-15.5028,470.1356],[31.5886,-15.5181,403.7247],[31.5945,-15.5322,394.5773],[31.598,-15.5473,380.1749],[31.6044,-15.5607,372.5446],[31.6064,-15.5717,378.8618],[31.6143,-15.5966,351.3372],[31.6268,-15.6277,321.0],[31.6234,-15.6394,321.0],[31.6112,-15.6522,321.0],[31.6025,-15.6679,321.0],[31.6072,-15.6792,321.0],[31.6285,-15.6873,321.0],[31.66,-15.6944,321.0],[31.6925,-15.6966,321.0],[31.7366,-15.692,321.0],[31.813,-15.678,321.0],[31.8552,-15.6766,321.0],[31.9449,-15.6806,321.0],[31.9996,-15.6856,321.0],[32.0466,-15.6919,321.0],[32.1045,-15.6887,321.0],[32.1657,-15.6741,321.0],[32.2381,-15.6471,321.0]]]]}}