{"type": "Feature","bbox": [33.2612,-24.8737,33.9582,-23.6551],"geometry": {"type": "MultiPolygon","coordinates": [[[[33.5186,-24.7938,12.4792],[33.5229,-24.8018,5.5986],[33.5353,-24.8071,9.3909],[33.5837,-24.8193,4.7764],[33.5866,-24.8503,3.9682],[33.5963,-24.8644,7.5298],[33.6112,-24.871,5.5755],[33.6278,-24.8737,5.4341],[33.636,-24.8723,5.3154],[33.6385,-24.8683,5.1984],[33.6378,-24.8619,5.6238],[33.6627,-24.8427,33.0872],[33.671,-24.8335,13.5216],[33.6723,-24.8269,14.479],[33.6804,-24.8207,22.5525],[33.6935,-24.8169,24.0578],[33.7031,-24.8113,36.7275],[33.7146,-24.8103,42.1029],[33.7215,-24.8124,24.2787],[33.7284,-24.8089,38.3174],[33.7325,-24.8087,34.9926],[33.7459,-24.8107,69.0197],[33.7562,-24.82,60.5121],[33.7588,-24.8244,62.8267],[33.7696,-24.826,55.5658],[33.78,-24.8224,70.7558],[33.7873,-24.8137,74.4029],[33.835,-24.7365,76.8846],[33.8231,-24.7034,80.3123],[33.8079,-24.7022,83.1581],[33.8145,-24.6986,82.2571],[33.8187,-24.6875,80.1139],[33.8234,-24.6835,79.6762],[33.8321,-24.6688,75.5767],[33.8296,-24.6614,69.1593],[33.8229,-24.653,69.2835],[33.8175,-24.6404,67.8268],[33.8166,-24.6332,64.7479],[33.8209,-24.6298,66.5404],[33.8269,-24.6327,66.3219],[33.834,-24.6322,66.4315],[33.8363,-24.6286,62.7149],[33.8397,-24.5961,56.0382],[33.8422,-24.5889,56.4157],[33.8486,-24.5788,60.954],[33.8608,-24.5693,56.3795],[33.8567,-24.5467,97.6599],[33.8527,-24.5415,100.1434],[33.8372,-24.5289,66.4029],[33.8292,-24.51,66.6529],[33.8341,-24.4951,73.5125],[33.8328,-24.4859,82.2985],[33.8369,-24.4548,96.2584],[33.8303,-24.4045,73.763],[33.8313,-24.272,56.8537],[33.8367,-24.1655,41.7198],[33.8399,-24.1457,40.9793],[33.8406,-24.1136,21.2521],[33.8433,-24.1062,16.0069],[33.8509,-24.0963,19.5342],[33.8671,-24.0973,18.6439],[33.8841,-24.0936,20.003],[33.8955,-24.1001,21.034],[33.9048,-24.0912,18.7609],[33.9089,-24.0814,21.4675],[33.921,-24.0825,18.2141],[33.9306,-24.0879,22.0465],[33.938,-24.0848,24.1039],[33.9456,-24.0776,20.8069],[33.9416,-24.072,38.0719],[33.9376,-24.0617,29.8293],[33.9341,-24.0475,22.9925],[33.9312,-24.042,25.1539],[33.9275,-24.0236,29.0593],[33.9319,-24.0208,24.6946],[33.9339,-24.0135,21.5615],[33.9276,-24.0068,25.6385],[33.9278,-24.0032,27.038],[33.9337,-23.9976,24.8353],[33.9377,-23.9912,29.9961],[33.9349,-23.9859,21.0589],[33.9258,-23.985,20.5166],[33.9255,-23.9793,24.8357],[33.9317,-23.9628,21.583],[33.9333,-23.9526,30.4575],[33.9266,-23.9373,26.4914],[33.9198,-23.907,23.3312],[33.9201,-23.8979,23.6125],[33.9174,-23.8921,27.0997],[33.9156,-23.8803,24.3242],[33.9196,-23.8807,26.3428],[33.9382,-23.8708,27.3145],[33.9397,-23.8623,26.6098],[33.9356,-23.8574,25.733],[33.9265,-23.8516,27.6434],[33.9263,-23.8443,27.1078],[33.9153,-23.8372,24.9447],[33.9289,-23.8227,25.7734],[33.9281,-23.8134,26.1836],[33.9308,-23.8036,26.3747],[33.9287,-23.7922,27.1246],[33.9182,-23.774,29.0325],[33.9239,-23.7699,30.128],[33.9282,-23.7627,28.4441],[33.9286,-23.7506,28.7852],[33.9361,-23.727,34.2346],[33.9338,-23.7187,33.9811],[33.9582,-23.7086,36.2479],[33.9477,-23.6859,33.3791],[33.9418,-23.6847,34.5659],[33.9419,-23.6768,34.6329],[33.9376,-23.6633,35.6774],[33.9294,-23.6551,30.7874],[33.9225,-23.6603,31.165],[33.9044,-23.669,31.2994],[33.8963,-23.6666,29.2713],[33.8935,-23.6626,29.7635],[33.6895,-23.9422,35.4298],[33.6751,-23.9467,33.1303],[33.6634,-23.9422,31.8155],[33.642,-23.9287,34.6245],[33.6061,-23.9161,40.1456],[33.592,-23.9114,40.8027],[33.5594,-23.9073,41.9167],[33.5284,-23.8878,44.8092],[33.4947,-23.8834,44.5373],[33.4829,-23.8757,47.8302],[33.4603,-23.8494,47.327],[33.4485,-23.8386,48.1265],[33.3664,-23.788,54.6181],[33.3591,-24.1459,43.938],[33.2612,-24.2428,35.3347],[33.2716,-24.2694,36.0473],[33.2755,-24.2754,35.0709],[33.2772,-24.2826,31.3221],[33.2811,-24.2883,31.1854],[33.2978,-24.3112,29.54],[33.3266,-24.3362,27.349],[33.3304,-24.3414,27.7581],[33.3454,-24.3692,23.7497],[33.3724,-24.4333,17.1346],[33.3764,-24.4465,12.2653],[33.3942,-24.4649,11.3024],[33.4115,-24.4749,7.5],[33.4275,-24.48,7.5],[33.4355,-24.4909,13.2628],[33.4301,-24.4984,7.5],[33.3847,-24.4982,5.0],[33.3687,-24.5165,7.1435],[33.3242,-24.5281,13.9794],[33.3082,-24.5378,13.1901],[33.3011,-24.5443,13.3757],[33.283,-24.5562,14.4972],[33.2744,-24.6013,20.0012],[33.2812,-24.6152,16.2888],[33.2845,-24.639,12.9871],[33.2841,-24.6508,13.8936],[33.2709,-24.6792,18.3497],[33.2681,-24.6825,13.8571],[33.271,-24.6866,20.1137],[33.287,-24.6879,19.5591],[33.3018,-24.6665,13.5795],[33.3194,-24.666,8.0],[33.3395,-24.6697,16.7345],[33.3601,-24.6854,8.6086],[33.3868,-24.7106,15.721],[33.3979,-24.7161,15.4314],[33.4396,-24.7483,9.7845],[33.4496,-24.7601,13.7339],[33.4576,-24.7746,11.8149],[33.4775,-24.7807,13.5785],[33.4877,-24.7719,12.0314],[33.4956,-24.7597,6.3854],[33.5158,-24.7574,12.1448],[33.5226,-24.7618,9.8693],[33.523,-24.771,8.536],[33.5207,-24.7769,9.5501],[33.5186,-24.7938,12.4792]]]]}
,"properties": {"GID_2": "MOZ.2.2_1","GID_0": "MOZ","country": "Mozambique","GID_1": "MOZ.2_1","province": "Gaza","NL_NAME_1": "NA","county": "Chibuto","VARNAME_2": "NA","NL_NAME_2": "NA","TYPE_2": "Distrito","ENGTYPE_2": "District","CC_2": "NA","HASC_2": "MZ.GA.CB","name": "Chibuto.county","area_km2": 5620.464,"hist_schema_id": "Elevation0-9000","hist_area_km2": {"0": 648.337,"25": 1306.852,"50": 2491.756,"75": 938.75,"100": 182.916,"125": 33.857,"150": 17.996}}}