{"type":"Feature","properties":{"GID_3":"MOZ.8.4.2_1","GID_0":"MOZ","country":"Mozambique","GID_1":"MOZ.8_1","province":"Nassa","NL_NAME_1":"NA","GID_2":"MOZ.8.4_1","county":"Majune","NL_NAME_2":"NA","city":"Muaquia","VARNAME_3":"NA","NL_NAME_3":"NA","TYPE_3":"Localidad","ENGTYPE_3":"Locality","CC_3":"NA","HASC_3":"NA","name":"Muaquia.city"},
"geometry":{"type": "MultiPolygon","coordinates": [[[[36.4415,-13.369,571.6165],[36.4415,-13.3799,573.2996],[36.4362,-13.4019,566.4683],[36.4422,-13.4432,577.1434],[36.4418,-13.4789,592.0538],[36.4449,-13.5084,586.0347],[36.4319,-13.5401,595.4783],[36.4236,-13.5527,610.2767],[36.424,-13.5676,609.5823],[36.4312,-13.584,633.1619],[36.4461,-13.6076,632.0022],[36.4492,-13.6255,639.4984],[36.4461,-13.6344,646.0748],[36.4531,-13.647,648.2425],[36.4596,-13.6522,663.4798],[36.4638,-13.6596,659.3989],[36.4706,-13.6612,672.4825],[36.4829,-13.6702,668.5636],[36.4952,-13.6881,680.4337],[36.5167,-13.709,695.553],[36.5382,-13.703,705.4814],[36.5724,-13.7,747.5612],[36.5859,-13.711,768.3657],[36.6022,-13.716,813.9709],[36.6088,-13.7269,819.892],[36.5935,-13.7507,788.7224],[36.5883,-13.7659,756.3807],[36.5903,-13.7721,730.375],[36.6035,-13.7623,750.4725],[36.6276,-13.7378,824.623],[36.6396,-13.7366,898.1072],[36.6445,-13.7411,983.4135],[36.77,-13.7455,939.6022],[36.7732,-13.7323,915.0621],[36.7899,-13.7145,892.3276],[36.8029,-13.6835,888.3558],[36.8055,-13.6672,865.6027],[36.8147,-13.6556,878.2677],[36.8349,-13.6024,849.9831],[36.8456,-13.5918,819.8704],[36.8443,-13.5682,779.0581],[36.8471,-13.5608,759.5146],[36.8473,-13.5547,740.22],[36.838,-13.5256,723.3401],[36.8426,-13.5079,712.6382],[36.8507,-13.4876,709.7749],[36.8559,-13.4786,697.2146],[36.8745,-13.4569,676.777],[36.8786,-13.4452,675.5129],[36.8754,-13.4368,646.9293],[36.8747,-13.4292,640.5183],[36.8763,-13.4231,641.6939],[36.8736,-13.415,624.1497],[36.8801,-13.4051,628.381],[36.881,-13.3984,613.004],[36.8766,-13.3702,603.3119],[36.8891,-13.3537,590.9156],[36.8893,-13.3451,585.9244],[36.8987,-13.3304,590.2344],[36.8969,-13.3223,586.5167],[36.8973,-13.2894,561.6234],[36.9045,-13.2773,552.8828],[36.919,-13.2795,554.251],[36.9354,-13.2748,554.7787],[36.938,-13.2565,552.706],[36.9518,-13.2457,543.2263],[36.9625,-13.222,546.758],[36.9716,-13.2218,544.819],[36.9854,-13.2098,535.6331],[36.9916,-13.1994,529.9294],[36.9954,-13.188,526.9469],[37.001,-13.1779,532.3138],[36.9872,-13.1719,539.8749],[36.9618,-13.1775,558.191],[36.9329,-13.1785,569.3821],[36.9228,-13.1807,587.4122],[36.8889,-13.2115,598.6806],[36.8675,-13.2014,594.9028],[36.8386,-13.1967,585.4312],[36.8212,-13.1865,567.2225],[36.8033,-13.1699,557.0746],[36.7876,-13.1411,547.1041],[36.7842,-13.1214,544.4875],[36.771,-13.1026,530.0548],[36.7604,-13.0954,533.8586],[36.7523,-13.0815,529.6279],[36.7431,-13.0722,523.8358],[36.7153,-13.0541,518.4503],[36.7056,-13.0453,515.7219],[36.7034,-13.0345,509.7661],[36.704,-13.0143,505.4504],[36.7068,-12.9997,501.927],[36.7002,-12.9978,497.3228],[36.6892,-13.0101,507.1328],[36.6791,-13.0185,505.407],[36.6682,-13.0212,504.6338],[36.6636,-13.0289,499.9327],[36.6626,-13.0389,510.8541],[36.658,-13.0467,505.372],[36.6338,-13.0547,507.9045],[36.6094,-13.087,522.6914],[36.5909,-13.1182,534.1761],[36.5802,-13.1304,525.2084],[36.5569,-13.1487,520.1859],[36.5478,-13.1788,531.9626],[36.5405,-13.1923,536.4802],[36.5298,-13.2035,541.1835],[36.5199,-13.2179,542.222],[36.51,-13.2432,541.1373],[36.4987,-13.2582,546.0573],[36.4485,-13.3055,541.7256],[36.4565,-13.3119,544.3149],[36.4562,-13.3198,555.4037],[36.4482,-13.3306,556.8173],[36.4415,-13.3605,571.9236],[36.4415,-13.369,571.6165]]]]}}