{"type": "Feature","bbox": [33.124,-24.8636,33.523,-24.6173],"geometry": {"type": "MultiPolygon","coordinates": [[[[33.4646,-24.8248,10.1816],[33.4858,-24.8229,8.639],[33.5229,-24.8018,5.5986],[33.5186,-24.7938,12.4792],[33.5207,-24.7769,9.5501],[33.523,-24.771,8.536],[33.5226,-24.7618,9.8693],[33.5158,-24.7574,12.1448],[33.4956,-24.7597,6.3854],[33.4877,-24.7719,12.0314],[33.4775,-24.7807,13.5785],[33.4576,-24.7746,11.8149],[33.4496,-24.7601,13.7339],[33.4396,-24.7483,9.7845],[33.3979,-24.7161,15.4314],[33.3868,-24.7106,15.721],[33.3601,-24.6854,8.6086],[33.3395,-24.6697,16.7345],[33.3194,-24.666,8.0],[33.3018,-24.6665,13.5795],[33.287,-24.6879,19.5591],[33.271,-24.6866,20.1137],[33.2681,-24.6825,13.8571],[33.2709,-24.6792,18.3497],[33.2841,-24.6508,13.8936],[33.2845,-24.639,12.9871],[33.282,-24.6217,19.8622],[33.2781,-24.6228,12.4446],[33.2649,-24.6173,15.6503],[33.2501,-24.6202,16.462],[33.2337,-24.6323,14.3521],[33.2109,-24.6391,20.6311],[33.1569,-24.6647,20.7906],[33.1767,-24.7503,34.5858],[33.1794,-24.7732,48.1782],[33.1893,-24.8131,45.1316],[33.124,-24.8622,46.7858],[33.1451,-24.8636,56.3747],[33.1626,-24.8603,59.2137],[33.2069,-24.8339,60.8808],[33.2555,-24.8005,47.8708],[33.2819,-24.776,16.5118],[33.2881,-24.7747,17.9969],[33.3661,-24.7723,13.0768],[33.368,-24.7754,12.4881],[33.3691,-24.7849,11.7328],[33.3913,-24.789,12.0054],[33.401,-24.7936,10.4211],[33.438,-24.8203,8.9707],[33.4436,-24.8159,10.8543],[33.4646,-24.8248,10.1816]]]]}
,"properties": {"GID_3": "MOZ.2.5.4_1","GID_0": "MOZ","country": "Mozambique","GID_1": "MOZ.2_1","province": "Gaza","NL_NAME_1": "NA","GID_2": "MOZ.2.5_1","county": "Chókwè","NL_NAME_2": "NA","city": "Xilembene","VARNAME_3": "NA","NL_NAME_3": "NA","TYPE_3": "Localidad","ENGTYPE_3": "Locality","CC_3": "NA","HASC_3": "NA","name": "Xilembene.city","area_km2": 437.639,"hist_schema_id": "Elevation0-9000","hist_area_km2": {"0": 77.2896,"25": 286.4413,"50": 73.8697,"75": 0.0385}}}