{"type": "Feature","bbox": [38.2592,-15.7755,39.0091,-15.0483],"geometry": {"type": "MultiPolygon","coordinates": [[[[38.8719,-15.5803,289.0929],[38.8548,-15.5792,293.7661],[38.8535,-15.5544,318.9271],[38.8553,-15.5354,365.5284],[38.8528,-15.5284,356.939],[38.8553,-15.5207,372.3871],[38.88,-15.4981,337.6342],[38.89,-15.4915,343.1576],[38.9034,-15.4779,327.7298],[38.9324,-15.4656,302.5394],[38.946,-15.4558,288.1771],[38.9648,-15.4486,266.5588],[38.9712,-15.4442,279.4347],[38.966,-15.4422,282.6504],[38.9579,-15.4426,319.7174],[38.9494,-15.4409,275.7263],[38.9378,-15.4257,303.3499],[38.9363,-15.4222,298.0598],[38.9366,-15.3971,316.463],[38.93,-15.3856,346.2608],[38.936,-15.3817,359.4788],[38.9586,-15.3797,375.2393],[38.962,-15.3805,360.2369],[38.9675,-15.3865,357.2736],[38.9947,-15.3904,293.3581],[38.9935,-15.3857,304.0489],[38.9943,-15.3806,307.2425],[39.0017,-15.3649,311.799],[39.0075,-15.3578,314.6941],[39.0034,-15.3494,311.0729],[39.0091,-15.3351,323.0795],[38.9989,-15.3346,317.7864],[38.9898,-15.3316,321.2484],[38.9775,-15.32,325.0761],[38.9694,-15.3149,330.9486],[38.9479,-15.2907,341.5818],[38.8912,-15.2784,354.1108],[38.8829,-15.2719,359.7329],[38.8752,-15.2619,362.5614],[38.8601,-15.2604,378.5352],[38.8478,-15.2519,374.5078],[38.8418,-15.2503,392.3272],[38.8291,-15.2418,399.6305],[38.8255,-15.2289,386.7764],[38.8195,-15.2271,396.652],[38.801,-15.2325,405.7954],[38.7918,-15.2302,397.9203],[38.7844,-15.2309,397.5816],[38.7684,-15.2236,407.3163],[38.7669,-15.2196,417.3009],[38.7669,-15.2088,406.836],[38.7543,-15.1789,442.7765],[38.7558,-15.1749,439.9695],[38.7756,-15.1597,443.6742],[38.7796,-15.1506,472.2075],[38.7802,-15.1369,464.1709],[38.7738,-15.1303,460.7508],[38.7698,-15.1142,469.459],[38.7617,-15.1107,482.8203],[38.7423,-15.1101,476.8538],[38.7346,-15.1083,475.5787],[38.7286,-15.1001,479.8748],[38.717,-15.0894,502.8617],[38.7069,-15.0857,492.9194],[38.693,-15.0825,504.1444],[38.6736,-15.0825,505.1817],[38.6638,-15.0782,499.2965],[38.6549,-15.0701,505.7562],[38.639,-15.0632,516.6129],[38.6264,-15.0548,518.9618],[38.6227,-15.0483,529.8223],[38.5999,-15.051,563.6656],[38.5919,-15.0496,532.2853],[38.5463,-15.0597,1409.7257],[38.5288,-15.1231,551.4019],[38.5193,-15.1349,546.1884],[38.5037,-15.1382,531.3171],[38.4963,-15.1442,520.8685],[38.4886,-15.1586,516.3967],[38.4754,-15.1666,515.4103],[38.4692,-15.1738,487.7847],[38.4686,-15.1848,476.864],[38.4637,-15.1903,482.5364],[38.4538,-15.2092,472.4378],[38.4526,-15.2311,474.0933],[38.4575,-15.2461,456.2112],[38.4556,-15.2543,453.1396],[38.4494,-15.2621,456.8052],[38.4543,-15.2738,474.9459],[38.4689,-15.29,441.2708],[38.4747,-15.2987,439.5356],[38.4722,-15.303,435.5068],[38.4806,-15.3099,431.9483],[38.4801,-15.3148,430.5511],[38.4715,-15.3111,443.2322],[38.4627,-15.3184,430.9594],[38.4666,-15.3243,427.2532],[38.4618,-15.3326,422.1402],[38.4394,-15.3338,488.8867],[38.421,-15.3455,491.6334],[38.3968,-15.383,610.215],[38.3822,-15.3912,482.247],[38.2868,-15.3943,541.8954],[38.2592,-15.441,417.2213],[38.2641,-15.4494,423.6416],[38.2758,-15.4526,421.5403],[38.2989,-15.4526,411.4269],[38.319,-15.4475,409.3281],[38.3292,-15.46,405.539],[38.3416,-15.463,401.5521],[38.3561,-15.4608,400.4596],[38.3668,-15.4621,396.828],[38.3747,-15.476,405.819],[38.3974,-15.5012,398.5127],[38.4339,-15.5247,378.1741],[38.44,-15.5421,374.168],[38.4493,-15.5532,375.3194],[38.5128,-15.5779,366.4818],[38.5238,-15.5879,362.3365],[38.5406,-15.6177,349.1049],[38.5643,-15.6466,340.3376],[38.5838,-15.659,331.5563],[38.6002,-15.6744,326.4696],[38.6187,-15.6756,288.3675],[38.6253,-15.6789,277.4745],[38.6537,-15.6789,263.4184],[38.6806,-15.6756,249.3704],[38.693,-15.6925,235.9845],[38.6973,-15.7072,230.5453],[38.6973,-15.7186,222.1467],[38.7008,-15.727,219.6966],[38.727,-15.7443,232.5181],[38.7363,-15.7562,212.0162],[38.7517,-15.7711,215.2503],[38.7605,-15.7719,207.3668],[38.7765,-15.7681,203.183],[38.7855,-15.7675,212.0376],[38.7891,-15.7755,212.8597],[38.8002,-15.7612,212.7584],[38.8005,-15.7539,215.8854],[38.8048,-15.7517,222.5671],[38.8115,-15.7514,220.6841],[38.8125,-15.7363,249.2706],[38.8179,-15.7174,245.4844],[38.8158,-15.7081,258.5556],[38.817,-15.6985,262.0854],[38.8239,-15.6881,281.3545],[38.8314,-15.681,282.7042],[38.8382,-15.667,294.8219],[38.8412,-15.6513,323.3912],[38.8412,-15.6415,355.0958],[38.8265,-15.6285,360.3253],[38.8279,-15.6198,356.9297],[38.8445,-15.61,346.9872],[38.8464,-15.6126,338.034],[38.8548,-15.6018,330.4042],[38.8726,-15.592,299.8112],[38.8815,-15.5907,290.6173],[38.8855,-15.5874,290.276],[38.8785,-15.582,286.5402],[38.8719,-15.5803,289.0929]]]]}
,"properties": {"GID_2": "MOZ.7.14_1","GID_0": "MOZ","country": "Mozambique","GID_1": "MOZ.7_1","province": "Nampula","NL_NAME_1": "NA","county": "Murrupula","VARNAME_2": "NA","NL_NAME_2": "NA","TYPE_2": "Distrito","ENGTYPE_2": "District","CC_2": "NA","HASC_2": "MZ.NM.MR","name": "Murrupula.county","area_km2": 3099.312,"hist_schema_id": "Elevation0-9000","hist_area_km2": {"200": 0.877,"225": 21.407,"250": 48.842,"275": 67.829,"300": 111.123,"325": 188.209,"350": 257.101,"375": 334.005,"400": 405.223,"425": 423.449,"450": 338.151,"475": 259.789,"500": 229.661,"525": 165.896,"550": 103.824,"575": 61.148,"600": 25.354,"625": 5.112,"650": 4.621,"675": 3.988,"700": 3.865,"725": 3.66,"750": 3.476,"775": 3.128,"800": 3.149,"825": 2.822,"850": 3.027,"875": 2.413,"900": 2.27,"925": 2.291,"950": 1.841,"975": 1.719,"1000": 1.902,"1025": 1.37,"1050": 1.227,"1075": 1.186,"1100": 1.268,"1125": 0.839,"1150": 0.532,"1175": 0.47,"1200": 0.368,"1225": 0.184,"1250": 0.225,"1275": 0.123,"1300": 0.082,"1325": 0.123,"1350": 0.082,"1375": 0.061}}}