{"type": "Feature","bbox": [33.8181,-17.3848,34.5349,-16.8263],"geometry": {"type": "MultiPolygon","coordinates": [[[[33.819,-17.3261,486.3304],[33.8363,-17.3444,474.3729],[33.8439,-17.3468,462.6071],[33.8492,-17.3526,457.2274],[33.8819,-17.3677,451.1251],[33.8903,-17.3671,433.7592],[33.9056,-17.3797,417.2051],[33.9914,-17.3676,391.8221],[34.0107,-17.3755,345.8232],[34.0137,-17.3754,378.2197],[34.028,-17.3684,342.0552],[34.0323,-17.3642,332.6768],[34.0436,-17.3593,314.8065],[34.1878,-17.3848,430.98],[34.2076,-17.2905,275.1368],[34.2255,-17.2754,240.5273],[34.2292,-17.2688,233.2339],[34.2304,-17.2609,226.7504],[34.2247,-17.2432,219.3344],[34.2068,-17.239,229.7724],[34.1748,-17.2225,262.2729],[34.2632,-17.0604,330.7361],[34.3042,-17.0316,306.2115],[34.4496,-16.999,209.2107],[34.4662,-16.9931,223.1731],[34.5349,-16.8664,103.9698],[34.5018,-16.864,101.0711],[34.476,-16.8586,131.9873],[34.4154,-16.8373,172.0807],[34.3941,-16.8263,119.0306],[34.3738,-16.8301,127.6396],[34.342,-16.8398,130.379],[34.2349,-16.8781,230.5124],[34.2066,-16.8827,251.3734],[34.1844,-16.8889,200.6926],[34.1601,-16.8913,175.7242],[34.1269,-16.898,321.7579],[34.1145,-16.9026,200.2768],[34.0758,-16.9233,447.4576],[34.0513,-16.9577,268.8778],[34.0317,-16.9911,338.5037],[34.0284,-17.0155,385.9177],[34.0147,-17.049,388.0479],[34.0087,-17.06,411.1204],[34.0012,-17.0818,389.4979],[33.9853,-17.0793,426.7481],[33.9803,-17.0871,404.9779],[33.9687,-17.1137,429.0836],[33.9462,-17.1165,438.4934],[33.9391,-17.1197,446.8185],[33.926,-17.1349,454.0865],[33.9052,-17.1478,474.3206],[33.8923,-17.152,490.4229],[33.8785,-17.168,480.5031],[33.8826,-17.1923,490.8743],[33.876,-17.2176,473.5062],[33.8688,-17.2372,475.8011],[33.8659,-17.2421,463.1102],[33.8399,-17.2695,590.3547],[33.8204,-17.3073,510.5066],[33.8181,-17.3162,504.465],[33.819,-17.3261,486.3304]]]]}
,"properties": {"GID_3": "MOZ.4.9.1_1","GID_0": "MOZ","country": "Mozambique","GID_1": "MOZ.4_1","province": "Manica","NL_NAME_1": "NA","GID_2": "MOZ.4.9_1","county": "Tambara","NL_NAME_2": "NA","city": "Buzua","VARNAME_3": "NA","NL_NAME_3": "NA","TYPE_3": "Localidad","ENGTYPE_3": "Locality","CC_3": "NA","HASC_3": "NA","name": "Buzua.city","area_km2": 2113.404,"hist_schema_id": "Elevation0-9000","hist_area_km2": {"100": 8.4,"125": 39.99,"150": 95.82,"175": 103.881,"200": 117.031,"225": 136.146,"250": 206.615,"275": 250.355,"300": 175.054,"325": 138.293,"350": 140.431,"375": 141.462,"400": 137.965,"425": 151.138,"450": 112.006,"475": 89.786,"500": 48.547,"525": 15.89,"550": 2.975,"575": 1.174,"600": 0.385,"625": 0.061}}}