{"type":"Feature","properties":{"GID_3":"MOZ.7.8.2_1","GID_0":"MOZ","country":"Mozambique","GID_1":"MOZ.7_1","province":"Nampula","NL_NAME_1":"NA","GID_2":"MOZ.7.8_1","county":"Mogovolas","NL_NAME_2":"NA","city":"Ilute(Luluti)","VARNAME_3":"NA","NL_NAME_3":"NA","TYPE_3":"Localidad","ENGTYPE_3":"Locality","CC_3":"NA","HASC_3":"NA","name":"Ilute(Luluti).city"},
"geometry":{"type": "MultiPolygon","coordinates": [[[[38.8464,-15.6126,338.034],[38.8445,-15.61,346.9872],[38.8279,-15.6198,356.9297],[38.8265,-15.6285,360.3253],[38.8412,-15.6415,355.0958],[38.8412,-15.6513,323.3912],[38.8382,-15.667,294.8219],[38.8296,-15.6837,284.452],[38.8239,-15.6881,281.3545],[38.817,-15.6985,262.0854],[38.8158,-15.7081,258.5556],[38.8179,-15.7174,245.4844],[38.8125,-15.7363,249.2706],[38.8115,-15.7514,220.6841],[38.8048,-15.7517,222.5671],[38.8005,-15.7539,215.8854],[38.8002,-15.7612,212.7584],[38.7883,-15.7766,205.6111],[38.8018,-15.7916,207.9059],[38.8043,-15.8012,198.797],[38.8044,-15.8166,193.5932],[38.8071,-15.8261,193.4778],[38.8147,-15.8356,190.9868],[38.8215,-15.8412,190.9815],[38.8246,-15.874,192.6315],[38.8282,-15.8833,187.5234],[38.839,-15.8865,174.6051],[38.8483,-15.8915,167.1025],[38.8448,-15.9148,168.7317],[38.8597,-15.9174,219.7649],[38.8727,-15.9149,188.3051],[38.8808,-15.9162,183.9695],[38.8994,-15.9238,241.3573],[38.9043,-15.9229,258.371],[38.9102,-15.9165,262.1924],[38.9224,-15.9101,263.8593],[38.9512,-15.9022,217.6173],[38.9745,-15.8899,200.5087],[38.9991,-15.8905,188.1627],[39.0075,-15.8959,190.0717],[39.0143,-15.8946,172.9274],[39.0179,-15.8956,182.3104],[39.0274,-15.9158,151.7596],[39.0415,-15.9193,151.1529],[39.049,-15.9275,144.9461],[39.0593,-15.9297,138.1907],[39.0789,-15.9258,139.6143],[39.0847,-15.9267,133.5405],[39.0935,-15.938,129.6885],[39.0991,-15.9376,127.6228],[39.1075,-15.9335,130.6379],[39.1191,-15.9353,119.1233],[39.1205,-15.9291,114.937],[39.1265,-15.9288,114.8225],[39.1275,-15.9246,114.1003],[39.1324,-15.9204,125.5404],[39.1519,-15.9194,107.9784],[39.1568,-15.9145,104.7605],[39.1636,-15.9114,101.6119],[39.1727,-15.9243,99.7177],[39.1956,-15.9354,92.6739],[39.1972,-15.9413,92.514],[39.1943,-15.9481,88.1335],[39.2007,-15.9525,86.9388],[39.2081,-15.9533,84.0596],[39.2263,-15.9636,84.8421],[39.2344,-15.9656,80.8572],[39.2424,-15.9633,82.8209],[39.2481,-15.9652,85.3319],[39.2625,-15.9576,76.9686],[39.2768,-15.9601,75.8183],[39.2957,-15.9727,75.0961],[39.298,-15.9669,65.4324],[39.305,-15.957,67.6823],[39.3073,-15.9492,65.3419],[39.3119,-15.9264,70.4594],[39.3124,-15.907,82.9061],[39.3141,-15.8989,69.431],[39.3016,-15.8893,99.8222],[39.2681,-15.8707,95.4039],[39.2621,-15.8571,106.9397],[39.2514,-15.8522,110.4837],[39.2485,-15.8606,113.7701],[39.242,-15.8603,113.7281],[39.2346,-15.8588,110.8479],[39.2264,-15.8528,112.8959],[39.2034,-15.8153,118.2015],[39.222,-15.7632,134.4285],[39.1997,-15.7493,146.9751],[39.1773,-15.7016,174.1205],[39.162,-15.6819,198.1741],[39.1488,-15.6794,179.7536],[39.0745,-15.6466,220.901],[39.0436,-15.6167,236.4346],[39.0197,-15.6196,253.1797],[38.9987,-15.6342,273.6875],[38.9628,-15.6526,304.838],[38.9353,-15.6585,280.0142],[38.8981,-15.6794,284.8595],[38.8812,-15.6636,311.5969],[38.8662,-15.6451,336.5779],[38.8455,-15.6167,337.9196],[38.8464,-15.6126,338.034]]]]}}