{"type": "Feature","bbox": [39.5467,-11.4433,40.0193,-11.1473],"geometry": {"type": "MultiPolygon","coordinates": [[[[40.0186,-11.2696,162.4156],[40.0182,-11.2463,152.4593],[40.0083,-11.1646,146.1111],[40.0129,-11.1473,141.4748],[39.9753,-11.1516,156.4203],[39.9668,-11.1651,158.2583],[39.9655,-11.1652,158.9678],[39.9495,-11.1652,165.7663],[39.9221,-11.1473,140.4132],[39.9009,-11.1532,183.3917],[39.8739,-11.1475,187.1588],[39.8443,-11.1485,190.209],[39.7793,-11.1622,213.9917],[39.7519,-11.1592,214.4396],[39.7355,-11.1703,208.4713],[39.7276,-11.186,229.0828],[39.7306,-11.2009,239.9783],[39.7306,-11.2248,271.4693],[39.727,-11.2656,290.8739],[39.7091,-11.2739,341.6847],[39.7027,-11.3018,391.4132],[39.6711,-11.3287,509.0625],[39.6668,-11.3495,501.7772],[39.6364,-11.371,552.7937],[39.6247,-11.3853,592.8877],[39.5781,-11.365,586.9166],[39.5543,-11.3739,611.7976],[39.5467,-11.3893,660.9985],[39.793,-11.4433,374.4476],[39.8399,-11.4073,341.1176],[39.8582,-11.3955,367.4091],[39.8816,-11.389,315.9635],[39.9046,-11.3799,275.2224],[39.947,-11.3376,211.3478],[39.9767,-11.3304,182.2674],[40.0193,-11.3135,161.2697],[40.0186,-11.2696,162.4156]]]]}
,"properties": {"GID_3": "MOZ.1.12.2_1","GID_0": "MOZ","country": "Mozambique","GID_1": "MOZ.1_1","province": "CaboDelgado","NL_NAME_1": "NA","GID_2": "MOZ.1.12_1","county": "Nangade","NL_NAME_2": "NA","city": "Ntamba","VARNAME_3": "NA","NL_NAME_3": "NA","TYPE_3": "Localidad","ENGTYPE_3": "Locality","CC_3": "NA","HASC_3": "NA","name": "Ntamba.city","area_km2": 943.3942,"hist_schema_id": "Elevation0-9000","hist_area_km2": {"100": 0.4783,"125": 8.1523,"150": 71.9163,"175": 128.8444,"200": 77.1759,"225": 91.7321,"250": 90.0199,"275": 82.2584,"300": 59.3596,"325": 48.191,"350": 42.6339,"375": 35.1501,"400": 26.4193,"425": 17.9799,"450": 16.3791,"475": 20.9937,"500": 43.2562,"525": 19.8711,"550": 12.9697,"575": 12.6577,"600": 13.3023,"625": 13.9464,"650": 7.8565,"675": 1.8498}}}