{"type": "Feature","bbox": [37.6738,-14.8136,38.6874,-14.1139],"geometry": {"type": "MultiPolygon","coordinates": [[[[38.0845,-14.6791,464.1011],[38.1079,-14.6806,466.1149],[38.122,-14.6579,466.6715],[38.129,-14.6514,463.9933],[38.1408,-14.6502,453.9165],[38.1503,-14.6458,451.9756],[38.1676,-14.6354,455.5374],[38.1764,-14.6248,445.0732],[38.1946,-14.6329,451.1786],[38.1994,-14.6284,441.9304],[38.2085,-14.6249,448.211],[38.2292,-14.6213,425.5764],[38.2303,-14.6129,436.2579],[38.2256,-14.6024,422.2025],[38.2307,-14.5882,421.2231],[38.2401,-14.5848,426.6163],[38.2537,-14.5988,425.994],[38.2648,-14.5934,422.1678],[38.2748,-14.5859,421.3271],[38.2994,-14.5858,439.1213],[38.3101,-14.5832,455.8357],[38.3401,-14.5927,464.1082],[38.3525,-14.5988,487.541],[38.3954,-14.5832,452.3335],[38.418,-14.5941,437.0267],[38.4354,-14.5953,434.9645],[38.4577,-14.5927,415.3636],[38.4759,-14.5846,406.692],[38.4846,-14.5787,399.6945],[38.4839,-14.5679,395.2107],[38.495,-14.5262,391.8295],[38.4927,-14.5167,392.2387],[38.4929,-14.5104,381.3465],[38.497,-14.4975,383.4085],[38.4904,-14.4854,379.8139],[38.501,-14.4677,380.9757],[38.5145,-14.4606,367.8065],[38.527,-14.4423,361.9484],[38.5284,-14.4318,368.5978],[38.52,-14.4158,362.843],[38.5194,-14.4059,357.8287],[38.5249,-14.3903,362.2397],[38.5208,-14.3778,351.4694],[38.521,-14.3616,350.6806],[38.5241,-14.3479,338.6993],[38.5288,-14.3402,339.7099],[38.5392,-14.3135,332.5689],[38.5465,-14.3044,340.7604],[38.5562,-14.3026,343.3598],[38.5673,-14.295,338.6097],[38.5767,-14.2855,337.4063],[38.5924,-14.2584,326.3138],[38.591,-14.25,320.3907],[38.5925,-14.2403,323.7054],[38.6094,-14.2288,325.8432],[38.6239,-14.2157,324.6078],[38.6417,-14.1954,321.1284],[38.6548,-14.1888,318.9212],[38.6726,-14.1766,317.3256],[38.6874,-14.1639,305.3045],[38.6861,-14.1482,305.8782],[38.6753,-14.1415,306.86],[38.6699,-14.1358,308.1838],[38.6624,-14.1329,315.812],[38.6487,-14.1407,316.1444],[38.6201,-14.151,325.3249],[38.6086,-14.157,322.5218],[38.5756,-14.1463,326.4884],[38.5629,-14.1436,334.7357],[38.5437,-14.1451,332.7483],[38.5334,-14.1515,333.1233],[38.5224,-14.1555,333.4475],[38.5103,-14.1516,328.8763],[38.4815,-14.1269,338.0344],[38.4697,-14.1216,338.9105],[38.4406,-14.1139,341.2453],[38.4299,-14.1145,345.4547],[38.3733,-14.1384,350.3966],[38.355,-14.1417,345.3794],[38.3353,-14.1545,355.5743],[38.3041,-14.1469,352.5123],[38.2787,-14.1593,356.4263],[38.2485,-14.1669,365.4173],[38.237,-14.1747,368.3837],[38.2121,-14.2021,363.52],[38.1832,-14.2289,371.623],[38.1731,-14.2313,361.5393],[38.1617,-14.2281,364.7278],[38.148,-14.2362,367.8543],[38.1346,-14.2466,377.6569],[38.1253,-14.2562,376.7177],[38.1191,-14.2599,369.6398],[38.1062,-14.2516,373.4703],[38.095,-14.2514,371.2854],[38.0844,-14.258,365.2469],[38.0708,-14.259,379.1959],[38.0619,-14.2522,380.9039],[38.0489,-14.2535,389.9769],[38.0367,-14.2506,382.6247],[38.0319,-14.2477,389.3783],[38.0189,-14.2474,394.4643],[37.9991,-14.2596,393.7463],[37.9877,-14.2717,394.0469],[37.9833,-14.2736,385.2661],[37.961,-14.2957,390.4849],[37.9404,-14.3132,393.8143],[37.928,-14.3164,391.2741],[37.9128,-14.3092,399.6208],[37.8793,-14.2743,407.1441],[37.8677,-14.2563,412.3185],[37.8575,-14.2506,408.5317],[37.8403,-14.2532,408.8484],[37.8235,-14.2531,410.6174],[37.7965,-14.2487,416.3814],[37.7855,-14.2552,415.8941],[37.7787,-14.2651,415.2092],[37.7721,-14.2711,422.7705],[37.7245,-14.2949,424.4707],[37.7178,-14.3014,417.1083],[37.7108,-14.3037,429.2265],[37.6985,-14.3156,432.7585],[37.6931,-14.3182,434.5457],[37.6862,-14.3425,453.6591],[37.6862,-14.3544,461.8363],[37.6831,-14.3634,477.3467],[37.6738,-14.3723,471.994],[37.6738,-14.3962,512.3755],[37.6761,-14.4134,483.0711],[37.6804,-14.4301,474.3576],[37.7015,-14.4886,580.6518],[37.6985,-14.5095,591.8226],[37.6985,-14.5693,638.0114],[37.7152,-14.5829,505.1801],[37.7286,-14.5847,495.1347],[37.7477,-14.5721,486.6177],[37.7662,-14.587,495.2688],[37.7724,-14.6109,501.6967],[37.7761,-14.617,511.522],[37.7813,-14.6509,515.1422],[37.7785,-14.6616,519.8234],[37.7662,-14.6735,527.1917],[37.7662,-14.6914,552.031],[37.7707,-14.6997,573.3804],[37.7847,-14.708,565.84],[37.7934,-14.7442,590.1874],[37.799,-14.757,606.0421],[37.8062,-14.757,634.3304],[37.8185,-14.763,708.0964],[37.8401,-14.763,642.9707],[37.8493,-14.76,723.3835],[37.8555,-14.769,616.0336],[37.8577,-14.7778,599.5339],[37.8711,-14.7928,564.2654],[37.8821,-14.7928,559.6418],[37.9111,-14.8115,536.2279],[37.9197,-14.8136,529.7096],[37.9465,-14.8077,512.371],[37.9576,-14.79,506.8419],[37.9713,-14.7815,502.7218],[37.9855,-14.7668,494.3204],[37.9988,-14.7587,493.4682],[38.0034,-14.7492,490.6831],[38.0124,-14.7446,483.5366],[38.0424,-14.7191,480.9395],[38.0487,-14.7166,482.1468],[38.0557,-14.7044,479.5162],[38.0639,-14.6973,477.4208],[38.0645,-14.6951,479.1776],[38.0845,-14.6791,464.1011]]]]}
,"properties": {"GID_2": "MOZ.7.3_1","GID_0": "MOZ","country": "Mozambique","GID_1": "MOZ.7_1","province": "Nampula","NL_NAME_1": "NA","county": "Lalaua","VARNAME_2": "NA","NL_NAME_2": "NA","TYPE_2": "Distrito","ENGTYPE_2": "District","CC_2": "NA","HASC_2": "MZ.NM.LA","name": "Lalaua.county","area_km2": 4555.501,"hist_schema_id": "Elevation0-9000","hist_area_km2": {"300": 3.742,"325": 109.029,"350": 307.788,"375": 464.881,"400": 564.195,"425": 592.563,"450": 571.741,"475": 524.006,"500": 430.636,"525": 293.801,"550": 201.638,"575": 130.775,"600": 94.731,"625": 64.336,"650": 38.638,"675": 24.278,"700": 18.102,"725": 16.563,"750": 13.115,"775": 11.945,"800": 11.514,"825": 9.831,"850": 8.97,"875": 8.642,"900": 6.65,"925": 6.322,"950": 5.501,"975": 4.208,"1000": 3.448,"1025": 3.099,"1050": 2.237,"1075": 2.175,"1100": 1.498,"1125": 1.231,"1150": 1.395,"1175": 0.841,"1200": 0.513,"1225": 0.267,"1250": 0.103,"1275": 0.082,"1300": 0.062,"1350": 0.082,"1375": 0.082,"1400": 0.144,"1450": 0.062}}}