{"type": "Feature","bbox": [33.4983,-24.7217,33.6294,-24.6493],"geometry": {"type": "MultiPolygon","coordinates": [[[[33.5375,-24.7211,8.2806],[33.5431,-24.719,54.9244],[33.602,-24.7217,42.8022],[33.6075,-24.7008,74.7633],[33.6191,-24.6946,73.6206],[33.6294,-24.6921,71.6144],[33.6239,-24.6843,93.0852],[33.6136,-24.677,124.8661],[33.5821,-24.6711,145.2647],[33.5628,-24.6774,146.453],[33.5546,-24.6821,135.2057],[33.5408,-24.683,91.8206],[33.5361,-24.6818,72.9472],[33.5284,-24.6712,87.5552],[33.5025,-24.6493,7.9986],[33.4983,-24.6593,8.6612],[33.5064,-24.667,8.8819],[33.5027,-24.6836,8.3766],[33.5034,-24.7011,8.2579],[33.5309,-24.7,31.7508],[33.5372,-24.714,14.1284],[33.5375,-24.7211,8.2806]]]]}
,"properties": {"GID_3": "MOZ.2.2.4_1","GID_0": "MOZ","country": "Mozambique","GID_1": "MOZ.2_1","province": "Gaza","NL_NAME_1": "NA","GID_2": "MOZ.2.2_1","county": "Chibuto","NL_NAME_2": "NA","city": "Chibuto","VARNAME_3": "NA","NL_NAME_3": "NA","TYPE_3": "Localidad","ENGTYPE_3": "Locality","CC_3": "NA","HASC_3": "NA","name": "Chibuto.city","area_km2": 51.54908,"hist_schema_id": "Elevation0-9000","hist_area_km2": {"0": 7.8219,"25": 1.73378,"50": 2.83162,"75": 11.34523,"100": 11.76944,"125": 11.01881,"150": 5.02831}}}