{"type":"Feature","properties":{"GID_3":"MOZ.1.3.4_1","GID_0":"MOZ","country":"Mozambique","GID_1":"MOZ.1_1","province":"CaboDelgado","NL_NAME_1":"NA","GID_2":"MOZ.1.3_1","county":"Chiúre","NL_NAME_2":"NA","city":"Namogelia","VARNAME_3":"NA","NL_NAME_3":"NA","TYPE_3":"Localidad","ENGTYPE_3":"Locality","CC_3":"NA","HASC_3":"NA","name":"Namogelia.city"},
"geometry":{"type": "MultiPolygon","coordinates": [[[[39.3666,-13.6067,304.7996],[39.3691,-13.6254,302.5677],[39.3761,-13.6282,299.8571],[39.368899999999996,-13.6367,297.145],[39.3781,-13.6586,284.1283],[39.3747,-13.6618,286.4551],[39.3646,-13.6635,290.5222],[39.3494,-13.6701,289.6573],[39.328,-13.6988,313.2001],[39.3186,-13.7063,306.4325],[39.32,-13.7184,314.533],[39.3167,-13.7243,315.9276],[39.2655,-13.7419,334.7693],[39.2455,-13.7529,319.5886],[39.2414,-13.763,315.3817],[39.2311,-13.7675,303.9716],[39.2249,-13.773,299.3821],[39.2197,-13.7897,295.6961],[39.2211,-13.7995,289.6891],[39.2204,-13.8079,282.9899],[39.2269,-13.8148,278.6655],[39.229,-13.8251,276.177],[39.228,-13.8315,277.2107],[39.2377,-13.8465,272.6077],[39.2447,-13.8524,271.6593],[39.2462,-13.8568,270.8377],[39.2554,-13.8555,266.554],[39.2658,-13.8561,268.3614],[39.2752,-13.8617,265.9977],[39.2838,-13.8642,265.8751],[39.2966,-13.8627,262.9276],[39.3011,-13.8697,261.2141],[39.306,-13.8728,258.8492],[39.3104,-13.8912,257.4835],[39.3155,-13.8904,255.9426],[39.334,-13.8814,255.2875],[39.3709,-13.8606,247.216],[39.3997,-13.8522,246.2702],[39.4168,-13.8533,245.6673],[39.4176,-13.8514,244.7292],[39.4415,-13.8427,243.5267],[39.4537,-13.8332,239.1906],[39.4614,-13.8176,240.3668],[39.4848,-13.7885,236.8397],[39.506,-13.7732,239.5949],[39.5491,-13.7532,238.5708],[39.587,-13.7395,230.3084],[39.5826,-13.7255,239.8521],[39.5719,-13.7159,250.1776],[39.565,-13.7134,252.4969],[39.5514,-13.6976,259.6901],[39.5491,-13.6891,270.3752],[39.543,-13.6812,268.1303],[39.5415,-13.674,270.4104],[39.526,-13.666,275.1649],[39.5161,-13.6627,272.8389],[39.4999,-13.6527,285.4349],[39.4554,-13.6166,303.2953],[39.453,-13.6063,315.0891],[39.457,-13.5971,327.2142],[39.4727,-13.5762,366.406],[39.4897,-13.5671,356.8664],[39.4907,-13.5359,327.9462],[39.4805,-13.5437,334.04],[39.468,-13.5505,341.943],[39.4565,-13.5521,343.9664],[39.438,-13.5446,356.2276],[39.406,-13.5647,363.5829],[39.4017,-13.5737,342.1575],[39.4002,-13.5817,333.66],[39.3951,-13.5871,329.1115],[39.377,-13.5963,311.9648],[39.3666,-13.6067,304.7996]]]]}}