{"type":"Feature","properties":{"GID_3":"MOZ.10.3.1_1","GID_0":"MOZ","country":"Mozambique","GID_1":"MOZ.10_1","province":"Tete","NL_NAME_1":"NA","GID_2":"MOZ.10.3_1","county":"Changara","NL_NAME_2":"NA","city":"Chioco","VARNAME_3":"NA","NL_NAME_3":"NA","TYPE_3":"Localidad","ENGTYPE_3":"Locality","CC_3":"NA","HASC_3":"NA","name":"Chioco.city"},
"geometry":{"type": "MultiPolygon","coordinates": [[[[33.7847,-16.3853,110.5],[33.7706,-16.3789,111.0],[33.7613,-16.3688,118.9094],[33.7549,-16.3598,112.0],[33.7472,-16.3444,112.5],[33.7253,-16.3209,113.5],[33.722,-16.3061,114.3602],[33.7146,-16.2913,116.5817],[33.7088,-16.2893,117.5965],[33.693,-16.2762,115.0],[33.6732,-16.2574,115.5],[33.6639,-16.2431,116.4685],[33.6579,-16.2492,116.0],[33.642,-16.2574,147.2971],[33.6231,-16.2595,171.1709],[33.5792,-16.2314,220.2894],[33.5673,-16.2058,413.0406],[33.5344,-16.1737,212.6437],[33.5294,-16.1815,180.37],[33.5187,-16.1779,209.4465],[33.5064,-16.1862,282.6759],[33.497,-16.1882,247.0352],[33.4947,-16.1864,257.1618],[33.4873,-16.1875,300.1347],[33.4753,-16.1922,272.7501],[33.4711,-16.2011,288.4227],[33.4715,-16.2149,313.6894],[33.4783,-16.2278,330.4297],[33.4698,-16.2319,341.5491],[33.45,-16.2368,358.0003],[33.444,-16.2461,380.4347],[33.4257,-16.2592,399.9852],[33.4131,-16.2654,419.8627],[33.3975,-16.2693,440.5462],[33.3735,-16.2825,446.501],[33.3656,-16.2805,442.9871],[33.3527,-16.2703,497.9669],[33.3468,-16.272,482.9764],[33.3317,-16.2815,435.0218],[33.3166,-16.2857,407.0307],[33.2986,-16.31,363.4447],[33.2964,-16.3156,396.1248],[33.2859,-16.3306,328.1187],[33.2746,-16.3435,307.5669],[33.264,-16.3517,292.1672],[33.2477,-16.3544,307.1991],[33.2336,-16.3609,286.2553],[33.2225,-16.3609,284.4911],[33.2156,-16.3557,288.7473],[33.2064,-16.3553,289.387],[33.1912,-16.3513,291.6801],[33.1787,-16.343,304.4796],[33.1646,-16.3417,311.5898],[33.15,-16.333,317.948],[33.1428,-16.3305,323.2106],[33.1318,-16.3098,361.9664],[33.1297,-16.2906,397.7841],[33.1334,-16.2794,418.5282],[33.1389,-16.2743,433.4403],[33.1393,-16.2564,394.1799],[33.1417,-16.2484,382.6089],[33.1362,-16.2367,343.4673],[33.1359,-16.2115,301.3773],[33.1289,-16.2049,317.9207],[33.1203,-16.2041,309.5618],[33.1074,-16.2065,312.1133],[33.0929,-16.2059,312.388],[33.0861,-16.2076,318.3782],[33.0537,-16.2041,331.1732],[33.0469,-16.2015,332.7576],[33.0412,-16.2023,334.9389],[33.0372,-16.1996,335.9593],[33.0291,-16.2,336.0529],[33.022,-16.1975,339.5822],[33.0105,-16.1906,364.2685],[33.0018,-16.1809,355.2103],[33.0,-16.1743,378.4211],[32.9803,-16.161,366.9407],[32.973,-16.1539,366.4856],[32.9687,-16.1434,372.3344],[32.9405,-16.1214,387.5685],[32.927,-16.1184,458.0951],[32.9185,-16.1141,389.187],[32.9112,-16.1019,392.8123],[32.9094,-16.0871,407.5551],[32.8896,-16.0653,407.2579],[32.8691,-16.0343,421.2715],[32.8643,-16.0201,425.5061],[32.8519,-16.0103,432.9265],[32.8463,-16.01,434.5388],[32.8411,-16.0063,436.045],[32.8344,-15.9945,448.4555],[32.8235,-15.9857,454.0939],[32.815,-15.9857,457.1999],[32.8086,-15.9832,458.4303],[32.7999,-15.9754,464.5075],[32.7667,-15.9849,479.3604],[32.7479,-15.9931,485.7709],[32.7518,-15.9957,488.6498],[32.7669,-15.9954,478.4644],[32.7806,-15.9994,466.8656],[32.79,-15.998,464.2876],[32.7989,-16.0063,455.3069],[32.8162,-16.0112,447.3806],[32.8279,-16.0181,436.918],[32.8413,-16.0352,418.5018],[32.8455,-16.0499,409.2997],[32.849,-16.054,406.7365],[32.8495,-16.0602,403.6183],[32.8452,-16.0676,400.3114],[32.8512,-16.0727,398.2315],[32.8491,-16.077,395.0594],[32.8591,-16.0875,392.9711],[32.8615,-16.096,382.6272],[32.8653,-16.0986,384.0496],[32.865,-16.1055,379.5586],[32.8691,-16.1242,370.8928],[32.8618,-16.1362,362.5045],[32.8584,-16.1459,361.29],[32.8562,-16.1851,341.585],[32.869,-16.2286,329.5482],[32.876,-16.233,348.7549],[32.8853,-16.2333,426.0595],[32.8858,-16.2372,404.389],[32.8938,-16.2535,364.5723],[32.9149,-16.2846,305.875],[32.8694,-16.3281,344.468],[32.7575,-16.358,308.0302],[32.7365,-16.4721,331.7522],[32.7236,-16.4858,339.3137],[32.7241,-16.4967,368.2669],[32.7324,-16.5206,444.3718],[32.7355,-16.5524,490.8413],[32.726,-16.5892,556.6432],[32.7253,-16.5975,598.1885],[32.7114,-16.602,709.1843],[32.7125,-16.6046,717.7921],[32.7103,-16.6415,645.9336],[32.7066,-16.6513,905.8185],[32.7023,-16.6768,1064.448],[32.7092,-16.6855,875.5724],[32.7698,-16.7094,409.6574],[32.781,-16.707,396.8422],[32.8039,-16.7078,462.8284],[32.8089,-16.7053,383.4113],[32.8255,-16.7091,408.6819],[32.8327,-16.7005,376.5929],[32.8428,-16.6989,370.6724],[32.8534,-16.708,393.8665],[32.8687,-16.7085,358.1424],[32.8862,-16.7194,315.7327],[32.8934,-16.7202,324.6537],[32.9015,-16.7163,350.0656],[32.907,-16.7106,355.2466],[32.9123,-16.7086,344.8612],[32.92,-16.702,324.1899],[32.9233,-16.7013,322.2446],[32.9276,-16.7039,345.8461],[32.9502,-16.7034,370.7225],[32.9742,-16.7056,260.9585],[32.9898,-16.6972,250.2828],[33.0035,-16.6944,264.5914],[33.0174,-16.6885,243.9492],[33.025,-16.6921,221.0567],[33.0438,-16.6895,224.4648],[33.0544,-16.692,228.4219],[33.0601,-16.684,210.7619],[33.0578,-16.6724,208.1737],[33.0718,-16.6676,209.382],[33.0858,-16.6563,244.3294],[33.0899,-16.644,204.3146],[33.0944,-16.6384,208.6068],[33.1026,-16.6352,206.6675],[33.1204,-16.6343,205.6078],[33.1403,-16.6214,203.0021],[33.1483,-16.6103,210.9284],[33.182,-16.6063,193.9407],[33.1879,-16.5897,194.8861],[33.2006,-16.5746,193.478],[33.2166,-16.5693,191.4785],[33.2283,-16.5613,188.4195],[33.2453,-16.5605,200.444],[33.2715,-16.5547,188.2315],[33.2868,-16.5407,197.0161],[33.2999,-16.5378,195.0235],[33.3072,-16.5434,180.8483],[33.3113,-16.5534,173.5916],[33.3347,-16.5551,184.3327],[33.3395,-16.5505,179.3069],[33.3599,-16.5455,184.6675],[33.3871,-16.5417,165.2168],[33.3992,-16.5366,164.5157],[33.4071,-16.5303,176.3714],[33.4368,-16.5269,155.8397],[33.4508,-16.5161,203.995],[33.461,-16.5048,156.207],[33.4719,-16.4848,152.6371],[33.5009,-16.4696,149.6709],[33.52,-16.4469,145.1603],[33.5291,-16.4391,145.0087],[33.5425,-16.4321,144.7719],[33.569,-16.4256,138.7201],[33.5937,-16.4247,135.7662],[33.6053,-16.4293,134.0619],[33.6171,-16.4294,131.7361],[33.6848,-16.4201,149.6425],[33.709,-16.4307,123.3709],[33.7166,-16.4268,124.1791],[33.7248,-16.4121,125.5956],[33.7563,-16.3965,116.1369],[33.7847,-16.3853,110.5]]]]}}