{"type": "Feature","bbox": [35.0391,-17.3766,35.3326,-17.1057],"geometry": {"type": "MultiPolygon","coordinates": [[[[35.0804,-17.1057,456.861],[35.0701,-17.1085,403.9363],[35.0559,-17.1077,353.2719],[35.0481,-17.1093,344.2012],[35.0391,-17.1145,332.2722],[35.0814,-17.1953,439.165],[35.1468,-17.3766,36.4283],[35.1556,-17.37,35.8201],[35.1871,-17.3662,33.5758],[35.2053,-17.3605,33.4454],[35.2173,-17.3651,33.2883],[35.2349,-17.3482,31.4952],[35.2461,-17.3445,31.465699999999998],[35.2598,-17.3511,29.8212],[35.262,-17.3463,30.1004],[35.2706,-17.339,30.4864],[35.2915,-17.3354,29.4719],[35.3061,-17.335,30.314],[35.3191,-17.3378,29.0978],[35.3188,-17.3329,29.4235],[35.3326,-17.3308,29.4156],[35.3251,-17.3156,29.5144],[35.3225,-17.2993,29.7297],[35.306,-17.2734,30.507],[35.2948,-17.2681,31.049],[35.2994,-17.2504,31.8725],[35.2959,-17.2413,31.7781],[35.3035,-17.238,31.5858],[35.3047,-17.2192,33.1042],[35.3115,-17.2081,35.3001],[35.3078,-17.2012,34.7216],[35.3081,-17.1946,34.0516],[35.3014,-17.1875,35.0503],[35.2951,-17.1696,35.0891],[35.3014,-17.1649,35.7677],[35.3036,-17.1407,34.9023],[35.2963,-17.1407,34.8805],[35.2909,-17.1376,34.5822],[35.2942,-17.1261,34.7727],[35.0974,-17.1272,437.0871],[35.0909,-17.1233,456.7052],[35.092,-17.1181,471.1273],[35.0894,-17.1127,413.9293],[35.0868,-17.112,426.7165],[35.0804,-17.1057,456.861]]]]}
,"properties": {"GID_3": "MOZ.10.10.1_1","GID_0": "MOZ","country": "Mozambique","GID_1": "MOZ.10_1","province": "Tete","NL_NAME_1": "NA","GID_2": "MOZ.10.10_1","county": "Mutarara","NL_NAME_2": "NA","city": "Chare","VARNAME_3": "NA","NL_NAME_3": "NA","TYPE_3": "Localidad","ENGTYPE_3": "Locality","CC_3": "NA","HASC_3": "NA","name": "Chare.city","area_km2": 578.3313,"hist_schema_id": "Elevation0-9000","hist_area_km2": {"25": 298.1382,"50": 68.0875,"75": 44.5149,"100": 31.7772,"125": 21.7728,"150": 14.2988,"175": 9.1947,"200": 7.412,"225": 7.2902,"250": 6.2983,"275": 5.7725,"300": 7.4742,"325": 6.8467,"350": 7.9813,"375": 8.2653,"400": 9.2787,"425": 9.7858,"450": 9.2595,"475": 3.4039,"500": 0.9522,"525": 0.4862,"550": 0.0405}}}