{"type": "Feature","bbox": [31.5507,-24.3463,32.6371,-23.2216],"geometry": {"type": "MultiPolygon","coordinates": [[[[32.5579,-24.3333,79.6756],[32.5724,-24.2378,82.6328],[32.5979,-24.1979,74.4348],[32.611,-24.1274,45.1306],[32.6371,-24.1105,45.7249],[32.6265,-24.1009,45.1795],[32.6171,-24.0828,46.4492],[32.6125,-24.0673,47.5126],[32.6117,-24.0525,51.3734],[32.606,-24.0492,56.2048],[32.5993,-24.0479,51.653],[32.5815,-24.0359,66.0769],[32.5592,-24.0339,82.972],[32.5497,-24.0281,85.3702],[32.5438,-24.0163,89.7986],[32.5221,-24.0009,100.176],[32.5226,-23.9981,100.6871],[32.4636,-23.9529,121.2847],[32.4214,-23.8589,138.5008],[32.3993,-23.7896,133.784],[32.3522,-23.7317,153.0896],[32.3307,-23.6959,160.52],[32.3029,-23.6578,165.958],[32.2893,-23.6436,172.3252],[32.2754,-23.637,173.0753],[32.2704,-23.6303,174.1493],[32.2599,-23.6128,173.9144],[32.2507,-23.5924,175.4049],[32.2466,-23.5726,177.2855],[31.9903,-23.5771,177.2607],[31.9814,-23.5736,185.6347],[31.9758,-23.5685,195.2792],[31.958,-23.5671,185.429],[31.9379,-23.5586,163.2607],[31.919,-23.5396,155.5404],[31.9181,-23.524,145.1924],[31.9109,-23.518,158.8233],[31.9103,-23.5076,149.4735],[31.8983,-23.4681,158.7365],[31.883,-23.476,163.5288],[31.8654,-23.4823,167.1544],[31.856,-23.4793,164.1912],[31.8515,-23.4651,170.9325],[31.8168,-23.4537,173.0016],[31.8076,-23.452,180.9536],[31.7984,-23.4383,169.2346],[31.7901,-23.4297,175.6271],[31.7769,-23.4301,177.6031],[31.7544,-23.4258,197.1552],[31.7378,-23.4301,187.0579],[31.7259,-23.4282,213.7603],[31.7153,-23.4206,201.3512],[31.6815,-23.4046,192.7543],[31.666,-23.4014,206.8057],[31.6537,-23.3705,219.5562],[31.6333,-23.335,244.8447],[31.6278,-23.3185,216.2039],[31.6149,-23.3006,267.4939],[31.5996,-23.23,233.6621],[31.5718,-23.226,262.4503],[31.5616,-23.2216,259.3221],[31.5611,-23.2288,236.7232],[31.5592,-23.2312,241.3398],[31.5559,-23.2691,304.9494],[31.5507,-23.4103,367.387],[31.561,-23.482,422.4361],[31.6658,-23.5914,393.3637],[31.6905,-23.6294,386.5903],[31.6974,-23.7219,419.0501],[31.7692,-23.8878,381.1542],[31.8807,-23.955,178.647],[31.8809,-23.9679,133.6367],[31.8868,-24.0013,215.8069],[31.908,-24.1824,383.9952],[31.9489,-24.2463,348.5293],[31.9704,-24.2458,329.0201],[32.0448,-24.209,277.7128],[32.0748,-24.2032,262.65],[32.0959,-24.2056,254.8862],[32.1274,-24.2127,234.0218],[32.1654,-24.2138,217.5654],[32.1918,-24.2164,193.8022],[32.208,-24.2333,186.0453],[32.2147,-24.2335,188.377],[32.2293,-24.2399,179.4306],[32.2333,-24.2349,177.3126],[32.2564,-24.2361,179.6506],[32.2691,-24.2427,173.0744],[32.2756,-24.2486,163.0844],[32.2934,-24.2511,155.6822],[32.3007,-24.2496,153.5132],[32.312,-24.2502,149.4532],[32.3212,-24.2526,147.5583],[32.3425,-24.2462,140.5695],[32.3573,-24.2476,136.5854],[32.3865,-24.261,124.2837],[32.3957,-24.2674,119.7785],[32.4331,-24.2803,106.7279],[32.4397,-24.2802,103.927],[32.4476,-24.2937,101.6157],[32.4491,-24.3023,100.0074],[32.4638,-24.308,97.299],[32.4757,-24.3248,94.2151],[32.4806,-24.3271,94.2083],[32.4809,-24.326,94.153],[32.4884,-24.33,93.172],[32.5068,-24.3322,91.2537],[32.5127,-24.3343,89.8429],[32.5219,-24.334,86.4076],[32.528,-24.3383,86.0801],[32.5339,-24.3452,83.787],[32.5371,-24.3463,83.7225],[32.5455,-24.346,82.2709],[32.5579,-24.3333,79.6756]]]]}
,"properties": {"GID_2": "MOZ.2.10_1","GID_0": "MOZ","country": "Mozambique","GID_1": "MOZ.2_1","province": "Gaza","NL_NAME_1": "NA","county": "Massingir","VARNAME_2": "NA","NL_NAME_2": "NA","TYPE_2": "Distrito","ENGTYPE_2": "District","CC_2": "NA","HASC_2": "MZ.GA.MG","name": "Massingir.county","area_km2": 5698.537,"hist_schema_id": "Elevation0-9000","hist_area_km2": {"50": 104.083,"75": 390.484,"100": 539.677,"125": 832.363,"150": 655.206,"175": 670.061,"200": 474.862,"225": 386.873,"250": 347.893,"275": 306.806,"300": 294.914,"325": 267.268,"350": 206.504,"375": 132.024,"400": 60.739,"425": 28.548,"450": 0.214}}}