{"type":"Feature","properties":{"GID_2":"MOZ.11.5_1","GID_0":"MOZ","country":"Mozambique","GID_1":"MOZ.11_1","province":"Zambezia","NL_NAME_1":"NA","county":"Ile","VARNAME_2":"NA","NL_NAME_2":"NA","TYPE_2":"Distrito","ENGTYPE_2":"District","CC_2":"NA","HASC_2":"MZ.ZA.IL","name":"Ile.county"},
"geometry":{"type": "MultiPolygon","coordinates": [[[[37.733,-16.1642,266.5928],[37.7266,-16.1572,280.8882],[37.7278,-16.1566,283.949],[37.7231,-16.1363,283.7267],[37.7235,-16.1347,291.4299],[37.7288,-16.1319,273.6379],[37.729,-16.1215,276.9127],[37.7384,-16.113,274.509],[37.7299,-16.0996,275.345],[37.7249,-16.0956,288.6325],[37.7177,-16.0933,300.8676],[37.7116,-16.0892,297.0481],[37.707,-16.0819,299.4638],[37.6857,-16.0739,341.5665],[37.6935,-16.0674,324.9938],[37.6981,-16.0585,320.2802],[37.7045,-16.0368,328.8406],[37.6963,-16.0368,340.9247],[37.6905,-16.0343,337.9092],[37.6818,-16.0255,345.4339],[37.6803,-16.0193,346.9558],[37.6721,-16.0088,354.3233],[37.6749,-16.0005,358.8958],[37.6735,-15.9924,364.4711],[37.6834,-15.9851,371.7258],[37.6852,-15.9742,370.6456],[37.6805,-15.9711,380.7096],[37.6654,-15.9678,369.8047],[37.6589,-15.9747,370.5494],[37.6501,-15.9733,372.1948],[37.6443,-15.976,385.3441],[37.6098,-15.9717,382.3351],[37.5974,-15.976,393.5953],[37.5801,-15.979,398.1887],[37.5593,-15.9742,421.4127],[37.5459,-15.976,413.7631],[37.5393,-15.9719,424.7845],[37.5178,-15.9698,435.9139],[37.5081,-15.9645,457.9404],[37.5042,-15.9567,464.1966],[37.5074,-15.9438,513.201],[37.4959,-15.9102,578.1455],[37.478,-15.8901,1106.7059],[37.4501,-15.8698,608.7373],[37.4411,-15.8533,534.6998],[37.4274,-15.8359,627.4405],[37.4062,-15.8175,849.3616],[37.3635,-15.7888,1004.8052],[37.3678,-15.7808,567.0676],[37.3729,-15.7648,517.1776],[37.3741,-15.7482,524.1769],[37.388,-15.726,537.2684],[37.3856,-15.7231,544.3808],[37.3793,-15.723,536.9603],[37.3845,-15.7105,549.4746],[37.3829,-15.703,554.5901],[37.3738,-15.6992,558.4016],[37.3648,-15.6916,575.1318],[37.3717,-15.6769,577.2971],[37.3688,-15.6729,614.1398],[37.3682,-15.6647,624.8299],[37.3636,-15.6611,688.7673],[37.3529,-15.6598,619.7626],[37.3272,-15.6616,744.7805],[37.3031,-15.6596,788.1807],[37.2959,-15.6558,795.8864],[37.269,-15.6322,767.8531],[37.2434,-15.6295,825.4776],[37.2082,-15.597,606.6152],[37.1975,-15.6036,611.3572],[37.1828,-15.6181,599.3987],[37.1708,-15.6237,601.7031],[37.1626,-15.6377,608.1854],[37.1603,-15.653,596.1078],[37.1516,-15.6647,600.121],[37.1466,-15.6753,592.058],[37.1362,-15.6867,597.3031],[37.132,-15.6889,591.5894],[37.1344,-15.7035,569.681],[37.132,-15.7107,554.9112],[37.134,-15.7156,553.1316],[37.1323,-15.7228,547.1246],[37.1251,-15.7254,555.363],[37.1252,-15.7403,543.8441],[37.1238,-15.7447,543.4008],[37.105,-15.7544,540.2166],[37.1034,-15.7569,536.4397],[37.1041,-15.7592,537.0207],[37.1083,-15.7611,546.9595],[37.109,-15.768,546.984],[37.1132,-15.7786,527.6071],[37.1064,-15.7865,535.8497],[37.1046,-15.7957,515.2015],[37.1001,-15.8003,514.5118],[37.1113,-15.825,492.1003],[37.1059,-15.8382,482.1994],[37.1078,-15.8467,472.5331],[37.12,-15.8515,475.4596],[37.1222,-15.8545,474.6503],[37.1225,-15.8585,473.3472],[37.1152,-15.8729,471.8491],[37.1129,-15.882,451.4093],[37.1239,-15.8979,436.8514],[37.124,-15.9031,430.3946],[37.1197,-15.9171,418.6807],[37.1208,-15.927,415.9376],[37.1143,-15.9383,409.1216],[37.1097,-15.9671,415.5295],[37.1042,-15.9805,418.7669],[37.1037,-15.9992,400.3899],[37.0974,-16.012,440.241],[37.0979,-16.0226,426.168],[37.1097,-16.0346,406.1606],[37.1125,-16.0553,387.3472],[37.1082,-16.0956,379.9617],[37.1009,-16.1199,364.3613],[37.1045,-16.1337,344.9115],[37.1135,-16.1562,334.7557],[37.1262,-16.1768,329.3003],[37.1283,-16.189,319.0742],[37.1193,-16.203,306.3683],[37.1143,-16.2085,305.2243],[37.1088,-16.2112,306.3559],[37.1029,-16.2213,297.7847],[37.0821,-16.2484,284.2228],[37.0788,-16.2541,278.2192],[37.0746,-16.2749,275.4024],[37.0759,-16.2848,271.6905],[37.0781,-16.2881,268.0009],[37.0955,-16.2945,263.3974],[37.1016,-16.3125,260.1376],[37.1074,-16.3175,266.3706],[37.118,-16.3335,256.8995],[37.132,-16.3582,252.2166],[37.1361,-16.3602,253.2173],[37.1439,-16.3534,259.0708],[37.1798,-16.3375,282.8254],[37.1875,-16.3362,302.6656],[37.192,-16.3387,280.809],[37.1964,-16.3317,302.7437],[37.2135,-16.3316,287.158],[37.2205,-16.3176,324.2051],[37.2313,-16.3154,322.401],[37.241,-16.3038,346.3016],[37.2476,-16.2983,332.1657],[37.25,-16.299,333.0208],[37.2658,-16.3099,346.3345],[37.2807,-16.3171,371.8457],[37.2886,-16.3255,373.781],[37.2903,-16.3405,398.0765],[37.2971,-16.3535,429.1973],[37.297,-16.362,406.8752],[37.2872,-16.3732,380.1257],[37.3004,-16.4012,358.1528],[37.3075,-16.4081,356.3748],[37.3149,-16.412,332.4983],[37.3155,-16.4256,362.4276],[37.3296,-16.4228,342.264],[37.3782,-16.4358,407.6432],[37.3901,-16.4688,358.6566],[37.3997,-16.4796,319.3074],[37.4215,-16.4861,298.5154],[37.4684,-16.5182,238.634],[37.4663,-16.5285,244.3526],[37.4659,-16.5497,219.7976],[37.4671,-16.5616,216.9715],[37.471,-16.5744,202.0419],[37.4929,-16.591,201.2508],[37.536,-16.5845,265.0193],[37.5375,-16.5739,272.3046],[37.552,-16.5824,230.6591],[37.5597,-16.5807,210.2491],[37.5754,-16.5832,191.5725],[37.5927,-16.5825,185.2014],[37.6195,-16.5756,165.3652],[37.6216,-16.5844,163.399],[37.6358,-16.6043,166.655],[37.6537,-16.6119,150.2515],[37.6662,-16.6257,147.8717],[37.6677,-16.6305,139.6539],[37.6718,-16.6302,136.822],[37.6774,-16.624,141.8215],[37.6816,-16.6247,146.5172],[37.6967,-16.6333,134.2946],[37.7137,-16.6315,132.8518],[37.7163,-16.6387,130.2096],[37.7241,-16.6483,128.6385],[37.7379,-16.6507,119.8182],[37.7373,-16.6558,112.9566],[37.7416,-16.6609,123.2922],[37.7508,-16.6644,106.6568],[37.7536,-16.6531,112.3678],[37.7522,-16.6286,129.3646],[37.7499,-16.6204,134.817],[37.7549,-16.5934,164.0555],[37.7589,-16.5971,146.685],[37.7646,-16.5964,147.0055],[37.7731,-16.6008,134.2262],[37.7794,-16.601,120.0789],[37.7794,-16.606,131.9352],[37.7826,-16.6129,131.3218],[37.7899,-16.62,118.3739],[37.7898,-16.6051,133.7614],[37.785,-16.601,127.6998],[37.7824,-16.5959,128.9161],[37.7832,-16.588,126.3687],[37.7892,-16.5781,127.2728],[37.7956,-16.5793,123.7611],[37.8185,-16.5659,167.7151],[37.8319,-16.5662,169.4548],[37.8422,-16.5629,161.9756],[37.8457,-16.5549,172.9903],[37.8519,-16.5518,175.8873],[37.8685,-16.5489,193.8573],[37.9003,-16.5279,194.4095],[37.9017,-16.5168,170.9296],[37.9071,-16.5069,188.3256],[37.9198,-16.5005,171.5544],[37.9246,-16.4992,171.1402],[37.9303,-16.5002,163.8158],[37.945,-16.4876,154.672],[37.9599,-16.4807,157.3649],[37.9713,-16.4802,144.0911],[37.9889,-16.4849,142.7337],[37.9932,-16.4739,140.4311],[37.9903,-16.4685,141.8108],[37.981,-16.4584,146.3941],[37.963,-16.4552,140.0692],[37.9564,-16.4578,157.4237],[37.9545,-16.4415,149.311],[37.9453,-16.4386,152.1479],[37.9392,-16.4315,158.4826],[37.9127,-16.4383,157.493],[37.9085,-16.4104,160.6283],[37.9088,-16.3986,160.3869],[37.9027,-16.38,170.9746],[37.8952,-16.3723,175.144],[37.9181,-16.3237,171.1193],[37.9184,-16.3166,175.0002],[37.9163,-16.3101,177.2247],[37.9026,-16.2881,183.9773],[37.9009,-16.2788,217.1062],[37.8931,-16.2752,199.9986],[37.8861,-16.2607,197.4499],[37.8772,-16.2581,205.0966],[37.8674,-16.2598,201.8231],[37.8639,-16.263,209.0317],[37.8523,-16.2543,201.8676],[37.854,-16.2442,222.1363],[37.8454,-16.239,221.2343],[37.8324,-16.2208,225.8705],[37.8061,-16.2117,220.2991],[37.7962,-16.2132,227.8313],[37.7897,-16.2105,247.9233],[37.7826,-16.2021,233.0364],[37.7539,-16.192,263.2706],[37.7397,-16.178,248.976],[37.7387,-16.169,264.5994],[37.733,-16.1642,266.5928]]]]}}