{"type": "Feature","bbox": [37.1254,-13.2858,38.2309,-12.1765],"geometry": {"type": "MultiPolygon","coordinates": [[[[38.222,-12.1868,202.0],[38.2018,-12.1913,211.065],[38.169,-12.1937,217.8812],[38.1407,-12.2033,229.8481],[38.1318,-12.2036,236.9591],[38.1132,-12.1878,244.4781],[38.0941,-12.1765,244.4762],[38.0863,-12.1791,239.0148],[38.0663,-12.1946,241.1893],[38.0486,-12.2025,240.3017],[37.9966,-12.2352,242.5],[37.9545,-12.2288,245.6053],[37.929,-12.2312,247.0],[37.8838,-12.2486,257.5334],[37.8734,-12.2543,257.3161],[37.8384,-12.2622,271.112],[37.802,-12.2773,268.8419],[37.7857,-12.2868,265.3871],[37.7777,-12.2963,268.0326],[37.7726,-12.3098,286.5971],[37.7086,-12.4032,272.95],[37.7013,-12.4201,272.7264],[37.727,-12.4525,352.0072],[37.7113,-12.4798,371.6694],[37.6653,-12.4869,312.7964],[37.6254,-12.4833,519.3546],[37.6469,-12.444,283.9152],[37.6063,-12.4421,292.3861],[37.5907,-12.4427,325.7917],[37.561,-12.4474,309.9565],[37.5472,-12.4517,313.2613],[37.5304,-12.453,308.9079],[37.5087,-12.45,306.4319],[37.4241,-12.4726,311.1249],[37.376,-12.4813,311.75],[37.3643,-12.4876,321.9297],[37.3527,-12.4893,332.3406],[37.3401,-12.4858,341.5732],[37.3064,-12.4828,342.2714],[37.2818,-12.4828,332.1789],[37.2542,-12.4947,317.375],[37.242,-12.5126,355.8191],[37.2236,-12.5246,321.881],[37.2122,-12.544,325.9997],[37.2144,-12.5872,338.8788],[37.2081,-12.6033,343.839],[37.1662,-12.6469,383.001],[37.1516,-12.6532,378.4985],[37.1254,-12.7154,394.0382],[37.1684,-12.7423,428.2369],[37.1622,-12.7691,422.9561],[37.1686,-12.8042,453.2975],[37.176,-12.8295,485.2169],[37.1801,-12.8382,494.4969],[37.1977,-12.8616,513.1267],[37.2383,-12.8763,463.0275],[37.2657,-12.8745,454.0529],[37.2872,-12.8787,448.6605],[37.3033,-12.8944,426.8951],[37.323,-12.9027,437.3748],[37.326,-12.9012,439.6739],[37.3493,-12.8616,436.251],[37.3831,-12.8496,409.7314],[37.4966,-12.8914,451.2701],[37.5583,-12.9457,527.1807],[37.6117,-12.9505,558.7574],[37.6499,-12.9481,798.2424],[37.7113,-12.9123,586.4626],[37.7205,-12.9182,596.6703],[37.7481,-12.9451,493.5114],[37.7665,-12.951,507.2566],[37.7722,-12.9872,487.9231],[37.7554,-13.0019,500.0022],[37.745,-13.0137,520.3027],[37.7389,-13.0495,594.507],[37.7266,-13.0912,692.2654],[37.6806,-13.1091,734.863],[37.6745,-13.1419,689.498],[37.7573,-13.2075,572.6755],[37.7512,-13.2195,569.9512],[37.7481,-13.2314,568.4739],[37.7726,-13.2493,565.5728],[37.7861,-13.2858,571.8549],[37.8248,-13.2642,524.3977],[37.834,-13.2702,565.7313],[37.8524,-13.2731,533.4339],[37.8698,-13.259,508.0811],[37.9137,-13.2761,531.7196],[37.9598,-13.2761,506.7079],[37.9812,-13.2552,502.2866],[38.0058,-13.2374,505.2901],[38.0202,-13.2216,482.4705],[38.0303,-13.2075,497.4033],[38.0456,-13.1807,479.6677],[38.0855,-13.1777,467.8375],[38.1346,-13.1419,436.3574],[38.1346,-13.1359,460.1478],[38.1319,-13.1369,457.4349],[38.1201,-13.1351,450.9667],[38.0972,-13.1285,463.2058],[38.0875,-13.1273,461.2181],[38.0548,-13.1061,481.826],[38.0351,-13.0976,499.9025],[38.023,-13.0942,506.8118],[37.9925,-13.0905,548.7034],[37.9814,-13.0806,564.3556],[37.9677,-13.0623,595.652],[37.9404,-13.0435,629.8807],[37.9415,-13.0344,634.7753],[37.9506,-13.0256,576.0463],[37.9628,-13.0047,539.8337],[38.0027,-12.9689,552.9271],[38.0119,-12.9481,498.5626],[38.0168,-12.8978,476.8625],[38.0226,-12.8858,439.0449],[38.0325,-12.8739,456.097],[38.0331,-12.8512,442.8032],[38.0508,-12.8159,465.1411],[38.0496,-12.8115,466.2196],[38.0444,-12.8059,433.1367],[38.0409,-12.7986,405.8264],[38.0436,-12.7805,401.7937],[38.0334,-12.7631,380.3935],[38.0487,-12.6856,363.6019],[38.0456,-12.6647,375.4156],[38.0286,-12.6454,354.8586],[38.0355,-12.6143,338.6978],[38.0409,-12.6005,327.5222],[38.0518,-12.5837,320.9453],[38.0518,-12.5663,329.9071],[38.0763,-12.507,301.8054],[38.0864,-12.4874,302.4828],[38.0789,-12.4666,292.9174],[38.0809,-12.4562,285.9288],[38.0916,-12.4291,278.8762],[38.1131,-12.4172,274.8563],[38.1284,-12.3963,267.955],[38.1622,-12.3695,255.7439],[38.2052,-12.3217,248.257],[38.2052,-12.286,242.2677],[38.2266,-12.2561,226.7626],[38.2309,-12.213,216.3939],[38.222,-12.1868,202.0]]]]}
,"properties": {"GID_3": "MOZ.8.6.1_1","GID_0": "MOZ","country": "Mozambique","GID_1": "MOZ.8_1","province": "Nassa","NL_NAME_1": "NA","GID_2": "MOZ.8.6_1","county": "Marrupa","NL_NAME_2": "NA","city": "Marangira","VARNAME_3": "NA","NL_NAME_3": "NA","TYPE_3": "Localidad","ENGTYPE_3": "Locality","CC_3": "NA","HASC_3": "NA","name": "Marangira.city","area_km2": 6967.415,"hist_schema_id": "Elevation0-9000","hist_area_km2": {"200": 3.585,"225": 38.211,"250": 138.324,"275": 247.554,"300": 368.28,"325": 484.394,"350": 741.789,"375": 820.641,"400": 798.453,"425": 762.879,"450": 604.218,"475": 433.441,"500": 338.422,"525": 305.396,"550": 249.113,"575": 178.241,"600": 129.922,"625": 105.094,"650": 77.773,"675": 55.884,"700": 30.05,"725": 17.019,"750": 14.147,"775": 9.893,"800": 3.471,"825": 2.397,"850": 2.397,"875": 1.798,"900": 1.054,"925": 0.951,"950": 0.599,"975": 0.434,"1000": 0.579,"1025": 0.455,"1050": 0.351,"1075": 0.103}}}