{"type": "Feature","bbox": [38.5317,-14.381,39.2169,-13.932],"geometry": {"type": "MultiPolygon","coordinates": [[[[39.1631,-13.932,273.6943],[39.1421,-13.934,274.7953],[39.1185,-13.9486,275.1944],[39.1067,-13.9586,265.5],[39.0856,-13.9722,276.2632],[39.0756,-13.9859,283.084],[39.0558,-14.0035,271.3076],[39.0481,-14.0075,279.6454],[39.0334,-14.0114,284.9557],[39.006,-14.0101,290.0522],[38.9862,-14.0172,286.5628],[38.955,-14.0373,281.0],[38.9225,-14.0538,286.499],[38.9045,-14.059,287.5586],[38.8798,-14.0713,286.5334],[38.8509,-14.0936,290.7679],[38.8223,-14.1127,292.192],[38.8106,-14.1129,303.9992],[38.7948,-14.1065,297.5559],[38.7795,-14.106,304.5265],[38.7672,-14.1181,298.1381],[38.7506,-14.1236,306.4063],[38.7358,-14.132,309.6502],[38.7155,-14.1525,300.881],[38.7035,-14.1525,300.5551],[38.6861,-14.1482,305.8782],[38.6874,-14.1639,305.3045],[38.6726,-14.1766,317.3256],[38.6548,-14.1888,318.9212],[38.6417,-14.1954,321.1284],[38.6239,-14.2157,324.6078],[38.6094,-14.2288,325.8432],[38.5925,-14.2403,323.7054],[38.591,-14.25,320.3907],[38.5924,-14.2584,326.3138],[38.5767,-14.2855,337.4063],[38.5673,-14.295,338.6097],[38.5562,-14.3026,343.3598],[38.5465,-14.3044,340.7604],[38.5392,-14.3135,332.5689],[38.5317,-14.3337,348.7266],[38.5437,-14.371,371.0255],[38.5489,-14.3765,389.8599],[38.6835,-14.3572,392.8543],[38.6912,-14.3621,394.3253],[38.696,-14.3743,386.4243],[38.729,-14.3694,412.3172],[38.7694,-14.381,425.455],[38.7707,-14.3645,410.7789],[38.786,-14.3366,397.4973],[38.8023,-14.3222,389.9849],[38.8185,-14.3184,384.6374],[38.8349,-14.3276,394.1595],[38.8571,-14.3352,401.3681],[38.871,-14.3339,411.5587],[38.8872,-14.3359,391.2784],[38.8909,-14.3255,382.4868],[38.8954,-14.2878,363.5415],[38.8927,-14.2793,362.7404],[38.8964,-14.2661,357.7777],[38.8907,-14.256,354.2972],[38.8882,-14.2456,348.253],[38.8935,-14.2416,350.8108],[38.9229,-14.2346,342.5135],[38.9262,-14.2292,342.6837],[38.9352,-14.2251,341.7742],[38.9397,-14.2203,337.1392],[38.9425,-14.2018,342.5279],[38.9482,-14.1938,333.9875],[38.9577,-14.187,335.9638],[38.9723,-14.18,328.6024],[38.9807,-14.1781,327.1859],[38.9892,-14.1728,323.4565],[39.0001,-14.1639,325.0413],[39.0025,-14.1586,320.1628],[39.0093,-14.1531,320.4565],[39.0176,-14.1415,312.6946],[39.0218,-14.1389,310.8123],[39.0232,-14.1425,316.1461],[39.0233,-14.1577,324.6139],[39.0221,-14.1623,322.3945],[39.0184,-14.1645,319.3117],[39.0173,-14.1693,322.0435],[39.0217,-14.1861,327.7512],[39.0255,-14.1915,329.3853],[39.0924,-14.2314,333.2695],[39.0986,-14.2243,335.0326],[39.1151,-14.1967,326.6056],[39.1209,-14.1908,322.9443],[39.1247,-14.1837,324.2595],[39.1226,-14.1666,318.9812],[39.1301,-14.1304,308.5405],[39.1434,-14.1178,328.7339],[39.1592,-14.115,318.0208],[39.1848,-14.1022,295.5481],[39.2028,-14.0756,295.5602],[39.2149,-14.0651,285.7147],[39.2169,-14.0468,284.9941],[39.216,-14.0343,281.8077],[39.2068,-14.0197,278.257],[39.1871,-13.9533,272.7965],[39.1723,-13.9385,274.4478],[39.1631,-13.932,273.6943]]]]}
,"properties": {"GID_3": "MOZ.7.6.3_1","GID_0": "MOZ","country": "Mozambique","GID_1": "MOZ.7_1","province": "Nampula","NL_NAME_1": "NA","GID_2": "MOZ.7.6_1","county": "Mecuburi","NL_NAME_2": "NA","city": "Muite","VARNAME_3": "NA","NL_NAME_3": "NA","TYPE_3": "Localidad","ENGTYPE_3": "Locality","CC_3": "NA","HASC_3": "NA","name": "Muite.city","area_km2": 1504.475,"hist_schema_id": "Elevation0-9000","hist_area_km2": {"250": 1.852,"275": 81.656,"300": 255.109,"325": 420.135,"350": 408.074,"375": 245.34,"400": 74.368,"425": 9.245,"450": 2.405,"475": 2.076,"500": 1.398,"525": 0.884,"550": 0.596,"575": 0.452,"600": 0.391,"625": 0.185,"650": 0.185,"675": 0.123}}}