{"type":"Feature","properties":{"featurecla":"River","scalerank":3,"rivernum":70,"dissolve":"70River","name":"Zambezi13","name_alt":null,"note":null,"min_zoom":3.0,"strokeweig":1.25,"name_en":"Zambezi","min_label":4.0},
"geometry":{"type": "LineString","coordinates": [[34.980566406250006,-17.27971770625588,48.7489],[34.9859375,-17.28093840938088,46.5],[34.989990234375,-17.290069268755886,48.0029],[35.00625,-17.31560637813088,47.5762],[35.009863281250006,-17.32952239375588,46.7516],[35.011962890625,-17.33440520625588,46.066],[35.022363281250023,-17.34807708125588,46.9877],[35.051513671875,-17.417315362505889,42.715],[35.060302734375,-17.45989348750588,40.8484],[35.064697265625,-17.46795012813088,39.5],[35.080322265625,-17.484405206255886,40.7768],[35.08544921875,-17.49212005000588,40.5769],[35.098388671875,-17.52776458125588,37.1241],[35.099511718750023,-17.53337981563088,36.5],[35.099365234375,-17.552276300005886,39.3366],[35.100683593750006,-17.55852630000588,38.6838],[35.105371093750023,-17.56755950313088,37.145],[35.11865234375,-17.58440520625588,36.3441],[35.134667968750023,-17.60076262813088,36.6803],[35.165917968750023,-17.62151458125588,33.3575],[35.191796875000023,-17.64421965938088,33.2039],[35.201269531250006,-17.64837005000588,32.6864],[35.20849609375,-17.65911223750588,31.8071],[35.221289062500006,-17.667998956255886,32.8742],[35.28564453125,-17.69939544063088,27.5],[35.308203125,-17.716827081255886,30.6832],[35.332421875000023,-17.73137786250588,29.0039],[35.343359375,-17.74041106563088,28.2022],[35.3765625,-17.780108331255889,25.7024],[35.390039062500023,-17.787432550005889,25.151],[35.395898437500023,-17.79705169063088,25.4503],[35.4130859375,-17.811553643755886,23.0],[35.417578125,-17.81926848750588,25.1078],[35.422949218750006,-17.82048919063088,24.742],[35.428808593750006,-17.83684661250588,24.6061],[35.43515625,-17.87249114375588,24.7733],[35.440185546875,-17.888995050005889,24.0545],[35.448632812500023,-17.89983489375588,23.8139],[35.485253906250023,-17.91912200313088,23.153199999999998],[35.49755859375,-17.92962005000588,21.8945],[35.505859375,-17.940948175005886,21.6433],[35.517822265625,-17.968096612505889,20.1684],[35.525976562500006,-17.97991301875588,20.9134],[35.537207031250006,-17.98674895625588,20.3109],[35.549902343750006,-17.992022393755889,21.8177],[35.5625,-17.99920012813088,19.0117],[35.59326171875,-18.02825286250588,30.5515],[35.606640625000011,-18.03362395625588,32.0556],[35.61962890625,-18.03362395625588,20.0716],[35.64501953125,-18.027373956255886,15.8998],[35.654541015625,-18.026202081255889,17.9152],[35.669042968750006,-18.03020598750588,15.6466],[35.69287109375,-18.04363372188088,16.6514],[35.724511718750023,-18.050811456255886,14.0],[35.744726562500006,-18.06170012813088,13.5],[35.78125,-18.09124114375588,15.0501],[35.830957031250023,-18.113311456255886,11.5],[35.850683593750006,-18.12932708125588,12.8422],[35.840039062500011,-18.14959075313088,11.0],[35.866308593750006,-18.17498137813088,12.0937],[35.87353515625,-18.18377044063088,10.8778],[35.888916015625,-18.21062590938088,8.5],[35.895410156250023,-18.21795012813088,12.4388],[35.892675781250006,-18.24358489375588,10.0778],[35.912841796875,-18.26336028438088,10.3858],[35.97412109375,-18.292803643755889,5.5],[36.01708984375,-18.307940362505889,7.9299],[36.027587890625,-18.31487395625588,7.6475],[36.041113281250006,-18.332061456255886,6.6537],[36.0517578125,-18.34197356563088,7.4238],[36.073144531250023,-18.352080987505886,4.5],[36.087646484375,-18.368487237505889,6.4199],[36.09765625,-18.38713958125588,6.0121],[36.106347656250023,-18.41033294063088,6.3233],[36.112207031250023,-18.43474700313088,8.9392],[36.116943359375,-18.446807550005886,4.2417],[36.123779296875,-18.45183684688088,9.7598],[36.124267578125,-18.459991143755886,2.5],[36.138085937500023,-18.498077081255886,5.0107],[36.14453125,-18.50994231563088,4.9543],[36.149121093750011,-18.521319268755889,1.0],[36.14794921875,-18.56731536250588,6.3657],[36.152734375000023,-18.58123137813088,4.2993],[36.1578125,-18.59197356563088,5.7427],[36.155371093750006,-18.598955987505889,7.0117],[36.1376953125,-18.60149505000588,5.9832],[36.11865234375,-18.615264581255886,5.0271],[36.11474609375,-18.64641692500588,3.0003],[36.119531250000023,-18.679034112505889,4.0967],[36.126953125,-18.69768645625588,2.9409],[36.108007812500006,-18.70598723750588,10.8593],[36.111914062500006,-18.71599700313088,1.5341],[36.13037109375,-18.720245050005886,5.4243],[36.15478515625,-18.71135833125588,3.8008],[36.172265625000023,-18.735870050005886,5.2391],[36.190185546875,-18.75432708125588,7.6249],[36.191650390625,-18.76043059688088,0.0],[36.174072265625,-18.785967706255889,5.6307],[36.162353515625,-18.79680755000588,2.8225],[36.148681640625,-18.80437590938088,7.6515],[36.134375,-18.80754973750588,4.3788]]}}