{"type": "Feature","bbox": [35.8896,-12.7024,36.5267,-11.6814],"geometry": {"type": "MultiPolygon","coordinates": [[[[36.5267,-11.7277,496.842],[36.5165,-11.7264,486.4145],[36.5093,-11.7204,466.0685],[36.5036,-11.708,471.1159],[36.5014,-11.6928,469.762],[36.4995,-11.6903,467.3353],[36.493,-11.6881,478.6671],[36.4752,-11.6863,483.2942],[36.4412,-11.6885,477.0227],[36.4199,-11.6916,481.4214],[36.4111,-11.6903,480.2495],[36.3923,-11.6816,470.9647],[36.383,-11.6814,468.0337],[36.3779,-11.6842,466.3442],[36.3647,-11.7036,467.2281],[36.3425,-11.7041,483.7345],[36.3171,-11.7019,496.3068],[36.2932,-11.7087,485.1872],[36.2871,-11.708,482.3675],[36.2751,-11.7264,480.5679],[36.2834,-11.7274,477.7018],[36.285,-11.736,480.5523],[36.2583,-11.7592,483.9346],[36.24,-11.786,485.6843],[36.2248,-11.801,496.6551],[36.2217,-11.8129,493.1245],[36.2095,-11.8248,492.1548],[36.1942,-11.8338,502.7699],[36.1904,-11.8394,516.5486],[36.1773,-11.843,508.736],[36.1698,-11.8597,508.2866],[36.1559,-11.8715,515.7226],[36.1521,-11.8766,514.1502],[36.1455,-11.906,521.0614],[36.1305,-11.9418,534.5293],[36.1255,-11.9452,540.8749],[36.1197,-11.9552,544.396],[36.1049,-11.9707,533.1089],[36.1047,-11.9833,548.058],[36.1002,-11.9896,544.7196],[36.0864,-11.9975,544.5085],[36.0844,-12.0097,549.9861],[36.0692,-12.0217,547.8461],[36.0387,-12.0395,556.3311],[36.0356,-12.0545,562.2556],[36.0173,-12.0783,570.8165],[36.002,-12.1052,572.0175],[35.9868,-12.1499,605.9221],[35.9746,-12.1708,615.1931],[35.9624,-12.1827,599.1808],[35.9441,-12.1917,627.8034],[35.9319,-12.1946,628.3077],[35.9136,-12.2125,601.2247],[35.9075,-12.2304,626.9518],[35.8896,-12.235,650.5857],[35.898,-12.286,671.6813],[35.8953,-12.302,673.4998],[35.896,-12.3096,672.0579],[35.9016,-12.3202,681.7671],[35.8899,-12.3721,697.4957],[35.8906,-12.4111,713.6313],[35.9197,-12.4452,759.5491],[35.9288,-12.472,783.7126],[35.9337,-12.5328,824.0265],[35.9446,-12.5577,865.7209],[35.9447,-12.5633,886.9437],[35.9471,-12.5675,907.0552],[35.9471,-12.5764,1029.3785],[35.9492,-12.5814,1118.0234],[35.9678,-12.5937,1049.5208],[35.9749,-12.6008,966.7251],[35.9929,-12.636,908.4998],[36.0051,-12.651,829.7406],[36.01,-12.6542,836.8527],[36.0134,-12.6711,876.9268],[36.0146,-12.6895,1074.5704],[36.0184,-12.6978,988.808],[36.0388,-12.6846,970.3925],[36.0502,-12.6736,966.4086],[36.0644,-12.6637,934.0331],[36.077,-12.66,906.9142],[36.1352,-12.6654,822.8311],[36.1543,-12.6762,783.2706],[36.1767,-12.6794,786.9792],[36.1881,-12.6778,756.1661],[36.1938,-12.6825,781.5226],[36.2066,-12.6815,753.243],[36.225,-12.6834,713.6218],[36.243,-12.6884,706.3974],[36.2626,-12.7017,669.3683],[36.2758,-12.7024,683.9423],[36.2827,-12.6957,673.2681],[36.3193,-12.6718,646.1074],[36.3268,-12.6645,652.3935],[36.3591,-12.6559,637.1306],[36.3773,-12.5794,740.7036],[36.3773,-12.4869,708.3275],[36.4028,-12.4485,657.4464],[36.4078,-12.4243,652.2174],[36.4036,-12.4094,638.4706],[36.3925,-12.3945,619.7578],[36.3773,-12.3796,619.1917],[36.4017,-12.3348,632.9298],[36.3767,-12.3089,613.6421],[36.3498,-12.2722,586.4396],[36.3498,-12.2603,582.6035],[36.3712,-12.2185,569.7332],[36.3681,-12.1887,563.0409],[36.362,-12.1678,558.8092],[36.362,-12.1201,548.7264],[36.3712,-12.0903,537.1839],[36.3727,-12.0786,537.0188],[36.3834,-12.0485,572.002],[36.3773,-12.0097,539.5156],[36.3681,-11.9769,527.8256],[36.3651,-11.9531,508.0933],[36.3742,-11.9292,507.0508],[36.3895,-11.8994,497.5004],[36.42,-11.8695,540.7559],[36.4139,-11.8487,517.6661],[36.4139,-11.8248,489.3649],[36.4383,-11.8129,503.9025],[36.4596,-11.8099,511.2683],[36.4596,-11.789,514.887],[36.4719,-11.7711,506.9976],[36.5267,-11.7277,496.842]]]]}
,"properties": {"GID_3": "MOZ.8.8.2_1","GID_0": "MOZ","country": "Mozambique","GID_1": "MOZ.8_1","province": "Nassa","NL_NAME_1": "NA","GID_2": "MOZ.8.8_1","county": "Mavago","NL_NAME_2": "NA","city": "Mavago-Sede","VARNAME_3": "NA","NL_NAME_3": "NA","TYPE_3": "Localidad","ENGTYPE_3": "Locality","CC_3": "NA","HASC_3": "NA","name": "Mavago-Sede.city","area_km2": 4348.601,"hist_schema_id": "Elevation0-9000","hist_area_km2": {"450": 0.519,"475": 87.917,"500": 208.045,"525": 369.552,"550": 326.972,"575": 280.453,"600": 318.685,"625": 336.1,"650": 306.777,"675": 288.131,"700": 268.205,"725": 233.004,"750": 191.856,"775": 170.279,"800": 158.34,"825": 131.842,"850": 93.884,"875": 74.157,"900": 68.091,"925": 55.839,"950": 46.112,"975": 42.884,"1000": 45.286,"1025": 49.739,"1050": 51.086,"1075": 47.59,"1100": 37.551,"1125": 27.015,"1150": 16.21,"1175": 9.71,"1200": 4.783,"1225": 1.387,"1250": 0.559,"1275": 0.041}}}