{"type":"Feature","properties":{"GID_3":"MOZ.10.4.1_1","GID_0":"MOZ","country":"Mozambique","GID_1":"MOZ.10_1","province":"Tete","NL_NAME_1":"NA","GID_2":"MOZ.10.4_1","county":"Chifunde","NL_NAME_2":"NA","city":"Chifunde","VARNAME_3":"NA","NL_NAME_3":"NA","TYPE_3":"Localidad","ENGTYPE_3":"Locality","CC_3":"NA","HASC_3":"NA","name":"Chifunde.city"},
"geometry":{"type": "MultiPolygon","coordinates": [[[[32.8217,-14.7139,449.6412],[32.8219,-14.7164,459.049],[32.7392,-14.7798,493.927],[32.7002,-14.812,532.3631],[32.6539,-14.8372,496.2802],[32.6437,-14.8447,490.0021],[32.6372,-14.8588,483.915],[32.626,-14.9052,466.2867],[32.6169,-14.9103,464.675],[32.61,-14.9345,422.6606],[32.6303,-14.9661,423.2649],[32.6415,-15.0003,440.2075],[32.6404,-15.0204,401.5612],[32.6459,-15.0383,389.7891],[32.6657,-15.0647,385.4796],[32.6746,-15.0862,387.017],[32.6933,-15.1211,354.4613],[32.714,-15.1551,365.9066],[32.7294,-15.1723,348.085],[32.7358,-15.177,345.9585],[32.7474,-15.1804,351.0869],[32.7555,-15.1882,347.4552],[32.7876,-15.2395,373.5924],[32.8071,-15.3084,313.1835],[32.8176,-15.3225,310.9288],[32.8289,-15.3291,291.196],[32.8594,-15.3419,267.2548],[32.8735,-15.3693,287.8375],[32.8985,-15.3972,269.0582],[32.9119,-15.4185,227.1664],[32.9197,-15.4273,237.0268],[32.918,-15.4155,234.6711],[32.9205,-15.4111,238.0651],[32.9434,-15.3921,325.0711],[32.9459,-15.386,290.4347],[32.9619,-15.3722,329.5294],[32.9686,-15.3632,330.1952],[32.9748,-15.34,332.9914],[32.976,-15.3266,346.1513],[32.9791,-15.3145,359.8022],[32.991,-15.3049,355.3971],[32.9901,-15.2994,372.3842],[32.9842,-15.2931,373.7242],[32.9802,-15.2832,377.5587],[32.981,-15.2749,393.3337],[32.9833,-15.264,406.881],[32.9884,-15.2561,403.6864],[32.9929,-15.2554,416.0594],[32.9995,-15.2321,405.4837],[32.9959,-15.2277,409.1957],[32.9963,-15.2207,412.6044],[33.0017,-15.2067,406.6039],[33.0049,-15.2029,421.2188],[33.037,-15.2035,425.7055],[33.0396,-15.2018,426.5317],[33.0381,-15.1922,425.6825],[33.0404,-15.1881,424.8628],[33.0506,-15.1791,433.6276],[33.0548,-15.1702,438.3105],[33.0614,-15.1636,439.7888],[33.0535,-15.1554,445.1773],[33.0631,-15.1438,457.4761],[33.0711,-15.1398,456.5176],[33.1009,-15.1323,472.2721],[33.1047,-15.1279,471.5193],[33.1062,-15.1223,474.5664],[33.1097,-15.1173,481.0318],[33.1156,-15.1171,480.6426],[33.1184,-15.115,477.8484],[33.1168,-15.1104,479.9584],[33.1185,-15.1074,480.9656],[33.1256,-15.1055,482.6484],[33.1348,-15.1056,491.2267],[33.1733,-15.0862,506.4812],[33.186,-15.0769,511.6482],[33.1917,-15.07,517.6221],[33.1997,-15.0687,518.8237],[33.2012,-15.0651,524.4233],[33.1997,-15.062,522.6498],[33.2017,-15.0592,529.3121],[33.208,-15.0566,529.8196],[33.2088,-15.0498,536.5822],[33.2066,-15.0434,542.7578],[33.1915,-15.0179,562.8137],[33.1895,-15.0066,593.2983],[33.1893,-14.9742,719.1774],[33.1351,-14.834,588.5081],[33.1463,-14.8264,597.7899],[33.1621,-14.812,605.0656],[33.163,-14.8057,611.652],[33.1702,-14.8034,605.7853],[33.1742,-14.798,621.0217],[33.1779,-14.7902,623.1859],[33.1834,-14.7577,635.9255],[33.1783,-14.7432,641.692],[33.1804,-14.7374,651.4416],[33.1902,-14.7404,657.2396],[33.1964,-14.7295,662.6873],[33.2014,-14.6907,688.5209],[33.2109,-14.6757,683.6099],[33.2256,-14.6607,685.6583],[33.2373,-14.6457,694.2905],[33.2471,-14.6291,707.9666],[33.2474,-14.6247,720.7836],[33.224,-14.6269,1054.2324],[33.2083,-14.6246,957.9436],[33.1901,-14.6143,746.2925],[33.1894,-14.6417,708.9469],[33.1875,-14.6505,701.9263],[33.1811,-14.6547,698.0551],[33.1709,-14.656,689.8561],[33.1612,-14.6605,678.9285],[33.1517,-14.6609,673.6392],[33.134,-14.6673,667.3136],[33.1269,-14.6717,657.2089],[33.1154,-14.6719,647.1219],[33.0992,-14.6698,639.5508],[33.0656,-14.6788,613.8799],[33.0413,-14.6829,613.6143],[33.0315,-14.6778,582.4307],[33.022,-14.6755,576.6385],[33.0207,-14.6731,578.3195],[33.0101,-14.6805,569.4752],[33.0064,-14.68,580.2672],[33.0004,-14.6749,575.5283],[32.9921,-14.6739,576.014],[32.9692,-14.6669,584.8397],[32.9584,-14.6593,548.7709],[32.9449,-14.6602,580.9238],[32.9345,-14.6632,534.0684],[32.9256,-14.6713,556.356],[32.8746,-14.6831,488.0524],[32.8217,-14.7139,449.6412]]]]}}