{"type":"Feature","properties":{"GID_3":"MOZ.3.1.1_1","GID_0":"MOZ","country":"Mozambique","GID_1":"MOZ.3_1","province":"Inhambane","NL_NAME_1":"NA","GID_2":"MOZ.3.1_1","county":"Funhalouro","NL_NAME_2":"NA","city":"Funhalouro","VARNAME_3":"NA","NL_NAME_3":"NA","TYPE_3":"Localidad","ENGTYPE_3":"Locality","CC_3":"NA","HASC_3":"NA","name":"Funhalouro.city"},
"geometry":{"type": "MultiPolygon","coordinates": [[[[33.94,-23.5837,34.5901],[33.9724,-23.5738,50.4927],[33.9837,-23.5752,55.331],[33.9882,-23.5788,54.7469],[33.9908,-23.5889,59.931399999999996],[34.0009,-23.6115,64.0424],[34.0168,-23.6593,62.5015],[34.0299,-23.6496,66.4694],[34.0853,-23.6991,83.5162],[34.7991,-23.7022,105.5355],[34.7911,-23.623,103.6868],[34.8047,-23.5187,119.6038],[34.8205,-23.467,106.0352],[34.8939,-23.2013,116.0284],[34.9523,-23.0562,144.9302],[34.8859,-22.9988,108.7189],[34.8645,-22.9873,110.3079],[34.8661,-22.875,119.3541],[34.7863,-22.8638,110.7693],[34.773,-22.8654,111.5997],[34.6054,-22.867,139.1754],[34.4735,-22.8066,140.7167],[34.4502,-22.8037,134.0116],[34.3658,-22.8437,126.1995],[34.2182,-22.8658,126.9879],[34.151,-22.9116,133.7535],[34.0598,-22.9987,111.2924],[34.0003,-23.0605,94.3747],[33.8492,-23.1349,59.7405],[33.8073,-23.1377,53.8217],[33.81,-23.1444,50.7744],[33.8203,-23.1479,48.7926],[33.8294,-23.153199999999998,47.986],[33.8281,-23.1761,49.6613],[33.8441,-23.179,49.0851],[33.8495,-23.1868,51.8621],[33.8459,-23.2341,46.787],[33.8563,-23.2418,48.3854],[33.8678,-23.2562,46.0785],[33.875,-23.2697,46.3316],[33.8712,-23.2813,47.0762],[33.8699,-23.298,45.3163],[33.8791,-23.3221,47.1437],[33.9013,-23.3253,44.1788],[33.9021,-23.3356,43.8621],[33.8416,-23.3582,41.8422],[33.8459,-23.3796,41.2567],[33.8429,-23.3887,41.1654],[33.8634,-23.3979,44.6625],[33.8633,-23.4177,39.9724],[33.8656,-23.4308,44.1271],[33.8709,-23.4371,39.7015],[33.8741,-23.4355,40.5952],[33.8796,-23.4399,40.0044],[33.8852,-23.467,38.3393],[33.8883,-23.4749,37.5499],[33.8953,-23.4842,41.7333],[33.9091,-23.4816,37.0095],[33.927,-23.4911,37.5402],[33.9272,-23.5027,37.7585],[33.9305,-23.5077,37.0643],[33.9403,-23.539,36.5418],[33.9473,-23.5454,35.0764],[33.9452,-23.5564,35.8291],[33.9345,-23.5652,33.8678],[33.9303,-23.5753,35.0692],[33.94,-23.5837,34.5901]]]]}}