{"type": "Feature","bbox": [32.7004,-19.0291,33.0498,-18.7098],"geometry": {"type": "MultiPolygon","coordinates": [[[[32.9342,-18.9177,658.2841],[32.9354,-18.9158,658.458],[32.9447,-18.9137,670.8997],[32.9799,-18.8997,653.3046],[32.9836,-18.9027,652.9799],[32.9904,-18.9011,674.2267],[33.0056,-18.9202,642.8525],[33.0167,-18.9238,637.3584],[33.0321,-18.934,632.1479],[33.0363,-18.9262,632.9099],[33.0498,-18.8865,649.6501],[33.0483,-18.8624,663.7002],[33.0424,-18.8473,665.3389],[33.0346,-18.8419,682.0368],[32.9988,-18.8284,807.577],[32.9911,-18.8217,805.3095],[32.9854,-18.8142,801.3459],[32.9825,-18.8061,804.4235],[32.9811,-18.7768,817.1612],[32.9712,-18.7573,830.5318],[32.9652,-18.7495,938.3138],[32.965,-18.7402,954.9946],[32.9626,-18.7357,1079.7092],[32.9639,-18.7292,1056.9779],[32.963,-18.7233,1098.7363],[32.9602,-18.7222,1058.7819],[32.9504,-18.7098,1092.1963],[32.9333,-18.7443,1032.7307],[32.9325,-18.753,1116.238],[32.9278,-18.7663,1264.6685],[32.9207,-18.7759,1290.8079],[32.9091,-18.7868,1418.1525],[32.8924,-18.7963,1243.3806],[32.8776,-18.7972,1184.2511],[32.843,-18.779,1587.303],[32.827,-18.7775,1728.1642],[32.8137,-18.7813,1789.3485],[32.7973,-18.7896,1821.2921],[32.7895,-18.7965,1742.2993],[32.7772,-18.7998,1790.0847],[32.7589,-18.8142,1786.1844],[32.7483,-18.8171,1697.894],[32.7396,-18.8164,1843.3839],[32.734,-18.8182,1716.4078],[32.7119,-18.8336,1661.557],[32.7041,-18.8444,1645.9485],[32.7047,-18.8568,1483.4634],[32.7186,-18.8769,1423.6057],[32.724,-18.8911,1389.2946],[32.7307,-18.9254,1498.9215],[32.7297,-18.9293,1541.4563],[32.7024,-18.936,1597.0719],[32.7004,-18.9406,1535.3246],[32.7078,-18.9785,1130.5253],[32.7096,-19.0018,915.3167],[32.7155,-19.0183,1093.0631],[32.7227,-19.0248,1063.1819],[32.7398,-19.0291,1035.824],[32.757,-19.029,1306.3359],[32.765,-19.0281,1457.7637],[32.7798,-19.0214,1392.0902],[32.8013,-19.0169,1307.49],[32.8328,-19.0163,1218.4557],[32.8441,-19.0093,1259.5258],[32.8542,-18.9989,1205.4551],[32.8554,-18.971,1030.536],[32.8535,-18.9628,813.8575],[32.8515,-18.9605,788.5591],[32.8161,-18.9482,768.2022],[32.8115,-18.944,773.4682],[32.8066,-18.9423,770.179],[32.8036,-18.9255,841.9958],[32.8061,-18.92,812.5398],[32.8122,-18.9136,809.9481],[32.8238,-18.9074,781.8811],[32.8327,-18.8945,750.2078],[32.8465,-18.8887,733.8084],[32.8545,-18.8897,715.46],[32.8611,-18.8876,712.7993],[32.8939,-18.8965,683.1884],[32.9342,-18.9177,658.2841]]]]}
,"properties": {"GID_3": "MOZ.4.6.1_1","GID_0": "MOZ","country": "Mozambique","GID_1": "MOZ.4_1","province": "Manica","NL_NAME_1": "NA","GID_2": "MOZ.4.6_1","county": "Manica","NL_NAME_2": "NA","city": "Machipanda","VARNAME_3": "NA","NL_NAME_3": "NA","TYPE_3": "Localidad","ENGTYPE_3": "Locality","CC_3": "NA","HASC_3": "NA","name": "Machipanda.city","area_km2": 601.1039,"hist_schema_id": "Elevation0-9000","hist_area_km2": {"625": 0.4412,"650": 7.9632,"675": 20.9223,"700": 22.8694,"725": 15.7077,"750": 16.6687,"775": 20.919,"800": 26.7772,"825": 34.0618,"850": 30.8329,"875": 32.135,"900": 29.0867,"925": 25.8977,"950": 25.8987,"975": 24.0135,"1000": 22.3492,"1025": 21.5873,"1050": 21.1467,"1075": 17.8167,"1100": 18.4987,"1125": 15.8902,"1150": 14.4254,"1175": 12.9605,"1200": 11.0747,"1225": 9.8508,"1250": 9.088,"1275": 8.4867,"1300": 7.5637,"1325": 6.641,"1350": 5.8786,"1375": 5.5776,"1400": 4.9759,"1425": 4.7552,"1450": 4.3543,"1475": 4.5952,"1500": 4.555,"1525": 4.4547,"1550": 4.3543,"1575": 4.7757,"1600": 4.0334,"1625": 3.6322,"1650": 3.4918,"1675": 2.7495,"1700": 2.3682,"1725": 1.7461,"1750": 1.4852,"1775": 0.9032,"1800": 0.3211,"1825": 0.3613,"1850": 0.1204,"1875": 0.0401}}}