{"type": "Feature","bbox": [34.7911,-24.2209,35.3779,-23.5971],"geometry": {"type": "MultiPolygon","coordinates": [[[[35.1662,-24.0912,70.7857],[35.2389,-24.0517,144.2003],[35.2442,-24.0532,135.0094],[35.3143,-24.0459,1.3869],[35.3176,-24.0418,1.8492],[35.3178,-24.0364,1.7775],[35.3285,-24.0206,5.9384],[35.3263,-24.0146,3.325],[35.3311,-24.0098,4.324],[35.3318,-24.0039,5.3383],[35.3349,-23.9971,1.5916],[35.3326,-23.9985,3.2544],[35.329,-24.0051,1.3954],[35.3307,-23.9932,0.0],[35.3332,-23.9907,0.0],[35.3324,-23.9835,2.1804],[35.3338,-23.9807,0.0],[35.3329,-23.9746,0.0],[35.3232,-23.9549,0.2552],[35.3243,-23.9499,0.0],[35.3288,-23.9449,0.3867],[35.3343,-23.9415,0.4812],[35.3357,-23.9421,0.3588],[35.3346,-23.9312,0.0],[35.3396,-23.9246,0.0],[35.3401,-23.9199,0.0],[35.3429,-23.9201,0.0],[35.3429,-23.9165,0.0],[35.3457,-23.911,0.2785],[35.346,-23.9079,0.3497],[35.3418,-23.904,0.3641],[35.3376,-23.8932,6.2647],[35.3368,-23.8862,0.9476],[35.339,-23.8785,0.0],[35.3449,-23.871,6.6049],[35.349,-23.8688,0.0],[35.351,-23.8643,4.8643],[35.3496,-23.8579,0.0],[35.3504,-23.8501,0.0],[35.3485,-23.8457,6.4804],[35.3488,-23.8432,8.0334],[35.3507,-23.8426,5.2228],[35.3496,-23.8371,0.0],[35.3521,-23.8318,0.5588],[35.3496,-23.8232,0.0],[35.3493,-23.8115,0.0],[35.3515,-23.8026,0.9747],[35.359,-23.7935,1.6692],[35.3596,-23.7885,0.0],[35.3621,-23.7854,0.0],[35.361,-23.7824,2.8985],[35.3635,-23.7796,0.0],[35.3649,-23.7646,3.9918],[35.3621,-23.7501,1.8323],[35.366,-23.7465,0.0],[35.3646,-23.7451,2.8937],[35.3674,-23.739,0.8375],[35.3679,-23.7251,0.0],[35.371,-23.7138,5.8986],[35.3779,-23.6985,0.0],[35.3732,-23.6896,14.422],[35.3668,-23.6876,0.0],[35.3596,-23.689,0.0],[35.3582,-23.6915,29.7147],[35.3438,-23.6935,1.1101],[35.3449,-23.6987,10.1999],[35.3429,-23.706,5.8234],[35.3379,-23.7096,1.356],[35.3332,-23.716,5.6332],[35.3293,-23.7154,2.0881],[35.3277,-23.7121,1.8709],[35.3246,-23.7489,2.1978],[35.3178,-23.7503,1.4357],[35.3169,-23.7568,7.8545],[35.3094,-23.7584,1.3876],[35.3057,-23.767,2.1658],[35.2945,-23.777,3.0682],[35.2839,-23.779,19.5543],[35.2734,-23.7913,7.997],[35.2725,-23.7993,4.0799],[35.2432,-23.7917,9.6704],[35.2133,-23.7888,43.3849],[35.1718,-23.779,59.3822],[35.1572,-23.7816,71.418],[35.153,-23.7438,173.0196],[35.101,-23.6836,202.8483],[35.0083,-23.5971,153.5731],[34.9998,-23.6007,157.246],[34.7911,-23.623,103.6868],[34.8174,-23.8558,112.5647],[34.9058,-23.9058,118.7844],[34.9994,-23.9404,99.5301],[35.0004,-23.9997,68.8573],[34.9374,-24.2076,53.5191],[34.9461,-24.2163,53.5709],[34.9592,-24.2207,54.0041],[34.9772,-24.2209,54.7009],[35.003,-24.2156,55.6969],[35.0092,-24.2129,54.0052],[35.0136,-24.2011,54.5484],[35.022,-24.1963,54.6774],[35.0432,-24.1891,54.9571],[35.0765,-24.1672,57.5718],[35.072,-24.1631,57.3202],[35.1662,-24.0912,70.7857]]]]}
,"properties": {"GID_2": "MOZ.3.3_1","GID_0": "MOZ","country": "Mozambique","GID_1": "MOZ.3_1","province": "Inhambane","NL_NAME_1": "NA","county": "Homoine","VARNAME_2": "NA","NL_NAME_2": "NA","TYPE_2": "Distrito","ENGTYPE_2": "District","CC_2": "NA","HASC_2": "MZ.IN.HO","name": "Homoine.county","area_km2": 2205.776,"hist_schema_id": "Elevation0-9000","hist_area_km2": {"0": 62.571,"25": 127.889,"50": 370.29,"75": 340.886,"100": 240.23,"125": 263.462,"150": 324.629,"175": 382.778,"200": 75.302,"225": 17.738}}}