{"type":"Feature","properties":{"GID_3":"MOZ.6.2.5_1","GID_0":"MOZ","country":"Mozambique","GID_1":"MOZ.6_1","province":"Maputo","NL_NAME_1":"NA","GID_2":"MOZ.6.2_1","county":"Magude","NL_NAME_2":"NA","city":"Panjane","VARNAME_3":"NA","NL_NAME_3":"NA","TYPE_3":"Localidad","ENGTYPE_3":"Locality","CC_3":"NA","HASC_3":"NA","name":"Panjane.city"},
"geometry":{"type": "MultiPolygon","coordinates": [[[[32.4794,-24.7268,76.7737],[32.4692,-24.7321,72.5529],[32.4544,-24.7311,77.4567],[32.4348,-24.7388,101.1941],[32.4094,-24.7419,117.7469],[32.3731,-24.7393,144.6927],[32.3416,-24.7273,163.7619],[32.3336,-24.7217,168.0167],[32.3178,-24.7293,188.7321],[32.3126,-24.7361,189.3153],[32.3124,-24.7449,193.6132],[32.3092,-24.7505,195.0512],[32.2909,-24.773,219.0747],[32.2811,-24.7762,217.8129],[32.262,-24.7684,192.3003],[32.2466,-24.7813,155.6636],[32.2575,-24.7938,165.545],[32.2584,-24.8024,150.8542],[32.2345,-24.8074,131.9703],[32.1815,-24.8328,110.6447],[32.1831,-24.8381,108.3316],[32.1807,-24.8464,103.0269],[32.1866,-24.8517,108.1601],[32.2087,-24.8528,104.014],[32.2202,-24.8609,107.081],[32.2284,-24.8761,101.6775],[32.2428,-24.8762,98.8681],[32.2475,-24.8813,93.2609],[32.2465,-24.8869,97.9853],[32.2489,-24.8881,99.4625],[32.2545,-24.8873,97.6476],[32.2594,-24.8894,95.2229],[32.2604,-24.8951,95.5733],[32.2438,-24.9066,92.6137],[32.2448,-24.9103,94.1758],[32.2631,-24.9107,93.5227],[32.2799,-24.9156,91.2466],[32.2883,-24.9135,87.8951],[32.293,-24.8754,92.1069],[32.3071,-24.8899,78.1107],[32.3087,-24.8993,83.549],[32.3149,-24.9022,80.3882],[32.3285,-24.9007,79.1115],[32.3372,-24.8971,78.1569],[32.3467,-24.9035,75.3947],[32.338,-24.92,81.4366],[32.3372,-24.9336,73.7138],[32.3487,-24.9407,72.8557],[32.3547,-24.9407,71.7208],[32.3615,-24.9431,73.2458],[32.3553,-24.9522,70.6984],[32.361,-24.9578,72.4768],[32.3652,-24.9597,68.9869],[32.3762,-24.954,76.5581],[32.3819,-24.9545,84.9744],[32.3971,-24.9782,63.0068],[32.4089,-24.9931,65.2435],[32.4096,-24.9994,62.1777],[32.3784,-25.0257,61.2717],[32.3772,-25.0287,59.4261],[32.3743,-25.0424,56.0056],[32.3766,-25.0564,50.5396],[32.383,-25.0647,54.1201],[32.383,-25.0538,55.4664],[32.3876,-25.0504,54.2675],[32.4048,-25.0504,55.3864],[32.4223,-25.0472,56.0471],[32.4352,-25.0356,80.146],[32.4548,-25.0352,96.7121],[32.4674,-25.0437,106.659],[32.4749,-25.0409,97.7215],[32.4925,-25.0409,98.9393],[32.5276,-25.0346,67.1794],[32.5451,-25.0346,48.8364],[32.5732,-25.0189,30.7531],[32.5978,-25.0182,37.1103],[32.5949,-25.0023,35.7701],[32.5837,-24.9747,55.8532],[32.5802,-24.959,43.8039],[32.5802,-24.9338,57.8556],[32.5697,-24.9275,59.1829],[32.5662,-24.9086,56.2956],[32.5416,-24.8928,51.5634],[32.5381,-24.8834,53.5217],[32.5381,-24.8707,64.7445],[32.541,-24.8577,68.7301],[32.5483,-24.8461,71.543],[32.5284,-24.8452,69.7638],[32.5138,-24.8328,54.1123],[32.502,-24.8253,61.2219],[32.489,-24.8109,68.1524],[32.489,-24.7768,67.2437],[32.5133,-24.7762,66.4227],[32.5168,-24.7723,59.9903],[32.5131,-24.7634,63.8106],[32.497,-24.7577,68.8192],[32.4925,-24.7479,72.9471],[32.4957,-24.745,72.2724],[32.4794,-24.7268,76.7737]]]]}}