{"type": "Feature","bbox": [33.3429,-19.6204,33.7912,-19.1748],"geometry": {"type": "MultiPolygon","coordinates": [[[[33.6385,-19.2208,472.0513],[33.5731,-19.1765,513.2059],[33.5611,-19.1748,523.7695],[33.5119,-19.1851,577.017],[33.4789,-19.2148,621.2772],[33.4443,-19.238,601.8242],[33.4252,-19.2588,585.743],[33.4056,-19.2738,570.7277],[33.405,-19.2815,565.7413],[33.3849,-19.295,565.215],[33.3764,-19.2971,556.5349],[33.3673,-19.303,568.1745],[33.362,-19.3226,549.2896],[33.3637,-19.333,547.6573],[33.3494,-19.3656,535.2596],[33.3429,-19.3748,537.1531],[33.3457,-19.3792,531.1529],[33.3617,-19.3816,511.7531],[33.369,-19.3965,523.4673],[33.3879,-19.421,500.1304],[33.3943,-19.4268,493.6856],[33.404,-19.429,497.5934],[33.4055,-19.4427,514.1838],[33.4187,-19.4461,469.0858],[33.4319,-19.4563,469.3436],[33.4381,-19.4677,469.1342],[33.4428,-19.512,371.6239],[33.449,-19.5227,390.8475],[33.4556,-19.5266,397.1828],[33.4776,-19.5207,347.3022],[33.4915,-19.5221,348.212],[33.5073,-19.5274,365.794],[33.5125,-19.5332,219.7059],[33.5117,-19.5502,179.2937],[33.5194,-19.5581,153.5605],[33.5256,-19.5609,137.9437],[33.5279,-19.5792,112.3188],[33.5419,-19.5831,105.644],[33.5527,-19.5795,102.0078],[33.5893,-19.5769,110.2051],[33.6001,-19.5854,120.5914],[33.6068,-19.596,100.9365],[33.6162,-19.599,97.9423],[33.6242,-19.594,96.1228],[33.6312,-19.5822,103.4158],[33.649,-19.5799,93.9236],[33.6598,-19.6017,92.4056],[33.6709,-19.6058,96.0447],[33.702,-19.6051,94.682],[33.7209,-19.6194,96.5562],[33.7362,-19.6204,97.1623],[33.7422,-19.6179,92.2699],[33.7431,-19.6089,102.3668],[33.7396,-19.5921,100.6929],[33.7572,-19.5639,103.3054],[33.7653,-19.5572,113.5563],[33.7627,-19.5522,127.3768],[33.7631,-19.547,122.8986],[33.7655,-19.5437,122.8866],[33.7711,-19.5452,131.5779],[33.7794,-19.5429,138.5289],[33.7834,-19.5231,125.3085],[33.7742,-19.5271,126.8929],[33.7747,-19.5162,133.9639],[33.7873,-19.5066,134.8776],[33.7912,-19.489,146.423],[33.7863,-19.4815,141.4901],[33.7747,-19.4785,145.6092],[33.7667,-19.4745,144.5113],[33.775,-19.4527,154.9616],[33.7783,-19.4384,168.092],[33.7727,-19.4227,148.7107],[33.7715,-19.4118,154.994],[33.7588,-19.399,159.664],[33.7613,-19.387,158.2005],[33.7602,-19.382,165.1232],[33.7371,-19.3742,181.8023],[33.7279,-19.3736,179.4737],[33.7259,-19.3682,173.2283],[33.7219,-19.3636,170.7845],[33.7222,-19.3548,188.5364],[33.7156,-19.3467,186.4635],[33.719,-19.3392,191.8149],[33.7271,-19.3337,198.1402],[33.728,-19.3234,182.6968],[33.7207,-19.315,207.913],[33.7112,-19.2994,208.408],[33.7162,-19.2896,214.7782],[33.7195,-19.2886,213.3098],[33.6816,-19.2772,296.4106],[33.6684,-19.2557,379.4617],[33.666,-19.2449,392.8676],[33.6385,-19.2208,472.0513]]]]}
,"properties": {"GID_3": "MOZ.4.2.5_1","GID_0": "MOZ","country": "Mozambique","GID_1": "MOZ.4_1","province": "Manica","NL_NAME_1": "NA","GID_2": "MOZ.4.2_1","county": "Gondola","NL_NAME_2": "NA","city": "Macate","VARNAME_3": "NA","NL_NAME_3": "NA","TYPE_3": "Localidad","ENGTYPE_3": "Locality","CC_3": "NA","HASC_3": "NA","name": "Macate.city","area_km2": 1434.031,"hist_schema_id": "Elevation0-9000","hist_area_km2": {"75": 0.34,"100": 53.879,"125": 181.579,"150": 130.523,"175": 104.712,"200": 64.439,"225": 24.442,"250": 14.801,"275": 12.979,"300": 13.239,"325": 16.32,"350": 25.14,"375": 37.339,"400": 45.16,"425": 51.78,"450": 55.225,"475": 67.127,"500": 85.61,"525": 84.614,"550": 80.941,"575": 79.192,"600": 68.977,"625": 54.916,"650": 42.992,"675": 25.96,"700": 11.028,"725": 0.78}}}