{"type":"Feature","properties":{"GID_3":"MOZ.4.2.2_1","GID_0":"MOZ","country":"Mozambique","GID_1":"MOZ.4_1","province":"Manica","NL_NAME_1":"NA","GID_2":"MOZ.4.2_1","county":"Gondola","NL_NAME_2":"NA","city":"Cafumpe","VARNAME_3":"NA","NL_NAME_3":"NA","TYPE_3":"Localidad","ENGTYPE_3":"Locality","CC_3":"NA","HASC_3":"NA","name":"Cafumpe.city"},
"geometry":{"type": "MultiPolygon","coordinates": [[[[33.9749,-18.9001,167.0127],[33.951,-18.8863,168.8741],[33.9294,-18.8677,210.8027],[33.9217,-18.848,217.8001],[33.9201,-18.8347,226.4898],[33.8904,-18.7869,239.0784],[33.872,-18.7845,282.4728],[33.8475,-18.7855,249.3653],[33.8363,-18.7834,296.7726],[33.8112,-18.7964,300.6246],[33.7882,-18.8192,347.0296],[33.7803,-18.8224,351.4772],[33.7713,-18.8637,381.3957],[33.753,-18.8679,382.8672],[33.7499,-18.8777,396.9441],[33.7431,-18.8835,392.2591],[33.7167,-18.8869,403.7896],[33.6998,-18.8935,408.3417],[33.6941,-18.9008,410.0195],[33.6978,-18.908,413.1251],[33.7052,-18.9129,425.008],[33.6946,-18.9213,423.9603],[33.6864,-18.9303,428.399],[33.6821,-18.9409,451.6668],[33.6787,-18.9415,436.7778],[33.6618,-18.9302,440.7243],[33.6562,-18.9345,442.3693],[33.6549,-18.9432,456.3532],[33.6376,-18.9461,465.4803],[33.6235,-18.9455,473.8884],[33.6096,-18.9546,480.9795],[33.6027,-18.9543,475.1461],[33.5969,-18.9564,487.7843],[33.5825,-18.9725,494.2886],[33.5781,-18.9799,499.7064],[33.5745,-18.9921,503.3533],[33.541,-19.0105,529.8463],[33.528,-19.0268,552.1442],[33.5238,-19.034,562.2543],[33.5238,-19.0438,564.0974],[33.5185,-19.0619,574.1658],[33.5196,-19.0667,588.8829],[33.5182,-19.0817,617.7933],[33.5251,-19.1307,678.8074],[33.5196,-19.1499,631.3488],[33.515,-19.1821,576.042],[33.5119,-19.1851,577.017],[33.5611,-19.1748,523.7695],[33.5731,-19.1765,513.2059],[33.6385,-19.2208,472.0513],[33.6383,-19.2097,468.4572],[33.6517,-19.1808,544.6804],[33.6473,-19.1382,541.0208],[33.6534,-19.1304,532.3463],[33.6466,-19.1164,540.3003],[33.641,-19.0895,570.7802],[33.6318,-19.0789,591.7197],[33.6172,-19.0748,685.1207],[33.6144,-19.059,648.4903],[33.6304,-19.0445,609.2947],[33.6485,-19.0424,565.8597],[33.6612,-19.0429,578.7731],[33.7317,-19.0359,481.3414],[33.7349,-19.0371,484.0113],[33.7675,-19.0005,447.6741],[33.7685,-18.9951,452.1902],[33.7803,-18.9786,411.155],[33.7971,-18.9784,397.8731],[33.8032,-18.9894,403.7228],[33.8221,-18.9895,386.2384],[33.8533,-18.978,372.1981],[33.8591,-18.9653,373.7852],[33.8839,-18.9564,341.5454],[33.9014,-18.9476,327.6976],[33.9151,-18.9552,262.041],[33.9227,-18.9506,294.4065],[33.9272,-18.9448,261.6944],[33.9382,-18.9433,246.4232],[33.9423,-18.9467,248.04],[33.946,-18.9381,228.7762],[33.9673,-18.9179,232.3898],[33.9749,-18.9001,167.0127]]]]}}