{"type": "Feature","bbox": [36.9168,-18.021,37.1979,-17.6252],"geometry": {"type": "MultiPolygon","coordinates": [[[[37.0178,-17.6252,1.5033],[37.0129,-17.6264,1.7487],[37.0087,-17.6451,2.4072],[37.01,-17.6531,2.4201],[37.0088,-17.6629,2.5428],[36.9916,-17.6742,2.6335],[36.9854,-17.6874,2.754],[36.9853,-17.7067,2.3945],[36.9895,-17.7158,2.8252],[36.9868,-17.7242,1.8119],[36.9934,-17.7318,2.0723],[37.0023,-17.7313,2.5285],[37.0043,-17.7344,1.2867],[36.9997,-17.7399,1.833],[36.9785,-17.7441,2.2145],[36.97,-17.748,1.8878],[36.9677,-17.7536,2.0075],[36.9677,-17.7597,0.9503],[36.9619,-17.7764,0.9874],[36.9641,-17.7943,4.5646],[36.9638,-17.8229,2.5412],[36.9476,-17.9095,2.0199],[36.9511,-17.9153,2.2018],[36.9317,-17.9356,2.236],[36.9292,-17.9484,2.4393],[36.9235,-17.9507,1.2495],[36.9224,-17.9532,0.0],[36.9321,-17.9476,0.4366],[36.9307,-17.9504,0.8673],[36.9243,-17.9546,2.3906],[36.9218,-17.9546,2.375],[36.921,-17.9512,3.1483],[36.9251,-17.9479,5.2516],[36.9257,-17.9443,1.7114],[36.9224,-17.9421,3.7526],[36.9185,-17.9421,4.5789],[36.9168,-17.9443,0.0],[36.919,-17.9565,0.0],[36.9212,-17.961,1.7733],[36.9354,-17.966,0.405],[36.9532,-17.9801,1.1548],[36.9579,-17.9868,0.0],[36.9637,-18.0007,0.0],[36.969,-18.006,0.0],[36.969,-18.0126,0.9727],[36.9735,-18.0179,0.0],[36.9804,-18.021,0.0],[36.9868,-18.0176,0.0],[37.0004,-18.0007,0.0],[37.0026,-17.9954,0.5445],[37.0443,-17.9387,3.182],[37.114,-17.8485,5.3796],[37.1512,-17.8096,5.692],[37.1715,-17.7926,4.0665],[37.1849,-17.7838,2.4041],[37.196,-17.7651,3.8916],[37.1979,-17.7643,2.4853],[37.189,-17.7488,1.5468],[37.1879,-17.7407,2.794],[37.1851,-17.7385,1.2329],[37.1754,-17.7532,0.0],[37.1774,-17.7621,0.0],[37.1738,-17.7685,3.0875],[37.1671,-17.7712,0.5095],[37.1568,-17.771,0.0],[37.1538,-17.7732,2.7574],[37.154,-17.7715,1.896],[37.1493,-17.7679,1.4297],[37.1496,-17.7651,0.0],[37.1515,-17.7629,4.0135],[37.1604,-17.7607,3.1216],[37.1615,-17.7576,0.0],[37.156,-17.7571,0.4855],[37.1543,-17.7532,0.0],[37.1426,-17.7576,0.5094],[37.1324,-17.7537,0.7729],[37.1235,-17.7632,2.6334],[37.1104,-17.7668,1.955],[37.1099,-17.7732,2.1997],[37.1037,-17.7749,1.1058],[37.1046,-17.7826,1.5502],[37.1021,-17.7838,3.0942],[37.0988,-17.781,1.1116],[37.0921,-17.7799,3.5239],[37.0921,-17.7768,2.6183],[37.0982,-17.771,0.9676],[37.0962,-17.7663,1.5676],[37.1013,-17.7607,2.7085],[37.0926,-17.7568,5.2461],[37.0915,-17.7546,6.474],[37.0924,-17.7512,3.9285],[37.0954,-17.7501,0.0],[37.099,-17.7537,0.5581],[37.1043,-17.7512,5.6747],[37.1071,-17.7532,0.0],[37.1126,-17.7507,1.9828],[37.1179,-17.7535,1.1619],[37.1204,-17.7518,0.0],[37.1157,-17.7435,3.9476],[37.1107,-17.7426,1.0118],[37.1051,-17.744,1.5055],[37.0993,-17.7318,0.7643],[37.0976,-17.7321,1.4154],[37.0974,-17.729,2.5122],[37.1129,-17.7224,0.0],[37.1182,-17.7176,1.9061],[37.1221,-17.7096,0.0],[37.1199,-17.701,0.0],[37.1215,-17.6929,4.1316],[37.1279,-17.6901,0.9583],[37.1363,-17.691,2.4597],[37.1415,-17.6954,2.835],[37.1457,-17.7049,1.1231],[37.1535,-17.7096,0.0],[37.1618,-17.7029,2.827],[37.1707,-17.7012,1.135],[37.1514,-17.6918,4.9306],[37.1477,-17.6822,0.0],[37.1596,-17.6777,0.0],[37.1599,-17.674,2.5562],[37.1406,-17.6668,2.6757],[37.145,-17.6597,1.7883],[37.1419,-17.649,2.3643],[37.1166,-17.6623,2.0997],[37.1119,-17.6728,2.2652],[37.0925,-17.6765,1.5124],[37.0993,-17.6682,3.3034],[37.0938,-17.6649,2.2884],[37.0839,-17.665,3.8534],[37.0787,-17.6615,2.2085],[37.0588,-17.6706,8.779],[37.0505,-17.6814,10.5559],[37.0418,-17.6842,2.7258],[37.0387,-17.6704,2.3387],[37.0465,-17.6597,1.8594],[37.0416,-17.6558,2.5336],[37.0237,-17.65,2.9549],[37.0262,-17.6459,3.3765],[37.0267,-17.6258,2.4831],[37.0178,-17.6252,1.5033]]],
[[[37.131,-17.6943,0.0],[37.1276,-17.6943,0.0],[37.1246,-17.6968,0.0],[37.1268,-17.709,0.0],[37.1237,-17.716,0.7311],[37.1138,-17.7251,2.4403],[37.1076,-17.7268,0.6235],[37.0999,-17.7315,0.7643],[37.1051,-17.7432,1.5055],[37.1107,-17.7418,1.0118],[37.1157,-17.7426,1.9126],[37.1179,-17.7443,0.9444],[37.1213,-17.7518,2.7685],[37.1185,-17.7543,1.1619],[37.1126,-17.7515,2.1101],[37.1096,-17.754,0.9777],[37.1035,-17.7524,0.9109],[37.0999,-17.7546,2.3965],[37.0954,-17.751,0.0],[37.0926,-17.7521,0.0],[37.0935,-17.7568,5.2461],[37.0976,-17.759,0.6692],[37.101,-17.7588,1.4544],[37.1021,-17.7604,2.7085],[37.0971,-17.7663,1.5676],[37.099,-17.771,0.9676],[37.0976,-17.7735,1.5245],[37.0929,-17.7768,2.6183],[37.0938,-17.7799,3.5239],[37.0988,-17.7801,1.1116],[37.1021,-17.7829,0.3485],[37.1035,-17.7824,0.5355],[37.1029,-17.774,0.3905],[37.1093,-17.7715,0.6404],[37.1099,-17.7654,2.1721],[37.1124,-17.7637,1.0662],[37.1215,-17.7626,0.7916],[37.131,-17.7526,1.4976],[37.1343,-17.7521,1.3359],[37.1393,-17.7551,1.5998],[37.1437,-17.7557,2.8322],[37.1493,-17.754,1.205],[37.1529,-17.7507,2.7529],[37.1565,-17.7504,0.7693],[37.1576,-17.7449,2.7657],[37.1624,-17.7418,1.6918],[37.1549,-17.7418,1.9992],[37.1535,-17.7363,3.4563],[37.1424,-17.7301,1.8335],[37.154,-17.7351,2.9977],[37.1551,-17.7407,1.7904],[37.1593,-17.7396,1.2059],[37.1635,-17.7412,1.4876],[37.1635,-17.7429,1.6918],[37.1585,-17.7465,2.5615],[37.1568,-17.7532,1.1326],[37.1576,-17.7554,0.0],[37.1629,-17.7557,3.7372],[37.164,-17.7599,3.6453],[37.1596,-17.7649,2.294],[37.1521,-17.7654,0.0],[37.1518,-17.7679,3.0271],[37.1632,-17.7693,1.6422],[37.1707,-17.7674,0.7129],[37.1746,-17.7637,0.0],[37.1738,-17.751,2.1165],[37.1785,-17.7457,0.0],[37.1779,-17.7376,3.9386],[37.1815,-17.734,0.0],[37.1771,-17.7226,0.8568],[37.176,-17.7118,1.7974],[37.1726,-17.7085,0.0],[37.169,-17.7079,0.0],[37.166,-17.7088,0.9805],[37.1596,-17.7143,0.4922],[37.1538,-17.7151,2.1375],[37.1501,-17.714,0.7626],[37.1407,-17.7057,1.7448],[37.136,-17.6968,1.034],[37.131,-17.6943,0.0]]]]}
,"properties": {"GID_3": "MOZ.11.15.2_1","GID_0": "MOZ","country": "Mozambique","GID_1": "MOZ.11_1","province": "Zambezia","NL_NAME_1": "NA","GID_2": "MOZ.11.15_1","county": "Nicoadala","NL_NAME_2": "NA","city": "Maquival","VARNAME_3": "NA","NL_NAME_3": "NA","TYPE_3": "Localidad","ENGTYPE_3": "Locality","CC_3": "NA","HASC_3": "NA","name": "Maquival.city","area_km2": 607.8462,"hist_schema_id": "Elevation0-9000","hist_area_km2": {"0": 594.7639,"25": 13.0823}}}