{"type": "Feature","bbox": [32.9917,-24.4925,33.1364,-24.3965],"geometry": {"type": "MultiPolygon","coordinates": [[[[33.0022,-24.4876,29.6174],[33.0037,-24.4889,26.6466],[33.0078,-24.477,26.7849],[33.0468,-24.4768,30.3089],[33.0574,-24.4832,29.2986],[33.0676,-24.4925,28.2394],[33.0892,-24.4907,28.6162],[33.1036,-24.4752,26.5252],[33.1033,-24.4704,29.1964],[33.1175,-24.4511,20.6778],[33.1364,-24.4159,22.5028],[33.121,-24.4158,21.964],[33.1104,-24.403,24.2039],[33.1017,-24.3977,21.8031],[33.0716,-24.3965,20.6316],[33.0283,-24.4222,30.5691],[33.0215,-24.4309,31.7114],[33.0071,-24.4384,31.6605],[33.0009,-24.445,31.6699],[33.0009,-24.4704,27.0376],[32.9917,-24.478,25.3137],[33.0022,-24.4876,29.6174]]]]}
,"properties": {"GID_3": "MOZ.2.6.4_1","GID_0": "MOZ","country": "Mozambique","GID_1": "MOZ.2_1","province": "Gaza","NL_NAME_1": "NA","GID_2": "MOZ.2.6_1","county": "Guijá","NL_NAME_2": "NA","city": "VilaDeCanicado","VARNAME_3": "NA","NL_NAME_3": "NA","TYPE_3": "Localidad","ENGTYPE_3": "Locality","CC_3": "NA","HASC_3": "NA","name": "Vila_De_Canicado.city","area_km2": 95.11884,"hist_schema_id": "Elevation0-9000","hist_area_km2": {"25": 94.57849,"50": 0.54035}}}