{"type": "Feature","bbox": [36.7098,-15.627,37.2915,-15.2382],"geometry": {"type": "MultiPolygon","coordinates": [[[[37.2816,-15.2497,767.5326],[37.276,-15.2479,785.7459],[37.2696,-15.2382,789.7983],[37.2604,-15.2414,814.8778],[37.2438,-15.2429,901.8596],[37.2228,-15.2547,996.0204],[37.2141,-15.2555,1013.9876],[37.2042,-15.2534,1012.2711],[37.201,-15.2496,1020.345],[37.1954,-15.2523,1031.1152],[37.1934,-15.2586,1015.1583],[37.1871,-15.2617,1015.3566],[37.153,-15.2679,1035.9657],[37.1497,-15.2649,1033.2256],[37.1383,-15.2697,1037.5419],[37.1251,-15.2626,1047.8911],[37.1045,-15.262,1072.8033],[37.0747,-15.2658,1075.7417],[37.0511,-15.2759,1081.5453],[37.0344,-15.2741,1349.6038],[36.9999,-15.2657,1287.8339],[36.9546,-15.2512,1662.1855],[36.8758,-15.2535,949.7759],[36.8555,-15.3143,1362.5352],[36.8032,-15.3249,1078.1261],[36.7724,-15.3709,1061.2268],[36.7727,-15.3821,1168.5566],[36.7273,-15.4062,908.0684],[36.7346,-15.4257,738.9001],[36.7098,-15.4813,691.838],[36.7451,-15.4894,1118.0872],[36.7929,-15.5308,798.0281],[36.8061,-15.587,1224.4249],[36.8587,-15.5927,674.1086],[36.8955,-15.5836,646.3689],[36.915,-15.5823,604.299],[36.9109,-15.5859,607.9921],[36.9102,-15.5954,605.1652],[36.9188,-15.604,602.2903],[36.9275,-15.6046,595.1085],[36.9319,-15.6083,599.7633],[36.938,-15.6102,589.6661],[36.9412,-15.6242,589.4543],[36.9491,-15.627,576.8226],[36.953,-15.6256,590.2288],[36.9608,-15.6201,606.6443],[36.9648,-15.6198,613.4898],[36.9736,-15.6152,620.7325],[36.9786,-15.6094,624.4544],[36.9892,-15.6049,636.3115],[36.9958,-15.5993,623.8713],[37.0103,-15.5971,644.26],[37.0188,-15.5871,658.4227],[37.032,-15.559,661.2028],[37.0701,-15.5533,684.0543],[37.0764,-15.5485,671.2571],[37.0936,-15.5346,686.8857],[37.1033,-15.5089,715.319],[37.1235,-15.514099999999999,696.7867],[37.1334,-15.5226,653.7304],[37.1412,-15.5217,646.946],[37.1467,-15.519,635.1874],[37.1603,-15.5205,626.5046],[37.1527,-15.5049,630.9847],[37.1278,-15.468,697.3392],[37.1243,-15.4473,798.1702],[37.1064,-15.4591,950.3986],[37.0953,-15.4616,931.5094],[37.0699,-15.4446,1573.4307],[37.0666,-15.4388,1225.6136],[37.0658,-15.4299,1200.917],[37.0852,-15.3805,1196.5752],[37.0889,-15.3655,1160.9312],[37.1878,-15.3715,951.5296],[37.1926,-15.3562,1010.9029],[37.1977,-15.3502,1188.1758],[37.2117,-15.3455,1030.6211],[37.2314,-15.3417,1177.8033],[37.239,-15.3377,1046.4846],[37.253,-15.3223,950.389],[37.2679,-15.3092,1081.5835],[37.2837,-15.3015,827.8955],[37.2915,-15.2866,804.022],[37.2684,-15.2694,778.9011],[37.2816,-15.2497,767.5326]]]]}
,"properties": {"GID_3": "MOZ.11.4.1_1","GID_0": "MOZ","country": "Mozambique","GID_1": "MOZ.11_1","province": "Zambezia","NL_NAME_1": "NA","GID_2": "MOZ.11.4_1","county": "Gurue","NL_NAME_2": "NA","city": "CidadeDeGurue","VARNAME_3": "NA","NL_NAME_3": "NA","TYPE_3": "Localidad","ENGTYPE_3": "Locality","CC_3": "NA","HASC_3": "NA","name": "Cidade_De_Gurue.city","area_km2": 1439.429,"hist_schema_id": "Elevation0-9000","hist_area_km2": {"575": 1.286,"600": 26.224,"625": 80.051,"650": 116.401,"675": 129.262,"700": 106.719,"725": 92.958,"750": 71.101,"775": 52.062,"800": 45.304,"825": 40.973,"850": 38.296,"875": 33.368,"900": 29.544,"925": 25.311,"950": 21.815,"975": 19.014,"1000": 17.829,"1025": 18.709,"1050": 21.859,"1075": 28.486,"1100": 26.134,"1125": 24.232,"1150": 23.618,"1175": 22.145,"1200": 21.143,"1225": 22.144,"1250": 22.369,"1275": 20.447,"1300": 21.55,"1325": 21.285,"1350": 18.893,"1375": 17.441,"1400": 15.867,"1425": 14.088,"1450": 12.841,"1475": 11.204,"1500": 10.734,"1525": 9.937,"1550": 9.344,"1575": 8.076,"1600": 7.381,"1625": 6.583,"1650": 5.541,"1675": 5.213,"1700": 5.213,"1725": 5.295,"1750": 5.295,"1775": 4.497,"1800": 3.945,"1825": 2.903,"1850": 3.066,"1875": 2.923,"1900": 2.003,"1925": 1.819,"1950": 1.329,"1975": 1.492,"2000": 0.94,"2025": 0.756,"2050": 0.613,"2075": 0.45,"2100": 0.327,"2125": 0.388,"2150": 0.266,"2175": 0.164,"2200": 0.123,"2225": 0.123,"2250": 0.225,"2275": 0.164,"2300": 0.123,"2325": 0.061,"2350": 0.041,"2375": 0.041,"2400": 0.061}}}