{"type":"Feature","properties":{"GID_3":"MOZ.7.15.2_1","GID_0":"MOZ","country":"Mozambique","GID_1":"MOZ.7_1","province":"Nampula","NL_NAME_1":"NA","GID_2":"MOZ.7.15_1","county":"NacalaVelha","NL_NAME_2":"NA","city":"Covo","VARNAME_3":"NA","NL_NAME_3":"NA","TYPE_3":"Localidad","ENGTYPE_3":"Locality","CC_3":"NA","HASC_3":"NA","name":"Covo.city"},
"geometry":{"type": "MultiPolygon","coordinates": [[[[40.3237,-14.3937,101.6692],[40.3158,-14.409,109.3471],[40.3219,-14.4239,117.5597],[40.3122,-14.4318,124.365],[40.3087,-14.4497,131.4196],[40.2953,-14.48,170.8632],[40.3045,-14.5025,186.0908],[40.3065,-14.5044,190.1572],[40.3262,-14.5047,221.4367],[40.3129,-14.5338,224.1964],[40.3511,-14.5628,149.0914],[40.3184,-14.5963,191.7708],[40.311,-14.6083,196.7095],[40.3312,-14.6267,170.8486],[40.3404,-14.6267,167.0988],[40.3466,-14.6297,157.7909],[40.3606,-14.6516,207.3229],[40.3805,-14.6357,209.2501],[40.3929,-14.6177,162.0631],[40.3929,-14.6088,150.8644],[40.396,-14.6028,158.0833],[40.4083,-14.6028,176.7965],[40.4176,-14.5909,149.7666],[40.4268,-14.585,180.7856],[40.4302,-14.5711,144.3383],[40.4185,-14.5519,105.4428],[40.433,-14.5492,134.314],[40.4577,-14.5372,109.7108],[40.4796,-14.5002,101.6143],[40.4858,-14.481,71.894],[40.4884,-14.4664,53.4175],[40.4831,-14.4667,75.5105],[40.4666,-14.4734,72.298],[40.4466,-14.472,82.4161],[40.4391,-14.4674,100.7794],[40.4319,-14.4576,125.1829],[40.4053,-14.4506,137.5952],[40.3921,-14.4431,170.2982],[40.3923,-14.4222,154.9014],[40.3872,-14.3913,126.7899],[40.3753,-14.3796,110.2185],[40.3768,-14.3717,99.1921],[40.3744,-14.3493,85.1398],[40.3631,-14.3521,81.5282],[40.3598,-14.3607,84.4547],[40.3466,-14.3706,92.1398],[40.3466,-14.3851,101.6558],[40.3404,-14.3881,106.2367],[40.325,-14.3911,107.1855],[40.3237,-14.3937,101.6692]]]]}}