{"type": "Feature","bbox": [33.4824,-24.6921,33.8608,-24.5004],"geometry": {"type": "MultiPolygon","coordinates": [[[[33.5124,-24.5195,5.6118],[33.5153,-24.5235,5.6261],[33.5179,-24.5322,6.2679],[33.5156,-24.5375,5.8482],[33.5096,-24.5422,5.9144],[33.5028,-24.5446,6.188],[33.4998,-24.5552,5.6846],[33.4941,-24.561,6.1292],[33.4927,-24.5656,6.4231],[33.4832,-24.5741,6.3559],[33.4879,-24.5782,7.0761],[33.4824,-24.5925,7.0926],[33.4865,-24.6147,6.7704],[33.488,-24.6374,7.9212],[33.5284,-24.6712,87.5552],[33.5361,-24.6818,72.9472],[33.5408,-24.683,91.8206],[33.5546,-24.6821,135.2057],[33.5628,-24.6774,146.453],[33.5821,-24.6711,145.2647],[33.6136,-24.677,124.8661],[33.6239,-24.6843,93.0852],[33.6294,-24.6921,71.6144],[33.6644,-24.6732,82.4036],[33.7051,-24.6675,83.4006],[33.7452,-24.6514,84.4113],[33.7579,-24.6507,82.7397],[33.7711,-24.645,78.6771],[33.8175,-24.6404,67.8268],[33.8166,-24.6332,64.7479],[33.8209,-24.6298,66.5404],[33.8269,-24.6327,66.3219],[33.834,-24.6322,66.4315],[33.8363,-24.6286,62.7149],[33.8397,-24.5961,56.0382],[33.8422,-24.5889,56.4157],[33.8486,-24.5788,60.954],[33.8608,-24.5693,56.3795],[33.8567,-24.5467,97.6599],[33.8527,-24.5415,100.1434],[33.8372,-24.5289,66.4029],[33.8292,-24.51,66.6529],[33.8327,-24.5004,67.7037],[33.7584,-24.5005,61.9179],[33.7589,-24.5072,63.9903],[33.7548,-24.5137,64.5519],[33.6781,-24.53,89.0575],[33.6292,-24.53,78.7043],[33.5815,-24.5277,57.9038],[33.5361,-24.5206,21.7284],[33.5124,-24.5195,5.6118]]]]}
,"properties": {"GID_3": "MOZ.2.2.5_1","GID_0": "MOZ","country": "Mozambique","GID_1": "MOZ.2_1","province": "Gaza","NL_NAME_1": "NA","GID_2": "MOZ.2.2_1","county": "Chibuto","NL_NAME_2": "NA","city": "Godide","VARNAME_3": "NA","NL_NAME_3": "NA","TYPE_3": "Localidad","ENGTYPE_3": "Locality","CC_3": "NA","HASC_3": "NA","name": "Godide.city","area_km2": 567.2271,"hist_schema_id": "Elevation0-9000","hist_area_km2": {"0": 58.7071,"25": 15.9658,"50": 37.887,"75": 273.1095,"100": 145.7711,"125": 22.8193,"150": 12.9672}}}