{"type":"Feature","properties":{"GID_2":"MOZ.1.3_1","GID_0":"MOZ","country":"Mozambique","GID_1":"MOZ.1_1","province":"CaboDelgado","NL_NAME_1":"NA","county":"Chiúre","VARNAME_2":"NA","NL_NAME_2":"NA","TYPE_2":"Distrito","ENGTYPE_2":"District","CC_2":"NA","HASC_2":"MZ.CD.CH","name":"Chiúre.county"},
"geometry":{"type": "MultiPolygon","coordinates": [[[[39.5491,-13.7532,238.5708],[39.587,-13.7395,230.3084],[39.6091,-13.7342,228.2519],[39.6312,-13.7314,226.9797],[39.6599,-13.72,225.7477],[39.6697,-13.712,230.9187],[39.6891,-13.7007,222.8581],[39.7058,-13.6936,226.4973],[39.7192,-13.6841,224.0162],[39.7581,-13.6637,214.2458],[39.7686,-13.6623,217.9071],[39.7751,-13.6636,210.4633],[39.8125,-13.6754,198.0571],[39.8423,-13.6737,201.0868],[39.8671,-13.6671,189.9875],[39.8964,-13.6399,191.0081],[39.9097,-13.6312,185.5131],[39.9225,-13.6129,186.1528],[39.9375,-13.584,177.4327],[39.9469,-13.577,176.3279],[39.9725,-13.565,168.6521],[39.9761,-13.561,166.9911],[39.9979,-13.5291,157.6583],[40.0101,-13.5057,154.6111],[40.0509,-13.4915,96.2172],[40.0747,-13.4855,98.34],[40.1079,-13.4729,93.3085],[40.1098,-13.4675,99.9383],[40.1095,-13.4596,78.1459],[40.1033,-13.448,73.38],[40.1165,-13.4415,106.0801],[40.1403,-13.4484,68.1559],[40.1486,-13.4563,77.2051],[40.1688,-13.4585,70.6677],[40.1933,-13.4736,52.8752],[40.2114,-13.492,69.7587],[40.2206,-13.492,62.1931],[40.2384,-13.4843,42.4873],[40.2921,-13.4714,18.3635],[40.3097,-13.4716,16.7524],[40.3431,-13.4586,15.2153],[40.3845,-13.454,12.5743],[40.4034,-13.4545,13.0322],[40.4168,-13.4569,10.3928],[40.4252,-13.4622,10.1034],[40.437,-13.4753,17.7681],[40.4507,-13.4996,5.915],[40.4635,-13.5078,17.8513],[40.4652,-13.5039,29.1937],[40.4705,-13.5086,11.004],[40.4754,-13.5085,10.8467],[40.4965,-13.5052,26.5837],[40.5162,-13.4986,5.6012],[40.5257,-13.4999,2.3444],[40.5285,-13.489,3.8572],[40.5315,-13.4835,0.0],[40.531,-13.4765,1.6073],[40.524,-13.4757,3.2684],[40.519,-13.4788,4.8153],[40.5163,-13.476,5.0542],[40.5201,-13.4776,4.8511],[40.5251,-13.4746,3.6101],[40.5332,-13.4748,1.7595],[40.5008,-13.4448,12.3511],[40.4947,-13.4358,14.2141],[40.4855,-13.4299,15.6569],[40.464,-13.4299,20.557],[40.4487,-13.412,25.5712],[40.4394,-13.3971,27.6787],[40.4241,-13.3851,39.0494],[40.3874,-13.3881,41.5523],[40.3849,-13.3733,65.9471],[40.3719,-13.3553,58.8763],[40.3528,-13.3367,49.4264],[40.3463,-13.3336,57.0737],[40.3193,-13.3275,81.0625],[40.3106,-13.3225,100.6327],[40.2953,-13.3195,60.392],[40.2769,-13.3195,84.3484],[40.262,-13.3155,74.8689],[40.2396,-13.3039,92.37],[40.2285,-13.2944,75.5276],[40.2317,-13.2806,109.0091],[40.2163,-13.286,100.0463],[40.2112,-13.2818,86.8698],[40.2102,-13.2684,94.4011],[40.2051,-13.2661,106.7849],[40.1801,-13.2683,108.6494],[40.1682,-13.266,121.369],[40.1502,-13.2547,116.2845],[40.1342,-13.2558,151.1679],[40.126,-13.2721,108.0316],[40.1151,-13.287,133.4725],[40.1079,-13.2892,125.2277],[40.0969,-13.2893,142.1316],[40.0862,-13.2933,141.1487],[40.0639,-13.2807,141.0962],[40.0497,-13.2837,146.8549],[40.0474,-13.2786,144.953],[40.0448,-13.2777,148.8945],[40.0321,-13.2793,152.5143],[40.0273,-13.2777,149.6121],[40.0003,-13.2786,157.1638],[39.9919,-13.283,168.8763],[39.9753,-13.2781,171.1697],[39.9554,-13.2562,202.4972],[39.9435,-13.2487,192.3781],[39.9272,-13.2416,222.1959],[39.9129,-13.2532,217.6434],[39.9021,-13.2516,233.6153],[39.8943,-13.2654,250.0117],[39.8851,-13.2712,244.8741],[39.8864,-13.276,273.9648],[39.8901,-13.2799,258.052],[39.889,-13.2882,269.7704],[39.891,-13.3153,293.3825],[39.8975,-13.3326,264.627],[39.892,-13.3379,263.2196],[39.8539,-13.3514,289.6086],[39.8531,-13.3577,279.2581],[39.8656,-13.4023,243.9272],[39.8735,-13.4204,226.1272],[39.8881,-13.4301,218.4017],[39.8903,-13.4376,226.4953],[39.8879,-13.4436,238.3006],[39.884,-13.447,238.6593],[39.8861,-13.4533,256.8589],[39.8686,-13.4805,245.6833],[39.8554,-13.4968,216.2401],[39.8489,-13.4963,214.316],[39.8435,-13.4885,221.0394],[39.8398,-13.4874,223.0591],[39.8333,-13.4928,230.3141],[39.8076,-13.49,226.6449],[39.784,-13.4806,233.1859],[39.7797,-13.4849,241.048],[39.7774,-13.4778,248.4101],[39.7773,-13.4713,250.091],[39.7619,-13.4695,252.5824],[39.744,-13.4499,253.3662],[39.7403,-13.44,256.2348],[39.7303,-13.422,267.3406],[39.7229,-13.4149,273.6375],[39.7121,-13.4096,283.3848],[39.7005,-13.4099,284.0267],[39.6925,-13.4026,294.5761],[39.6905,-13.3957,293.6963],[39.6964,-13.3923,297.8271],[39.6939,-13.383,303.5363],[39.6766,-13.368,315.7413],[39.6717,-13.3618,319.5847],[39.6692,-13.3418,335.1347],[39.6788,-13.3251,366.6216],[39.6646,-13.3122,386.9663],[39.6618,-13.3061,393.6562],[39.6665,-13.3026,396.4919],[39.6691,-13.2888,357.6837],[39.6689,-13.2678,333.3859],[39.6524,-13.2224,289.2882],[39.6461,-13.2256,294.5731],[39.626,-13.216,294.091],[39.6244,-13.2116,294.5631],[39.6173,-13.206,307.3367],[39.6107,-13.2044,313.1816],[39.6027,-13.2103,304.5364],[39.5924,-13.2131,311.2723],[39.5809,-13.2127,321.1251],[39.5694,-13.2148,315.2554],[39.5599,-13.2131,318.4955],[39.5369,-13.2046,328.1006],[39.5188,-13.1944,323.9543],[39.4768,-13.2095,341.6087],[39.4597,-13.2008,334.2864],[39.4452,-13.2039,352.8272],[39.3988,-13.2004,351.4491],[39.3896,-13.2073,340.2596],[39.3835,-13.2285,352.4874],[39.3757,-13.226,376.2367],[39.3683,-13.2403,363.9899],[39.3279,-13.2496,364.8996],[39.3095,-13.2496,366.9008],[39.2892,-13.2457,377.5244],[39.2862,-13.2361,393.497],[39.2758,-13.2405,377.7404],[39.2691,-13.2472,384.1915],[39.261,-13.2475,397.6118],[39.2464,-13.2559,392.7775],[39.2192,-13.2786,390.5469],[39.1995,-13.2913,397.5048],[39.1861,-13.3032,403.6837],[39.186,-13.3047,403.9268],[39.1977,-13.3312,437.1342],[39.2208,-13.3686,469.2416],[39.2244,-13.379,475.9465],[39.2426,-13.4041,423.3069],[39.2482,-13.4082,415.4328],[39.2566,-13.4096,428.4164],[39.2733,-13.4338,393.2412],[39.2719,-13.4531,375.1193],[39.2634,-13.4619,371.5782],[39.2675,-13.4735,357.2125],[39.2732,-13.4837,361.7914],[39.2808,-13.4868,357.4963],[39.2862,-13.4928,359.2503],[39.295,-13.4925,344.6121],[39.3014,-13.4958,340.0667],[39.3054,-13.5068,347.2616],[39.3042,-13.5165,342.874],[39.3071,-13.5255,344.4414],[39.3233,-13.5393,329.3712],[39.3326,-13.5391,322.8618],[39.3605,-13.6003,306.2424],[39.366,-13.604,311.5117],[39.3691,-13.6254,302.5677],[39.3761,-13.6282,299.8571],[39.368899999999996,-13.6367,297.145],[39.3781,-13.6586,284.1283],[39.3747,-13.6618,286.4551],[39.3646,-13.6635,290.5222],[39.3494,-13.6701,289.6573],[39.328,-13.6988,313.2001],[39.3186,-13.7063,306.4325],[39.32,-13.7184,314.533],[39.3167,-13.7243,315.9276],[39.2655,-13.7419,334.7693],[39.2513,-13.7492,342.2492],[39.2455,-13.7529,319.5886],[39.2414,-13.763,315.3817],[39.2311,-13.7675,303.9716],[39.2249,-13.773,299.3821],[39.2197,-13.7897,295.6961],[39.2211,-13.7995,289.6891],[39.2204,-13.8079,282.9899],[39.2269,-13.8148,278.6655],[39.229,-13.8251,276.177],[39.228,-13.8315,277.2107],[39.2377,-13.8465,272.6077],[39.2447,-13.8524,271.6593],[39.2462,-13.8568,270.8377],[39.2554,-13.8555,266.554],[39.2658,-13.8561,268.3614],[39.2752,-13.8617,265.9977],[39.2838,-13.8642,265.8751],[39.2966,-13.8627,262.9276],[39.3011,-13.8697,261.2141],[39.306,-13.8728,258.8492],[39.3104,-13.8912,257.4835],[39.3155,-13.8904,255.9426],[39.3709,-13.8606,247.216],[39.3997,-13.8522,246.2702],[39.4168,-13.8533,245.6673],[39.4176,-13.8514,244.7292],[39.4415,-13.8427,243.5267],[39.4537,-13.8332,239.1906],[39.4614,-13.8176,240.3668],[39.4848,-13.7885,236.8397],[39.506,-13.7732,239.5949],[39.5491,-13.7532,238.5708]]]]}}