{"type": "Feature","bbox": [34.2768,-20.9522,35.0243,-20.5121],"geometry": {"type": "MultiPolygon","coordinates": [[[[35.0132,-20.7943,0.0],[35.0104,-20.7935,0.0],[35.0093,-20.7951,0.0],[35.0118,-20.7957,0.0],[35.0132,-20.7943,0.0]]],
[[[34.8551,-20.691,0.0],[34.8537,-20.691,0.5913],[34.8535,-20.6929,0.8761],[34.8549,-20.6924,0.8761],[34.8551,-20.691,0.0]]],
[[[34.8532,-20.6812,0.7479],[34.8521,-20.6818,1.2867],[34.8543,-20.6854,0.0],[34.859,-20.686,0.0],[34.8585,-20.6846,0.0],[34.8532,-20.6812,0.7479]]],
[[[34.9465,-20.6779,0.0],[34.9404,-20.6779,0.0],[34.931,-20.6849,0.0],[34.9463,-20.6829,0.0],[34.9476,-20.6793,0.6028],[34.9465,-20.6779,0.0]]],
[[[34.4399,-20.5526,31.8937],[34.4203,-20.5433,37.1109],[34.361,-20.6657,57.9491],[34.2768,-20.7887,34.2665],[34.3012,-20.7925,35.4689],[34.3224,-20.7904,30.0837],[34.3309,-20.7866,29.8952],[34.3689,-20.7586,31.9991],[34.3826,-20.7577,29.238],[34.4016,-20.7661,29.2099],[34.4063,-20.7651,27.5473],[34.4168,-20.7573,25.7531],[34.4279,-20.7522,26.7309],[34.4373,-20.7424,23.5422],[34.4482,-20.7452,25.4183],[34.4637,-20.7403,23.8004],[34.4915,-20.7146,18.5886],[34.4959,-20.7067,14.77],[34.4971,-20.699,19.1734],[34.5188,-20.681,17.4158],[34.5348,-20.6594,17.0688],[34.5409,-20.6718,18.7217],[34.5275,-20.6988,21.8367],[34.5303,-20.7125,28.9509],[34.5391,-20.7297,42.2381],[34.5391,-20.7368,48.3088],[34.5428,-20.7543,55.3055],[34.5394,-20.767,52.0084],[34.5398,-20.7781,48.5746],[34.5431,-20.7866,53.3103],[34.5537,-20.7952,61.4595],[34.578,-20.8054,52.6101],[34.5879,-20.8172,48.0631],[34.5952,-20.8303,51.8281],[34.6036,-20.8372,50.3491],[34.6132,-20.8502,53.4015],[34.626,-20.8584,55.2287],[34.6296,-20.8687,53.9573],[34.6449,-20.8948,50.2551],[34.6636,-20.9145,49.68],[34.6743,-20.9519,54.3952],[34.7533,-20.9522,38.5667],[34.7634,-20.9481,35.1303],[34.792,-20.9442,21.933],[34.8175,-20.9274,11.4801],[34.8347,-20.9262,6.1445],[34.8442,-20.9241,5.1262],[34.8513,-20.9206,4.7179],[34.8561,-20.9176,5.4549],[34.8594,-20.9114,4.0075],[34.8613,-20.8969,4.6076],[34.8829,-20.8824,2.6715],[34.8989,-20.8472,1.9837],[34.909,-20.840699999999998,2.0772],[34.9179,-20.8324,2.1381],[34.9285,-20.8252,1.8176],[34.9366,-20.8278,1.8513],[34.9456,-20.8241,1.8953],[34.9587,-20.8219,2.5127],[34.9621,-20.8124,0.0],[34.964,-20.8104,0.7654],[34.9751,-20.8082,0.0],[34.9793,-20.7999,0.4011],[34.9851,-20.7951,1.064],[35.0032,-20.7924,0.7839],[35.0126,-20.7929,0.6053],[35.0118,-20.791,0.0],[35.006,-20.789,2.8363],[35.0088,-20.7885,1.7294],[35.0135,-20.7904,0.0],[35.0187,-20.7971,0.0],[35.0204,-20.7971,0.0],[35.0243,-20.7899,0.0],[35.0221,-20.7799,0.5174],[35.0171,-20.7685,1.4879],[35.0113,-20.761,0.0],[35.0099,-20.7621,0.0],[35.014,-20.7679,0.0],[35.0099,-20.7749,2.3298],[35.0074,-20.7743,0.8083],[35.011,-20.7715,1.6908],[35.0113,-20.7668,0.3305],[35.0082,-20.7637,0.0],[35.0035,-20.7637,0.0],[35.0004,-20.7668,1.2652],[34.9968,-20.7654,0.0],[34.9949,-20.7668,2.0619],[34.9921,-20.7663,2.4462],[34.9976,-20.7637,0.0],[34.9976,-20.7615,0.0],[34.9943,-20.7626,0.5459],[34.9901,-20.7604,0.6387],[34.9843,-20.7607,0.0],[34.9749,-20.7657,0.8758],[34.9721,-20.7687,0.0],[34.9688,-20.7693,0.0],[34.9646,-20.7674,0.269],[34.9635,-20.7612,0.0],[34.9604,-20.7588,0.4579],[34.9524,-20.7604,1.0888],[34.9485,-20.7585,0.78],[34.946,-20.7615,1.951],[34.9471,-20.7582,0.6651],[34.9449,-20.7571,1.7041],[34.9529,-20.7596,1.0888],[34.9618,-20.7574,1.084],[34.9646,-20.7593,2.5225],[34.9668,-20.7654,2.0587],[34.9696,-20.7665,0.0],[34.9746,-20.7615,1.4945],[34.9765,-20.7621,0.4065],[34.9885,-20.7554,1.9088],[34.9963,-20.7579,1.7899],[35.0015,-20.7574,0.0],[35.0085,-20.751,0.0],[35.009,-20.7471,0.0],[35.0113,-20.7462,0.0],[35.0093,-20.7387,0.68],[34.9996,-20.7237,2.318],[34.9985,-20.7162,1.0559],[34.9929,-20.7129,0.0],[34.9907,-20.7132,0.0],[34.9912,-20.7213,4.0413],[34.9888,-20.7243,0.8711],[34.9882,-20.7285,2.1092],[34.9851,-20.731,1.1214],[34.981,-20.7315,3.8396],[34.9779,-20.7351,1.9842],[34.9751,-20.7351,2.2637],[34.9735,-20.7371,1.507],[34.9743,-20.7349,1.1439],[34.9779,-20.7343,2.8577],[34.9793,-20.7307,2.1264],[34.9854,-20.729,0.8577],[34.9879,-20.7218,3.1514],[34.986,-20.716,0.6477],[34.9829,-20.714,0.652],[34.9782,-20.7043,0.0],[34.9732,-20.7001,0.0],[34.9718,-20.7007,0.0],[34.9726,-20.7024,2.5127],[34.9693,-20.7029,1.2173],[34.9651,-20.6982,0.2824],[34.9604,-20.6971,1.2668],[34.9576,-20.6932,2.2427],[34.9493,-20.6915,1.8888],[34.9476,-20.689,0.0],[34.9421,-20.6887,2.1715],[34.9401,-20.6863,1.9856],[34.9326,-20.6876,0.0],[34.9301,-20.6896,2.9486],[34.9254,-20.7007,0.8617],[34.9251,-20.7065,2.931],[34.9271,-20.7112,0.0],[34.9318,-20.7104,0.0],[34.9351,-20.7062,2.7626],[34.9426,-20.7035,1.2294],[34.9488,-20.7068,1.0422],[34.9532,-20.7168,0.0],[34.9529,-20.7213,0.0],[34.9496,-20.7237,1.3381],[34.9443,-20.7237,1.4429],[34.9396,-20.7262,1.0049],[34.9401,-20.7279,2.6047],[34.9446,-20.729,2.6055],[34.9449,-20.731,1.6168],[34.9432,-20.7335,1.8455],[34.9426,-20.7332,1.8455],[34.944,-20.731,1.6168],[34.9435,-20.729,1.5906],[34.9396,-20.7285,1.8486],[34.9388,-20.7262,2.1456],[34.9437,-20.7235,1.4429],[34.9413,-20.7218,1.8238],[34.9501,-20.7224,1.2609],[34.9515,-20.7179,3.6273],[34.9443,-20.706,0.0],[34.9318,-20.7126,0.6387],[34.9257,-20.7126,0.636],[34.9235,-20.711,0.6441],[34.9221,-20.7024,1.2841],[34.9274,-20.6865,0.0],[34.9151,-20.691,0.4482],[34.9043,-20.691,0.0],[34.9035,-20.6932,1.8173],[34.9012,-20.6921,0.5514],[34.8913,-20.6963,1.2748],[34.8879,-20.6999,0.0],[34.8887,-20.7035,0.0],[34.8926,-20.7085,3.9851],[34.8915,-20.7213,0.0],[34.8954,-20.7268,1.2024],[34.8957,-20.7313,0.9804],[34.8918,-20.7418,1.8178],[34.8835,-20.7443,0.0],[34.8821,-20.7462,1.0572],[34.8865,-20.7488,2.3904],[34.8871,-20.7554,0.0],[34.8904,-20.7596,0.4584],[34.886,-20.7557,0.0],[34.8857,-20.7499,1.4313],[34.8807,-20.7471,0.5815],[34.8763,-20.7485,2.1844],[34.8721,-20.756,0.7082],[34.8662,-20.7565,1.7826],[34.8629,-20.759,0.8559],[34.8585,-20.7576,1.0365],[34.8596,-20.7571,1.2565],[34.8638,-20.7579,1.6797],[34.866,-20.7557,1.3046],[34.8715,-20.7549,0.0],[34.8729,-20.7529,1.5579],[34.8713,-20.7488,2.867],[34.8721,-20.7468,0.6778],[34.8774,-20.7457,1.0477],[34.8812,-20.741,2.7639],[34.8893,-20.7354,2.3516],[34.8899,-20.7299,2.4003],[34.8843,-20.721,0.0],[34.8829,-20.7121,1.9717],[34.8763,-20.709,0.0],[34.8729,-20.7032,2.5653],[34.8721,-20.6965,0.0],[34.8735,-20.6904,2.9163],[34.8765,-20.6871,0.0],[34.8829,-20.6829,2.9229],[34.8915,-20.6807,1.0615],[34.9057,-20.659,1.3406],[34.9035,-20.6521,0.0],[34.8993,-20.6482,2.0563],[34.8926,-20.6457,0.0],[34.8879,-20.6451,0.0],[34.8843,-20.6476,0.0],[34.8771,-20.6579,0.3937],[34.8751,-20.6579,0.0],[34.8715,-20.6629,0.0],[34.8662,-20.6646,4.2496],[34.8607,-20.6718,1.9707],[34.8546,-20.6757,0.0],[34.8537,-20.6804,0.7479],[34.8576,-20.6824,3.2268],[34.8599,-20.6857,2.941],[34.8537,-20.7001,1.5048],[34.8557,-20.7099,2.0908],[34.8521,-20.714,0.7029],[34.8524,-20.7187,0.7266],[34.8471,-20.7221,1.5125],[34.8499,-20.7254,2.5827],[34.8485,-20.7287,2.0816],[34.8479,-20.7282,2.0816],[34.8488,-20.7251,2.9379],[34.8462,-20.7218,2.8024],[34.8474,-20.7196,0.665],[34.8515,-20.7185,0.7266],[34.8504,-20.714,1.5316],[34.8543,-20.7093,1.726],[34.854,-20.7074,0.0],[34.8515,-20.709,0.7868],[34.8526,-20.706,1.1923],[34.8504,-20.7026,1.5674],[34.8499,-20.6965,1.497],[34.8518,-20.6963,0.0],[34.854,-20.6871,0.8775],[34.8513,-20.6863,2.5762],[34.8499,-20.6879,0.0],[34.8488,-20.6793,0.0],[34.8363,-20.6785,0.8317],[34.8301,-20.6843,1.5232],[34.8254,-20.6843,0.0],[34.8218,-20.6868,1.0741],[34.8193,-20.6918,1.4785],[34.8179,-20.6901,2.6908],[34.8201,-20.6865,1.6517],[34.8179,-20.6863,0.0],[34.816,-20.6887,3.3562],[34.8126,-20.6896,1.8863],[34.8093,-20.696,0.637],[34.8088,-20.6957,0.637],[34.8107,-20.691,0.0],[34.7988,-20.6907,0.4785],[34.7979,-20.6937,2.2586],[34.8004,-20.6951,2.7402],[34.7988,-20.6951,1.307],[34.7974,-20.6946,5.485],[34.7962,-20.6904,0.0],[34.7912,-20.6882,0.8513],[34.7893,-20.6926,2.7698],[34.7918,-20.6979,3.0917],[34.7915,-20.7007,7.2312],[34.7865,-20.7018,1.6007],[34.791,-20.6999,1.0686],[34.7885,-20.6949,1.2403],[34.7893,-20.6871,0.5444],[34.7988,-20.6885,0.0],[34.8107,-20.6874,1.3339],[34.8215,-20.6807,0.4895],[34.8099,-20.6785,1.6608],[34.8118,-20.6779,2.4163],[34.8199,-20.679,1.4709],[34.8226,-20.6776,0.0],[34.8182,-20.6729,0.6377],[34.8143,-20.6729,0.0],[34.8121,-20.6701,1.0266],[34.8182,-20.6715,0.6377],[34.8218,-20.6743,0.0],[34.8304,-20.676,0.0],[34.8318,-20.6754,0.0],[34.8307,-20.6712,2.9956],[34.8324,-20.6746,0.0],[34.8363,-20.6754,1.4613],[34.8413,-20.674,0.0],[34.8462,-20.6701,2.0146],[34.8457,-20.6621,0.585],[34.8424,-20.6607,1.5447],[34.8354,-20.6493,0.0],[34.8299,-20.6504,2.4343],[34.8265,-20.6476,0.7511],[34.8235,-20.6474,1.7407],[34.8229,-20.6457,1.8992],[34.8268,-20.6465,0.7511],[34.8304,-20.6496,1.4505],[34.8363,-20.6476,2.5386],[34.8379,-20.6513,1.0635],[34.8404,-20.6521,1.9642],[34.8462,-20.6593,1.6884],[34.8479,-20.6565,1.1421],[34.8488,-20.6415,2.861],[34.8435,-20.6385,2.1577],[34.8376,-20.6437,1.6448],[34.8326,-20.6443,0.5],[34.8293,-20.6421,3.7419],[34.8279,-20.6371,1.0488],[34.8221,-20.639,3.0408],[34.8199,-20.6357,1.0],[34.8154,-20.6354,1.5832],[34.8213,-20.6351,1.4515],[34.8235,-20.6382,0.5],[34.826,-20.6354,2.5224],[34.8296,-20.6354,1.3618],[34.8318,-20.6399,0.5],[34.8357,-20.6421,1.114],[34.8404,-20.6365,0.8129],[34.8451,-20.6357,1.8625],[34.849,-20.6376,0.0],[34.8504,-20.6351,0.0],[34.8468,-20.6279,0.0],[34.8413,-20.6262,0.0],[34.8393,-20.6218,0.0],[34.8349,-20.6207,0.0],[34.8301,-20.6132,2.2062],[34.8276,-20.6046,0.0],[34.824,-20.6007,0.0],[34.8193,-20.599,0.8455],[34.8085,-20.5843,0.0],[34.8007,-20.5851,2.4767],[34.7996,-20.5874,0.6494],[34.7985,-20.5843,0.4253],[34.8004,-20.5832,0.0],[34.7982,-20.5812,0.0],[34.7951,-20.5812,0.0],[34.7926,-20.5854,1.0051],[34.7851,-20.584,0.0],[34.7832,-20.5871,4.041],[34.7757,-20.5868,0.8259],[34.7749,-20.5901,3.1047],[34.7735,-20.5904,1.7714],[34.774,-20.5862,2.2324],[34.7721,-20.5849,1.4821],[34.7818,-20.586,0.6459],[34.7829,-20.5849,0.6459],[34.779,-20.5793,5.9487],[34.7807,-20.5754,3.7053],[34.784,-20.5751,5.1954],[34.7888,-20.5785,0.0],[34.7854,-20.5635,0.866],[34.7821,-20.5604,1.6453],[34.779,-20.5615,2.708],[34.779,-20.5596,1.6504],[34.7743,-20.556,1.8225],[34.7729,-20.5512,0.0],[34.7682,-20.5526,2.8671],[34.7693,-20.5501,0.0],[34.7668,-20.5474,0.0],[34.7576,-20.5485,1.6313],[34.7554,-20.5507,0.3992],[34.7538,-20.5454,0.0],[34.7499,-20.5457,1.3477],[34.7432,-20.5412,0.0],[34.7396,-20.5412,0.0],[34.7382,-20.544,2.7033],[34.7407,-20.5468,0.5103],[34.7396,-20.5501,2.8603],[34.7365,-20.541,1.6825],[34.7493,-20.5376,1.9019],[34.7504,-20.5276,4.2061],[34.7476,-20.519,0.7068],[34.7388,-20.5126,0.0],[34.7363,-20.5121,0.0],[34.7363,-20.5149,1.8018],[34.7326,-20.5135,0.0],[34.7246,-20.5176,0.0],[34.7093,-20.5193,0.7262],[34.7051,-20.5237,2.1521],[34.7062,-20.5257,0.7656],[34.704,-20.5263,2.331],[34.7024,-20.531,0.0],[34.7088,-20.5365,0.0],[34.7171,-20.5387,0.0],[34.7243,-20.5476,0.9215],[34.7257,-20.5579,3.4857],[34.7243,-20.5621,0.0],[34.7285,-20.5618,0.7832],[34.7324,-20.5646,0.0],[34.7349,-20.5687,2.5991],[34.7351,-20.5713,3.4848],[34.7329,-20.5732,0.5869],[34.7343,-20.5762,3.6787],[34.7315,-20.5737,3.6283],[34.7335,-20.5696,3.9168],[34.7313,-20.5657,2.1314],[34.7285,-20.5637,0.0],[34.7235,-20.5632,2.7713],[34.724,-20.5554,1.6964],[34.7218,-20.5468,0.7825],[34.7165,-20.541,2.2445],[34.7079,-20.5382,2.4581],[34.7054,-20.536,0.0],[34.7015,-20.5357,0.353],[34.7018,-20.5385,1.1072],[34.7043,-20.5404,1.1447],[34.7051,-20.5435,1.0359],[34.704,-20.5435,2.9208],[34.6999,-20.5374,1.3947],[34.701,-20.5349,0.353],[34.6993,-20.5312,0.0],[34.7001,-20.526,0.0],[34.6968,-20.526,0.6007],[34.6965,-20.524,0.0],[34.6943,-20.5237,1.2117],[34.6949,-20.5215,0.1274],[34.6876,-20.5221,2.2114],[34.6843,-20.5199,0.8406],[34.6826,-20.5218,3.3508],[34.6865,-20.5346,0.0],[34.6943,-20.5382,0.474],[34.6943,-20.5424,0.5295],[34.6918,-20.5476,2.828],[34.6935,-20.5518,1.9794],[34.6924,-20.559,0.9021],[34.7015,-20.5626,3.3985],[34.7079,-20.5754,1.7152],[34.7101,-20.5762,3.2873],[34.7124,-20.5804,1.5512],[34.7068,-20.5757,3.366],[34.7021,-20.5649,1.5458],[34.6996,-20.5624,0.7915],[34.6924,-20.5613,3.7517],[34.6893,-20.559,2.6593],[34.6888,-20.5562,2.536],[34.6921,-20.5526,1.0],[34.689,-20.5465,1.8994],[34.6926,-20.5426,0.5295],[34.6929,-20.5387,0.474],[34.6849,-20.536,0.7427],[34.6832,-20.5343,0.0],[34.6832,-20.5299,0.0],[34.6793,-20.528199999999998,0.7971],[34.6763,-20.5349,2.3511],[34.681,-20.5426,1.1706],[34.681,-20.5451,0.5],[34.6801,-20.5479,0.5],[34.6743,-20.5529,3.0975],[34.6735,-20.5626,1.9955],[34.6768,-20.5668,0.5],[34.6813,-20.5649,3.1065],[34.6843,-20.5668,3.4302],[34.6854,-20.5696,0.5],[34.6915,-20.5713,4.0565],[34.6849,-20.5715,4.5055],[34.6818,-20.5671,0.5],[34.6782,-20.5687,1.9323],[34.6729,-20.5679,0.5],[34.674,-20.571,2.5944],[34.6732,-20.5818,2.9193],[34.6693,-20.5835,3.1771],[34.6668,-20.5774,1.5254],[34.6679,-20.5715,0.5],[34.6668,-20.5682,0.5],[34.6635,-20.5646,3.7099],[34.6624,-20.5607,1.1571],[34.6599,-20.5596,1.7924],[34.6626,-20.549,3.5366],[34.6671,-20.5418,1.1538],[34.6671,-20.5243,1.8111],[34.6693,-20.5204,2.692],[34.6746,-20.5182,0.0],[34.6726,-20.5157,0.0],[34.6618,-20.5179,0.0],[34.6529,-20.5237,2.027],[34.636,-20.5229,0.5],[34.6276,-20.5271,0.5],[34.6268,-20.529,2.0372],[34.6188,-20.528199999999998,5.2871],[34.6118,-20.5235,1.6318],[34.6087,-20.5268,2.2093],[34.609,-20.5321,1.21],[34.6032,-20.5321,3.146],[34.6024,-20.5371,4.1253],[34.6007,-20.5393,2.3184],[34.5993,-20.539,2.5421],[34.6013,-20.5379,4.577],[34.6015,-20.5315,4.5672],[34.6079,-20.5318,0.5],[34.6076,-20.528199999999998,2.2933],[34.6032,-20.5296,2.1737],[34.5901,-20.5387,3.9774],[34.5734,-20.5409,15.6223],[34.5616,-20.5444,13.8577],[34.5197,-20.5605,15.6202],[34.502,-20.5649,16.3347],[34.4824,-20.5607,19.9607],[34.4702,-20.5561,23.1923],[34.4399,-20.5526,31.8937]]],
[[[34.7843,-20.5782,3.7877],[34.7818,-20.5779,6.3614],[34.7815,-20.5793,4.2931],[34.7846,-20.581,2.6934],[34.7857,-20.5799,0.5717],[34.7843,-20.5782,3.7877]]],
[[[34.6715,-20.5762,4.8028],[34.671,-20.5729,0.5],[34.6693,-20.5762,0.5],[34.6699,-20.5796,0.5],[34.6712,-20.5793,3.7028],[34.6715,-20.5762,4.8028]]],
[[[34.6904,-20.5585,2.6593],[34.6915,-20.5582,0.9021],[34.6918,-20.556,0.0],[34.6904,-20.5562,2.536],[34.6904,-20.5585,2.6593]]],
[[[34.8893,-20.6176,0.0],[34.8874,-20.6174,0.0],[34.8863,-20.6201,2.2668],[34.8929,-20.6365,0.4702],[34.9057,-20.6426,1.7274],[34.9124,-20.6524,1.6721],[34.9132,-20.6599,2.1259],[34.9082,-20.6721,0.0],[34.9085,-20.676,0.0],[34.9196,-20.6771,0.0],[34.9424,-20.6674,1.2197],[34.9515,-20.6685,0.0],[34.9538,-20.6668,1.895],[34.9562,-20.6701,0.0],[34.9654,-20.6682,0.0],[34.9557,-20.654,0.0],[34.9532,-20.6549,0.9516],[34.9526,-20.6568,3.0679],[34.9504,-20.6565,1.6874],[34.9465,-20.6615,2.7808],[34.936,-20.661,2.3845],[34.9382,-20.6596,1.613],[34.9451,-20.6599,0.0],[34.9501,-20.6537,0.0],[34.9479,-20.6515,0.0],[34.9443,-20.651,0.0],[34.944,-20.6482,0.0],[34.9468,-20.6479,0.0],[34.9471,-20.6462,0.0],[34.9426,-20.6421,0.5117],[34.936,-20.6371,0.0],[34.9338,-20.6407,0.5905],[34.9346,-20.6376,0.4469],[34.9296,-20.6293,0.0],[34.9221,-20.6271,2.7695],[34.9188,-20.6296,2.5539],[34.9118,-20.631,2.1132],[34.8949,-20.6196,3.8867],[34.8893,-20.6176,0.0]]],
[[[34.6763,-20.541,0.5],[34.6749,-20.541,1.3375],[34.6682,-20.5512,1.4558],[34.6685,-20.559,2.4756],[34.6704,-20.5604,0.5],[34.6726,-20.5593,1.0499],[34.6732,-20.5526,1.422],[34.6785,-20.5457,0.5],[34.6763,-20.541,0.5]]],
[[[34.6732,-20.528199999999998,0.0],[34.6738,-20.5246,0.5009],[34.6726,-20.5246,0.5009],[34.6718,-20.528199999999998,0.0],[34.6732,-20.528199999999998,0.0]]]]}
,"properties": {"GID_3": "MOZ.9.8.1_1","GID_0": "MOZ","country": "Mozambique","GID_1": "MOZ.9_1","province": "Sofala","NL_NAME_1": "NA","GID_2": "MOZ.9.8_1","county": "Machanga","NL_NAME_2": "NA","city": "Divinhe","VARNAME_3": "NA","NL_NAME_3": "NA","TYPE_3": "Localidad","ENGTYPE_3": "Locality","CC_3": "NA","HASC_3": "NA","name": "Divinhe.city","area_km2": 1935.933,"hist_schema_id": "Elevation0-9000","hist_area_km2": {"0": 817.931,"25": 711.3,"50": 400.417,"75": 6.285}}}