{"type":"Feature","properties":{"GID_3":"MOZ.11.5.3_1","GID_0":"MOZ","country":"Mozambique","GID_1":"MOZ.11_1","province":"Zambezia","NL_NAME_1":"NA","GID_2":"MOZ.11.5_1","county":"Ile","NL_NAME_2":"NA","city":"Socone","VARNAME_3":"NA","NL_NAME_3":"NA","TYPE_3":"Localidad","ENGTYPE_3":"Locality","CC_3":"NA","HASC_3":"NA","name":"Socone.city"},
"geometry":{"type": "MultiPolygon","coordinates": [[[[37.2082,-15.597,606.6152],[37.1975,-15.6036,611.3572],[37.1828,-15.6181,599.3987],[37.1708,-15.6237,601.7031],[37.166,-15.6302,594.8538],[37.1626,-15.6377,608.1854],[37.1603,-15.653,596.1078],[37.1516,-15.6647,600.121],[37.1466,-15.6753,592.058],[37.1362,-15.6867,597.3031],[37.132,-15.6889,591.5894],[37.1344,-15.7035,569.681],[37.132,-15.7107,554.9112],[37.134,-15.7156,553.1316],[37.1323,-15.7228,547.1246],[37.1251,-15.7254,555.363],[37.1252,-15.7403,543.8441],[37.1238,-15.7447,543.4008],[37.105,-15.7544,540.2166],[37.1034,-15.7569,536.4397],[37.1041,-15.7592,537.0207],[37.1083,-15.7611,546.9595],[37.109,-15.768,546.984],[37.1132,-15.7786,527.6071],[37.1064,-15.7865,535.8497],[37.1046,-15.7957,515.2015],[37.1001,-15.8003,514.5118],[37.1113,-15.825,492.1003],[37.1059,-15.8382,482.1994],[37.1078,-15.8467,472.5331],[37.12,-15.8515,475.4596],[37.1222,-15.8545,474.6503],[37.1225,-15.8585,473.3472],[37.1152,-15.8729,471.8491],[37.1129,-15.882,451.4093],[37.1239,-15.8979,436.8514],[37.1231,-15.908,418.0627],[37.1197,-15.9171,418.6807],[37.1208,-15.927,415.9376],[37.1143,-15.9383,409.1216],[37.1145,-15.9421,412.3019],[37.1236,-15.9438,428.3941],[37.1368,-15.9365,415.8738],[37.1534,-15.9311,448.465],[37.1731,-15.9327,488.3772],[37.1818,-15.9306,484.1646],[37.1958,-15.9231,507.2533],[37.2076,-15.9124,544.3655],[37.2249,-15.9051,509.9297],[37.2405,-15.8953,1005.7983],[37.2639,-15.9344,429.6097],[37.2665,-15.9356,428.7178],[37.2767,-15.9338,430.2521],[37.3006,-15.9204,472.6479],[37.3387,-15.9028,461.7203],[37.3672,-15.8935,483.9144],[37.3919,-15.8875,506.3886],[37.4047,-15.8711,520.594],[37.4411,-15.8533,534.6998],[37.4274,-15.8359,627.4405],[37.4062,-15.8175,849.3616],[37.3635,-15.7888,1004.8052],[37.3678,-15.7808,567.0676],[37.3729,-15.7648,517.1776],[37.3741,-15.7482,524.1769],[37.388,-15.726,537.2684],[37.3856,-15.7231,544.3808],[37.3793,-15.723,536.9603],[37.3845,-15.7105,549.4746],[37.3829,-15.703,554.5901],[37.3738,-15.6992,558.4016],[37.3648,-15.6916,575.1318],[37.3717,-15.6769,577.2971],[37.3688,-15.6729,614.1398],[37.3682,-15.6647,624.8299],[37.3636,-15.6611,688.7673],[37.3529,-15.6598,619.7626],[37.3272,-15.6616,744.7805],[37.3031,-15.6596,788.1807],[37.2959,-15.6558,795.8864],[37.269,-15.6322,767.8531],[37.2434,-15.6295,825.4776],[37.2082,-15.597,606.6152]]]]}}