{"type": "Feature","bbox": [32.5579,-24.6246,32.9835,-24.1105],"geometry": {"type": "MultiPolygon","coordinates": [[[[32.9819,-24.4687,26.3603],[32.9652,-24.451,24.4732],[32.9565,-24.449,27.578],[32.9307,-24.4483,30.163],[32.9217,-24.4511,33.1431],[32.9009,-24.4514,34.1744],[32.8873,-24.4459,29.529],[32.8825,-24.4365,31.328],[32.8764,-24.4097,29.8021],[32.8538,-24.3785,33.1604],[32.8531,-24.3667,32.6134],[32.8429,-24.3561,34.0514],[32.8401,-24.3449,36.3163],[32.8401,-24.3374,35.3262],[32.8203,-24.3025,31.7239],[32.7826,-24.2526,38.081],[32.7669,-24.2227,39.6482],[32.7525,-24.2096,39.8454],[32.7399,-24.191,45.5746],[32.7263,-24.1781,37.0],[32.721,-24.1707,38.6591],[32.7039,-24.1604,47.0956],[32.672,-24.1266,79.7103],[32.6512,-24.1145,64.5761],[32.6371,-24.1105,45.7249],[32.611,-24.1274,45.1306],[32.5979,-24.1979,74.4348],[32.5724,-24.2378,82.6328],[32.5579,-24.3333,79.6756],[32.5679,-24.3355,80.0943],[32.587,-24.3499,76.3299],[32.5991,-24.3694,70.9036],[32.606,-24.3758,70.201],[32.6146,-24.3796,68.5264],[32.6543,-24.376,62.2585],[32.6717,-24.3768,57.9947],[32.6964,-24.3857,50.6882],[32.7185,-24.4026,49.3667],[32.725,-24.4234,45.4513],[32.7285,-24.4577,45.5373],[32.724,-24.4752,44.4758],[32.7197,-24.483,43.0997],[32.7164,-24.4984,41.6449],[32.7192,-24.5088,43.3619],[32.7306,-24.5309,44.83],[32.7467,-24.5409,42.5932],[32.7463,-24.5444,41.0704],[32.7507,-24.5541,38.0801],[32.7633,-24.5638,38.1559],[32.7636,-24.5671,37.2462],[32.7636,-24.5635,38.1559],[32.8179,-24.531,37.5851],[32.843,-24.5504,32.2984],[32.8465,-24.5633,31.9495],[32.8539,-24.5735,30.7095],[32.8588,-24.5944,29.3337],[32.862,-24.6011,28.8941],[32.8827,-24.6246,27.1179],[32.8859,-24.6244,28.3768],[32.8913,-24.6175,28.0665],[32.9101,-24.6039,29.1903],[32.9263,-24.5965,29.7478],[32.9513,-24.5821,29.0492],[32.9636,-24.5732,28.8415],[32.9835,-24.5487,28.3203],[32.9423,-24.5236,32.3081],[32.9819,-24.4687,26.3603]]]]}
,"properties": {"GID_3": "MOZ.2.5.3_1","GID_0": "MOZ","country": "Mozambique","GID_1": "MOZ.2_1","province": "Gaza","NL_NAME_1": "NA","GID_2": "MOZ.2.5_1","county": "Chókwè","NL_NAME_2": "NA","city": "Macarretane","VARNAME_3": "NA","NL_NAME_3": "NA","TYPE_3": "Localidad","ENGTYPE_3": "Locality","CC_3": "NA","HASC_3": "NA","name": "Macarretane.city","area_km2": 1017.1418,"hist_schema_id": "Elevation0-9000","hist_area_km2": {"25": 315.0596,"50": 507.3362,"75": 194.3982,"100": 0.3478}}}