{"type":"Feature","properties":{"GID_2":"MOZ.11.13_1","GID_0":"MOZ","country":"Mozambique","GID_1":"MOZ.11_1","province":"Zambezia","NL_NAME_1":"NA","county":"Namacurra","VARNAME_2":"NA","NL_NAME_2":"NA","TYPE_2":"Distrito","ENGTYPE_2":"District","CC_2":"NA","HASC_2":"MZ.ZA.NC","name":"Namacurra.county"},
"geometry":{"type": "MultiPolygon","coordinates": [[[[37.3365,-17.6754,0.0],[37.3343,-17.6751,0.0],[37.334,-17.6762,0.0],[37.3368,-17.6774,0.0],[37.3365,-17.6754,0.0]]],
[[[37.3374,-17.6718,0.0],[37.336,-17.6715,0.0],[37.3357,-17.6721,0.0],[37.3379,-17.6732,0.0],[37.3374,-17.6718,0.0]]],
[[[37.331,-17.6754,0.0],[37.3293,-17.6762,0.0],[37.3299,-17.6779,0.0],[37.3312,-17.6768,0.0],[37.331,-17.6754,0.0]]],
[[[37.3643,-17.6629,2.9327],[37.3677,-17.6591,6.5315],[37.3635,-17.6525,12.0319],[37.3658,-17.6463,5.3421],[37.3626,-17.6335,5.6072],[37.3583,-17.5977,3.5242],[37.3726,-17.5989,4.2242],[37.3439,-17.5634,3.8316],[37.3377,-17.5689,4.1915],[37.3334,-17.5654,7.396],[37.3358,-17.5376,9.2959],[37.307,-17.525,7.6786],[37.2988,-17.5114,9.919],[37.3059,-17.5062,5.5],[37.3044,-17.491,10.8846],[37.2978,-17.4808,13.303],[37.2769,-17.4513,13.384],[37.2556,-17.4435,12.9209],[37.238,-17.4304,13.2695],[37.2242,-17.3973,17.5757],[37.1778,-17.3491,20.3602],[37.129,-17.3289,20.9569],[37.1218,-17.3245,22.7179],[37.0827,-17.2627,25.3338],[37.0732,-17.2362,25.686],[37.0681,-17.2161,32.2823],[37.055,-17.2186,34.6281],[37.0492,-17.1965,45.2982],[37.0349,-17.189,45.9647],[37.018,-17.1852,63.0181],[37.0124,-17.1901,73.5851],[37.0005,-17.2075,107.0081],[36.9923,-17.1958,126.8162],[36.9855,-17.193,129.2751],[36.9696,-17.1984,103.9499],[36.9641,-17.1985,102.2173],[36.9597,-17.1932,103.6681],[36.9278,-17.235,101.5401],[36.9301,-17.2472,89.9058],[36.9348,-17.2557,100.7286],[36.9381,-17.2714,76.41],[36.9329,-17.3032,60.9083],[36.9287,-17.3151,53.5995],[36.9238,-17.32,56.8567],[36.8309,-17.3017,60.5016],[36.8385,-17.3297,52.3917],[36.8335,-17.3325,47.9532],[36.8298,-17.3389,48.783],[36.8293,-17.3455,40.1974],[36.8325,-17.3572,53.1514],[36.8364,-17.3604,40.8248],[36.8312,-17.366,51.1074],[36.8231,-17.3709,35.0878],[36.7943,-17.4039,43.4616],[36.7992,-17.4199,38.3957],[36.7982,-17.4264,39.6913],[36.7932,-17.4378,29.8846],[36.7947,-17.4645,27.9092],[36.8149,-17.4916,18.5035],[36.8391,-17.4945,14.9613],[36.8566,-17.5138,30.2811],[36.8604,-17.5254,24.4842],[36.8666,-17.5334,19.4385],[36.871,-17.5427,15.6944],[36.8814,-17.545,11.0238],[36.8906,-17.5539,9.492],[36.8908,-17.5653,4.7662],[36.8945,-17.5751,3.2311],[36.9052,-17.5852,3.1357],[36.9152,-17.5892,2.3658],[36.9226,-17.6105,3.5262],[36.9399,-17.6238,5.2385],[36.9629,-17.6166,3.978],[36.971,-17.6177,3.4636],[36.9757,-17.6295,6.2869],[36.9895,-17.6356,2.3419],[37.0004,-17.6271,2.5134],[37.0041,-17.6282,2.6758],[37.0178,-17.6252,1.5033],[37.0267,-17.6258,2.4831],[37.0262,-17.6459,3.3765],[37.0237,-17.65,2.9549],[37.0416,-17.6558,2.5336],[37.0465,-17.6597,1.8594],[37.0387,-17.6704,2.3387],[37.0418,-17.6842,2.7258],[37.0505,-17.6814,10.5559],[37.0588,-17.6706,8.779],[37.0787,-17.6615,2.2085],[37.0839,-17.665,3.8534],[37.0938,-17.6649,2.2884],[37.0993,-17.6682,3.3034],[37.0925,-17.6765,1.5124],[37.1119,-17.6728,2.2652],[37.1166,-17.6623,2.0997],[37.1419,-17.649,2.3643],[37.145,-17.6597,1.7883],[37.1406,-17.6668,2.6757],[37.1599,-17.674,2.5562],[37.1596,-17.6777,0.0],[37.1477,-17.6822,0.0],[37.1514,-17.6918,4.9306],[37.1835,-17.7062,3.1571],[37.1879,-17.7138,0.4295],[37.1879,-17.7226,0.0],[37.1904,-17.7246,1.978],[37.1901,-17.7279,1.7638],[37.1999,-17.7396,1.2974],[37.2062,-17.7524,0.0],[37.2082,-17.7615,0.7112],[37.2126,-17.7629,4.9737],[37.2201,-17.7599,0.0],[37.2332,-17.7457,4.3302],[37.2526,-17.729,3.8441],[37.2954,-17.7001,4.0511],[37.2974,-17.6963,0.0],[37.2957,-17.6929,0.0],[37.2888,-17.7004,2.2313],[37.2776,-17.7018,5.0633],[37.2751,-17.706,1.2108],[37.2751,-17.7029,2.7538],[37.2771,-17.7004,0.5],[37.2882,-17.6987,1.1187],[37.2899,-17.691,1.555],[37.2957,-17.6849,0.808],[37.2938,-17.6782,1.0249],[37.2985,-17.6754,0.6649],[37.2996,-17.6724,2.9677],[37.3068,-17.6665,0.0],[37.3124,-17.6676,7.9742],[37.306,-17.6685,2.9711],[37.3035,-17.6721,0.731],[37.3007,-17.6732,1.8251],[37.2993,-17.6768,2.2426],[37.296,-17.6782,4.3893],[37.2957,-17.6804,4.0656],[37.2996,-17.6885,0.0],[37.3135,-17.6921,2.0507],[37.3274,-17.6846,0.0],[37.329,-17.6815,0.0],[37.3276,-17.6771,0.0],[37.3288,-17.6726,0.0],[37.341,-17.6646,0.0],[37.3462,-17.6696,1.6422],[37.3454,-17.6712,1.6422],[37.3476,-17.6715,0.7856],[37.3643,-17.6629,2.9327]]]]}}