{"type":"Feature","properties":{"featurecla":"River","scalerank":7,"rivernum":474,"dissolve":"474River","name":"Lúrio3","name_alt":null,"note":null,"min_zoom":6.0,"strokeweig":0.3,"name_en":"Lúrio","min_label":7.0},
"geometry":{"type": "LineString","coordinates": [[40.081298828125,-13.49016692500588,129.4807],[40.091064453125,-13.482452081255886,85.9353],[40.115332031250006,-13.45598723750588,106.6306],[40.128173828125,-13.44817473750588,90.372],[40.13330078125,-13.449053643755889,75.0085],[40.138916015625,-13.45330169063088,72.0847],[40.175683593750023,-13.459014581255886,81.2229],[40.188085937500006,-13.46648528438088,58.7531],[40.19775390625,-13.475616143755886,52.2089],[40.211669921875,-13.483916925005886,86.742],[40.252197265625,-13.48796965938088,52.3084],[40.3349609375,-13.46306731563088,15.9131],[40.372949218750023,-13.45598723750588,13.2065],[40.420166015625,-13.456084893755886,9.4046],[40.4375,-13.464873956255886,9.3147],[40.4443359375,-13.48699309688088,7.8295],[40.454199218750006,-13.508819268755886,5.5437],[40.4775390625,-13.520049737505886,3.8669],[40.5048828125,-13.52068450313088,2.024],[40.526953125,-13.510577081255889,0.0]]}}