{"type":"Feature","properties":{"featurecla":"River","scalerank":6,"rivernum":301,"dissolve":"301River","name":"Ruvuma2","name_alt":null,"note":null,"min_zoom":5.0,"strokeweig":0.25,"name_en":"Ruvuma","min_label":6.0},
"geometry":{"type": "LineString","coordinates": [[38.49169921875,-11.41326262813088,132.0385],[38.5166015625,-11.382842706255886,132.8326],[38.615234375,-11.31707122188088,139.3025],[38.6376953125,-11.289092706255886,117.0],[38.653710937500023,-11.275713800005889,120.9727],[38.683496093750023,-11.26775481563088,126.4808],[38.703710937500006,-11.25847747188088,125.0216],[38.714599609375,-11.25628020625588,122.1295],[38.726660156250006,-11.257647393755889,124.9043],[38.748144531250006,-11.262725518755886,113.5758],[38.759179687500023,-11.26311614375588,104.842],[38.777587890625,-11.253448175005886,105.3829],[38.817285156250023,-11.216143487505889,112.4962],[38.83056640625,-11.207842706255889,105.0561],[38.851464843750023,-11.202666925005886,98.1196],[38.869042968750023,-11.19060637813088,96.6421],[38.895751953125,-11.167510675005886,97.7677],[38.9296875,-11.15984465938088,100.5031],[39.060302734375,-11.16008880000588,86.9731],[39.094921875000011,-11.15325286250588,82.6898],[39.125683593750011,-11.13958098750588,82.1832],[39.1494140625,-11.14421965938088,79.4948],[39.18994140625,-11.166045831255886,74.7366],[39.211035156250006,-11.17376067500588,72.0],[39.237695312500023,-11.17400481563088,70.25],[39.2626953125,-11.16668059688088,68.5],[39.2861328125,-11.15398528438088,67.0],[39.482177734375,-10.999053643755886,55.8168],[39.497949218750023,-10.99041106563088,52.3745],[39.51513671875,-10.984893487505886,51.5754],[39.59228515625,-10.97918059688088,47.7843],[39.759863281250006,-10.942901300005886,36.8869],[39.785400390625,-10.932452081255889,70.7247],[39.885498046875,-10.864288018755886,30.3784],[39.988671875000023,-10.820830987505886,23.5]]}}