{"type":"Feature","properties":{"featurecla":"River","scalerank":7,"rivernum":474,"dissolve":"474River","name":"Lúrio2","name_alt":null,"note":null,"min_zoom":6.0,"strokeweig":0.25,"name_en":"Lúrio","min_label":7.0},
"geometry":{"type": "LineString","coordinates": [[38.51904296875,-14.14055755000588,343.6246],[38.557861328125,-14.15081145625588,328.0441],[38.683496093750023,-14.14739348750588,306.5847],[38.707128906250006,-14.14397551875588,322.4634],[38.740332031250006,-14.125030206255886,311.0935],[38.755078125000011,-14.12078215938088,309.0783],[38.822363281250006,-14.112334893755886,292.192],[38.841210937500023,-14.106475518755886,301.0032],[38.896386718750023,-14.06511809688088,288.2252],[38.928125,-14.05486419063088,288.7272],[38.970800781250006,-14.02507903438088,282.64],[39.030664062500023,-14.01238372188088,283.1763],[39.040429687500023,-14.00750090938088,286.6967],[39.045654296875,-13.983721612505889,290.3459],[39.059814453125,-13.96453215938088,305.3171],[39.079345703125,-13.950518487505889,292.9321],[39.101171875,-13.941924737505886,294.5581],[39.145263671875,-13.93718840938088,262.5],[39.170996093750006,-13.93865325313088,267.6793],[39.207910156250023,-13.95354583125588,257.0],[39.2314453125,-13.943682550005889,257.9182],[39.266357421875,-13.91521575313088,255.5716],[39.301660156250023,-13.893877862505889,255.2693],[39.323974609375,-13.88445403438088,261.4154],[39.344482421875,-13.88054778438088,247.2295],[39.352636718750006,-13.87737395625588,247.2163],[39.362695312500023,-13.86321380000588,247.8611],[39.371826171875,-13.86003997188088,247.216],[39.40966796875,-13.85320403438088,244.3197],[39.430078125000023,-13.844561456255889,247.6425],[39.452539062500023,-13.830401300005889,253.646],[39.470458984375,-13.81316497188088,238.1133],[39.477929687500023,-13.79485442500588,238.1253],[39.484277343750023,-13.783721612505886,236.3238],[39.499121093750006,-13.77288176875588,236.5142],[39.51708984375,-13.76360442500588,234.5615],[39.532617187500023,-13.757647393755889,231.5852],[39.56396484375,-13.75310637813088,229.7503],[39.574121093750023,-13.75017669063088,231.5324],[39.580957031250023,-13.74529387813088,228.0],[39.5875,-13.73845794063088,230.3084],[39.59521484375,-13.73235442500588,229.3094],[39.605224609375,-13.72966887813088,228.1089],[39.646240234375,-13.727080987505886,226.4683],[39.664941406250023,-13.72283294063088,223.7508],[39.683984375000023,-13.71599700313088,226.8935],[39.741601562500023,-13.67424895625588,219.0683],[39.762792968750006,-13.668291925005889,275.9778],[39.804443359375,-13.668291925005889,207.6264],[39.836181640625,-13.675127862505889,194.2315],[39.848535156250023,-13.675127862505889,205.1252],[39.88134765625,-13.657745050005886,189.4667],[39.937744140625,-13.589873956255886,185.6908],[39.964599609375,-13.565264581255889,173.1088],[39.993359375000011,-13.54973723750588,171.3577],[40.007080078125,-13.539092706255886,183.416],[40.020751953125,-13.512237237505886,150.6578],[40.039160156250006,-13.50359465938088,128.2968],[40.081298828125,-13.49016692500588,129.4807]]}}