{"type":"Feature","properties":{"featurecla":"River","scalerank":6,"rivernum":301,"dissolve":"301River","name":"Ruvuma3","name_alt":null,"note":null,"min_zoom":5.0,"strokeweig":0.3,"name_en":"Ruvuma","min_label":6.0},
"geometry":{"type": "LineString","coordinates": [[39.988671875000023,-10.820830987505886,23.5],[40.007519531250011,-10.81096770625588,21.5],[40.1328125,-10.71453215938088,18.6392],[40.160546875000023,-10.70427825313088,14.1164],[40.172265625000023,-10.692901300005886,15.0057],[40.191162109375,-10.66863372188088,13.4061],[40.250244140625,-10.61077239375588,9.9308],[40.287988281250023,-10.58294036250588,6.0],[40.352783203125,-10.56047942500588,6.2876],[40.388574218750023,-10.535186456255886,3.1584],[40.420507812500006,-10.50359465938088,0.5],[40.436914062500023,-10.47478606563088,0.0]]}}