{"type":"Feature","properties":{"featurecla":"River","scalerank":7,"rivernum":474,"dissolve":"474River","name":"Lúrio1","name_alt":null,"note":null,"min_zoom":6.0,"strokeweig":0.2,"name_en":"Lúrio","min_label":7.0},
"geometry":{"type": "LineString","coordinates": [[36.43125,-14.796709893755889,577.5052],[36.530175781250023,-14.79509856563088,565.4258],[36.56494140625,-14.786944268755889,562.9855],[36.577050781250023,-14.786455987505889,582.3042],[36.594628906250023,-14.79045989375588,557.3223],[36.64208984375,-14.813799737505889,1035.095],[36.669335937500023,-14.81780364375588,722.3403],[36.693603515625,-14.813018487505886,582.4421],[36.743359375000011,-14.792998956255886,586.3431],[36.753808593750023,-14.764483331255889,589.7971],[36.784912109375,-14.75554778438088,540.9918],[36.822021484375,-14.75920989375588,545.4958],[36.864501953125,-14.77410247188088,580.609],[36.877197265625,-14.776397393755886,531.4401],[36.890039062500023,-14.77507903438088,528.703],[36.943457031250006,-14.75383880000588,519.3036],[36.949951171875,-14.747393487505889,529.2408],[36.955664062500006,-14.737334893755886,526.9774],[36.9853515625,-14.70598723750588,517.5078],[36.99765625,-14.696123956255889,528.7206],[37.007519531250011,-14.69207122188088,514.8707],[37.02880859375,-14.686846612505889,526.5809],[37.039306640625,-14.682452081255889,520.6458],[37.055908203125,-14.66936614375588,516.0273],[37.064697265625,-14.664092706255886,508.4705],[37.076757812500006,-14.66204192500588,522.3949],[37.096093750000023,-14.654815362505886,526.2572],[37.161230468750006,-14.602080987505886,499.9828],[37.164794921875,-14.597686456255886,491.82619999999997],[37.17041015625,-14.594561456255889,496.9256],[37.1826171875,-14.593096612505889,490.0099],[37.19482421875,-14.59514739375588,503.3927],[37.214257812500023,-14.605010675005886,494.8838],[37.22021484375,-14.60735442500588,484.7946],[37.239501953125,-14.60369231563088,496.29],[37.341699218750023,-14.54876067500588,480.5237],[37.3765625,-14.52044036250588,485.5609],[37.405175781250023,-14.48943450313088,482.5038],[37.440820312500023,-14.441436456255886,469.437],[37.479736328125,-14.402373956255886,463.8599],[37.494873046875,-14.39446380000588,466.3365],[37.57373046875,-14.39446380000588,451.3968],[37.592480468750011,-14.381866143755886,453.6252],[37.615332031250006,-14.35906340938088,442.4881],[37.631933593750006,-14.33416106563088,454.2734],[37.631738281250023,-14.315948175005886,458.7829],[37.622460937500023,-14.295245050005889,437.1177],[37.634521484375,-14.280791925005886,433.3277],[37.656347656250006,-14.272784112505889,436.8469],[37.676025390625,-14.27092864375588,432.2039],[37.754638671875,-14.27776458125588,427.7455],[37.768798828125,-14.271514581255886,426.9246],[37.794824218750023,-14.24114348750588,427.7589],[37.812744140625,-14.230010675005886,439.4958],[37.85595703125,-14.23040130000588,429.6956],[37.879003906250006,-14.256182550005889,417.8079],[37.899804687500023,-14.28753020625588,413.6912],[37.936132812500006,-14.30510833125588,411.3861],[37.951562500000023,-14.30120208125588,400.3669],[37.969824218750006,-14.29045989375588,391.7243],[37.985058593750011,-14.277862237505886,395.8401],[37.991455078125,-14.267901300005889,384.0433],[38.001074218750006,-14.26165130000588,384.6966],[38.16943359375,-14.230791925005889,366.3949],[38.189697265625,-14.21624114375588,365.2786],[38.22412109375,-14.18157317500588,358.2043],[38.263574218750023,-14.161455987505889,362.7607],[38.35009765625,-14.151690362505889,347.3855],[38.389257812500006,-14.14055755000588,348.6204],[38.421875,-14.126299737505889,335.523],[38.45068359375,-14.12127044063088,334.2601],[38.481347656250023,-14.12590911250588,335.7714],[38.51904296875,-14.14055755000588,343.6246]]}}