{"type":"Feature","properties":{"GID_2":"MOZ.11.16_1","GID_0":"MOZ","country":"Mozambique","GID_1":"MOZ.11_1","province":"Zambezia","NL_NAME_1":"NA","county":"Pebane","VARNAME_2":"NA","NL_NAME_2":"NA","TYPE_2":"Distrito","ENGTYPE_2":"District","CC_2":"NA","HASC_2":"MZ.ZA.PE","name":"Pebane.county"},
"geometry":{"type": "MultiPolygon","coordinates": [[[[38.084,-17.2015,2.3123],[38.0788,-17.201,1.5],[38.0849,-17.2154,6.082],[38.0907,-17.2213,1.5],[38.0907,-17.219,3.3031],[38.0943,-17.2165,1.7362],[38.0935,-17.2112,1.5],[38.0907,-17.2065,5.9002],[38.084,-17.2015,2.3123]]],
[[[38.076,-17.2065,1.5],[38.074,-17.2051,1.5],[38.0776,-17.2124,1.5],[38.0779,-17.2099,1.5],[38.076,-17.2065,1.5]]],
[[[38.0718,-17.179,2.3558],[38.0723,-17.1815,1.5],[38.0724,-17.1793,2.3558],[38.0718,-17.179,2.3558]]],
[[[38.4679,-17.1476,0.0],[38.4657,-17.1468,0.0],[38.4635,-17.1487,0.0],[38.4665,-17.1493,0.0],[38.4679,-17.1476,0.0]]],
[[[38.4696,-17.1457,0.0],[38.4671,-17.1449,0.0],[38.4668,-17.1463,0.0],[38.4696,-17.1471,0.0],[38.4696,-17.1457,0.0]]],
[[[38.4615,-17.1451,0.0],[38.4571,-17.1443,0.0],[38.4543,-17.1471,3.6355],[38.4593,-17.1474,2.7134],[38.4615,-17.1451,0.0]]],
[[[38.4963,-17.1276,0.0],[38.4946,-17.1254,0.0],[38.4935,-17.1285,0.0],[38.4965,-17.1304,0.0],[38.4963,-17.1276,0.0]]],
[[[38.4968,-17.1193,0.0],[38.4968,-17.1176,0.0],[38.4957,-17.1174,0.0],[38.496,-17.1201,0.0],[38.4968,-17.1193,0.0]]],
[[[38.5238,-17.1282,0.0],[38.5221,-17.1271,0.0],[38.521,-17.1274,0.0],[38.5226,-17.1307,0.0],[38.5238,-17.1282,0.0]]],
[[[38.499,-17.1246,0.0],[38.4976,-17.1224,0.0],[38.4974,-17.126,0.0],[38.4996,-17.1276,0.0],[38.4996,-17.1262,0.0],[38.499,-17.1246,0.0]]],
[[[38.4982,-17.1149,0.0],[38.4951,-17.114,0.0],[38.4982,-17.1168,0.0],[38.4974,-17.119,0.0],[38.4985,-17.1196,0.0],[38.4996,-17.1162,0.0],[38.4982,-17.1149,0.0]]],
[[[38.5779,-17.1115,0.0],[38.579,-17.1112,0.0],[38.5793,-17.1104,0.0],[38.5765,-17.1121,0.0],[38.5779,-17.1115,0.0]]],
[[[38.5865,-17.0979,0.0],[38.5857,-17.0963,0.0],[38.584,-17.0996,0.0],[38.5868,-17.0996,0.0],[38.5879,-17.1021,0.0],[38.5882,-17.1001,0.0],[38.5865,-17.0979,0.0]]],
[[[38.5935,-17.0968,0.0],[38.5921,-17.0957,0.0],[38.5904,-17.0993,0.0],[38.5924,-17.1021,0.0],[38.5938,-17.0979,0.0],[38.5935,-17.0968,0.0]]],
[[[38.5899,-17.0974,0.0],[38.5893,-17.0987,0.0],[38.5901,-17.0985,0.0],[38.591,-17.0968,0.0],[38.5899,-17.0974,0.0]]],
[[[38.6655,-17.079,0.0],[38.659,-17.0799,0.125],[38.6624,-17.0799,0.0],[38.661,-17.0812,0.0],[38.6626,-17.0821,0.0],[38.6674,-17.0793,0.0],[38.6655,-17.079,0.0]]],
[[[38.8804,-17.2318,4.1186],[38.8754,-17.231,0.0],[38.874,-17.2337,8.398],[38.8768,-17.2371,0.0],[38.8849,-17.2354,0.0],[38.884,-17.2329,0.0],[38.8804,-17.2318,4.1186]]],
[[[38.6704,-17.0737,0.0],[38.6701,-17.0724,0.0],[38.6688,-17.0729,0.0],[38.671,-17.0746,0.0],[38.6704,-17.0737,0.0]]],
[[[38.6751,-17.0699,0.0],[38.6749,-17.0679,0.0],[38.6724,-17.0699,0.0],[38.6726,-17.0718,0.0],[38.6743,-17.0721,0.0],[38.6751,-17.0699,0.0]]],
[[[38.6729,-17.0615,0.0],[38.671,-17.061,0.5],[38.671,-17.0687,0.0],[38.6743,-17.0663,0.0],[38.6729,-17.0615,0.0]]],
[[[38.6765,-17.0613,0.0],[38.6749,-17.0596,0.0],[38.6751,-17.0626,0.0],[38.6771,-17.0635,0.0],[38.6765,-17.0613,0.0]]],
[[[38.8385,-17.0479,3.3428],[38.8385,-17.0465,3.3428],[38.8371,-17.0468,3.3428],[38.8371,-17.0487,1.0364],[38.8385,-17.0479,3.3428]]],
[[[38.6724,-17.0418,1.2995],[38.6696,-17.0412,0.5],[38.6704,-17.0432,2.2644],[38.6726,-17.0429,1.2995],[38.6724,-17.0418,1.2995]]],
[[[38.6771,-17.0335,0.5],[38.6782,-17.0326,0.5],[38.674,-17.0324,0.5194],[38.6754,-17.0335,0.5],[38.6771,-17.0335,0.5]]],
[[[39.0776,-17.119,0.0],[39.0721,-17.1182,3.4579],[39.0679,-17.1196,5.4323],[39.0676,-17.1226,2.6466],[39.0701,-17.1238,0.0],[39.0774,-17.1207,0.0],[39.0776,-17.119,0.0]]],
[[[39.1224,-17.0874,0.0],[39.1185,-17.0865,0.0],[39.1157,-17.0899,0.0],[39.1201,-17.0929,3.9136],[39.1257,-17.0915,0.0],[39.1265,-17.0896,3.4348],[39.1224,-17.0874,0.0]]],
[[[39.0846,-16.9468,1.0],[39.0835,-16.9457,8.9244],[39.0843,-16.9512,1.0],[39.0818,-16.9549,1.0],[39.0871,-16.9529,1.0],[39.0846,-16.9468,1.0]]],
[[[39.0826,-16.931,1.25],[39.0829,-16.9299,1.25],[39.0818,-16.9337,1.0],[39.081,-16.9329,2.004],[39.0801,-16.9346,1.5],[39.0846,-16.9326,1.0],[39.084,-16.9324,1.0],[39.0824,-16.9329,1.125],[39.0826,-16.931,1.25]]],
[[[39.0779,-16.9304,1.5],[39.0746,-16.9296,3.4984],[39.0765,-16.9332,1.5],[39.0793,-16.9326,1.5629],[39.0779,-16.9304,1.5]]],
[[[39.1082,-16.9265,0.0],[39.1093,-16.9254,0.0],[39.1065,-16.9271,0.0],[39.1076,-16.9271,0.0],[39.1082,-16.9265,0.0]]],
[[[39.1215,-16.9074,0.0],[39.1226,-16.9071,0.0],[39.1235,-16.9054,0.0],[39.1213,-16.9065,0.0],[39.1215,-16.9074,0.0]]],
[[[39.1268,-16.899,3.0427],[39.1263,-16.9015,0.5],[39.1257,-16.9015,0.5],[39.126,-16.9021,0.5],[39.1276,-16.9015,1.916],[39.1268,-16.899,3.0427]]],
[[[38.5768,-17.079,1.0],[38.5754,-17.0785,4.5246],[38.5754,-17.0804,5.2914],[38.5785,-17.0815,0.5],[38.5782,-17.0793,1.0],[38.5768,-17.079,1.0]]],
[[[38.6693,-17.0457,0.5],[38.6682,-17.0451,0.5],[38.6704,-17.0468,0.5],[38.6704,-17.0462,2.2005],[38.6693,-17.0457,0.5]]],
[[[37.9917,-16.4856,140.7067],[37.9661,-16.4798,157.4963],[37.9523,-16.4832,155.1068],[37.9303,-16.5002,163.8158],[37.9246,-16.4992,171.1402],[37.9198,-16.5005,171.5544],[37.9071,-16.5069,188.3256],[37.9017,-16.5168,170.9296],[37.9003,-16.5279,194.4095],[37.9023,-16.5448,188.8366],[37.9163,-16.5591,191.0073],[37.9202,-16.5711,171.0251],[37.9175,-16.5817,175.2299],[37.9179,-16.5883,173.8111],[37.9271,-16.5913,158.1489],[37.9237,-16.6069,152.3332],[37.9194,-16.6142,150.9935],[37.9212,-16.6499,135.354],[37.9434,-16.6704,136.4209],[37.9589,-16.6824,123.2044],[37.9858,-16.6886,115.3383],[37.9949,-16.6956,113.6959],[37.9857,-16.7131,117.8687],[37.9931,-16.7173,119.0482],[37.9907,-16.7296,107.3394],[37.9833,-16.7356,102.9132],[37.9784,-16.7482,110.1784],[37.984,-16.7505,97.8048],[37.9863,-16.7552,103.1645],[37.9914,-16.7593,109.7817],[37.9908,-16.762,96.0979],[37.9852,-16.7652,101.3483],[37.9849,-16.7687,91.8687],[37.9894,-16.7719,103.3376],[37.9974,-16.7838,95.7354],[37.9957,-16.798,74.6952],[38.0022,-16.8013,85.3367],[38.0044,-16.8044,89.9616],[37.999,-16.8116,77.2499],[37.9931,-16.8161,74.5558],[37.9894,-16.824,80.0005],[37.9928,-16.8351,70.0335],[37.99,-16.8367,70.5135],[37.9872,-16.8337,70.5728],[37.9882,-16.8469,73.5254],[37.9914,-16.8546,62.6858],[37.9974,-16.858,82.5714],[37.9985,-16.8609,79.6158],[37.9973,-16.8661,71.483],[37.9987,-16.8715,67.5259],[37.9943,-16.8798,61.8961],[38.002,-16.8921,67.6915],[37.9987,-16.8993,55.8496],[38.0028,-16.9107,54.4769],[38.0042,-16.9228,48.638],[38.0081,-16.9307,54.9141],[38.0155,-16.9372,58.7846],[38.0118,-16.9493,43.2314],[37.9992,-16.9576,44.1949],[37.9968,-16.9624,47.3525],[37.9983,-16.9642,40.2979],[38.0031,-16.963,40.5628],[38.0156,-16.9635,37.9825],[38.0278,-16.9747,31.1094],[38.0411,-16.984,26.8502],[38.034,-16.9985,25.962],[38.0508,-17.0129,44.6126],[38.0523,-17.0201,24.3068],[38.0666,-17.0483,24.5481],[38.0589,-17.0879,13.9556],[38.0712,-17.1094,10.5758],[38.0689,-17.1147,12.0268],[38.0533,-17.1203,4.1309],[38.0678,-17.1493,5.5417],[38.0779,-17.1582,9.132],[38.0776,-17.1626,9.98],[38.0707,-17.166,2.0],[38.0674,-17.1696,8.1722],[38.0679,-17.1724,5.8926],[38.0735,-17.1749,4.5516],[38.0743,-17.1815,2.2312],[38.0726,-17.184,1.5],[38.0668,-17.1871,1.5],[38.0668,-17.1918,1.5],[38.0749,-17.1979,4.0706],[38.0746,-17.1935,4.9488],[38.0726,-17.1915,4.7715],[38.0738,-17.191,5.9854],[38.0779,-17.1988,3.167],[38.0843,-17.1996,2.3488],[38.091,-17.2026,2.1929],[38.1057,-17.2176,3.9452],[38.1154,-17.2185,1.5],[38.1176,-17.2046,3.2353],[38.1132,-17.1957,2.0],[38.1151,-17.1904,2.0],[38.1126,-17.1876,3.5517],[38.1162,-17.1907,2.0],[38.1146,-17.1965,3.7986],[38.1176,-17.201,2.8959],[38.1226,-17.1971,3.4448],[38.1246,-17.1915,4.5475],[38.1246,-17.1879,3.263],[38.1201,-17.1793,1.5],[38.1229,-17.1735,1.5],[38.1157,-17.1674,2.7431],[38.1168,-17.1624,3.0965],[38.1168,-17.1676,3.0915],[38.1246,-17.1715,1.5],[38.1232,-17.1818,3.2673],[38.1263,-17.1829,3.9719],[38.1349,-17.1815,2.01],[38.1265,-17.1846,1.5],[38.1276,-17.1924,5.1477],[38.1221,-17.2076,2.0592],[38.1237,-17.2221,1.9584],[38.1268,-17.2237,2.2203],[38.1354,-17.2196,1.5],[38.1496,-17.2046,2.887],[38.1493,-17.201,3.0324],[38.1504,-17.2012,3.3575],[38.1507,-17.2046,2.887],[38.1446,-17.2135,1.8857],[38.1382,-17.2204,2.8681],[38.1257,-17.229,1.5],[38.1268,-17.2349,1.5],[38.1471,-17.2382,2.1669],[38.1507,-17.2346,2.3791],[38.1474,-17.239,2.1669],[38.1329,-17.2362,1.5],[38.1282,-17.2362,1.5],[38.1271,-17.2376,2.5393],[38.1301,-17.2462,2.1717],[38.1315,-17.2585,1.336],[38.1315,-17.2796,0.7581],[38.1393,-17.2957,4.3365],[38.1437,-17.2962,6.7014],[38.1607,-17.2907,3.2183],[38.1774,-17.281,5.3624],[38.1821,-17.2804,4.6629],[38.1826,-17.2818,0.0],[38.1857,-17.2821,0.0],[38.1849,-17.2776,3.3889],[38.1874,-17.2746,0.0],[38.1862,-17.2685,12.4064],[38.199,-17.2571,0.0],[38.221,-17.2462,1.0304],[38.2257,-17.2415,0.0],[38.2588,-17.2251,1.0202],[38.2676,-17.2246,0.0],[38.2749,-17.2165,3.5593],[38.2754,-17.2174,2.4916],[38.2743,-17.2196,1.0],[38.2687,-17.2254,0.0],[38.2576,-17.2274,0.0],[38.254,-17.2313,0.0],[38.2479,-17.2326,0.0],[38.2454,-17.2351,0.0],[38.3151,-17.2101,0.0],[38.3335,-17.2018,3.0654],[38.4138,-17.1721,0.0],[38.421,-17.1679,7.9407],[38.4265,-17.1671,0.0],[38.4413,-17.1585,4.7511],[38.4885,-17.1465,0.0],[38.4996,-17.1424,0.0],[38.5051,-17.1357,3.8215],[38.5043,-17.1329,0.0],[38.4896,-17.1368,2.9273],[38.481,-17.1468,5.3046],[38.469,-17.1501,3.9524],[38.4554,-17.1493,0.0],[38.4465,-17.1465,2.6832],[38.4338,-17.1465,4.3037],[38.4263,-17.1501,2.8896],[38.4318,-17.1454,2.2868],[38.4376,-17.1454,0.0],[38.4354,-17.1449,2.4065],[38.4354,-17.1429,3.8134],[38.4488,-17.144,6.4417],[38.4499,-17.146,0.0],[38.4532,-17.1465,0.0],[38.4546,-17.1446,0.0],[38.4515,-17.1454,0.0],[38.4521,-17.1418,0.0],[38.4726,-17.141,0.0],[38.4757,-17.1385,0.9114],[38.4774,-17.1407,0.0],[38.4787,-17.1362,5.3012],[38.4846,-17.1315,1.5074],[38.4888,-17.1254,0.6399],[38.494,-17.1218,0.0],[38.4949,-17.1182,0.8313],[38.4935,-17.1171,0.4758],[38.4921,-17.1218,0.5937],[38.4865,-17.1229,1.0875],[38.4832,-17.1204,0.7983],[38.4821,-17.1171,0.5],[38.4854,-17.1215,1.0875],[38.4901,-17.1218,0.0],[38.4926,-17.1199,0.0],[38.4915,-17.1099,0.0],[38.4982,-17.1126,1.9359],[38.5018,-17.1121,0.0],[38.5026,-17.1087,2.7194],[38.5004,-17.1057,2.1186],[38.5001,-17.1021,1.8766],[38.5068,-17.0985,1.8685],[38.5054,-17.091,5.2364],[38.5132,-17.0865,3.3092],[38.514,-17.0871,3.4946],[38.5076,-17.0921,5.5693],[38.5093,-17.0971,0.5],[38.5082,-17.1007,3.1798],[38.5029,-17.1029,0.5],[38.5082,-17.1085,3.1821],[38.506,-17.1201,0.0],[38.5182,-17.1221,0.0],[38.5257,-17.121,0.0],[38.5218,-17.1235,0.0],[38.5257,-17.1287,0.5393],[38.5257,-17.1324,0.7453],[38.5226,-17.134,0.0],[38.5274,-17.1346,0.0],[38.5599,-17.1257,0.0],[38.5776,-17.1185,2.0759],[38.5774,-17.1151,3.0673],[38.576,-17.1146,3.0673],[38.5732,-17.1174,1.6495],[38.5626,-17.1154,0.7927],[38.5624,-17.1176,1.6583],[38.5646,-17.1199,4.9979],[38.5585,-17.119,0.0],[38.5601,-17.1143,3.1412],[38.5635,-17.1121,2.2629],[38.5696,-17.1107,0.0],[38.5713,-17.1146,0.0],[38.5732,-17.1146,0.0],[38.5751,-17.1118,0.0],[38.5746,-17.1099,0.0],[38.5835,-17.1032,1.9972],[38.5818,-17.0968,0.0],[38.5849,-17.0951,0.0],[38.5849,-17.0929,0.0],[38.5812,-17.090699999999998,2.8436],[38.581,-17.0882,1.9701],[38.5749,-17.0804,5.2914],[38.5732,-17.0754,4.7217],[38.5771,-17.069,4.1458],[38.5799,-17.0693,2.9515],[38.5768,-17.0724,2.9398],[38.5768,-17.0749,1.0],[38.5812,-17.0807,2.1585],[38.5821,-17.0843,0.5],[38.5851,-17.0868,3.3843],[38.5876,-17.0957,0.0],[38.5907,-17.0929,0.0],[38.5871,-17.0882,0.0],[38.5907,-17.0904,0.0],[38.5915,-17.0943,0.0],[38.5924,-17.0938,0.0],[38.5913,-17.0779,1.6773],[38.5926,-17.0782,5.2727],[38.5949,-17.0835,2.9352],[38.594,-17.1037,0.0],[38.5962,-17.1071,0.0],[38.5988,-17.1065,0.0],[38.6001,-17.1035,0.0],[38.5988,-17.1026,0.258],[38.6001,-17.101,4.4789],[38.6001,-17.0932,5.913],[38.6026,-17.0921,3.7878],[38.6049,-17.0932,2.9577],[38.6004,-17.0943,1.6155],[38.6021,-17.0987,0.0],[38.6057,-17.0982,2.894],[38.6026,-17.0996,7.3537],[38.6007,-17.1087,0.0],[38.6599,-17.094,0.0],[38.6818,-17.0851,0.0],[38.6849,-17.0824,0.0],[38.6849,-17.0804,0.0],[38.6824,-17.0779,0.0],[38.6782,-17.0779,0.0],[38.6715,-17.0801,0.0],[38.6665,-17.0854,2.0855],[38.6635,-17.0849,1.6503],[38.6568,-17.0879,1.8517],[38.654,-17.0874,2.6715],[38.6515,-17.0901,1.9302],[38.6451,-17.0929,5.9077],[38.6554,-17.0799,0.5],[38.6638,-17.0771,0.0],[38.6646,-17.0757,0.0],[38.6624,-17.0749,0.744],[38.6688,-17.0715,0.0],[38.6676,-17.0679,0.0],[38.6649,-17.0665,2.4607],[38.6576,-17.0679,0.5],[38.6535,-17.0671,5.9523],[38.6512,-17.0624,7.929],[38.6526,-17.0587,3.5339],[38.6496,-17.0565,1.6402],[38.6532,-17.0582,3.5339],[38.6524,-17.0632,0.5],[38.6563,-17.0663,0.5],[38.6635,-17.0632,0.0],[38.6693,-17.0635,0.0],[38.6707,-17.0593,3.8803],[38.6746,-17.0599,0.0],[38.6726,-17.0574,0.5],[38.6715,-17.0582,3.8803],[38.6721,-17.0537,8.436],[38.6707,-17.0515,5.0455],[38.6624,-17.049,0.5],[38.6601,-17.0421,1.1515],[38.6538,-17.0371,0.5],[38.6535,-17.034,3.2134],[38.6551,-17.0315,0.5],[38.6512,-17.0282,6.555],[38.6482,-17.0301,3.0505],[38.6468,-17.0293,5.4417],[38.6521,-17.0271,2.4393],[38.656,-17.0304,5.0833],[38.6557,-17.0371,0.5],[38.661,-17.0404,1.1983],[38.6635,-17.0468,0.5],[38.664,-17.0399,0.5],[38.6668,-17.0343,3.1268],[38.6715,-17.031,3.8712],[38.6813,-17.0307,0.5],[38.679,-17.0229,0.5],[38.6768,-17.0232,5.4724],[38.6721,-17.0276,0.5],[38.6676,-17.0282,3.8129],[38.6621,-17.0254,0.5],[38.6601,-17.0185,1.2264],[38.669,-17.0101,1.2463],[38.6712,-17.0051,3.5367],[38.6787,-17.0021,2.1877],[38.6818,-16.9899,2.1877],[38.6754,-16.9918,2.3583],[38.6651,-16.9901,3.1644],[38.6626,-16.9876,0.5],[38.6618,-16.9807,3.2766],[38.6585,-16.979,1.2582],[38.6529,-16.981,1.2795],[38.6521,-16.9837,2.4183],[38.6496,-16.9851,3.0944],[38.6446,-16.9851,4.1936],[38.6371,-16.9799,6.2422],[38.6357,-16.9762,2.7152],[38.6365,-16.974,5.0616],[38.6379,-16.9796,2.6157],[38.6446,-16.9843,1.6906],[38.6496,-16.984,1.8568],[38.6521,-16.9801,1.2795],[38.659,-16.9776,2.4671],[38.6635,-16.9801,1.94],[38.6651,-16.9887,1.695],[38.674,-16.9899,0.5],[38.681,-16.9874,2.8198],[38.684,-16.9893,1.4565],[38.6801,-17.0037,0.5],[38.6729,-17.0065,2.1297],[38.6693,-17.0129,0.5],[38.6626,-17.0185,4.9756],[38.6621,-17.0215,6.7531],[38.6646,-17.0246,0.5],[38.6696,-17.0254,2.6356],[38.6754,-17.021,2.7295],[38.679,-17.0207,2.1011],[38.686,-17.0271,1.0065],[38.6871,-17.0293,1.8642],[38.6862,-17.0346,0.5],[38.6896,-17.0368,0.5],[38.6929,-17.036,1.2756],[38.6924,-17.0371,2.4377],[38.6749,-17.0368,2.667],[38.6724,-17.0382,7.3525],[38.6724,-17.0404,7.4245],[38.6793,-17.0449,0.5],[38.6821,-17.0485,2.8601],[38.6849,-17.0643,1.775],[38.689,-17.0679,9.7809],[38.6885,-17.074,0.0],[38.6965,-17.0788,2.5234],[38.7118,-17.0824,0.0],[38.7418,-17.0743,6.9064],[38.8112,-17.0651,0.0],[38.8121,-17.064,0.0],[38.8096,-17.064,3.0424],[38.8085,-17.0607,1.3239],[38.8135,-17.0576,5.4446],[38.8201,-17.0576,3.3406],[38.8226,-17.0521,0.8647],[38.8332,-17.0535,0.5],[38.8357,-17.0507,3.7389],[38.8368,-17.046,6.3835],[38.8449,-17.046,5.7576],[38.849,-17.0435,0.5],[38.8499,-17.039,2.1817],[38.8468,-17.0385,1.0],[38.8443,-17.0399,2.3413],[38.8474,-17.0374,4.9417],[38.8513,-17.0396,3.6732],[38.8488,-17.0451,2.6009],[38.8393,-17.0479,1.8862],[38.8346,-17.0557,0.5],[38.8251,-17.0529,0.125],[38.8213,-17.0613,1.0394],[38.8335,-17.0601,0.0],[38.8812,-17.0485,1.269],[38.921,-17.034,4.493],[38.9235,-17.0324,0.0],[38.9207,-17.0304,1.2257],[38.9215,-17.0287,2.166],[38.9243,-17.0296,0.125],[38.9285,-17.0276,4.859],[38.9301,-17.0293,3.6685],[38.9579,-17.0179,11.0949],[38.9874,-17.0107,4.2673],[39.0132,-17.009,4.5601],[39.0446,-17.0107,2.9409],[39.0671,-17.0143,0.0],[39.0732,-17.0135,0.0],[39.0801,-17.0037,0.0],[39.0962,-16.9743,2.0581],[39.1218,-16.9407,1.7178],[39.1221,-16.9363,0.7381],[39.1193,-16.9385,3.1854],[39.1176,-16.9351,1.9785],[39.1113,-16.9307,0.0],[39.1001,-16.9285,0.5],[39.0965,-16.9315,4.5026],[39.0935,-16.9312,0.5],[39.0893,-16.9368,1.0],[39.0907,-16.9504,1.0],[39.0924,-16.9532,4.5],[39.0915,-16.9568,12.306],[39.0879,-16.9565,11.7283],[39.0812,-16.9624,2.5225],[39.0762,-16.9632,10.3644],[39.0818,-16.961,3.2576],[39.0829,-16.959,2.2297],[39.0774,-16.9599,10.1598],[39.0563,-16.9549,6.7222],[39.0563,-16.9504,5.4689],[39.0596,-16.946,2.7387],[39.0632,-16.944,1.5],[39.0612,-16.9401,1.5],[39.0626,-16.9343,3.6036],[39.0738,-16.9315,1.5],[39.0726,-16.926,2.0],[39.0682,-16.9218,3.025],[39.0618,-16.9226,4.206],[39.0649,-16.9212,5.787],[39.0685,-16.9212,6.8608],[39.0757,-16.9285,4.0004],[39.0815,-16.9293,5.289],[39.0904,-16.9215,0.5],[39.091,-16.9188,2.3825],[39.0893,-16.9149,2.6134],[39.0913,-16.9118,3.437],[39.0999,-16.9132,2.5055],[39.099,-16.9096,7.3233],[39.0932,-16.9079,2.4724],[39.0935,-16.9068,2.4724],[39.0996,-16.9076,3.1621],[39.1018,-16.9129,1.5438],[39.0979,-16.9149,6.3651],[39.0918,-16.9129,3.437],[39.0904,-16.916,4.0579],[39.0921,-16.9182,1.2634],[39.096,-16.9193,3.2418],[39.1049,-16.9157,0.6449],[39.114,-16.916,0.8689],[39.116,-16.9118,3.574],[39.1182,-16.911,4.0172],[39.1179,-16.9088,0.962],[39.1207,-16.9093,1.0054],[39.1213,-16.9049,0.0],[39.1257,-16.9015,0.5],[39.1268,-16.8987,3.0427],[39.126,-16.8985,3.0427],[39.1254,-16.8993,3.0427],[39.1229,-16.8993,2.2528],[39.1207,-16.891,2.8292],[39.114,-16.889,2.4832],[39.1143,-16.8851,2.946],[39.1182,-16.8785,3.7906],[39.1188,-16.8796,2.6681],[39.1176,-16.8835,1.8794],[39.1149,-16.8879,3.5643],[39.1232,-16.8907,2.6384],[39.1235,-16.8957,1.2118],[39.126,-16.8979,3.1907],[39.1265,-16.8971,3.1907],[39.1249,-16.8962,1.2118],[39.1268,-16.8968,3.1907],[39.137,-16.8856,0.8476],[39.1297,-16.8724,1.4825],[39.1266,-16.8606,2.4033],[39.1294,-16.8518,1.485],[39.1208,-16.8197,6.4964],[39.1159,-16.8102,4.6045],[39.1132,-16.7984,5.2559],[39.0793,-16.7734,7.8331],[39.0747,-16.7599,8.3476],[39.0738,-16.7394,9.2325],[39.0698,-16.7309,12.6511],[39.0512,-16.7213,10.4873],[39.0479,-16.7108,11.2377],[39.0495,-16.691,13.1222],[39.0482,-16.6787,12.6731],[39.0444,-16.67,14.2726],[39.0356,-16.6628,14.4475],[39.0281,-16.6593,16.6317],[39.0,-16.6495,22.1325],[38.9889,-16.6361,17.6126],[38.9861,-16.6287,18.1585],[38.9851,-16.6199,18.4359],[38.9945,-16.5946,19.9909],[38.9966,-16.5737,25.4777],[39.0003,-16.5607,31.203],[39.0002,-16.5401,23.6003],[39.005,-16.5344,31.5713],[39.0096,-16.532,33.8233],[39.0407,-16.5209,26.598],[39.0398,-16.5139,26.992],[39.0291,-16.5,27.9899],[39.0215,-16.4829,33.2179],[39.0281,-16.4732,32.7364],[39.0351,-16.418,48.4078],[39.029,-16.4119,35.0973],[39.0231,-16.4005,52.5623],[39.0162,-16.3925,37.5687],[39.0149,-16.3778,48.3967],[39.0038,-16.3457,45.0653],[39.0051,-16.3316,44.6853],[38.9971,-16.3221,50.8476],[38.9867,-16.2882,59.8076],[38.9859,-16.2784,61.5562],[38.9794,-16.2744,67.6902],[38.9622,-16.2767,62.9649],[38.957,-16.2747,65.6223],[38.9463,-16.2628,73.9052],[38.9323,-16.239,82.9234],[38.9288,-16.221,95.2346],[38.9212,-16.2038,104.0313],[38.9179,-16.1849,100.9858],[38.9181,-16.1703,108.4812],[38.8998,-16.1552,102.4347],[38.895,-16.1598,105.1965],[38.894,-16.167,105.343],[38.8876,-16.1713,118.7194],[38.8807,-16.1679,124.0907],[38.8671,-16.1332,113.6674],[38.8532,-16.121,120.0894],[38.8442,-16.1195,122.6194],[38.8308,-16.12,135.96],[38.7611,-16.1393,182.2584],[38.7429,-16.1515,188.5482],[38.7297,-16.1573,197.5293],[38.706,-16.1605,229.5962],[38.6917,-16.1565,230.3776],[38.66,-16.1438,239.7466],[38.6469,-16.1589,209.5495],[38.6354,-16.1679,196.4097],[38.6053,-16.1858,168.4717],[38.6005,-16.1937,162.8038],[38.5991,-16.2081,158.1248],[38.5882,-16.2138,161.7415],[38.5801,-16.227,148.0382],[38.5786,-16.2374,148.9803],[38.5648,-16.2437,139.7288],[38.5498,-16.2548,141.8415],[38.5449,-16.3099,124.5213],[38.5355,-16.3225,114.2669],[38.5316,-16.3394,122.1645],[38.5248,-16.3421,128.7999],[38.5075,-16.3403,114.2148],[38.4866,-16.3452,134.4747],[38.4655,-16.3406,159.123],[38.4588,-16.3417,153.906],[38.4492,-16.3458,162.9158],[38.4438,-16.3562,171.3304],[38.4209,-16.3632,228.6342],[38.4151,-16.3671,253.4045],[38.3778,-16.3797,272.1127],[38.3657,-16.3879,206.9292],[38.3545,-16.4426,206.2573],[38.3444,-16.4535,164.6726],[38.3401,-16.4613,150.4147],[38.3501,-16.4806,119.9312],[38.3348,-16.4841,129.6443],[38.3247,-16.4844,150.8199],[38.2752,-16.498,151.5549],[38.2617,-16.5004,161.6139],[38.1863,-16.4982,147.1232],[38.1813,-16.5051,141.2443],[38.1728,-16.5075,139.1819],[38.1261,-16.4947,178.2881],[38.0814,-16.5119,126.8891],[38.0488,-16.5056,159.4627],[38.0379,-16.5274,130.3339],[38.0331,-16.5226,132.5912],[38.0261,-16.5217,135.7897],[38.0232,-16.5192,126.7773],[38.0199,-16.5072,131.4788],[38.0164,-16.5063,136.9495],[38.0078,-16.4977,137.0967],[38.0027,-16.5005,143.0397],[38.0005,-16.4992,139.5217],[37.9997,-16.4925,152.6088],[37.9917,-16.4856,140.7067]]],
[[[39.1243,-16.8979,1.1517],[39.1229,-16.8971,1.1517],[39.1232,-16.8985,2.2528],[39.1254,-16.8987,3.0427],[39.1243,-16.8979,1.1517]]],
[[[39.0707,-16.9343,1.5],[39.0679,-16.934,1.5],[39.0629,-16.9365,1.5],[39.0624,-16.9399,1.5],[39.0643,-16.9435,1.5],[39.0596,-16.9518,9.8853],[39.0776,-16.9546,1.25],[39.0829,-16.9499,1.0],[39.0832,-16.9371,1.0],[39.0788,-16.9374,2.0671],[39.0707,-16.9343,1.5]]]]}}