{"type":"Feature","properties":{"GID_1":"MOZ.1_1","GID_0":"MOZ","country":"Mozambique","province":"CaboDelgado","VARNAME_1":"NA","NL_NAME_1":"NA","TYPE_1":"Provincia","ENGTYPE_1":"Province","CC_1":"NA","HASC_1":"MZ.CD","ISO_1":"MZ-P","name":"Cabo_Delgado.province"},
"geometry":{"type": "MultiPolygon","coordinates": [[[[39.2657,-13.9124,257.2937],[39.2803,-13.9034,251.5],[39.2991,-13.8954,254.0],[39.3111,-13.8926,253.6394],[39.3104,-13.8912,257.4835],[39.3155,-13.8904,255.9426],[39.334,-13.8814,255.2875],[39.3709,-13.8606,247.216],[39.3997,-13.8522,246.2702],[39.4168,-13.8533,245.6673],[39.4176,-13.8514,244.7292],[39.4415,-13.8427,243.5267],[39.4537,-13.8332,239.1906],[39.4614,-13.8176,240.3668],[39.4848,-13.7885,236.8397],[39.506,-13.7732,239.5949],[39.5683,-13.7454,239.3837],[39.6091,-13.7342,228.2519],[39.6312,-13.7314,226.9797],[39.6599,-13.72,225.7477],[39.6697,-13.712,230.9187],[39.6891,-13.7007,222.8581],[39.7058,-13.6936,226.4973],[39.7192,-13.6841,224.0162],[39.7581,-13.6637,214.2458],[39.7686,-13.6623,217.9071],[39.7751,-13.6636,210.4633],[39.8125,-13.6754,198.0571],[39.8423,-13.6737,201.0868],[39.8671,-13.6671,189.9875],[39.8964,-13.6399,191.0081],[39.9097,-13.6312,185.5131],[39.9225,-13.6129,186.1528],[39.9375,-13.584,177.4327],[39.9469,-13.577,176.3279],[39.9725,-13.565,168.6521],[39.9761,-13.561,166.9911],[39.9979,-13.5291,157.6583],[40.0101,-13.5057,154.6111],[40.0509,-13.4915,96.2172],[40.0747,-13.4855,98.34],[40.1079,-13.4729,93.3085],[40.1098,-13.4675,99.9383],[40.1095,-13.4596,78.1459],[40.1033,-13.448,73.38],[40.1165,-13.4415,106.0801],[40.1403,-13.4484,68.1559],[40.1486,-13.4563,77.2051],[40.1688,-13.4585,70.6677],[40.1933,-13.4736,52.8752],[40.2114,-13.492,69.7587],[40.2206,-13.492,62.1931],[40.2384,-13.4843,42.4873],[40.2921,-13.4714,18.3635],[40.3097,-13.4716,16.7524],[40.3431,-13.4586,15.2153],[40.3845,-13.454,12.5743],[40.4034,-13.4545,13.0322],[40.4168,-13.4569,10.3928],[40.4252,-13.4622,10.1034],[40.437,-13.4753,17.7681],[40.4507,-13.4996,5.915],[40.4635,-13.5078,17.8513],[40.4652,-13.5039,29.1937],[40.4705,-13.5086,11.004],[40.4754,-13.5085,10.8467],[40.4965,-13.5052,26.5837],[40.5162,-13.4986,5.6012],[40.5257,-13.4999,2.3444],[40.5285,-13.489,3.8572],[40.5315,-13.4835,0.0],[40.531,-13.4765,1.6073],[40.524,-13.4757,3.2684],[40.519,-13.4788,4.8153],[40.5163,-13.476,5.0542],[40.5201,-13.4776,4.8511],[40.5251,-13.4746,3.6101],[40.5335,-13.4749,1.7595],[40.534,-13.4604,6.2646],[40.5374,-13.4465,5.3554],[40.5485,-13.4218,7.1184],[40.564,-13.4063,2.4046],[40.5746,-13.4024,8.8174],[40.5776,-13.3968,5.0237],[40.5815,-13.3835,6.5733],[40.584,-13.3657,0.0],[40.5832,-13.3546,4.8352],[40.5801,-13.3529,2.7116],[40.5804,-13.3476,5.1072],[40.5824,-13.3449,1.9434],[40.5774,-13.3293,1.566],[40.5732,-13.3263,5.6907],[40.5685,-13.3188,2.5888],[40.5649,-13.3196,5.2693],[40.5632,-13.3182,4.5819],[40.5638,-13.3179,3.4097],[40.5651,-13.3182,1.612],[40.5638,-13.3112,4.1607],[40.5662,-13.3085,0.1626],[40.5649,-13.3007,1.8545],[40.5632,-13.2993,5.6838],[40.561,-13.2896,5.4808],[40.5579,-13.2887,3.8334],[40.5576,-13.2865,0.0],[40.554,-13.2837,3.1034],[40.5554,-13.2835,1.5065],[40.5604,-13.286,4.758],[40.5646,-13.271,0.922],[40.5601,-13.2571,2.0374],[40.559,-13.2443,4.9851],[40.561,-13.2396,2.2717],[40.5582,-13.2346,2.7184],[40.5563,-13.2229,7.7638],[40.5585,-13.2032,0.0],[40.5604,-13.2029,0.0],[40.5593,-13.1996,0.0],[40.5612,-13.1993,0.282],[40.5615,-13.1962,0.0],[40.5638,-13.1949,0.0],[40.5632,-13.1885,0.0],[40.5615,-13.1865,0.2173],[40.5654,-13.1718,0.0],[40.564,-13.1707,0.0],[40.5629,-13.1718,0.4963],[40.5624,-13.1785,0.0],[40.5607,-13.1807,2.0109],[40.5601,-13.154,2.9594],[40.5612,-13.1485,7.8932],[40.5571,-13.1404,0.0],[40.5574,-13.1343,0.0],[40.5554,-13.1315,5.1106],[40.5501,-13.0985,1.9874],[40.5524,-13.0879,2.3393],[40.5515,-13.0751,1.5417],[40.5557,-13.0565,4.1605],[40.5601,-13.046,4.7093],[40.5732,-13.0238,6.9532],[40.5799,-13.0029,5.0799],[40.5874,-12.9876,0.0],[40.5863,-12.9804,0.7781],[40.5876,-12.9724,3.59],[40.586,-12.9676,0.0],[40.5876,-12.9668,0.0],[40.5749,-12.9618,5.7937],[40.5746,-12.9601,0.0],[40.5726,-12.9612,1.4131],[40.5718,-12.9596,1.4131],[40.5699,-12.9604,1.5127],[40.5696,-12.9635,7.7596],[40.5676,-12.9651,12.5849],[40.5638,-12.964,0.0],[40.5632,-12.9657,2.1577],[40.5568,-12.9654,0.0],[40.5471,-12.9712,0.0],[40.5401,-12.9715,6.2593],[40.5332,-12.9668,4.0539],[40.5293,-12.9618,6.0162],[40.5243,-12.9618,2.6564],[40.5235,-12.9601,0.0],[40.5176,-12.959,1.2369],[40.5124,-12.9535,1.5441],[40.5046,-12.9499,1.9447],[40.4982,-12.9499,0.0],[40.4935,-12.9557,1.3586],[40.4885,-12.9568,2.4337],[40.4874,-12.9601,6.0116],[40.484,-12.9601,1.194],[40.4815,-12.9632,2.2561],[40.4818,-12.9663,0.0],[40.4849,-12.9679,0.0],[40.4904,-12.9668,2.1143],[40.4963,-12.9712,10.7164],[40.5046,-12.9746,2.0283],[40.5121,-12.9835,0.5764],[40.514,-12.9929,22.0238],[40.5137,-12.9971,0.0],[40.5112,-13.0001,0.0],[40.5129,-13.0051,0.0],[40.5099,-13.0157,1.1371],[40.5104,-13.021,0.4238],[40.5076,-13.024,0.0],[40.5088,-13.0279,0.8995],[40.5051,-13.0324,0.601],[40.5001,-13.0337,0.8108],[40.4982,-13.036,0.8055],[40.4963,-13.0357,0.3931],[40.4971,-13.0313,0.4154],[40.4943,-13.0324,0.0],[40.4929,-13.0346,0.0],[40.4943,-13.0365,0.0],[40.4929,-13.041,0.75],[40.4938,-13.0463,2.7565],[40.4896,-13.0526,2.6397],[40.4915,-13.0446,1.433],[40.486,-13.0446,4.1386],[40.4899,-13.0415,1.5064],[40.4907,-13.0346,2.1379],[40.489,-13.0337,1.5767],[40.4843,-13.0354,0.125],[40.4865,-13.0401,6.6759],[40.4826,-13.0368,4.5987],[40.4846,-13.0326,6.1592],[40.4893,-13.0321,0.0],[40.4874,-13.0274,0.0],[40.4849,-13.0282,0.0],[40.4857,-13.0307,2.3318],[40.4632,-13.029,0.4913],[40.4604,-13.0343,5.7666],[40.466,-13.0379,2.7435],[40.4663,-13.0404,3.8166],[40.4585,-13.0346,4.1189],[40.459,-13.0293,2.5069],[40.4621,-13.026,0.3498],[40.461,-13.0243,0.0],[40.4526,-13.0249,2.2729],[40.4437,-13.0296,2.8772],[40.4399,-13.0296,2.5962],[40.4412,-13.0254,1.499],[40.4374,-13.0279,0.4577],[40.4326,-13.0285,3.5913],[40.4357,-13.0279,0.4577],[40.4393,-13.0246,0.6047],[40.4382,-13.0224,1.1797],[40.4412,-13.0171,1.9515],[40.4415,-13.0135,3.0341],[40.434,-13.004,0.0],[40.4326,-12.9965,2.4913],[40.4299,-12.9962,0.7273],[40.4326,-12.9921,1.2753],[40.4138,-12.9765,2.0788],[40.4132,-12.9735,0.0],[40.4104,-12.9715,0.0],[40.4101,-12.9674,0.7214],[40.4057,-12.9624,1.5194],[40.4035,-12.9543,0.6361],[40.4035,-12.9474,2.2097],[40.4129,-12.9279,1.1585],[40.4104,-12.9213,3.8221],[40.4079,-12.9213,0.375],[40.4074,-12.9232,5.303],[40.4054,-12.9224,2.3919],[40.4063,-12.9207,2.046],[40.4115,-12.9196,0.0],[40.414,-12.9226,0.7978],[40.4154,-12.9224,1.2279],[40.4129,-12.914,4.4295],[40.4157,-12.9071,1.1352],[40.4132,-12.9065,3.3715],[40.4096,-12.9099,3.6785],[40.4113,-12.9057,1.5199],[40.4149,-12.9049,0.5],[40.4179,-12.9065,2.918],[40.4165,-12.9118,0.0],[40.4176,-12.916,4.4719],[40.429,-12.9182,0.4893],[40.4296,-12.9121,1.4185],[40.4332,-12.9118,1.2315],[40.4321,-12.9082,0.686],[40.4354,-12.9062,2.1203],[40.4388,-12.8996,0.0],[40.4512,-12.8901,2.7137],[40.4532,-12.8871,0.917],[40.4607,-12.8829,4.4425],[40.4804,-12.8804,2.6494],[40.4896,-12.8837,0.0],[40.4912,-12.8801,3.9194],[40.4874,-12.8782,1.4412],[40.4904,-12.8785,1.3236],[40.4924,-12.8807,2.0751],[40.4918,-12.8832,0.0],[40.4999,-12.8871,3.7089],[40.5038,-12.894,4.2977],[40.5026,-12.9087,2.3403],[40.5004,-12.9132,4.0787],[40.5029,-12.9201,0.0],[40.5021,-12.9249,0.0],[40.5096,-12.9296,0.0],[40.5129,-12.9271,6.3226],[40.5137,-12.9232,12.2464],[40.5165,-12.9201,0.0],[40.5176,-12.9096,5.0532],[40.5213,-12.904,9.0419],[40.524,-12.9029,6.2185],[40.5282,-12.8979,11.0459],[40.5301,-12.8932,8.5654],[40.5313,-12.8774,1.0548],[40.5432,-12.8585,0.0],[40.5471,-12.844,2.5001],[40.5465,-12.8421,1.7697],[40.5429,-12.8424,0.0],[40.5407,-12.8376,0.0],[40.5421,-12.834,4.5324],[40.5451,-12.834,0.0],[40.5438,-12.8287,3.035],[40.546,-12.8304,0.4761],[40.5468,-12.8287,2.8866],[40.5488,-12.8326,0.0],[40.5488,-12.8371,0.0],[40.5504,-12.8371,0.9351],[40.5549,-12.8318,6.0268],[40.5624,-12.8282,0.0],[40.5646,-12.824,2.7585],[40.5638,-12.821,6.6209],[40.5657,-12.8201,0.0],[40.5615,-12.8188,1.8495],[40.5601,-12.8163,2.9599],[40.5624,-12.8099,2.8089],[40.5599,-12.8076,0.0],[40.5599,-12.8057,2.7388],[40.5638,-12.8029,1.0193],[40.5612,-12.799,5.0135],[40.5615,-12.7968,0.0],[40.5635,-12.7968,0.0],[40.5632,-12.7943,2.8965],[40.5543,-12.7837,3.4648],[40.5515,-12.7829,2.8445],[40.5532,-12.7818,0.5],[40.5513,-12.7793,0.5],[40.5438,-12.7768,2.4732],[40.5471,-12.7765,1.3525],[40.5462,-12.7682,3.4463],[40.539,-12.7668,2.8084],[40.5465,-12.7671,0.5],[40.5518,-12.7774,1.2904],[40.5599,-12.7843,5.3049],[40.5629,-12.7893,0.0],[40.5638,-12.7879,1.8358],[40.5649,-12.7888,0.0],[40.5674,-12.7943,4.4863],[40.5724,-12.7971,3.1659],[40.5715,-12.8049,0.72],[40.5788,-12.8079,6.3038],[40.5815,-12.8126,0.0],[40.5799,-12.8138,0.7723],[40.5807,-12.8165,0.0],[40.5838,-12.8151,2.1528],[40.5868,-12.811,4.2033],[40.5968,-12.8071,2.9624],[40.6004,-12.8085,0.0],[40.6107,-12.8032,0.0],[40.621,-12.7874,0.0],[40.6279,-12.7724,0.0],[40.6271,-12.7679,0.0],[40.6293,-12.7638,0.0],[40.6301,-12.7468,0.0],[40.6224,-12.7496,8.8582],[40.621,-12.7496,8.8582],[40.621,-12.7476,0.0],[40.6174,-12.749,0.0],[40.6157,-12.761,0.5],[40.6149,-12.759,0.5],[40.6135,-12.7593,1.3986],[40.6154,-12.7551,0.5],[40.6146,-12.749,0.9393],[40.6126,-12.7482,0.8591],[40.6071,-12.754,0.7203],[40.6057,-12.7643,1.8043],[40.6026,-12.7671,4.8659],[40.6037,-12.7612,4.3814],[40.6057,-12.7593,1.0973],[40.6032,-12.7601,4.3814],[40.6032,-12.7579,0.0],[40.5999,-12.759,6.8607],[40.6035,-12.7554,0.0],[40.6065,-12.7471,0.0],[40.6074,-12.7385,2.1152],[40.6151,-12.7335,0.0],[40.616,-12.7296,5.4607],[40.6126,-12.7185,3.6884],[40.6099,-12.7174,6.4656],[40.6007,-12.7057,0.0],[40.5968,-12.7046,3.2069],[40.5954,-12.7076,1.9455],[40.5938,-12.7074,0.0],[40.5835,-12.7163,6.7272],[40.5732,-12.7165,0.0],[40.5676,-12.7212,2.781],[40.5687,-12.7251,0.5],[40.5799,-12.7237,2.4182],[40.5812,-12.7251,0.5],[40.5857,-12.7368,2.8676],[40.5843,-12.7388,1.838],[40.5854,-12.7429,1.8361],[40.5835,-12.7446,2.5882],[40.5838,-12.7482,2.1886],[40.5818,-12.7518,4.6815],[40.5799,-12.7524,3.1823],[40.5801,-12.7512,5.4582],[40.5826,-12.7499,1.776],[40.5821,-12.7343,0.5],[40.5757,-12.7282,0.5],[40.5701,-12.7282,3.7136],[40.5668,-12.7265,3.454],[40.5638,-12.7215,2.5955],[40.5676,-12.7143,1.0628],[40.5738,-12.7107,0.655],[40.5754,-12.7074,5.4501],[40.5721,-12.7026,2.2132],[40.571,-12.6932,3.2449],[40.5696,-12.6924,0.0],[40.5674,-12.694,4.7223],[40.5693,-12.6901,2.5599],[40.5663,-12.6799,0.0],[40.5682,-12.6576,0.7754],[40.571,-12.6543,5.3889],[40.5732,-12.654,2.7947],[40.5713,-12.6515,4.8445],[40.5749,-12.6521,1.0966],[40.5779,-12.649,1.3093],[40.5829,-12.6496,0.3407],[40.5846,-12.651,6.3268],[40.5843,-12.6551,4.6534],[40.5863,-12.6565,0.0],[40.5999,-12.6579,5.0418],[40.6032,-12.661,5.192],[40.6046,-12.6654,3.7007],[40.6085,-12.6674,0.0],[40.6101,-12.6657,4.8339],[40.6124,-12.6662,0.5703],[40.614,-12.6726,0.8751],[40.6162,-12.6721,1.0779],[40.6193,-12.6599,0.0],[40.619,-12.6535,0.0],[40.6151,-12.6432,0.0],[40.6063,-12.636,0.0],[40.6037,-12.636,0.0],[40.5996,-12.6404,2.6485],[40.5887,-12.6421,2.438],[40.5849,-12.641,0.0],[40.5835,-12.6382,0.3324],[40.5796,-12.6385,4.1378],[40.579,-12.6343,0.0],[40.574,-12.6332,4.1349],[40.5707,-12.6299,3.2459],[40.5713,-12.6268,2.6461],[40.5649,-12.6279,7.2586],[40.566,-12.626,2.1373],[40.5696,-12.6254,0.0],[40.569,-12.6226,1.9365],[40.5707,-12.6207,0.5635],[40.5665,-12.6235,3.1887],[40.5679,-12.6182,0.0],[40.564,-12.6112,3.162],[40.5587,-12.5929,0.0],[40.5513,-12.5885,2.8436],[40.5496,-12.5854,0.0],[40.5496,-12.5801,0.0],[40.5518,-12.5785,0.0],[40.5499,-12.5682,0.0],[40.5526,-12.5599,0.3496],[40.5529,-12.5518,2.3602],[40.556,-12.5546,0.0],[40.5651,-12.5501,4.0267],[40.5676,-12.5426,0.0],[40.5671,-12.5374,4.3366],[40.5699,-12.5318,0.0],[40.5646,-12.5293,0.0],[40.5557,-12.5312,0.0],[40.5449,-12.5282,2.8375],[40.5254,-12.5296,3.6622],[40.5218,-12.5282,0.4435],[40.5196,-12.5299,0.0],[40.5213,-12.5321,3.4982],[40.514,-12.5296,3.5187],[40.5121,-12.5315,5.2328],[40.5043,-12.5337,2.2569],[40.4979,-12.5321,0.5055],[40.4965,-12.5257,0.4411],[40.4935,-12.5254,1.0633],[40.4849,-12.5296,0.5],[40.4857,-12.5396,4.6284],[40.481,-12.5432,5.5534],[40.4801,-12.546,1.5953],[40.4801,-12.5435,1.4757],[40.4846,-12.5371,1.5669],[40.4818,-12.5321,1.8845],[40.4824,-12.5274,4.1523],[40.4874,-12.521,0.5142],[40.4882,-12.5176,1.7636],[40.4912,-12.5157,0.9973],[40.4854,-12.514,0.0],[40.4804,-12.5154,1.5242],[40.4787,-12.5137,2.3444],[40.4807,-12.5126,1.8649],[40.4804,-12.5093,0.4323],[40.4776,-12.5082,1.5657],[40.4749,-12.5101,2.9091],[40.4768,-12.5085,2.7439],[40.4771,-12.5054,0.0],[40.4724,-12.5035,2.5546],[40.4693,-12.5071,3.437],[40.4704,-12.5026,1.0],[40.4607,-12.5068,7.5004],[40.4613,-12.5051,1.5],[40.4643,-12.5051,1.5],[40.4699,-12.5007,1.9454],[40.4674,-12.4979,3.2872],[40.4601,-12.5004,2.5427],[40.4571,-12.5051,4.5663],[40.4549,-12.5051,5.3681],[40.4568,-12.5046,4.5663],[40.4585,-12.5004,2.5427],[40.4646,-12.4974,4.5168],[40.4787,-12.4968,1.8526],[40.4846,-12.4896,0.9153],[40.4918,-12.474,0.4894],[40.4915,-12.4726,0.0],[40.4876,-12.4712,1.0628],[40.4876,-12.4676,1.375],[40.4849,-12.4654,4.2527],[40.4871,-12.4643,3.6346],[40.491,-12.4688,1.924],[40.494,-12.4676,0.5805],[40.4943,-12.4601,3.3481],[40.4982,-12.4526,0.0],[40.499,-12.446,1.9383],[40.499,-12.4424,1.5044],[40.4963,-12.4388,3.278],[40.4999,-12.4401,0.0],[40.5115,-12.4301,4.0216],[40.524,-12.4268,0.9517],[40.5332,-12.4187,1.3685],[40.5363,-12.4185,0.8237],[40.5418,-12.4157,0.6735],[40.5426,-12.4137,2.9524],[40.5507,-12.4107,1.3911],[40.551,-12.4085,0.0],[40.5604,-12.4026,4.1493],[40.5685,-12.4015,0.0],[40.5704,-12.3987,0.9984],[40.5615,-12.3888,0.5894],[40.5604,-12.3846,1.9997],[40.5557,-12.3838,3.1989],[40.5543,-12.3818,1.5081],[40.5529,-12.3818,0.0],[40.5507,-12.391,1.5374],[40.5507,-12.3879,0.8501],[40.549,-12.3865,0.8501],[40.5499,-12.3812,0.0],[40.5471,-12.3815,3.5041],[40.5407,-12.3762,0.0],[40.5388,-12.3771,2.622],[40.5418,-12.3826,2.9471],[40.5407,-12.3838,4.5348],[40.5407,-12.3824,2.9471],[40.5388,-12.3824,0.618],[40.541,-12.3865,3.8621],[40.5382,-12.386,0.0],[40.5401,-12.3888,3.3029],[40.5385,-12.3979,4.2418],[40.5382,-12.3971,4.2418],[40.5388,-12.391,2.0648],[40.5343,-12.384,0.7998],[40.531,-12.3868,1.5044],[40.524,-12.3871,0.4564],[40.5229,-12.3943,2.5274],[40.5249,-12.3974,1.4018],[40.5213,-12.394,2.0889],[40.5213,-12.3854,5.0529],[40.5199,-12.3838,0.9845],[40.5118,-12.3838,0.0],[40.5085,-12.3871,1.8457],[40.5085,-12.3846,0.303],[40.506,-12.3835,0.7685],[40.5057,-12.3874,3.0364],[40.5015,-12.3829,0.0],[40.4954,-12.3843,0.5],[40.4912,-12.3882,1.0],[40.4874,-12.3979,3.6421],[40.4765,-12.3965,3.2824],[40.4771,-12.3946,1.5],[40.4832,-12.3968,1.5],[40.4868,-12.3954,6.3936],[40.4885,-12.3782,1.0067],[40.4954,-12.3735,0.0],[40.4976,-12.3699,0.0],[40.4979,-12.3654,0.0],[40.4943,-12.3643,0.8896],[40.4924,-12.3665,0.5774],[40.4907,-12.3743,0.9731],[40.4888,-12.376,1.9028],[40.491,-12.3665,3.1427],[40.494,-12.3629,3.996],[40.5024,-12.3596,0.3141],[40.5057,-12.3507,0.0],[40.5035,-12.3418,3.3625],[40.4985,-12.3418,2.3912],[40.4946,-12.3449,3.1796],[40.4899,-12.3457,1.7628],[40.4874,-12.3457,1.8556],[40.4849,-12.3429,3.3828],[40.4899,-12.3449,1.7628],[40.5013,-12.3399,1.2872],[40.5088,-12.3407,0.8951],[40.5076,-12.3321,4.1735],[40.511,-12.3279,5.8535],[40.514,-12.3276,0.0],[40.5146,-12.3251,0.0],[40.5051,-12.3137,1.3839],[40.5051,-12.304,0.4868],[40.5001,-12.2954,1.0354],[40.5001,-12.2846,1.1145],[40.496,-12.2779,0.0],[40.4837,-12.274,0.5981],[40.4776,-12.2751,4.1357],[40.4771,-12.2732,1.9204],[40.4718,-12.271,0.0],[40.4707,-12.2679,0.0],[40.4657,-12.2687,2.5844],[40.4626,-12.2674,0.5],[40.4643,-12.266,0.5],[40.4596,-12.2618,4.352],[40.4576,-12.2532,4.7017],[40.4582,-12.239,5.5807],[40.4629,-12.2312,1.1391],[40.466,-12.2329,1.9736],[40.4685,-12.2307,4.2802],[40.4671,-12.229,0.5],[40.4632,-12.2304,1.1391],[40.4624,-12.2276,7.2788],[40.4637,-12.2296,1.1391],[40.4685,-12.2279,5.9399],[40.469,-12.2318,2.5443],[40.4654,-12.2354,2.2989],[40.4635,-12.2343,0.5],[40.4621,-12.236,0.5],[40.4635,-12.2401,2.1378],[40.4626,-12.2476,6.2541],[40.4682,-12.2526,1.4128],[40.4718,-12.2599,0.8676],[40.4763,-12.2629,1.5132],[40.4804,-12.2704,0.4532],[40.4904,-12.2718,0.0],[40.4932,-12.2687,4.6886],[40.4938,-12.2618,1.099],[40.4968,-12.2549,0.0],[40.5049,-12.244,0.0],[40.5065,-12.2354,0.4952],[40.5096,-12.2296,1.5926],[40.5085,-12.2199,0.4112],[40.499,-12.2207,0.7437],[40.5013,-12.2182,1.2164],[40.4987,-12.2182,1.4375],[40.4987,-12.2146,0.973],[40.4949,-12.2118,3.5152],[40.4899,-12.2115,3.1173],[40.4943,-12.2107,2.546],[40.4949,-12.209,3.7577],[40.4976,-12.2132,0.875],[40.4987,-12.2118,2.1114],[40.5001,-12.2143,2.5126],[40.5029,-12.214,3.2497],[40.5065,-12.2104,1.8821],[40.5143,-12.2074,0.0],[40.5157,-12.204,1.9509],[40.5124,-12.199,3.1418],[40.5124,-12.1957,1.0947],[40.4951,-12.169,5.4612],[40.4888,-12.1537,2.9776],[40.4876,-12.1474,0.0],[40.489,-12.1362,6.0763],[40.5118,-12.0901,5.3889],[40.5115,-12.0804,3.3494],[40.5043,-12.0746,2.7345],[40.5013,-12.0621,0.0],[40.4993,-12.0607,2.2335],[40.499,-12.0485,2.2793],[40.5018,-12.0385,1.6738],[40.506,-12.0318,0.0],[40.5101,-12.0287,0.0],[40.5096,-12.026,5.3397],[40.5174,-12.0157,6.1121],[40.5404,-12.0001,3.173],[40.5488,-12.0015,0.0],[40.5535,-11.9982,0.0],[40.5418,-11.9987,4.5895],[40.5251,-11.9912,0.5065],[40.5249,-11.9876,0.0],[40.5088,-11.9768,2.8084],[40.5001,-11.9682,3.119],[40.5015,-11.9662,0.0],[40.4951,-11.9574,4.6121],[40.4907,-11.9465,2.3985],[40.4879,-11.9301,0.0],[40.4854,-11.9324,1.1915],[40.4843,-11.9263,2.5307],[40.4824,-11.9243,4.2005],[40.4843,-11.9157,1.2509],[40.4821,-11.8996,1.585],[40.4849,-11.8857,5.368],[40.4918,-11.8735,1.1695],[40.501,-11.8632,2.5038],[40.5113,-11.8585,0.0],[40.5149,-11.854,0.0],[40.5057,-11.8474,0.0],[40.4926,-11.846,0.0],[40.484,-11.8421,2.4293],[40.4701,-11.8299,1.9243],[40.4654,-11.8218,2.591],[40.4637,-11.8146,1.0372],[40.4613,-11.8154,0.5295],[40.4604,-11.8082,0.0],[40.4613,-11.8007,0.0],[40.4635,-11.7996,0.0],[40.4637,-11.7976,0.0],[40.4663,-11.7979,0.0],[40.4665,-11.7918,0.1387],[40.4701,-11.786,0.0],[40.4682,-11.7835,0.355],[40.469,-11.7782,0.0],[40.4601,-11.7729,1.3027],[40.461,-11.7726,3.3711],[40.4629,-11.774,0.6302],[40.4649,-11.7735,0.0],[40.4621,-11.7707,1.7982],[40.4643,-11.7696,0.0],[40.4657,-11.764,0.616],[40.4637,-11.754,0.7887],[40.4654,-11.7429,0.0],[40.4599,-11.7451,1.5271],[40.4493,-11.7449,3.1498],[40.4388,-11.7351,1.9059],[40.4371,-11.7287,0.0],[40.4349,-11.7268,0.0],[40.4365,-11.7254,0.0],[40.439,-11.7163,0.0],[40.4396,-11.706,0.0],[40.4354,-11.7032,2.6492],[40.4338,-11.7049,6.6885],[40.4346,-11.7099,5.1184],[40.4335,-11.709,5.5089],[40.4332,-11.7032,1.7519],[40.4362,-11.7029,0.8523],[40.4388,-11.6999,0.0],[40.4351,-11.694,0.0],[40.4315,-11.6935,0.0],[40.4251,-11.699,0.0],[40.4207,-11.6999,4.7228],[40.4201,-11.7018,2.0692],[40.4224,-11.7032,0.5],[40.4221,-11.7054,4.9019],[40.416,-11.7057,3.981],[40.4176,-11.7043,3.8825],[40.4207,-11.7046,2.7717],[40.419,-11.701,2.0642],[40.4201,-11.6982,0.5],[40.4238,-11.6985,0.0],[40.4265,-11.6962,0.0],[40.426,-11.6946,0.0],[40.4315,-11.6912,4.8026],[40.4396,-11.6912,3.2283],[40.4429,-11.6865,1.2063],[40.4404,-11.681,3.7492],[40.4429,-11.6807,1.473],[40.4432,-11.6768,1.8053],[40.4401,-11.6751,1.5449],[40.4246,-11.6754,1.0],[40.416,-11.6801,2.0385],[40.4243,-11.6737,3.5787],[40.4379,-11.6721,0.0],[40.4421,-11.6679,0.3365],[40.4407,-11.6593,6.7383],[40.444,-11.6568,0.0],[40.4443,-11.6515,0.0],[40.4382,-11.649,2.6115],[40.4343,-11.6515,7.357],[40.4365,-11.6474,1.9395],[40.4318,-11.6471,2.4139],[40.4307,-11.6496,7.7696],[40.4246,-11.651,2.174],[40.4171,-11.659,11.8418],[40.4182,-11.6554,4.0245],[40.4315,-11.6418,2.0186],[40.4318,-11.6401,0.9318],[40.4299,-11.6387,0.5],[40.4332,-11.636,4.0239],[40.4315,-11.634,6.6158],[40.4313,-11.6285,6.9503],[40.4346,-11.6351,0.375],[40.4368,-11.6343,5.812],[40.4399,-11.6357,0.5904],[40.4518,-11.6246,2.1302],[40.4557,-11.6265,0.0],[40.4585,-11.6251,0.0],[40.461,-11.6137,0.0],[40.4607,-11.6099,0.0],[40.4554,-11.6007,0.4407],[40.4504,-11.6001,2.1722],[40.4493,-11.6012,2.1245],[40.4493,-11.5993,0.5763],[40.4465,-11.6004,1.7008],[40.4454,-11.596,0.1629],[40.4307,-11.589,1.4485],[40.4268,-11.5854,1.185],[40.4221,-11.5785,2.2326],[40.4235,-11.5746,0.0],[40.4224,-11.5699,2.8383],[40.4243,-11.5668,4.0928],[40.4235,-11.5629,0.0],[40.4207,-11.5632,3.43],[40.4176,-11.5546,0.0],[40.4276,-11.5426,1.039],[40.4351,-11.5387,0.1435],[40.4332,-11.5329,2.1116],[40.4362,-11.5368,0.5397],[40.4399,-11.5371,0.0],[40.4518,-11.5293,5.4322],[40.4518,-11.524,2.2075],[40.4421,-11.5143,0.3999],[40.4379,-11.5071,0.0],[40.4379,-11.5043,0.4683],[40.4429,-11.4982,0.4994],[40.4507,-11.4949,0.0],[40.456,-11.4874,2.8205],[40.4579,-11.4704,2.8888],[40.4568,-11.4685,1.1063],[40.4532,-11.469,2.2985],[40.4554,-11.4671,1.5702],[40.4585,-11.4671,0.3131],[40.459,-11.4643,0.0],[40.4588,-11.4585,0.4759],[40.4557,-11.4524,2.0226],[40.4557,-11.4463,1.6298],[40.4599,-11.441,4.147],[40.4621,-11.441,1.1391],[40.4665,-11.4374,1.4219],[40.4682,-11.4226,4.1226],[40.4751,-11.4085,0.0],[40.4732,-11.4065,1.3273],[40.4732,-11.4035,0.0],[40.4693,-11.4012,0.0],[40.4593,-11.401,0.0],[40.4551,-11.4032,1.5607],[40.456,-11.401,0.0],[40.4521,-11.401,0.0],[40.4493,-11.4054,0.25],[40.4507,-11.4096,3.4085],[40.449,-11.4126,0.5],[40.4454,-11.4138,2.9876],[40.4476,-11.4121,2.485],[40.4488,-11.4065,0.5],[40.4451,-11.406,0.3269],[40.4432,-11.4007,0.0],[40.4418,-11.4029,1.032],[40.431,-11.3979,0.0],[40.4265,-11.4037,1.7934],[40.4285,-11.4124,2.1249],[40.4276,-11.4143,1.6319],[40.4265,-11.4096,0.5],[40.4232,-11.4065,4.3438],[40.4232,-11.396,0.0],[40.4212,-11.396,4.9256],[40.4263,-11.3901,0.0],[40.424,-11.3882,0.8346],[40.4224,-11.3904,1.3231],[40.4138,-11.3885,2.3737],[40.4129,-11.3849,2.6392],[40.4151,-11.3774,1.6475],[40.4071,-11.366,0.0],[40.389,-11.3504,0.4507],[40.3863,-11.3501,1.3799],[40.3821,-11.3524,0.0],[40.381,-11.3549,0.0],[40.3829,-11.356,1.7283],[40.3788,-11.356,0.0],[40.3771,-11.3587,0.9196],[40.376,-11.3582,0.7743],[40.3774,-11.3562,0.0],[40.3704,-11.356,1.1595],[40.364,-11.3474,0.0],[40.3604,-11.331,0.0],[40.3524,-11.3285,2.7293],[40.3482,-11.324,0.5],[40.3454,-11.3165,1.2777],[40.3354,-11.3168,8.9508],[40.3312,-11.3107,1.0],[40.3274,-11.3099,3.0034],[40.3282,-11.3065,2.1769],[40.3282,-11.3079,2.1769],[40.3332,-11.3096,8.6366],[40.336,-11.3146,1.0],[40.346,-11.3129,3.5879],[40.3501,-11.3176,15.1474],[40.3521,-11.3226,4.9752],[40.3568,-11.3232,0.8881],[40.3649,-11.3271,0.9864],[40.3674,-11.3271,0.6581],[40.3699,-11.3243,0.0],[40.3707,-11.3199,1.3003],[40.3735,-11.319,2.8842],[40.3749,-11.3204,1.0351],[40.3751,-11.3271,2.514],[40.3776,-11.331,0.4134],[40.3796,-11.3304,6.0739],[40.3957,-11.3135,3.0299],[40.4046,-11.3079,0.5683],[40.4049,-11.3026,1.9146],[40.4085,-11.3018,0.0],[40.4099,-11.2962,1.0731],[40.4126,-11.2951,0.0],[40.414,-11.2912,4.0099],[40.4168,-11.2907,0.0],[40.4207,-11.2851,0.0],[40.4201,-11.2832,0.0],[40.4185,-11.2832,0.0],[40.4204,-11.2821,0.0],[40.4207,-11.279,4.2242],[40.424,-11.2768,0.2218],[40.4226,-11.2743,5.8989],[40.4263,-11.2643,0.0],[40.4249,-11.2596,5.5034],[40.4257,-11.2529,0.0],[40.4321,-11.2385,0.8933],[40.4329,-11.2301,2.7236],[40.434,-11.2296,4.3132],[40.4346,-11.2346,0.0],[40.4371,-11.2326,4.7348],[40.4443,-11.2326,1.2108],[40.4876,-11.2063,0.0],[40.4982,-11.2026,1.5714],[40.5062,-11.1979,6.8685],[40.5079,-11.1935,0.0],[40.4985,-11.1882,3.8625],[40.4921,-11.181,2.104],[40.4899,-11.1699,0.0],[40.4904,-11.1646,0.0],[40.489,-11.1626,2.7951],[40.489,-11.1546,2.2279],[40.491,-11.1474,5.5374],[40.4935,-11.1432,1.9777],[40.501,-11.1379,1.4758],[40.5001,-11.1351,2.4676],[40.5029,-11.1318,4.2216],[40.5254,-11.1104,0.0],[40.5321,-11.0985,2.4731],[40.5446,-11.0863,0.0],[40.5504,-11.0782,0.0],[40.5599,-11.0621,0.0],[40.5601,-11.0532,0.6697],[40.5632,-11.0449,1.6135],[40.5621,-11.0351,0.7501],[40.5649,-11.0301,2.0086],[40.5513,-11.0268,1.4689],[40.5376,-11.0207,0.0],[40.5351,-11.0215,1.0639],[40.534,-11.0185,0.3054],[40.5265,-11.0162,0.0],[40.5226,-11.0115,0.0],[40.519,-11.0113,0.2661],[40.5176,-11.0126,0.222],[40.516,-11.0107,0.0],[40.5093,-11.009,0.4226],[40.5071,-11.0057,0.0],[40.5032,-11.0079,0.0],[40.5046,-11.016,1.4757],[40.5082,-11.0204,3.5671],[40.5054,-11.0235,2.4319],[40.5062,-11.021,1.0],[40.5021,-11.0157,1.009],[40.5001,-11.006,2.0647],[40.5046,-11.0007,0.0],[40.5037,-10.9937,0.0],[40.5021,-10.9929,0.0],[40.496,-10.9954,1.004],[40.491,-10.9951,0.2203],[40.4904,-10.9937,0.2759],[40.4918,-10.9929,0.0],[40.4885,-10.9904,0.0],[40.4896,-10.9876,0.8144],[40.4982,-10.9796,0.0],[40.4946,-10.9738,3.939],[40.4943,-10.9671,0.5628],[40.4924,-10.9663,2.1184],[40.494,-10.9621,0.0],[40.4915,-10.9557,0.735],[40.4963,-10.9554,0.0],[40.4982,-10.9496,0.0],[40.4968,-10.9468,0.0],[40.4946,-10.9462,3.0102],[40.4946,-10.9443,3.8949],[40.4963,-10.9437,0.0],[40.4996,-10.9365,0.0],[40.5068,-10.9304,0.0],[40.5062,-10.9279,0.0],[40.5101,-10.9218,0.0],[40.5096,-10.919,4.3292],[40.5137,-10.9135,4.1143],[40.5163,-10.9132,0.0],[40.5224,-10.9085,0.0],[40.5288,-10.901,5.3795],[40.546,-10.8868,4.2949],[40.5901,-10.866,1.4403],[40.6096,-10.8449,1.9371],[40.6096,-10.8432,1.0428],[40.6076,-10.8432,0.0],[40.6035,-10.8457,0.0],[40.6015,-10.8435,1.1079],[40.6176,-10.8321,3.435],[40.6176,-10.8304,1.5729],[40.6126,-10.8265,3.4148],[40.5938,-10.8249,1.9568],[40.5713,-10.819,2.9804],[40.564,-10.8132,0.7782],[40.5599,-10.8121,0.9055],[40.5549,-10.8071,1.6411],[40.5499,-10.8051,2.5692],[40.5479,-10.8024,0.0],[40.5457,-10.8026,0.5995],[40.5265,-10.7893,0.0],[40.5187,-10.7865,2.5431],[40.5171,-10.7837,0.0],[40.5088,-10.7818,2.5488],[40.5043,-10.7782,0.0],[40.501,-10.7779,0.9795],[40.4987,-10.7754,0.9739],[40.4938,-10.7738,1.9566],[40.4912,-10.7693,0.0],[40.4901,-10.7696,0.0],[40.4896,-10.7757,0.9205],[40.4921,-10.781,2.0169],[40.4921,-10.789,4.6114],[40.4874,-10.7918,0.5],[40.4824,-10.7982,1.6409],[40.4807,-10.7976,1.4703],[40.4899,-10.7874,0.5],[40.4896,-10.7818,0.0],[40.4879,-10.7812,0.0],[40.4876,-10.7846,1.8714],[40.486,-10.7837,1.9189],[40.4826,-10.7735,2.8458],[40.4843,-10.7704,0.8633],[40.4893,-10.7671,0.0],[40.4893,-10.7651,0.0],[40.4851,-10.7629,0.8942],[40.4854,-10.7576,0.4496],[40.4835,-10.7551,4.7932],[40.4971,-10.7471,0.0],[40.4987,-10.7449,0.0],[40.4985,-10.7399,0.3079],[40.5007,-10.7413,0.0],[40.5007,-10.7393,0.3314],[40.5043,-10.7382,0.3359],[40.5062,-10.7407,0.0],[40.5054,-10.7376,1.3601],[40.5076,-10.7379,1.096],[40.5085,-10.7365,0.0],[40.5126,-10.7387,0.0],[40.5143,-10.7346,0.0],[40.5199,-10.7321,2.215],[40.5365,-10.7182,3.8877],[40.541,-10.7165,0.0],[40.5435,-10.7129,3.7609],[40.5676,-10.6935,0.0],[40.5788,-10.6885,2.3971],[40.5865,-10.6901,0.5993],[40.5887,-10.6929,0.6576],[40.5882,-10.696,0.0],[40.6121,-10.6968,0.0],[40.6179,-10.6985,0.0],[40.631,-10.7085,0.0],[40.6335,-10.7085,0.0],[40.6335,-10.7062,0.0],[40.6382,-10.7029,0.0],[40.6401,-10.6971,0.0],[40.6399,-10.6896,0.0],[40.6338,-10.6785,1.8429],[40.6263,-10.6715,1.8639],[40.6143,-10.6696,2.0585],[40.6113,-10.6704,2.6917],[40.6018,-10.6668,0.8612],[40.5946,-10.6674,2.2982],[40.5876,-10.6643,0.0],[40.5846,-10.6646,4.6328],[40.5757,-10.6579,0.0],[40.5726,-10.6529,0.0],[40.5743,-10.6496,0.0],[40.5721,-10.6382,0.0],[40.5771,-10.6257,0.0],[40.5746,-10.6196,0.0],[40.5751,-10.6154,0.3612],[40.5801,-10.6126,1.1333],[40.5824,-10.6135,0.0],[40.5804,-10.6076,0.0],[40.5849,-10.6071,0.0],[40.5865,-10.6043,0.0],[40.589,-10.604,0.0],[40.5854,-10.5982,0.0],[40.5818,-10.5962,0.0],[40.5801,-10.5976,0.0],[40.5754,-10.5949,0.0],[40.5699,-10.5957,0.6954],[40.5574,-10.5849,0.0],[40.5485,-10.5826,6.7172],[40.5421,-10.5768,0.0],[40.5301,-10.576,0.0],[40.5226,-10.5826,3.9299],[40.5085,-10.589,2.5943],[40.4924,-10.5879,1.3991],[40.4857,-10.5854,2.116],[40.4846,-10.581,1.9138],[40.4824,-10.5815,1.647],[40.4824,-10.5807,3.7123],[40.4857,-10.5799,1.0],[40.486,-10.5832,1.0],[40.4963,-10.5854,1.4927],[40.5099,-10.584,2.0965],[40.5179,-10.5793,4.0163],[40.5213,-10.5726,0.0],[40.5165,-10.5712,0.0],[40.5126,-10.5679,0.0],[40.5076,-10.571,0.0],[40.4982,-10.5718,2.9292],[40.4954,-10.5704,0.5],[40.4946,-10.5657,5.0538],[40.4904,-10.5635,1.721],[40.489,-10.564,1.0],[40.4885,-10.5704,2.3575],[40.4829,-10.5721,2.8056],[40.4782,-10.5674,5.3306],[40.4807,-10.5576,3.0309],[40.4771,-10.5576,2.1702],[40.4754,-10.5607,1.5],[40.471,-10.559,1.5],[40.4712,-10.5579,3.05],[40.4751,-10.5582,1.5],[40.4765,-10.5543,2.9902],[40.4824,-10.5562,4.9545],[40.4826,-10.5599,1.5],[40.4804,-10.5651,1.7648],[40.4815,-10.5674,1.0],[40.484,-10.5674,1.0],[40.4868,-10.5618,4.645],[40.4899,-10.5596,0.625],[40.4979,-10.5618,0.5],[40.4982,-10.5557,1.3429],[40.5026,-10.5524,2.2203],[40.5054,-10.5524,1.7437],[40.5137,-10.5571,0.0],[40.5176,-10.5562,2.4139],[40.5213,-10.5576,3.2616],[40.5224,-10.5568,0.0],[40.5215,-10.5535,10.417],[40.531,-10.5535,0.0],[40.5315,-10.5524,0.0],[40.5293,-10.5507,8.2548],[40.5318,-10.5493,5.5977],[40.5357,-10.5496,0.0],[40.5376,-10.5521,0.5605],[40.5432,-10.5515,0.0],[40.5451,-10.5471,0.0],[40.5446,-10.5412,6.5508],[40.5496,-10.5401,0.0],[40.5499,-10.5371,0.0],[40.5476,-10.5376,1.5498],[40.544,-10.5343,6.1102],[40.5393,-10.519,0.0],[40.5357,-10.5151,6.6873],[40.5326,-10.5035,0.0],[40.5337,-10.5018,5.0744],[40.5363,-10.5021,0.0],[40.536,-10.4962,0.0],[40.5335,-10.4965,6.0481],[40.534,-10.494,0.1952],[40.5304,-10.489,0.0],[40.5199,-10.4812,0.0],[40.5093,-10.4821,0.7727],[40.5093,-10.4868,0.3722],[40.4976,-10.4974,3.3539],[40.4926,-10.5051,2.4744],[40.4882,-10.5068,3.3016],[40.4857,-10.5057,1.8048],[40.4829,-10.509,0.5],[40.4751,-10.5132,1.5462],[40.4751,-10.5143,1.5462],[40.4796,-10.5137,4.9247],[40.481,-10.5154,4.5896],[40.4793,-10.5229,4.5506],[40.4829,-10.5218,2.8405],[40.484,-10.5229,3.0514],[40.4793,-10.531,4.1854],[40.4782,-10.5288,2.8083],[40.4801,-10.5282,1.5],[40.4824,-10.5237,2.1971],[40.4785,-10.5246,2.3541],[40.4774,-10.5232,3.6516],[40.4799,-10.5187,1.0],[40.4793,-10.5157,1.0],[40.4754,-10.516,1.615],[40.4715,-10.5121,1.6792],[40.4699,-10.5121,3.0625],[40.4679,-10.5154,2.5167],[40.4682,-10.5118,5.1729],[40.4721,-10.5104,2.6381],[40.4746,-10.5124,1.9323],[40.4799,-10.5068,0.5],[40.484,-10.4976,1.3468],[40.4863,-10.4976,3.6219],[40.4926,-10.4915,2.1315],[40.4993,-10.4899,1.1199],[40.4987,-10.4876,0.0],[40.4963,-10.4857,0.0],[40.4888,-10.4862,0.0],[40.4671,-10.4801,0.0],[40.4626,-10.4879,3.0712],[40.4601,-10.4885,1.273],[40.464,-10.4832,0.9607],[40.4626,-10.4793,0.0],[40.4504,-10.4738,0.0],[40.444,-10.4754,2.4274],[40.4362,-10.4712,0.0],[40.4239,-10.4894,0.5],[40.4116,-10.5031,1.0],[40.3992,-10.5148,1.0],[40.3797,-10.5278,2.2684],[40.3745,-10.5351,4.031],[40.366,-10.5586,3.1013],[40.3586,-10.5657,5.7348],[40.3393,-10.5765,3.75],[40.3332,-10.5775,5.1619],[40.3249,-10.5742,5.0012],[40.3062,-10.5757,5.4352],[40.2843,-10.5798,6.0],[40.2621,-10.593,6.5],[40.2335,-10.6074,8.0],[40.1867,-10.6556,12.2756],[40.1815,-10.6589,13.3547],[40.1754,-10.6599,11.875],[40.1484,-10.6834,13.0],[40.1353,-10.698,13.5],[40.1205,-10.7081,14.5],[40.0994,-10.7285,16.1853],[40.0847,-10.7365,16.5],[40.0629,-10.7553,17.5],[40.0299,-10.7892,21.1953],[39.9914,-10.8161,23.5899],[39.9879,-10.816,25.1628],[39.9662,-10.8253,24.0],[39.9558,-10.8259,24.5],[39.9435,-10.8296,25.0],[39.9325,-10.8298,25.5],[39.8879,-10.846,27.5],[39.8706,-10.8564,31.2689],[39.8602,-10.8682,29.0],[39.8431,-10.8798,32.8181],[39.8398,-10.8803,30.0],[39.7994,-10.9046,32.5],[39.7859,-10.9107,33.5],[39.7757,-10.9108,34.4613],[39.7248,-10.9358,37.0],[39.6945,-10.946,39.0],[39.681,-10.9473,41.1452],[39.6633,-10.946,41.7334],[39.6291,-10.9496,43.0],[39.6059,-10.9564,44.6471],[39.5935,-10.9619,45.0],[39.581,-10.9701,46.4904],[39.5584,-10.9787,47.4799],[39.5296,-10.9854,49.0],[39.5203,-10.9908,49.5],[39.5006,-11.011,51.0],[39.4796,-11.0232,52.5],[39.4329,-11.0577,56.0],[39.4039,-11.0632,59.5565],[39.3813,-11.0778,59.5],[39.3655,-11.0843,61.5896],[39.3561,-11.0913,61.0],[39.3414,-11.1065,62.5],[39.2917,-11.1508,68.7294],[39.2682,-11.1681,68.5],[39.2537,-11.1758,69.125],[39.2415,-11.18,70.0],[39.2243,-11.1816,71.0],[39.2134,-11.1801,73.0234],[39.1975,-11.1724,72.5],[39.1901,-11.1639,75.7416],[39.1857,-11.1622,76.422],[39.156,-11.1591,79.2164],[39.1358,-11.1511,80.218],[39.0963,-11.1586,80.6227],[39.0451,-11.1745,85.1124],[39.0273,-11.1708,86.9964],[39.0061,-11.1732,86.8696],[38.9763,-11.1729,88.2107],[38.9705,-11.1744,88.951],[38.9472,-11.1726,89.5],[38.9266,-11.1687,91.6453],[38.8847,-11.1755,95.5902],[38.8556,-11.1943,98.9391],[38.841,-11.212,97.0],[38.8294,-11.2204,98.0],[38.7827,-11.2447,103.9299],[38.7739,-11.2542,104.9969],[38.7442,-11.2783,108.9882],[38.7257,-11.2767,113.3274],[38.7133,-11.2732,111.0],[38.6667,-11.2758,121.1566],[38.6521,-11.2788,116.5166],[38.6264,-11.2941,123.2261],[38.5744,-11.3471,126.8619],[38.5679,-11.3518,124.9896],[38.5616,-11.3524,125.0],[38.5544,-11.3557,125.7942],[38.5415,-11.3646,127.0452],[38.5313,-11.3688,131.5677],[38.5258,-11.3741,129.0892],[38.5182,-11.3865,128.125],[38.5109,-11.3948,129.0],[38.5023,-11.3988,134.045],[38.4861,-11.4149,135.4469],[38.4818,-11.4163,134.8734],[38.4659,-11.453,134.2458],[38.4509,-11.4801,138.6999],[38.4433,-11.5029,138.5],[38.4187,-11.5625,144.5242],[38.4161,-11.5883,146.1091],[38.4114,-11.6103,145.5],[38.4114,-11.6299,150.0959],[38.4154,-11.6513,153.9779],[38.4063,-11.7105,152.0],[38.4049,-11.7299,168.7512],[38.4159,-11.7679,171.2064],[38.4182,-11.7907,172.1599],[38.4188,-11.8561,173.8837],[38.4177,-11.8648,169.163],[38.4212,-11.8866,163.5659],[38.4204,-11.9193,165.3403],[38.4077,-11.952,168.238],[38.401,-11.9996,172.0],[38.381,-12.0726,175.5],[38.3791,-12.0954,180.2429],[38.3719,-12.1057,178.5],[38.3543,-12.1147,182.4583],[38.3069,-12.1328,200.5839],[38.2531,-12.1608,205.9264],[38.222,-12.1868,202.0],[38.2309,-12.213,216.3939],[38.2266,-12.2561,226.7626],[38.2052,-12.286,242.2677],[38.2052,-12.3217,248.257],[38.1622,-12.3695,255.7439],[38.1284,-12.3963,267.955],[38.1131,-12.4172,274.8563],[38.0916,-12.4291,278.8762],[38.0809,-12.4562,285.9288],[38.0789,-12.4666,292.9174],[38.0864,-12.4874,302.4828],[38.0763,-12.507,301.8054],[38.0518,-12.5663,329.9071],[38.0518,-12.5837,320.9453],[38.0409,-12.6005,327.5222],[38.0355,-12.6143,338.6978],[38.0286,-12.6454,354.8586],[38.0456,-12.6647,375.4156],[38.0487,-12.6856,363.6019],[38.0334,-12.7631,380.3935],[38.0436,-12.7805,401.7937],[38.0409,-12.7986,405.8264],[38.0444,-12.8059,433.1367],[38.0496,-12.8115,466.2196],[38.0508,-12.8159,465.1411],[38.0331,-12.8512,442.8032],[38.0325,-12.8739,456.097],[38.0226,-12.8858,439.0449],[38.0168,-12.8978,476.8625],[38.0119,-12.9481,498.5626],[38.0027,-12.9689,552.9271],[37.9628,-13.0047,539.8337],[37.9506,-13.0256,576.0463],[37.9415,-13.0344,634.7753],[37.9404,-13.0435,629.8807],[37.9677,-13.0623,595.652],[37.9814,-13.0806,564.3556],[37.9925,-13.0905,548.7034],[38.023,-13.0942,506.8118],[38.0351,-13.0976,499.9025],[38.0548,-13.1061,481.826],[38.0875,-13.1273,461.2181],[38.1319,-13.1369,457.4349],[38.1439,-13.1327,443.9863],[38.1711,-13.1151,443.384],[38.1816,-13.1125,432.732],[38.2123,-13.1132,423.1614],[38.2169,-13.1276,427.8154],[38.2153,-13.1336,429.2211],[38.2183,-13.1449,430.8487],[38.2186,-13.1694,434.258],[38.2064,-13.185,436.7142],[38.1999,-13.215,446.1395],[38.2002,-13.2206,446.496],[38.2021,-13.2224,448.3513],[38.1806,-13.2761,470.902],[38.1837,-13.291,485.3811],[38.1784,-13.3052,470.8257],[38.1737,-13.3108,469.9658],[38.1561,-13.3238,477.6673],[38.1469,-13.3417,480.9795],[38.1404,-13.348,489.4159],[38.1274,-13.3527,496.6605],[38.1086,-13.3548,499.9503],[38.0615,-13.3875,507.1431],[38.047,-13.4001,514.1075],[38.0412,-13.4073,512.6891],[38.0402,-13.4154,516.1572],[38.0643,-13.5022,619.2236],[38.0859,-13.4945,578.8643],[38.1047,-13.4899,544.8267],[38.1144,-13.5123,522.2415],[38.1333,-13.5257,512.3842],[38.1386,-13.5362,515.8488],[38.1454,-13.552,505.6037],[38.1449,-13.5762,496.6505],[38.1506,-13.5982,490.9099],[38.1489,-13.6232,485.7274],[38.146,-13.6406,484.3575],[38.1572,-13.6609,468.9462],[38.1588,-13.6668,470.2161],[38.1726,-13.6716,463.8282],[38.1736,-13.6802,461.7587],[38.1682,-13.6914,455.7322],[38.1663,-13.7204,449.8878],[38.1639,-13.7247,444.5901],[38.1626,-13.7459,444.2076],[38.1642,-13.75,439.2183],[38.1704,-13.7543,440.4413],[38.169,-13.7594,433.5435],[38.1709,-13.7701,433.5186],[38.1836,-13.7742,434.3757],[38.1831,-13.7862,434.6776],[38.201,-13.8022,435.5155],[38.2027,-13.8063,425.8947],[38.2012,-13.8139,437.171],[38.2018,-13.8245,463.3141],[38.2032,-13.8269,419.0337],[38.2065,-13.8279,419.6202],[38.2082,-13.8312,424.4647],[38.2134,-13.8334,418.8152],[38.2117,-13.839,419.245],[38.2141,-13.8465,414.5896],[38.2217,-13.8567,409.377],[38.2274,-13.8592,410.5375],[38.2323,-13.8681,411.9148],[38.2397,-13.8734,406.9246],[38.242,-13.8811,405.795],[38.2509,-13.8885,403.4524],[38.2523,-13.8979,402.0115],[38.2589,-13.911,401.3327],[38.2597,-13.9236,395.643],[38.2578,-13.9311,394.1434],[38.2615,-13.9363,392.6218],[38.2687,-13.9377,388.6566],[38.273,-13.9406,389.8742],[38.2777,-13.9475,387.2574],[38.2756,-13.9529,390.3062],[38.281,-13.9619,382.1355],[38.2875,-13.9659,390.6039],[38.2878,-13.9766,378.9167],[38.2798,-13.9927,377.6985],[38.2817,-13.9989,377.8975],[38.3044,-14.0204,369.7658],[38.3107,-14.0319,367.0954],[38.3201,-14.0378,368.2235],[38.3256,-14.0464,363.373],[38.337,-14.0591,362.9688],[38.3394,-14.0611,358.458],[38.3484,-14.0563,360.399],[38.3467,-14.0673,354.5167],[38.3603,-14.0868,353.2216],[38.3633,-14.1048,349.9477],[38.3769,-14.1082,348.9703],[38.3867,-14.1084,348.8153],[38.3984,-14.1271,346.4903],[38.4299,-14.1145,345.4547],[38.4406,-14.1139,341.2453],[38.4697,-14.1216,338.9105],[38.4815,-14.1269,338.0344],[38.5103,-14.1516,328.8763],[38.5224,-14.1555,333.4475],[38.5334,-14.1515,333.1233],[38.5437,-14.1451,332.7483],[38.5629,-14.1436,334.7357],[38.5756,-14.1463,326.4884],[38.6086,-14.157,322.5218],[38.6201,-14.151,325.3249],[38.6487,-14.1407,316.1444],[38.6624,-14.1329,315.812],[38.6699,-14.1358,308.1838],[38.6753,-14.1415,306.86],[38.6861,-14.1482,305.8782],[38.7035,-14.1525,300.5551],[38.7155,-14.1525,300.881],[38.7358,-14.132,309.6502],[38.7506,-14.1236,306.4063],[38.7672,-14.1181,298.1381],[38.7795,-14.106,304.5265],[38.7948,-14.1065,297.5559],[38.8106,-14.1129,303.9992],[38.8223,-14.1127,292.192],[38.8509,-14.0936,290.7679],[38.8798,-14.0713,286.5334],[38.9045,-14.059,287.5586],[38.9225,-14.0538,286.499],[38.955,-14.0373,281.0],[38.9862,-14.0172,286.5628],[39.006,-14.0101,290.0522],[39.0334,-14.0114,284.9557],[39.0481,-14.0075,279.6454],[39.0558,-14.0035,271.3076],[39.0756,-13.9859,283.084],[39.0856,-13.9722,276.2632],[39.1067,-13.9586,265.5],[39.1185,-13.9486,275.1944],[39.1421,-13.934,274.7953],[39.1631,-13.932,273.6943],[39.1723,-13.9385,274.4478],[39.1871,-13.9533,272.7965],[39.196,-13.9556,262.4099],[39.2422,-13.9306,258.2303],[39.2657,-13.9124,257.2937]]],
[[[40.4157,-12.9263,0.0],[40.4162,-12.9243,0.0],[40.4151,-12.924,0.0],[40.4149,-12.9263,0.0],[40.4157,-12.9263,0.0]]],
[[[40.4901,-12.5265,0.6552],[40.4896,-12.5251,0.527],[40.4857,-12.5254,0.125],[40.4863,-12.5274,0.8287],[40.4901,-12.5265,0.6552]]],
[[[40.5485,-12.7757,1.0294],[40.5485,-12.774,0.5],[40.5476,-12.7737,0.5],[40.5474,-12.7765,1.3525],[40.5485,-12.7757,1.0294]]],
[[[40.5551,-12.5604,0.0],[40.5563,-12.5587,0.0],[40.554,-12.5593,0.0],[40.5535,-12.5618,0.0],[40.5543,-12.5618,0.0],[40.5551,-12.5604,0.0]]],
[[[40.4901,-12.3874,1.706],[40.4912,-12.3874,1.706],[40.4929,-12.3849,2.7318],[40.4915,-12.3851,2.7318],[40.4901,-12.3874,1.706]]],
[[[40.4885,-12.5221,1.0533],[40.4885,-12.5229,1.0533],[40.4912,-12.5229,1.7944],[40.4904,-12.5215,1.7944],[40.4885,-12.5221,1.0533]]],
[[[40.4929,-12.5193,2.5343],[40.4926,-12.5179,0.0],[40.4899,-12.5179,0.488],[40.4888,-12.5201,0.5142],[40.4915,-12.5204,0.3967],[40.4929,-12.5193,2.5343]]],
[[[40.491,-12.469,1.924],[40.489,-12.4682,1.9997],[40.4888,-12.4699,1.0628],[40.4912,-12.471,1.9536],[40.491,-12.469,1.924]]],
[[[40.5746,-12.8087,0.0],[40.5729,-12.8071,0.0],[40.5732,-12.8099,0.0],[40.5754,-12.8112,0.0],[40.5757,-12.8101,0.0],[40.5746,-12.8087,0.0]]],
[[[40.6104,-12.7437,0.0],[40.6113,-12.7424,0.0],[40.6087,-12.7449,0.0],[40.6096,-12.7449,0.0],[40.6104,-12.7437,0.0]]],
[[[40.5835,-12.739,1.4486],[40.5824,-12.7399,0.5],[40.5829,-12.7435,3.0589],[40.5849,-12.7424,1.8361],[40.5835,-12.739,1.4486]]],
[[[40.6079,-12.6788,3.4901],[40.6063,-12.6776,0.0],[40.606,-12.6801,0.0],[40.6082,-12.6826,0.0],[40.6074,-12.6862,0.0],[40.6104,-12.6874,1.922],[40.6126,-12.686,3.5782],[40.6146,-12.6801,1.5788],[40.611,-12.6807,0.0],[40.6079,-12.6788,3.4901]]],
[[[40.616,-12.594,3.6499],[40.6138,-12.5929,0.0],[40.6001,-12.5957,0.0],[40.5976,-12.5988,0.0],[40.5976,-12.6012,0.0],[40.6101,-12.6043,3.5915],[40.6151,-12.6071,4.2316],[40.6188,-12.6121,0.0],[40.621,-12.6118,0.0],[40.6221,-12.6076,0.0],[40.621,-12.6046,0.0],[40.6254,-12.6015,0.3876],[40.6204,-12.6001,5.1322],[40.616,-12.594,3.6499]]],
[[[40.6043,-12.5307,2.934],[40.6021,-12.5296,5.9233],[40.5968,-12.5318,0.0],[40.5838,-12.5412,0.0],[40.5785,-12.5474,0.0],[40.5793,-12.5499,0.0],[40.5846,-12.5543,5.3654],[40.584,-12.5579,2.286],[40.586,-12.5632,7.4844],[40.584,-12.5679,7.2944],[40.5868,-12.5687,0.0],[40.5896,-12.566,8.1042],[40.5954,-12.5651,1.2278],[40.5982,-12.5665,0.0],[40.6007,-12.5626,3.6384],[40.6035,-12.5618,0.0],[40.606,-12.5543,8.4633],[40.6085,-12.5518,7.0642],[40.6093,-12.5463,4.5859],[40.6118,-12.5454,0.0],[40.6149,-12.5476,0.0],[40.6149,-12.5443,0.0],[40.6113,-12.5429,0.0],[40.6043,-12.5307,2.934]]],
[[[40.614,-12.5424,1.9306],[40.6151,-12.5424,0.0],[40.6146,-12.5393,0.0],[40.6121,-12.5401,0.0],[40.614,-12.5424,1.9306]]],
[[[40.6012,-12.4907,0.0],[40.5993,-12.4896,0.0],[40.5993,-12.4932,0.0],[40.6029,-12.4954,7.6823],[40.6012,-12.4979,4.431],[40.6082,-12.4954,0.0],[40.6074,-12.4949,0.0],[40.606,-12.4957,1.1408],[40.6057,-12.4924,0.9576],[40.6012,-12.4907,0.0]]],
[[[40.6249,-12.609,1.0736],[40.6237,-12.6076,0.0],[40.6226,-12.6076,0.0],[40.6243,-12.6101,0.0],[40.6249,-12.609,1.0736]]],
[[[40.6326,-12.4724,0.0],[40.6296,-12.4718,0.0],[40.6315,-12.4765,7.1903],[40.629,-12.4771,0.0],[40.6282,-12.481,3.7756],[40.6279,-12.486,5.6488],[40.631,-12.4876,3.0967],[40.6332,-12.4871,4.8264],[40.6343,-12.4815,2.9577],[40.6324,-12.4779,7.1903],[40.6349,-12.4754,5.1287],[40.6349,-12.4726,0.8179],[40.6326,-12.4724,0.0]]],
[[[40.6243,-12.4349,0.0],[40.6254,-12.4335,0.0],[40.6229,-12.4343,0.0],[40.6229,-12.436,0.0],[40.6235,-12.436,0.0],[40.6243,-12.4349,0.0]]],
[[[40.6151,-12.3232,0.0],[40.6126,-12.3221,0.0],[40.6207,-12.331,0.0],[40.6201,-12.3282,0.0],[40.6151,-12.3232,0.0]]],
[[[40.6063,-12.4693,0.0],[40.6079,-12.469,0.0],[40.6068,-12.4671,0.0],[40.6054,-12.4685,0.0],[40.6063,-12.4693,0.0]]],
[[[40.5976,-12.4051,4.0222],[40.5951,-12.404,0.5556],[40.5901,-12.4065,2.7415],[40.5887,-12.4254,1.2068],[40.5935,-12.4315,3.1387],[40.5935,-12.4388,2.1522],[40.596,-12.4446,0.4394],[40.5951,-12.451,1.6298],[40.5971,-12.4515,1.838],[40.5974,-12.4587,0.0],[40.5993,-12.461,1.36],[40.6085,-12.4629,5.2208],[40.614,-12.459,3.2328],[40.6176,-12.4512,2.56],[40.6182,-12.4332,4.6582],[40.6162,-12.4285,5.4284],[40.6174,-12.4196,0.8186],[40.5976,-12.4051,4.0222]]],
[[[40.596,-12.3985,0.0],[40.5982,-12.3985,0.0],[40.5988,-12.3974,0.2723],[40.594,-12.3971,0.0],[40.596,-12.3985,0.0]]],
[[[40.6129,-12.3721,0.0],[40.611,-12.3704,0.0],[40.6115,-12.3732,0.0],[40.6132,-12.3735,0.0],[40.6129,-12.3721,0.0]]],
[[[40.5196,-12.3824,0.6515],[40.5204,-12.3812,0.0],[40.5185,-12.3807,0.3903],[40.5182,-12.3829,0.6515],[40.5196,-12.3824,0.6515]]],
[[[40.5346,-12.3796,0.9656],[40.5285,-12.3785,1.5164],[40.5271,-12.3807,0.5859],[40.5299,-12.3835,0.0],[40.534,-12.3824,2.7061],[40.536,-12.3835,0.0],[40.5346,-12.3796,0.9656]]],
[[[40.494,-12.3804,5.1286],[40.494,-12.3765,1.7468],[40.4954,-12.3754,0.0],[40.4929,-12.3754,1.3201],[40.4901,-12.3785,3.0111],[40.4904,-12.3843,0.9386],[40.4935,-12.3824,1.5667],[40.494,-12.3804,5.1286]]],
[[[40.5488,-12.3799,0.0],[40.5496,-12.379,0.0],[40.5482,-12.3774,0.0],[40.5479,-12.3793,0.0],[40.5488,-12.3799,0.0]]],
[[[40.5013,-12.3762,5.7197],[40.5018,-12.3737,0.8171],[40.496,-12.3776,2.6337],[40.4951,-12.3815,1.5667],[40.4999,-12.3793,1.3851],[40.5013,-12.3762,5.7197]]],
[[[40.5301,-12.3635,0.0],[40.5313,-12.3632,0.0],[40.5313,-12.359,0.0],[40.5296,-12.3582,0.5611],[40.5288,-12.3607,1.7699],[40.5301,-12.3635,0.0]]],
[[[40.5632,-12.1462,5.8207],[40.5632,-12.1443,0.0],[40.5604,-12.1451,2.7721],[40.5568,-12.1507,0.0],[40.5599,-12.1496,0.0],[40.5632,-12.1462,5.8207]]],
[[[40.5471,-12.0446,0.0],[40.5429,-12.0435,4.4611],[40.5407,-12.0462,6.6491],[40.5421,-12.0485,0.0],[40.5451,-12.0479,1.4943],[40.5471,-12.0446,0.0]]],
[[[40.4632,-12.2557,0.5],[40.4621,-12.2537,0.5],[40.4607,-12.254,0.5],[40.4615,-12.261,2.4487],[40.4668,-12.2626,1.3202],[40.4674,-12.2615,1.3202],[40.4632,-12.2557,0.5]]],
[[[40.5526,-12.0457,0.2832],[40.5526,-12.0429,0.0],[40.5501,-12.0435,0.0],[40.5496,-12.0454,0.0],[40.551,-12.0446,0.2832],[40.551,-12.0457,0.2832],[40.5496,-12.0482,0.0],[40.5504,-12.0482,0.0],[40.5526,-12.0457,0.2832]]],
[[[40.5385,-12.0179,0.0],[40.5343,-12.0168,0.0],[40.5337,-12.0185,0.0],[40.5388,-12.0204,0.0],[40.5399,-12.0182,0.0],[40.5385,-12.0179,0.0]]],
[[[40.5624,-11.6385,1.0497],[40.559,-11.6374,0.0],[40.5582,-11.6396,0.0],[40.5621,-11.6404,0.0],[40.5624,-11.6385,1.0497]]],
[[[40.4951,-11.6107,0.0],[40.4932,-11.6093,0.0],[40.491,-11.6096,0.0],[40.4929,-11.6112,0.0],[40.4951,-11.6107,0.0]]],
[[[40.6004,-12.3271,0.0],[40.5988,-12.3257,0.0],[40.5949,-12.331,2.566],[40.581,-12.3382,0.0],[40.5824,-12.341,2.9346],[40.5812,-12.3454,0.0],[40.5874,-12.3454,2.4538],[40.5935,-12.3507,2.5096],[40.5904,-12.354,0.0],[40.5918,-12.3604,2.0121],[40.589,-12.3588,0.4849],[40.5871,-12.3599,3.1771],[40.5824,-12.3512,0.0],[40.5801,-12.3535,3.2371],[40.5782,-12.3532,1.4416],[40.5799,-12.3588,2.097],[40.5743,-12.3574,1.6844],[40.5724,-12.3479,0.8503],[40.5679,-12.3399,1.2731],[40.5671,-12.3435,2.6576],[40.5632,-12.3451,0.0],[40.5557,-12.354,0.7211],[40.554,-12.3532,1.2753],[40.5496,-12.3557,1.5865],[40.5449,-12.3607,2.3603],[40.5446,-12.3632,0.0],[40.5468,-12.3665,0.0],[40.559,-12.371,0.9979],[40.5596,-12.3746,0.0],[40.566,-12.3757,0.0],[40.5676,-12.3735,3.186],[40.5696,-12.3754,1.4133],[40.5782,-12.3757,1.0684],[40.571,-12.3804,1.7557],[40.5612,-12.3787,0.0],[40.5663,-12.3876,3.5972],[40.5704,-12.389,2.9169],[40.5721,-12.3926,2.943],[40.5721,-12.399,1.908],[40.574,-12.4035,3.8702],[40.5721,-12.4079,1.4204],[40.5821,-12.399,3.8708],[40.5835,-12.396,6.7106],[40.5874,-12.3962,5.7174],[40.5943,-12.3926,3.0647],[40.5949,-12.394,6.5676],[40.5938,-12.3957,1.0945],[40.6001,-12.3951,2.1553],[40.601,-12.3926,0.0],[40.5965,-12.3896,1.031],[40.591,-12.3907,1.167],[40.5904,-12.3935,4.217],[40.5899,-12.391,6.3426],[40.5993,-12.3854,2.8796],[40.5999,-12.3835,2.735],[40.5985,-12.3824,2.0189],[40.6093,-12.3735,0.0],[40.6135,-12.364,2.101],[40.6162,-12.3668,0.0],[40.6204,-12.3646,0.0],[40.6196,-12.3535,0.0],[40.6168,-12.3479,2.6237],[40.621,-12.349,0.0],[40.621,-12.3468,0.0],[40.6176,-12.3399,1.5329],[40.6249,-12.3374,2.8431],[40.6246,-12.3329,0.7303],[40.6218,-12.331,0.0],[40.6204,-12.3335,0.0],[40.6126,-12.3329,0.0],[40.6037,-12.3299,1.0522],[40.6004,-12.3271,0.0]]],
[[[40.5876,-12.1821,0.0],[40.5804,-12.181,0.0],[40.5754,-12.1829,0.0],[40.5726,-12.1871,0.0],[40.5676,-12.1879,0.0],[40.5665,-12.1921,4.1893],[40.5612,-12.194,0.0],[40.5593,-12.1965,1.1645],[40.5696,-12.2029,3.2828],[40.571,-12.2082,0.0],[40.5762,-12.2132,0.0],[40.5782,-12.2201,0.0],[40.5815,-12.2226,0.0],[40.5854,-12.2326,2.4411],[40.5857,-12.2421,1.6333],[40.5821,-12.2471,1.5484],[40.5876,-12.2532,0.0],[40.5915,-12.2537,0.0],[40.6026,-12.2476,0.0],[40.6076,-12.2429,5.1857],[40.6104,-12.2376,8.4717],[40.6168,-12.2326,0.0],[40.6168,-12.2307,0.0],[40.6132,-12.2262,0.0],[40.614,-12.2174,0.0],[40.6126,-12.2149,3.669],[40.6124,-12.206,0.0],[40.5965,-12.1854,0.0],[40.5921,-12.1832,0.0],[40.5896,-12.184,0.0],[40.5876,-12.1821,0.0]]],
[[[40.5935,-12.0071,0.0],[40.594,-12.006,0.0],[40.5915,-12.0096,0.0],[40.5929,-12.0088,0.0],[40.5935,-12.0071,0.0]]],
[[[40.5762,-11.9746,3.2144],[40.5674,-11.9735,1.888],[40.5676,-11.9818,0.8263],[40.5771,-11.9857,4.2374],[40.5796,-11.9926,0.0],[40.579,-12.0024,1.2135],[40.5865,-11.9954,0.0],[40.5865,-11.9935,0.0],[40.5887,-11.9937,0.0],[40.5913,-11.9871,0.0],[40.5938,-11.9857,0.0],[40.594,-11.9821,0.0],[40.5929,-11.9771,0.0],[40.5876,-11.9743,0.0],[40.5838,-11.9757,0.6806],[40.5762,-11.9746,3.2144]]],
[[[40.6226,-12.234,2.892],[40.6218,-12.231,0.0],[40.6146,-12.2362,0.0],[40.6224,-12.2365,0.0],[40.6226,-12.234,2.892]]],
[[[40.6512,-11.3663,3.9753],[40.6437,-11.3657,0.0],[40.639,-11.369,0.8896],[40.626,-11.3668,0.0],[40.6232,-11.3699,3.8181],[40.6243,-11.3721,0.773],[40.6288,-11.3715,0.0],[40.6296,-11.3701,0.0],[40.6465,-11.371,1.5714],[40.6535,-11.3676,1.5915],[40.6512,-11.3663,3.9753]]],
[[[40.6271,-11.274,0.0],[40.6254,-11.2724,0.0],[40.6282,-11.2762,0.0],[40.6279,-11.2746,0.0],[40.6271,-11.274,0.0]]],
[[[40.5879,-11.1765,7.2137],[40.5832,-11.1754,0.0],[40.5863,-11.1815,0.0],[40.6012,-11.1879,7.9726],[40.6079,-11.1921,1.3552],[40.6107,-11.1957,3.8378],[40.6154,-11.1974,0.6656],[40.6293,-11.1971,0.0],[40.6354,-11.1932,0.0],[40.6474,-11.1899,0.0],[40.646,-11.189,0.0],[40.631,-11.1926,0.0],[40.6218,-11.1918,4.3173],[40.6126,-11.189,2.7697],[40.5999,-11.181,1.3242],[40.5879,-11.1765,7.2137]]],
[[[40.5671,-11.824,0.0],[40.5663,-11.8224,0.0],[40.5638,-11.8226,0.0],[40.5646,-11.8251,0.0],[40.5671,-11.824,0.0]]],
[[[40.6085,-11.8168,1.9802],[40.6093,-11.8146,0.7403],[40.6026,-11.8149,1.7517],[40.6029,-11.8165,5.4729],[40.5993,-11.8179,0.0],[40.606,-11.8182,0.0],[40.6085,-11.8168,1.9802]]],
[[[40.5843,-11.3138,0.0],[40.5857,-11.311,0.0],[40.5757,-11.3112,0.0],[40.5793,-11.3143,0.6685],[40.5843,-11.3138,0.0]]],
[[[40.6024,-11.134,0.0],[40.5979,-11.1329,0.0],[40.5968,-11.1343,1.4942],[40.5999,-11.1368,0.0],[40.6037,-11.1371,0.0],[40.6043,-11.1354,1.3636],[40.6024,-11.134,0.0]]],
[[[40.6696,-11.1754,3.1732],[40.6707,-11.1749,0.0],[40.6682,-11.1746,0.0],[40.6671,-11.1768,0.0],[40.6682,-11.1768,0.0],[40.6696,-11.1754,3.1732]]],
[[[40.6849,-11.1457,0.0],[40.6757,-11.1451,1.5401],[40.6715,-11.1488,1.6772],[40.671,-11.1535,7.6233],[40.6668,-11.1587,3.7234],[40.6668,-11.1637,4.5863],[40.6604,-11.1743,0.9059],[40.6493,-11.1871,0.0],[40.6579,-11.1832,0.8301],[40.6576,-11.1807,1.8719],[40.6601,-11.1785,0.0],[40.6651,-11.1782,0.0],[40.6671,-11.1729,4.785],[40.676,-11.1724,3.2433],[40.679,-11.1701,0.0],[40.6818,-11.1738,0.0],[40.6899,-11.1674,0.0],[40.6976,-11.1649,0.0],[40.6943,-11.1526,3.1911],[40.6943,-11.1463,0.1428],[40.6849,-11.1457,0.0]]],
[[[40.6993,-11.1507,0.8201],[40.7004,-11.1518,0.0],[40.7004,-11.1488,0.0],[40.6993,-11.149,0.0],[40.6993,-11.1507,0.8201]]],
[[[40.6982,-11.1393,0.0],[40.6963,-11.1382,0.0],[40.6979,-11.1421,0.0],[40.6988,-11.1415,0.0],[40.6982,-11.1393,0.0]]],
[[[40.7074,-10.9982,0.0],[40.7054,-10.9971,0.0],[40.7038,-11.0007,0.0],[40.7004,-11.0004,0.0],[40.7012,-11.0021,0.3441],[40.6993,-11.0018,0.0],[40.6985,-11.0071,1.0853],[40.6954,-11.0115,3.9839],[40.6915,-11.0135,1.11],[40.6888,-11.0124,0.0],[40.6871,-11.0154,0.0],[40.6818,-11.0171,0.0],[40.6771,-11.0212,1.1061],[40.671,-11.0221,2.3994],[40.6632,-11.0268,6.1512],[40.6446,-11.0321,2.8619],[40.6279,-11.0307,1.2165],[40.6143,-11.024,0.0],[40.6035,-11.0235,2.5593],[40.601,-11.0249,5.7087],[40.5968,-11.024,0.0],[40.5965,-11.0254,0.4414],[40.6018,-11.0279,4.8208],[40.6071,-11.0346,0.0],[40.6154,-11.039,0.0],[40.624,-11.0374,0.0],[40.6274,-11.0399,0.0],[40.634,-11.0379,3.2096],[40.636,-11.0393,3.4602],[40.6363,-11.0432,0.0],[40.6454,-11.0432,0.0],[40.6543,-11.036,4.2104],[40.6565,-11.0365,0.0],[40.6615,-11.0343,1.3809],[40.6621,-11.036,0.8057],[40.6638,-11.036,0.8057],[40.6732,-11.0329,3.6239],[40.6874,-11.0312,2.9343],[40.701,-11.0268,0.0],[40.7079,-11.0204,0.0],[40.7107,-11.0207,0.0],[40.7174,-11.0124,0.0],[40.716,-11.0087,0.0],[40.7168,-11.0035,0.0],[40.7154,-11.0007,1.2265],[40.7074,-10.9982,0.0]]],
[[[40.7243,-10.9996,0.258],[40.7224,-10.9985,0.0],[40.7229,-11.0015,0.0],[40.7254,-11.001,0.258],[40.7243,-10.9996,0.258]]],
[[[40.6213,-10.9074,0.0],[40.6196,-10.906,0.0],[40.6215,-10.9171,1.115],[40.6237,-10.919,0.9909],[40.6237,-10.9237,0.0],[40.6251,-10.9249,0.0],[40.6307,-10.9157,0.0],[40.6293,-10.9129,0.0],[40.624,-10.9112,0.0],[40.6213,-10.9074,0.0]]],
[[[40.654,-10.824,0.0],[40.6515,-10.8229,0.0],[40.6535,-10.8254,0.0],[40.6521,-10.8265,0.0],[40.6529,-10.8299,0.0],[40.656,-10.8332,2.4816],[40.6543,-10.8343,0.0],[40.6574,-10.8351,0.0],[40.6593,-10.8404,0.0],[40.6601,-10.851,0.0],[40.6624,-10.8518,4.0875],[40.6654,-10.859,2.0728],[40.6615,-10.8601,8.3206],[40.6593,-10.8529,1.6132],[40.6557,-10.849,2.1412],[40.6499,-10.8357,0.0],[40.6476,-10.8332,2.4176],[40.6446,-10.8343,0.0],[40.6437,-10.8354,0.0],[40.6496,-10.8401,0.0],[40.6482,-10.8424,0.0],[40.6499,-10.8437,0.0],[40.6479,-10.8471,0.0],[40.6501,-10.849,0.0],[40.6457,-10.854,0.0],[40.6446,-10.8629,0.0],[40.6463,-10.8676,0.7213],[40.6426,-10.8785,0.0],[40.6437,-10.8804,0.346],[40.6515,-10.8796,0.0],[40.6604,-10.8746,0.0],[40.6635,-10.8724,0.0],[40.6654,-10.8654,1.2897],[40.6679,-10.8651,0.0],[40.6712,-10.8676,0.0],[40.6707,-10.8657,0.0],[40.6671,-10.864,0.0],[40.6704,-10.8601,0.0],[40.6738,-10.859,1.0448],[40.679,-10.8612,0.0],[40.6835,-10.8568,0.0],[40.6835,-10.8471,0.0],[40.6813,-10.8435,0.0],[40.6721,-10.8362,0.0],[40.6674,-10.8365,0.0],[40.6662,-10.834,0.0],[40.6587,-10.8304,0.0],[40.654,-10.824,0.0]]],
[[[40.6426,-10.7682,1.5245],[40.639,-10.7668,0.0],[40.6321,-10.7707,0.0],[40.6293,-10.7707,0.0],[40.6285,-10.776,0.0],[40.6429,-10.7812,3.7583],[40.6429,-10.7837,0.0],[40.6451,-10.7849,0.0],[40.6482,-10.7901,2.7234],[40.6507,-10.804,0.0],[40.6535,-10.8049,0.0],[40.6546,-10.7954,0.0],[40.6582,-10.796,0.0],[40.6579,-10.7887,5.3985],[40.6613,-10.7754,0.0],[40.6574,-10.7707,0.0],[40.654,-10.7693,0.0],[40.6471,-10.7704,3.0838],[40.6426,-10.7682,1.5245]]],
[[[40.6379,-10.666,0.0],[40.6365,-10.6649,0.0],[40.6393,-10.6699,0.0],[40.6387,-10.676,0.0],[40.6504,-10.6974,0.0],[40.6504,-10.7057,0.0],[40.6518,-10.706,0.0],[40.651,-10.6932,0.0],[40.6463,-10.6876,0.0],[40.6454,-10.6829,0.0],[40.6404,-10.6737,0.0],[40.6407,-10.6696,0.0],[40.6379,-10.666,0.0]]],
[[[40.5854,-10.6124,0.0],[40.5824,-10.6118,0.0],[40.5838,-10.6138,0.0],[40.5854,-10.6138,0.0],[40.5854,-10.6124,0.0]]],
[[[40.5246,-11.4196,2.617],[40.5213,-11.4187,1.7676],[40.519,-11.421,0.0],[40.5243,-11.4263,0.0],[40.5346,-11.4279,0.0],[40.531,-11.4221,0.0],[40.5246,-11.4196,2.617]]],
[[[40.5288,-11.3554,0.0],[40.5226,-11.3551,0.8565],[40.5232,-11.3571,0.7375],[40.5271,-11.3587,2.9374],[40.5262,-11.3654,0.0],[40.5274,-11.3665,0.0],[40.5363,-11.3646,0.0],[40.5404,-11.3657,0.0],[40.5412,-11.3635,0.0],[40.5385,-11.3596,0.0],[40.5329,-11.3585,1.3499],[40.5288,-11.3554,0.0]]],
[[[40.5154,-11.2765,0.0],[40.5135,-11.2757,0.0],[40.5113,-11.2787,0.0],[40.5157,-11.2813,0.0],[40.5193,-11.281,0.0],[40.5193,-11.2793,0.0],[40.5154,-11.2765,0.0]]],
[[[40.504,-10.5549,1.0078],[40.5046,-10.5538,0.0],[40.5004,-10.5562,0.5],[40.5013,-10.5615,0.9259],[40.4985,-10.5671,2.4565],[40.4963,-10.5679,0.5],[40.4968,-10.5699,0.5],[40.5068,-10.5699,0.0],[40.5126,-10.5662,2.4636],[40.5179,-10.5696,0.0],[40.5207,-10.5696,0.0],[40.5246,-10.5665,0.0],[40.5238,-10.5651,1.1474],[40.5143,-10.5626,0.0],[40.504,-10.5549,1.0078]]],
[[[40.371,-11.3357,0.0],[40.3676,-11.3357,0.0],[40.3676,-11.3374,0.0],[40.3688,-11.3376,0.7903],[40.371,-11.3357,0.0]]],
[[[40.5235,-10.5604,0.0],[40.5154,-10.561,0.0],[40.5199,-10.5635,0.0],[40.526,-10.5624,0.4032],[40.5235,-10.5604,0.0]]],
[[[40.4968,-10.4968,0.125],[40.4946,-10.4957,0.5],[40.4896,-10.4985,4.2823],[40.4857,-10.5021,0.5],[40.4846,-10.5054,0.5],[40.4924,-10.504,1.81],[40.4968,-10.4968,0.125]]]]}}