{"type": "Feature","id": "1198","bbox": [37.9741,-14.15082,40.65496,-10.46901],"geometry": {"type": "Polygon","coordinates": [[[40.4651,-11.45037,0.0],[40.47136,-11.41676,0.0],[40.46583,-11.38519,0.0],[40.43686,-11.39219,0.0],[40.4275,-11.37786,0.0],[40.41383,-11.3615,0.0],[40.39812,-11.34686,0.0],[40.38299,-11.33815,0.0],[40.3755,-11.35866,0.7743],[40.36769,-11.35125,0.0],[40.35906,-11.33213,2.0715],[40.34881,-11.31707,1.1126],[40.36052,-11.3152,19.9493],[40.38445,-11.3152,30.7106],[40.39723,-11.3108,12.8468],[40.40545,-11.30071,8.4661],[40.4201,-11.26588,7.2262],[40.42758,-11.25286,0.0],[40.49415,-11.20477,0.0],[40.50652,-11.18743,0.0],[40.50587,-11.1775,0.0],[40.49838,-11.15252,0.0],[40.49903,-11.13958,2.192],[40.50489,-11.12859,3.1226],[40.53688,-11.09515,0.0],[40.55201,-11.07431,3.514],[40.56577,-11.04241,0.0],[40.56609,-11.01393,0.0],[40.54054,-11.00311,0.0],[40.53102,-11.00954,0.0],[40.51791,-11.03444,7.4666],[40.50652,-11.0372,2.4505],[40.49838,-11.02728,9.7245],[40.5066,-10.99277,0.0],[40.4961,-10.95574,0.0],[40.50831,-10.92767,0.0],[40.52858,-10.90195,0.0],[40.54672,-10.88567,6.9564],[40.60157,-10.85996,0.0],[40.62029,-10.84092,0.0],[40.60206,-10.82049,0.0],[40.53199,-10.78582,0.0],[40.51271,-10.76963,0.0],[40.50961,-10.77842,0.0],[40.50563,-10.78541,4.8373],[40.50001,-10.7916,12.8909],[40.4922,-10.79697,13.3458],[40.48536,-10.76214,0.8942],[40.56983,-10.69671,0.0],[40.60206,-10.68768,12.2966],[40.64039,-10.69134,0.0],[40.65496,-10.68694,0.0],[40.64674,-10.67034,0.0],[40.63136,-10.66286,0.0],[40.59213,-10.65789,0.0],[40.57781,-10.64983,0.0],[40.57049,-10.63388,0.0],[40.56813,-10.59979,12.7113],[40.56105,-10.58465,0.0],[40.54558,-10.57692,0.0],[40.52475,-10.57293,0.0],[40.5066,-10.56634,6.304],[40.49903,-10.55047,3.7948],[40.5066,-10.53932,8.1534],[40.52149,-10.52614,10.4737],[40.53207,-10.50945,10.8162],[40.52703,-10.48846,6.9166],[40.51051,-10.47772,0.0],[40.48373,-10.5001,0.5],[40.46485,-10.49586,9.863],[40.47543,-10.48268,0.0],[40.46941,-10.47259,0.0],[40.45395,-10.46901,0.0],[40.43686,-10.47479,0.0],[40.42103,-10.50375,0.5],[40.38919,-10.53527,3.1584],[40.35333,-10.5607,6.2876],[40.28853,-10.58302,6.0],[40.2507,-10.61093,10.2612],[40.19158,-10.66881,13.4061],[40.17277,-10.69309,14.8859],[40.16109,-10.70436,14.1164],[40.13319,-10.71459,18.8082],[40.00813,-10.81112,21.5],[39.98911,-10.82094,23.5],[39.88597,-10.86445,30.3784],[39.78582,-10.93256,73.5544],[39.7605,-10.9431,40.2735],[39.59276,-10.97938,47.7843],[39.51565,-10.98506,51.5754],[39.4985,-10.99065,52.3745],[39.48269,-10.99922,55.8168],[39.28662,-11.15415,67.0],[39.26327,-11.16676,68.5],[39.23815,-11.1742,70.0],[39.21159,-11.17389,71.75],[39.19051,-11.16624,74.7366],[39.14979,-11.14433,79.8302],[39.12622,-11.13968,81.7822],[39.09542,-11.15343,82.6898],[39.0608,-11.16014,86.9731],[38.93006,-11.16004,100.5031],[38.89626,-11.16769,97.7677],[38.86949,-11.19074,96.6421],[38.85192,-11.20283,98.1196],[38.83105,-11.208,107.0475],[38.81782,-11.21627,111.777],[38.77803,-11.25368,105.3829],[38.75973,-11.26319,104.842],[38.74867,-11.26277,112.2458],[38.72707,-11.25771,124.9043],[38.71508,-11.25647,122.1295],[38.70423,-11.25854,125.0216],[38.68397,-11.26784,126.4808],[38.65421,-11.2758,120.9727],[38.63819,-11.28923,117.0],[38.61566,-11.31724,139.3025],[38.51716,-11.38308,130.991],[38.49225,-11.41346,132.0385],[38.49174,-11.41527,131.4513],[38.45407,-11.46524,137.5749],[38.45159,-11.46938,139.2339],[38.44957,-11.47392,139.1133],[38.44787,-11.47873,138.5372],[38.44244,-11.50622,138.5],[38.43045,-11.53485,141.7359],[38.42688,-11.55594,154.5587],[38.42471,-11.56348,162.0494],[38.42208,-11.56906,154.785],[38.41696,-11.57666,145.8912],[38.41433,-11.5841,145.0992],[38.412,-11.59449,144.5],[38.40937,-11.61536,146.6794],[38.40224,-11.64415,162.4838],[38.39619,-11.715,194.3309],[38.39665,-11.72394,186.6228],[38.40255,-11.74688,164.1657],[38.40766,-11.75737,170.6631],[38.4103,-11.76125,155.5],[38.41944,-11.77851,178.758],[38.4289,-11.789,171.2992],[38.43996,-11.80496,176.0144],[38.44461,-11.81354,182.2099],[38.44538,-11.82429,183.6269],[38.44507,-11.84005,182.1125],[38.43841,-11.89023,188.864],[38.43531,-11.90051,179.7799],[38.43293,-11.90475,179.2587],[38.43123,-11.90982,179.5444],[38.42688,-11.9371,188.0243],[38.42518,-11.9417,195.5695],[38.42285,-11.94573,179.049],[38.40968,-11.95922,168.0],[38.39743,-11.96692,196.2083],[38.39433,-11.97033,202.8593],[38.39216,-11.97544,203.4992],[38.38797,-11.99885,190.2195],[38.37898,-12.02154,202.2406],[38.37505,-12.02593,206.0117],[38.37071,-12.02924,210.6981],[38.35025,-12.03704,229.4828],[38.34622,-12.03921,230.4788],[38.34281,-12.04867,236.6105],[38.34002,-12.0636,259.3332],[38.33738,-12.09797,220.3427],[38.3349,-12.11306,201.9822],[38.33165,-12.12262,190.2431],[38.29532,-12.15228,231.3003],[38.2826,-12.15962,214.1097],[38.26317,-12.16763,222.4188],[38.25899,-12.17011,216.7479],[38.25527,-12.173,222.5749],[38.25186,-12.17626,229.3126],[38.24054,-12.19114,228.1425],[38.22752,-12.20401,213.2326],[38.22349,-12.2069,224.7603],[38.21403,-12.2114,225.4996],[38.20948,-12.2144,242.7689],[38.20716,-12.22086,250.0221],[38.20235,-12.23863,262.9914],[38.18747,-12.27362,252.7421],[38.18313,-12.29098,255.8745],[38.17522,-12.35273,253.9118],[38.17119,-12.36167,252.9698],[38.16654,-12.36731,256.4876],[38.14897,-12.37718,266.7298],[38.13781,-12.38679,266.5089],[38.11936,-12.41061,270.2894],[38.09109,-12.43826,347.2083],[38.08489,-12.44606,281.0021],[38.07962,-12.45495,285.9288],[38.07357,-12.46291,286.7391],[38.06644,-12.46988,298.4503],[38.05001,-12.48156,302.9308],[38.036,-12.48916,333.0992],[38.03182,-12.49195,327.2278],[38.0298,-12.49727,327.6281],[38.02996,-12.50471,330.9792],[38.03879,-12.52507,335.5088],[38.04484,-12.53531,321.9966],[38.0466,-12.54228,326.2258],[38.04753,-12.55143,312.9278],[38.04691,-12.56807,323.0905],[38.04381,-12.58528,334.1012],[38.0404,-12.59598,343.2325],[38.03011,-12.64367,358.8945],[38.03073,-12.6506,361.7439],[38.0329,-12.65726,348.0454],[38.03786,-12.66682,352.6058],[38.04071,-12.6754,355.6088],[38.04267,-12.72129,370.4267],[38.04164,-12.72796,380.4027],[38.02918,-12.75116,368.1821],[38.02779,-12.75659,374.9179],[38.02717,-12.76248,377.2606],[38.0298,-12.79229,393.2068],[38.02918,-12.79865,402.8087],[38.0281,-12.8047,408.1012],[38.02624,-12.81002,402.5893],[38.02376,-12.81462,407.2816],[38.01709,-12.82201,438.1914],[38.01477,-12.82898,434.4302],[38.01368,-12.83896,415.1169],[38.01523,-12.85844,433.6483],[38.01166,-12.88319,456.7573],[38.01166,-12.89125,472.8105],[38.0129,-12.90221,478.6814],[38.01259,-12.91006,459.0913],[38.01182,-12.91694,459.1011],[38.00887,-12.92851,473.1744],[38.00856,-12.93807,482.2798],[38.01058,-12.9712,554.3428],[38.00996,-12.9822,506.0599],[38.00856,-12.99027,521.4764],[38.00608,-12.99843,544.3406],[38.00562,-13.01714,564.3416],[38.00453,-13.02401,555.7186],[38.00283,-13.03032,569.6362],[37.99756,-13.03962,574.5211],[37.97549,-13.0669,569.8466],[37.9741,-13.07191,578.7719],[37.97472,-13.07719,568.8181],[37.98061,-13.08354,563.7324],[37.98696,-13.08638,544.2609],[38.03833,-13.09594,499.3274],[38.06024,-13.10308,487.3884],[38.06505,-13.10556,484.3799],[38.06908,-13.10861,483.2952],[38.07264,-13.11207,492.2137],[38.07869,-13.11982,478.9577],[38.08582,-13.12674,461.2181],[38.09032,-13.12938,455.1482],[38.09512,-13.1317,453.4102],[38.10634,-13.13522,461.7746],[38.11874,-13.1376,440.4926],[38.12944,-13.1408,439.9125],[38.13316,-13.14142,436.3574],[38.13734,-13.14023,443.8808],[38.17321,-13.11703,423.745],[38.17786,-13.11486,430.9656],[38.18266,-13.11326,429.1852],[38.1946,-13.11186,422.4336],[38.20623,-13.11238,436.716],[38.21041,-13.11594,425.545],[38.21341,-13.1238,429.9461],[38.21475,-13.15134,433.8266],[38.21403,-13.15971,435.8504],[38.21165,-13.16452,441.4475],[38.20173,-13.17547,455.2986],[38.19972,-13.18007,448.1021],[38.19879,-13.18519,446.9771],[38.19894,-13.19651,441.8555],[38.19801,-13.20147,444.711],[38.19243,-13.20953,460.1378],[38.19041,-13.21413,450.9231],[38.18995,-13.21961,459.7007],[38.19072,-13.23103,451.5744],[38.18995,-13.23692,453.2122],[38.18793,-13.24167,452.1915],[38.18142,-13.24927,459.9779],[38.17848,-13.25345,458.2236],[38.17259,-13.26906,465.2898],[38.16964,-13.2733,473.2615],[38.15894,-13.28353,473.9333],[38.15584,-13.28735,480.082],[38.15305,-13.29169,475.8032],[38.15098,-13.29697,493.5317],[38.14788,-13.30823,505.0792],[38.14556,-13.31304,500.0603],[38.14261,-13.31712,513.9227],[38.12509,-13.33474,528.9068],[38.11765,-13.3411,501.8995],[38.10479,-13.34906,513.6822],[38.08613,-13.36533,503.7841],[38.06567,-13.38022,515.3402],[38.04923,-13.39804,510.1148],[38.04722,-13.40115,514.1075],[38.04546,-13.40414,513.4214],[38.04412,-13.40854,517.7452],[38.04298,-13.41391,527.5103],[38.04298,-13.4198,540.7451],[38.0514,-13.46254,549.8438],[38.05404,-13.47013,549.3698],[38.05807,-13.47582,539.098],[38.06722,-13.48176,569.61],[38.07326,-13.48217,559.9959],[38.07869,-13.48093,579.7302],[38.08287,-13.47814,575.5349],[38.08737,-13.47571,559.3936],[38.09218,-13.47365,549.34],[38.09734,-13.47215,547.1495],[38.10272,-13.4721,555.7231],[38.1082,-13.47582,563.8887],[38.11254,-13.48279,555.7645],[38.11905,-13.50667,531.9498],[38.12525,-13.52274,517.7297],[38.13145,-13.53385,513.2247],[38.13269,-13.54486,513.703],[38.13238,-13.55245,508.4014],[38.12571,-13.58971,518.5615],[38.12587,-13.59597,515.0659],[38.12742,-13.60289,509.4964],[38.13083,-13.60987,513.1102],[38.14571,-13.62935,480.6987],[38.15987,-13.6524,490.975],[38.16483,-13.66371,469.099],[38.17119,-13.68304,459.1367],[38.17336,-13.6942,469.4269],[38.17398,-13.70345,467.2396],[38.17259,-13.71596,467.2352],[38.17305,-13.72231,457.5967],[38.17445,-13.72867,466.2432],[38.17879,-13.74211,459.4158],[38.18018,-13.74815,449.9201],[38.21155,-13.82556,426.4406],[38.21636,-13.83316,425.9015],[38.23077,-13.84629,423.8967],[38.23635,-13.85238,420.2646],[38.24085,-13.85941,432.6978],[38.25372,-13.88685,408.9393],[38.25542,-13.89192,403.5909],[38.2562,-13.89739,402.9812],[38.25589,-13.90329,396.4309],[38.25697,-13.90985,397.5392],[38.26023,-13.91651,394.6703],[38.2686,-13.92551,397.4695],[38.27346,-13.93222,398.0586],[38.27981,-13.95305,386.6472],[38.33909,-14.03852,372.7205],[38.34358,-14.04762,370.9296],[38.34637,-14.05831,357.8835],[38.36048,-14.07625,358.5574],[38.42037,-14.12689,335.2505],[38.45097,-14.12126,334.2601],[38.48151,-14.12591,335.7714],[38.51923,-14.14058,343.6246],[38.55809,-14.15082,328.0441],[38.68372,-14.1474,306.5847],[38.70728,-14.14389,312.6965],[38.74066,-14.12503,311.0935],[38.75539,-14.12069,309.0783],[38.82257,-14.11232,292.588],[38.84138,-14.10643,301.0032],[38.89662,-14.06508,287.5884],[38.92825,-14.05475,288.7272],[38.97109,-14.02514,282.64],[39.03083,-14.01237,283.1763],[39.04059,-14.00741,287.7515],[39.04597,-13.98369,290.3459],[39.06002,-13.96452,305.3171],[39.07951,-13.95041,292.9321],[39.10142,-13.94194,294.5581],[39.1455,-13.93713,262.25],[39.17128,-13.93863,267.6793],[39.20803,-13.95351,257.0],[39.23164,-13.94364,257.9182],[39.26652,-13.91527,255.5716],[39.30182,-13.89378,255.2693],[39.32419,-13.88437,261.4154],[39.34476,-13.8805,247.2295],[39.35287,-13.87729,247.2163],[39.3629,-13.86318,247.8611],[39.37205,-13.86003,247.3008],[39.40993,-13.85321,244.3197],[39.43034,-13.84448,247.6425],[39.45277,-13.83037,253.646],[39.47075,-13.81306,242.222],[39.47819,-13.79482,238.1253],[39.48439,-13.78365,236.3238],[39.49933,-13.7728,236.5142],[39.51731,-13.76355,234.5615],[39.53281,-13.75761,231.5852],[39.56418,-13.75301,229.7503],[39.57441,-13.75017,231.5324],[39.58113,-13.74526,228.0],[39.58774,-13.73844,230.3084],[39.59544,-13.73229,229.3094],[39.60542,-13.72965,228.1089],[39.6464,-13.72702,226.4683],[39.6651,-13.72283,223.7508],[39.68428,-13.71601,226.8935],[39.74184,-13.6742,219.0683],[39.76308,-13.66821,250.2942],[39.80468,-13.66821,207.6264],[39.83646,-13.67503,194.2315],[39.84876,-13.67503,205.1252],[39.88147,-13.65777,189.4667],[39.93796,-13.58987,185.6908],[39.96483,-13.56517,173.1088],[39.99351,-13.54977,171.3577],[40.00731,-13.53902,183.416],[40.0209,-13.51225,150.6578],[40.03945,-13.50357,128.2968],[40.08151,-13.49008,129.4807],[40.09123,-13.48238,85.9353],[40.11562,-13.45592,106.6306],[40.12843,-13.44812,90.372],[40.1335,-13.44895,75.0085],[40.13908,-13.45329,72.0847],[40.17587,-13.45897,81.2229],[40.18843,-13.46641,58.7531],[40.19804,-13.47556,52.2089],[40.21184,-13.48388,86.742],[40.25251,-13.48796,52.3084],[40.3353,-13.46311,15.9131],[40.37323,-13.45592,13.2065],[40.42041,-13.45608,9.4046],[40.43777,-13.46486,9.9387],[40.44459,-13.48698,7.8295],[40.45446,-13.50884,5.5398],[40.47782,-13.52005,3.8669],[40.5051,-13.52057,2.024],[40.52704,-13.5106,0.0],[40.52703,-13.51059,0.0],[40.52703,-13.51051,0.0],[40.53875,-13.49554,0.0],[40.54469,-13.4747,0.0],[40.54672,-13.43182,0.0],[40.55421,-13.41513,2.6824],[40.58448,-13.38323,0.0],[40.58839,-13.36045,0.0],[40.58375,-13.36224,7.3071],[40.57252,-13.36484,6.7642],[40.56788,-13.36663,5.4187],[40.56788,-13.28476,0.0],[40.54282,-13.30527,3.6326],[40.52963,-13.31024,3.1299],[40.52703,-13.29827,22.1581],[40.53549,-13.28436,60.3963],[40.54949,-13.27451,30.4929],[40.56227,-13.26287,0.5473],[40.56788,-13.24334,0.0],[40.57472,-13.16806,0.0],[40.57276,-13.15057,0.0],[40.56349,-13.11688,0.0],[40.56105,-13.09905,0.0],[40.56568,-13.06601,0.0],[40.58961,-13.00807,0.0],[40.59523,-12.97568,0.0],[40.5892,-12.95794,0.0],[40.57504,-12.95778,0.0],[40.55812,-12.96233,0.0],[40.54371,-12.95843,0.0],[40.53207,-12.95159,0.0],[40.51547,-12.94744,0.0],[40.50017,-12.94801,0.0],[40.4922,-12.95501,0.0],[40.49627,-12.97096,10.7164],[40.50709,-12.9848,0.0],[40.51238,-12.99896,1.3389],[40.49903,-13.01653,0.0],[40.48341,-13.02191,0.0],[40.46827,-13.01702,0.0],[40.41774,-12.97186,0.0],[40.41261,-12.96103,0.0],[40.4109,-12.94207,0.0],[40.41798,-12.92685,0.0],[40.43491,-12.91033,0.0],[40.45533,-12.89617,0.0],[40.48406,-12.88128,0.0],[40.49024,-12.87965,3.9194],[40.49903,-12.88055,27.0073],[40.51026,-12.886,4.8856],[40.51368,-12.89267,10.2917],[40.51271,-12.90106,13.5596],[40.51938,-12.90643,6.7674],[40.52174,-12.91025,0.0],[40.52442,-12.90936,0.0],[40.53321,-12.90106,0.0],[40.53932,-12.893,0.0],[40.55055,-12.86639,0.0],[40.55445,-12.84686,0.0],[40.54558,-12.83522,0.0],[40.53321,-12.82733,2.5182],[40.52703,-12.81894,10.2425],[40.53199,-12.81146,10.7414],[40.56007,-12.8139,3.1968],[40.57472,-12.80486,4.4276],[40.57195,-12.8034,4.3978],[40.56886,-12.79559,0.6512],[40.56707,-12.78558,9.5332],[40.56788,-12.77752,9.6436],[40.58399,-12.79266,7.7343],[40.60548,-12.79827,9.5817],[40.62696,-12.79363,0.0],[40.64308,-12.77752,0.0],[40.64682,-12.76629,0.0],[40.64682,-12.7553,0.0],[40.64145,-12.74684,0.0],[40.62941,-12.74342,0.0],[40.62452,-12.73821,0.0],[40.61606,-12.71217,0.0],[40.6089,-12.70184,0.0],[40.59742,-12.70094,0.0],[40.58644,-12.70664,0.0],[40.57814,-12.70631,0.0],[40.5687,-12.66229,0.0],[40.56804,-12.64959,3.7681],[40.57472,-12.63983,4.9526],[40.58562,-12.63983,0.0],[40.60271,-12.65895,7.4244],[40.61264,-12.65748,5.6704],[40.61964,-12.64511,0.0],[40.61411,-12.63681,0.0],[40.58513,-12.62225,0.0],[40.57374,-12.6194,0.0],[40.56479,-12.61305,7.8253],[40.56105,-12.59857,4.1835],[40.56202,-12.53004,8.0304],[40.5569,-12.52532,0.0],[40.5149,-12.52337,0.0],[40.50278,-12.52142,0.0],[40.4922,-12.51686,0.0],[40.4782,-12.50107,0.0],[40.48032,-12.48431,2.517],[40.50652,-12.44793,0.0],[40.51466,-12.42669,7.3582],[40.52117,-12.41758,2.1042],[40.54412,-12.4118,8.8389],[40.55226,-12.40594,8.7743],[40.55812,-12.39756,4.4478],[40.56105,-12.38714,4.9742],[40.53207,-12.39072,2.7101],[40.51832,-12.38844,5.551],[40.50953,-12.3803,0.0],[40.50652,-12.36435,0.0],[40.51075,-12.35174,0.0],[40.5171,-12.33961,0.0],[40.52019,-12.32578,0.0],[40.51368,-12.30055,0.0],[40.49781,-12.27418,0.0],[40.47584,-12.25807,5.9825],[40.45118,-12.2636,2.356],[40.45362,-12.24261,3.3253],[40.46372,-12.23992,2.1378],[40.47788,-12.24578,13.6134],[40.4922,-12.2501,2.2542],[40.50587,-12.24261,0.0],[40.51734,-12.22503,0.0],[40.52491,-12.20452,0.0],[40.52703,-12.18792,0.0],[40.52133,-12.17181,0.0],[40.50294,-12.1443,0.0],[40.49903,-12.12656,0.0],[40.50082,-12.11248,0.9458],[40.51271,-12.06439,0.0],[40.51547,-12.03216,0.0],[40.52182,-12.02174,0.0],[40.53688,-12.00604,0.0],[40.53688,-11.99684,2.8034],[40.50652,-11.95452,0.0],[40.49301,-11.92506,0.0],[40.48618,-11.8952,0.0],[40.49301,-11.86614,2.1995],[40.52019,-11.83904,0.0],[40.5062,-11.83327,0.0],[40.50082,-11.83424,0.0],[40.4922,-11.83904,0.0],[40.4795,-11.82342,0.0],[40.47381,-11.80625,0.0],[40.47202,-11.75758,0.0],[40.47071,-11.75123,0.0],[40.46746,-11.74586,0.0],[40.44899,-11.72845,0.0],[40.44435,-11.70875,0.0],[40.44158,-11.67636,9.9456],[40.43832,-11.66465,10.9943],[40.42758,-11.65008,5.4291],[40.42945,-11.64153,6.616],[40.452,-11.61631,2.7678],[40.45802,-11.60508,5.4083],[40.45045,-11.59287,0.0],[40.43507,-11.57871,0.0],[40.42335,-11.56316,1.0404],[40.42758,-11.5473,0.0],[40.43946,-11.53379,3.6222],[40.44752,-11.52011,1.5532],[40.45802,-11.48903,0.0],[40.4651,-11.45037,0.0]]]}
,"properties": {"ISO3166-1-Alpha-3": "MOZ","country": "Mozambique","fill": "#F0F","name": "Cabo Delgado","area_km2": 78141.66,"hist_schema_id": "Elevation0-9000","hist_area_km2": {"0": 1932.77,"25": 2109.24,"50": 2541.35,"75": 2603.56,"100": 2757.09,"125": 2789.06,"150": 2278.29,"175": 2491.9,"200": 2715.12,"225": 3098.78,"250": 3587.53,"275": 4123.65,"300": 4670.63,"325": 5075.62,"350": 5295.71,"375": 5436.23,"400": 5112.67,"425": 4373.11,"450": 3362.0,"475": 2699.67,"500": 2278.1,"525": 1796.69,"550": 1418.19,"575": 1030.52,"600": 553.23,"625": 327.12,"650": 246.7,"675": 199.49,"700": 186.34,"725": 154.73,"750": 148.85,"775": 118.56,"800": 107.47,"825": 101.16,"850": 97.93,"875": 87.99,"900": 89.63,"925": 77.16,"950": 39.88,"975": 21.39,"1000": 4.52}}}