{"type":"Feature","properties":{"GID_3":"MOZ.7.9.1_1","GID_0":"MOZ","country":"Mozambique","GID_1":"MOZ.7_1","province":"Nampula","NL_NAME_1":"NA","GID_2":"MOZ.7.9_1","county":"Moma","NL_NAME_2":"NA","city":"Chalaua","VARNAME_3":"NA","NL_NAME_3":"NA","TYPE_3":"Localidad","ENGTYPE_3":"Locality","CC_3":"NA","HASC_3":"NA","name":"Chalaua.city"},
"geometry":{"type": "MultiPolygon","coordinates": [[[[39.4142,-16.0508,49.1299],[39.4148,-16.0447,57.4214],[39.4086,-16.0288,49.8358],[39.4068,-16.0154,53.8433],[39.3764,-16.0018,54.2727],[39.3655,-16.0011,66.053],[39.3567,-16.0075,60.11],[39.3446,-16.0129,73.4608],[39.3351,-16.0119,69.8278],[39.3079,-16.0031,68.9268],[39.3022,-15.9979,70.8027],[39.306399999999996,-15.9811,69.1561],[39.3048,-15.977,71.8476],[39.2987,-15.9747,78.4522],[39.2768,-15.9601,75.8183],[39.2625,-15.9576,76.9686],[39.2481,-15.9652,85.3319],[39.2424,-15.9633,82.8209],[39.2344,-15.9656,80.8572],[39.2263,-15.9636,84.8421],[39.2081,-15.9533,84.0596],[39.2007,-15.9525,86.9388],[39.1943,-15.9481,88.1335],[39.1972,-15.9413,92.514],[39.1956,-15.9354,92.6739],[39.1727,-15.9243,99.7177],[39.1636,-15.9114,101.6119],[39.1568,-15.9145,104.7605],[39.1519,-15.9194,107.9784],[39.1324,-15.9204,125.5404],[39.1275,-15.9246,114.1003],[39.1265,-15.9288,114.8225],[39.1205,-15.9291,114.937],[39.1191,-15.9353,119.1233],[39.1075,-15.9335,130.6379],[39.0991,-15.9376,127.6228],[39.0935,-15.938,129.6885],[39.0847,-15.9267,133.5405],[39.0789,-15.9258,139.6143],[39.0593,-15.9297,138.1907],[39.049,-15.9275,144.9461],[39.0415,-15.9193,151.1529],[39.0274,-15.9158,151.7596],[39.0179,-15.8956,182.3104],[39.0143,-15.8946,172.9274],[39.0075,-15.8959,190.0717],[38.9991,-15.8905,188.1627],[38.9745,-15.8899,200.5087],[38.9512,-15.9022,217.6173],[38.9224,-15.9101,263.8593],[38.9102,-15.9165,262.1924],[38.9043,-15.9229,258.371],[38.8994,-15.9238,241.3573],[38.8808,-15.9162,183.9695],[38.8727,-15.9149,188.3051],[38.8597,-15.9174,219.7649],[38.8448,-15.9148,168.7317],[38.852,-15.9245,169.4491],[38.8599,-15.9268,159.1202],[38.8715,-15.9417,163.5398],[38.8739,-15.954,156.1667],[38.8691,-15.9826,146.378],[38.8708,-15.9979,138.8999],[38.8841,-16.0046,135.6093],[38.8959,-16.0203,137.5116],[38.8973,-16.0294,128.6959],[38.915,-16.0478,137.0042],[38.9118,-16.0653,121.6024],[38.9134,-16.0751,124.3999],[38.9225,-16.0912,115.5945],[38.9268,-16.1087,111.613],[38.9375,-16.1192,114.7146],[38.9345,-16.1239,115.4701],[38.9248,-16.1322,118.58],[38.9179,-16.146,109.3543],[38.9235,-16.1622,105.3284],[38.9205,-16.1671,107.8105],[38.9318,-16.1687,110.4894],[38.9395,-16.1645,110.6156],[38.9506,-16.1612,127.4304],[38.9815,-16.131,136.3082],[39.003,-16.1133,147.9816],[39.0116,-16.1102,145.0028],[39.0149,-16.1063,146.1168],[39.0585,-16.1163,171.6222],[39.0665,-16.1199,153.5963],[39.0931,-16.1223,169.7698],[39.0965,-16.1238,163.845],[39.1117,-16.1363,132.9027],[39.1067,-16.1437,134.7359],[39.1052,-16.1632,119.0022],[39.103,-16.1705,109.2175],[39.1064,-16.174,112.6012],[39.1105,-16.1841,102.9838],[39.1104,-16.1889,99.3284],[39.1081,-16.1929,101.3823],[39.1084,-16.1991,95.3985],[39.1268,-16.2213,83.4128],[39.1278,-16.2313,79.9158],[39.1332,-16.2358,77.4629],[39.1424,-16.2372,78.6207],[39.1495,-16.2406,73.9334],[39.1596,-16.2429,75.1846],[39.1744,-16.2541,67.7123],[39.1848,-16.2831,58.7902],[39.1992,-16.3097,52.3649],[39.2181,-16.3238,47.3714],[39.2919,-16.2317,62.4265],[39.3257,-16.1494,92.3244],[39.326,-16.1293,111.7421],[39.3449,-16.1121,97.1734],[39.3457,-16.0981,72.6367],[39.3645,-16.0842,67.2893],[39.3836,-16.0829,59.5758],[39.392,-16.0808,54.8985],[39.401,-16.0746,51.8697],[39.407,-16.0723,54.3304],[39.4134,-16.058,47.9095],[39.4142,-16.0508,49.1299]]]]}}