{"type": "Feature","bbox": [31.5975,-16.0593,32.1571,-15.6766],"geometry": {"type": "MultiPolygon","coordinates": [[[[32.1503,-15.8434,335.5826],[32.15,-15.826,331.461],[32.1469,-15.8154,335.953],[32.1385,-15.8063,328.8269],[32.1367,-15.795,321.1417],[32.125,-15.7785,321.0],[32.1251,-15.7699,321.0],[32.1045,-15.6887,321.0],[32.0466,-15.6919,321.0],[31.9996,-15.6856,321.0],[31.9449,-15.6806,321.0],[31.8552,-15.6766,321.0],[31.813,-15.678,321.0],[31.7366,-15.692,321.0],[31.6925,-15.6966,321.0],[31.66,-15.6944,321.0],[31.6332,-15.6884,321.0],[31.5975,-15.747,321.0],[31.6093,-15.7766,321.0],[31.6088,-15.7841,327.0623],[31.6045,-15.7937,331.54],[31.6115,-15.7993,333.5447],[31.6198,-15.8254,346.8932],[31.6153,-15.8312,350.3762],[31.6214,-15.8374,353.0236],[31.6062,-15.8653,368.201],[31.6084,-15.8767,374.8621],[31.6152,-15.8895,380.5688],[31.6191,-15.9102,392.4523],[31.641,-15.938,419.0187],[31.6703,-15.9411,439.7031],[31.6749,-15.9434,444.4335],[31.6874,-15.959,459.7786],[31.6968,-15.9633,469.5637],[31.7106,-15.9666,483.814],[31.7165,-15.972,491.6082],[31.7445,-15.982,563.5526],[31.7536,-15.9817,737.9492],[31.8154,-15.951599999999999,735.0072],[31.9003,-16.0019,711.8326],[31.9366,-16.0203,622.8152],[31.9466,-16.0381,507.2918],[31.9573,-16.046,490.6952],[31.9653,-16.0563,475.3849],[31.9786,-16.0593,467.384],[31.9999,-16.055,453.2456],[32.0077,-16.0549,453.2427],[32.0293,-16.0487,444.7658],[32.0333,-16.0551,445.9652],[32.0391,-16.057,434.2667],[32.0529,-16.0482,430.0575],[32.0496,-16.0427,438.2893],[32.0557,-16.0422,426.6154],[32.0596,-16.0389,430.1926],[32.0627,-16.0406,423.655],[32.0689,-16.0406,420.8794],[32.0662,-16.0368,424.2332],[32.0691,-16.0348,421.7639],[32.0758,-16.035,417.399],[32.0804,-16.0281,423.3317],[32.089,-16.0313,415.4043],[32.0968,-16.0276,422.9185],[32.104,-16.0274,416.2529],[32.1275,-16.022,410.3653],[32.1316,-16.0174,407.2132],[32.1354,-16.0071,395.3365],[32.1353,-15.9999,394.6572],[32.1305,-15.9952,389.9348],[32.1343,-15.986,385.2537],[32.1318,-15.9572,379.6594],[32.1463,-15.9556,380.4482],[32.1413,-15.9435,368.3212],[32.1484,-15.9282,364.2497],[32.1469,-15.9129,364.9743],[32.1543,-15.9104,354.807],[32.1571,-15.9021,352.1173],[32.1535,-15.8949,352.7726],[32.1503,-15.8434,335.5826]]]]}
,"properties": {"GID_3": "MOZ.10.7.2_1","GID_0": "MOZ","country": "Mozambique","GID_1": "MOZ.10_1","province": "Tete","NL_NAME_1": "NA","GID_2": "MOZ.10.7_1","county": "Magoe","NL_NAME_2": "NA","city": "Mapheende","VARNAME_3": "NA","NL_NAME_3": "NA","TYPE_3": "Localidad","ENGTYPE_3": "Locality","CC_3": "NA","HASC_3": "NA","name": "Mapheende.city","area_km2": 1930.082,"hist_schema_id": "Elevation0-9000","hist_area_km2": {"325": 476.547,"350": 209.357,"375": 185.224,"400": 185.905,"425": 226.854,"450": 214.446,"475": 141.681,"500": 87.244,"525": 59.356,"550": 35.97,"575": 20.799,"600": 9.4,"625": 4.077,"650": 7.034,"675": 12.966,"700": 20.873,"725": 31.532,"750": 0.815}}}