{"type":"Feature","properties":{"GID_3":"MOZ.8.11.2_1","GID_0":"MOZ","country":"Mozambique","GID_1":"MOZ.8_1","province":"Nassa","NL_NAME_1":"NA","GID_2":"MOZ.8.11_1","county":"Metarica","NL_NAME_2":"NA","city":"Nacumua","VARNAME_3":"NA","NL_NAME_3":"NA","TYPE_3":"Localidad","ENGTYPE_3":"Locality","CC_3":"NA","HASC_3":"NA","name":"Nacumua.city"},
"geometry":{"type": "MultiPolygon","coordinates": [[[[37.5956,-14.3635,438.3558],[37.5901,-14.3582,450.421],[37.5809,-14.3582,437.3213],[37.5686,-14.3553,445.2241],[37.553,-14.3382,449.4786],[37.5315,-14.3352,444.64],[37.473,-14.2994,466.1931],[37.4269,-14.2874,461.8207],[37.4194,-14.2897,464.0609],[37.3936,-14.2897,468.6027],[37.3874,-14.2926,465.6657],[37.3777,-14.2904,473.2512],[37.35,-14.3024,479.7087],[37.3439,-14.2904,476.8381],[37.3347,-14.2904,480.3149],[37.326,-14.2807,483.8882],[37.3168,-14.2807,481.0113],[37.3045,-14.2777,484.642],[37.2984,-14.2837,485.8415],[37.2892,-14.2777,485.2855],[37.283,-14.2777,485.1528],[37.2738,-14.2837,487.9704],[37.2716,-14.283,493.5689],[37.2701,-14.2785,496.5839],[37.2517,-14.2696,493.9613],[37.2148,-14.2636,499.6988],[37.184,-14.2487,507.4241],[37.1717,-14.2517,503.9638],[37.1563,-14.2368,521.2939],[37.1348,-14.2427,519.0473],[37.1055,-14.2429,529.5942],[37.0899,-14.2388,520.5797],[37.0798,-14.2253,523.3146],[37.068,-14.224,527.5858],[37.0619,-14.2151,521.828],[37.0527,-14.2181,531.0309],[37.0426,-14.2099,536.3013],[37.0331,-14.2091,534.2726],[37.0303,-14.198,541.8524],[37.018,-14.198,542.6783],[37.0026,-14.1861,537.3398],[36.99,-14.1808,539.0131],[36.9725,-14.183,566.8127],[36.9532,-14.2157,608.4485],[36.9375,-14.2533,609.1631],[36.9363,-14.3189,601.7535],[36.9181,-14.3435,619.1904],[36.8867,-14.3388,608.1812],[36.8807,-14.362,605.3706],[36.8807,-14.391,595.8972],[36.8715,-14.403,587.978],[36.8838,-14.4298,616.5858],[36.8675,-14.464,547.2207],[36.85,-14.4895,567.7995],[36.8379,-14.5041,537.9049],[36.8526,-14.5155,537.8932],[36.8582,-14.5178,537.593],[36.8793,-14.5201,533.163],[36.8874,-14.5182,533.2012],[36.9022,-14.5016,530.5485],[36.9053,-14.5133,548.4846],[36.9301,-14.5133,524.719],[36.9462,-14.5224,527.1162],[36.9542,-14.5333,525.9977],[36.9751,-14.5505,530.8469],[36.9747,-14.5563,525.9379],[36.979,-14.564,522.0856],[37.0248,-14.6155,511.8059],[37.0648,-14.6356,515.0883],[37.0752,-14.6381,508.6547],[37.0789,-14.642,499.6337],[37.0826,-14.6423,505.8239],[37.0957,-14.6386,501.6541],[37.1202,-14.6147,495.1473],[37.1648,-14.5938,497.9412],[37.1817,-14.5909,496.2352],[37.2001,-14.6088,491.149],[37.2339,-14.6088,494.6657],[37.2401,-14.5996,493.4835],[37.2549,-14.5909,482.079],[37.2584,-14.5909,490.1149],[37.283,-14.5759,487.8954],[37.2962,-14.5713,481.8474],[37.3014,-14.5721,488.203],[37.3321,-14.5542,481.3136],[37.3383,-14.5423,485.6106],[37.3475,-14.5304,481.5115],[37.3599,-14.5184,490.6695],[37.3968,-14.4946,483.8804],[37.4153,-14.4767,461.9778],[37.4245,-14.4648,468.7553],[37.4271,-14.45,466.6037],[37.4304,-14.4417,461.7785],[37.4703,-14.4149,453.1853],[37.4857,-14.394,460.8638],[37.5044,-14.3872,444.5023],[37.5155,-14.3872,458.5167],[37.5471,-14.4,452.9306],[37.5686,-14.391,450.4707],[37.5877,-14.3693,436.5465],[37.5956,-14.3635,438.3558]]]]}}