{"type": "Feature","bbox": [31.989,-25.582,32.4201,-24.787],"geometry": {"type": "MultiPolygon","coordinates": [[[[32.3766,-25.0564,50.5396],[32.3743,-25.0424,56.0056],[32.3784,-25.0257,61.2717],[32.4096,-24.9994,62.1777],[32.4089,-24.9931,65.2435],[32.3971,-24.9782,63.0068],[32.3819,-24.9545,84.9744],[32.3762,-24.954,76.5581],[32.3652,-24.9597,68.9869],[32.361,-24.9578,72.4768],[32.3553,-24.9522,70.6984],[32.3615,-24.9431,73.2458],[32.3547,-24.9407,71.7208],[32.3487,-24.9407,72.8557],[32.3372,-24.9336,73.7138],[32.338,-24.92,81.4366],[32.3467,-24.9035,75.3947],[32.3372,-24.8971,78.1569],[32.3285,-24.9007,79.1115],[32.3149,-24.9022,80.3882],[32.3087,-24.8993,83.549],[32.3071,-24.8899,78.1107],[32.293,-24.8754,92.1069],[32.2883,-24.9135,87.8951],[32.2799,-24.9156,91.2466],[32.2631,-24.9107,93.5227],[32.2448,-24.9103,94.1758],[32.2438,-24.9066,92.6137],[32.2604,-24.8951,95.5733],[32.2594,-24.8894,95.2229],[32.2545,-24.8873,97.6476],[32.2489,-24.8881,99.4625],[32.2465,-24.8869,97.9853],[32.2475,-24.8813,93.2609],[32.2428,-24.8762,98.8681],[32.2284,-24.8761,101.6775],[32.2202,-24.8609,107.081],[32.2087,-24.8528,104.014],[32.1866,-24.8517,108.1601],[32.1807,-24.8464,103.0269],[32.1831,-24.8381,108.3316],[32.1816,-24.833,110.5656],[32.1728,-24.8322,113.2734],[32.1653,-24.8352,113.5145],[32.1447,-24.8344,117.8298],[32.1345,-24.8293,121.7457],[32.1275,-24.817,121.9922],[32.125,-24.7999,121.1663],[32.118,-24.787,128.9315],[32.1091,-24.7927,123.8765],[32.1092,-24.7989,133.5762],[32.1044,-24.8082,128.7402],[32.0945,-24.807,136.1968],[32.084,-24.7975,143.4301],[32.0409,-24.8101,191.8903],[32.031,-24.8151,178.0402],[32.0071,-24.8104,206.6502],[32.0155,-24.9251,403.6624],[32.0302,-25.0657,303.8351],[32.0336,-25.1325,271.5422],[32.0288,-25.2414,305.694],[32.0153,-25.3825,368.2343],[32.0135,-25.3881,363.4351],[31.9905,-25.429,252.1388],[31.989,-25.4364,105.631],[31.9943,-25.4334,152.0812],[32.0171,-25.4328,150.8794],[32.0322,-25.4373,127.194],[32.0409,-25.4454,119.7768],[32.0507,-25.4625,101.3],[32.0619,-25.4736,93.721],[32.0668,-25.4774,91.0942],[32.0993,-25.4889,97.169],[32.1242,-25.5093,90.8273],[32.1202,-25.5133,90.871],[32.1208,-25.5189,93.7828],[32.1345,-25.5262,97.1877],[32.1627,-25.5288,86.2237],[32.1942,-25.5482,78.9425],[32.2118,-25.5671,82.3151],[32.2293,-25.5734,80.5456],[32.242,-25.582,80.6207],[32.2467,-25.5783,80.6762],[32.2558,-25.5642,76.9903],[32.2574,-25.5073,78.24],[32.2433,-25.4758,74.5648],[32.2328,-25.4443,67.1926],[32.2187,-25.4158,63.9425],[32.2153,-25.4055,68.6439],[32.2163,-25.3914,74.0579],[32.2236,-25.3778,68.3536],[32.2293,-25.3744,63.5504],[32.2293,-25.356,61.7267],[32.2346,-25.319,60.3031],[32.2854,-25.315,55.1317],[32.296,-25.3119,54.9318],[32.3048,-25.317,54.3717],[32.3124,-25.3354,71.2323],[32.3223,-25.3368,69.9467],[32.3416,-25.3277,51.2412],[32.3556,-25.3119,45.7949],[32.4159,-25.2668,44.0684],[32.4201,-25.2697,44.2904],[32.4178,-25.2666,43.7134],[32.4187,-25.2495,41.735],[32.3942,-25.2105,53.2379],[32.3918,-25.2013,58.2142],[32.3984,-25.1806,151.0586],[32.4025,-25.1465,81.8297],[32.3811,-25.1098,78.1082],[32.3837,-25.0813,79.7429],[32.3811,-25.0649,54.6489],[32.3766,-25.0564,50.5396]]]]}
,"properties": {"GID_3": "MOZ.6.6.4_1","GID_0": "MOZ","country": "Mozambique","GID_1": "MOZ.6_1","province": "Maputo","NL_NAME_1": "NA","GID_2": "MOZ.6.6_1","county": "Moamba","NL_NAME_2": "NA","city": "Sabie","VARNAME_3": "NA","NL_NAME_3": "NA","TYPE_3": "Localidad","ENGTYPE_3": "Locality","CC_3": "NA","HASC_3": "NA","name": "Sabie.city","area_km2": 2362.408,"hist_schema_id": "Elevation0-9000","hist_area_km2": {"50": 112.336,"75": 397.529,"100": 599.176,"125": 546.397,"150": 370.676,"175": 145.686,"200": 61.042,"225": 42.044,"250": 32.985,"275": 21.139,"300": 14.874,"325": 9.134,"350": 5.472,"375": 2.42,"400": 1.498}}}