{"type": "Feature","bbox": [32.918,-15.9435,33.5652,-15.0812],"geometry": {"type": "MultiPolygon","coordinates": [[[[33.1174,-15.7498,173.5453],[33.1395,-15.7665,142.421],[33.1551,-15.7853,138.1029],[33.1638,-15.7908,137.0],[33.1867,-15.7982,136.5],[33.2256,-15.8041,143.7131],[33.2338,-15.8124,135.5],[33.2593,-15.8495,134.75],[33.2847,-15.8733,134.0],[33.2924,-15.8866,136.2955],[33.3172,-15.9045,133.0],[33.3408,-15.918,134.3658],[33.3677,-15.9435,132.0],[33.3742,-15.9124,144.2894],[33.3955,-15.9082,190.1237],[33.4234,-15.8507,204.0012],[33.4302,-15.8432,189.4377],[33.4401,-15.8356,189.1717],[33.4487,-15.82,214.194],[33.4579,-15.8086,204.6595],[33.4682,-15.811,216.2743],[33.4712,-15.8078,228.5672],[33.4826,-15.7835,381.101],[33.4823,-15.7803,410.1142],[33.464,-15.7701,374.9684],[33.4583,-15.7611,288.8197],[33.4646,-15.7491,374.0048],[33.4646,-15.7316,307.4271],[33.468,-15.7213,329.0536],[33.4731,-15.716,334.807],[33.475,-15.705,325.3276],[33.4622,-15.6883,351.6724],[33.465,-15.6844,341.3543],[33.4678,-15.6633,342.9672],[33.479,-15.6479,350.6593],[33.4805,-15.639,359.1153],[33.4649,-15.635,359.0275],[33.4815,-15.6145,365.2812],[33.4808,-15.5938,370.3463],[33.4768,-15.5869,367.8848],[33.4771,-15.5631,378.9128],[33.4837,-15.5554,379.0992],[33.4884,-15.5468,382.0676],[33.4869,-15.5408,379.2199],[33.49,-15.53,388.6271],[33.487,-15.4979,395.1953],[33.489,-15.4815,397.3148],[33.4819,-15.4762,399.9016],[33.4816,-15.472,407.9998],[33.491,-15.4617,404.3802],[33.4926,-15.4578,411.7583],[33.4907,-15.4528,411.1751],[33.4974,-15.4436,405.7253],[33.4965,-15.4326,418.0651],[33.5096,-15.4351,423.171],[33.5163,-15.4339,423.9108],[33.5279,-15.4216,418.1274],[33.5374,-15.4165,430.2803],[33.5462,-15.4202,437.7301],[33.5474,-15.4167,441.574],[33.5521,-15.4137,432.635],[33.5577,-15.4148,432.7521],[33.5634,-15.4122,445.2095],[33.5652,-15.4072,449.0877],[33.5627,-15.3909,450.4883],[33.5637,-15.3799,457.4741],[33.562,-15.3762,453.6376],[33.5553,-15.375,455.4463],[33.5465,-15.3593,466.9083],[33.5379,-15.3506,465.2745],[33.5364,-15.3436,470.8328],[33.5382,-15.3363,470.944],[33.5371,-15.3302,472.4829],[33.5319,-15.3166,483.7213],[33.5298,-15.3061,478.9403],[33.5293,-15.2827,491.2315],[33.5258,-15.2747,503.2693],[33.5264,-15.26,506.4272],[33.5158,-15.2383,516.5383],[33.514,-15.2301,523.2177],[33.511,-15.2291,515.7993],[33.4971,-15.2169,522.5779],[33.4815,-15.2096,538.0971],[33.4772,-15.2057,539.1244],[33.4654,-15.2036,545.8425],[33.4477,-15.1822,566.3236],[33.4326,-15.1502,588.9962],[33.4059,-15.1557,875.2226],[33.4016,-15.1541,883.1472],[33.355,-15.1189,603.9538],[33.3489,-15.1128,619.7649],[33.3268,-15.1077,596.294],[33.3189,-15.1098,592.6232],[33.3115,-15.1082,589.7749],[33.3005,-15.1029,580.1777],[33.27,-15.1019,563.0748],[33.2619,-15.104,558.2929],[33.2466,-15.1004,547.8721],[33.2355,-15.1023,540.9602],[33.2245,-15.0946,535.8229],[33.2156,-15.1006,530.7435],[33.2074,-15.1004,529.0936],[33.2023,-15.0983,526.7795],[33.1948,-15.0891,522.1383],[33.1801,-15.0812,511.5156],[33.1668,-15.0898,504.2852],[33.145,-15.0994,491.1582],[33.1348,-15.1056,491.2267],[33.1256,-15.1055,482.6484],[33.1185,-15.1074,480.9656],[33.1168,-15.1104,479.9584],[33.1184,-15.115,477.8484],[33.1156,-15.1171,480.6426],[33.1097,-15.1173,481.0318],[33.1062,-15.1223,474.5664],[33.1047,-15.1279,471.5193],[33.1009,-15.1323,472.2721],[33.0711,-15.1398,456.5176],[33.0631,-15.1438,457.4761],[33.0535,-15.1554,445.1773],[33.0614,-15.1636,439.7888],[33.0548,-15.1702,438.3105],[33.0506,-15.1791,433.6276],[33.0404,-15.1881,424.8628],[33.0381,-15.1922,425.6825],[33.0396,-15.2018,426.5317],[33.037,-15.2035,425.7055],[33.0049,-15.2029,421.2188],[33.0017,-15.2067,406.6039],[32.9963,-15.2207,412.6044],[32.9959,-15.2277,409.1957],[32.9995,-15.2321,405.4837],[32.9929,-15.2554,416.0594],[32.9884,-15.2561,403.6864],[32.9833,-15.264,406.881],[32.981,-15.2749,393.3337],[32.9802,-15.2832,377.5587],[32.9842,-15.2931,373.7242],[32.9901,-15.2994,372.3842],[32.991,-15.3049,355.3971],[32.9791,-15.3145,359.8022],[32.976,-15.3266,346.1513],[32.9748,-15.34,332.9914],[32.9686,-15.3632,330.1952],[32.9619,-15.3722,329.5294],[32.9459,-15.386,290.4347],[32.9434,-15.3921,325.0711],[32.9205,-15.4111,238.0651],[32.918,-15.4155,234.6711],[32.9197,-15.4273,237.0268],[32.9535,-15.4806,205.0358],[32.9589,-15.4931,209.9787],[32.9746,-15.5433,195.4708],[32.9822,-15.578,170.4888],[32.9844,-15.5827,167.6324],[33.0035,-15.5943,164.9807],[33.0106,-15.6157,163.1178],[33.0199,-15.6255,171.433],[33.0342,-15.6493,263.4763],[33.0497,-15.6701,151.0621],[33.0633,-15.6803,154.2416],[33.073,-15.6802,144.125],[33.0788,-15.6825,153.4618],[33.0994,-15.7118,146.6579],[33.1082,-15.7364,143.1866],[33.1174,-15.7498,173.5453]]]]}
,"properties": {"GID_3": "MOZ.10.5.2_1","GID_0": "MOZ","country": "Mozambique","GID_1": "MOZ.10_1","province": "Tete","NL_NAME_1": "NA","GID_2": "MOZ.10.5_1","county": "Chiuta","NL_NAME_2": "NA","city": "Manje","VARNAME_3": "NA","NL_NAME_3": "NA","TYPE_3": "Localidad","ENGTYPE_3": "Locality","CC_3": "NA","HASC_3": "NA","name": "Manje.city","area_km2": 4127.223,"hist_schema_id": "Elevation0-9000","hist_area_km2": {"125": 8.912,"150": 20.462,"175": 31.565,"200": 46.034,"225": 57.05,"250": 70.727,"275": 89.286,"300": 110.033,"325": 126.74,"350": 147.606,"375": 207.976,"400": 312.08,"425": 384.374,"450": 397.811,"475": 453.77,"500": 420.476,"525": 333.842,"550": 278.21,"575": 210.266,"600": 143.084,"625": 75.957,"650": 43.505,"675": 32.26,"700": 24.06,"725": 18.499,"750": 15.677,"775": 13.327,"800": 9.668,"825": 7.911,"850": 7.502,"875": 5.826,"900": 4.579,"925": 3.332,"950": 3.291,"975": 1.901,"1000": 1.655,"1025": 1.696,"1050": 1.431,"1075": 1.779,"1100": 0.715,"1125": 0.388,"1150": 0.388,"1175": 0.409,"1200": 0.286,"1225": 0.388,"1250": 0.225,"1275": 0.225,"1300": 0.041}}}