{"type": "Feature","bbox": [37.2218,-14.8318,37.7286,-14.2743],"geometry": {"type": "MultiPolygon","coordinates": [[[[37.7195,-14.2998,424.9341],[37.7185,-14.2978,437.75],[37.7107,-14.2966,419.1486],[37.6954,-14.2778,422.2382],[37.6832,-14.2743,419.1632],[37.6678,-14.2764,421.5771],[37.6454,-14.2876,420.3504],[37.6313,-14.2904,422.427],[37.6201,-14.2879,436.9327],[37.6083,-14.2964,432.2676],[37.6114,-14.3493,438.2911],[37.6,-14.3604,440.6567],[37.5877,-14.3693,436.5465],[37.5686,-14.391,450.4707],[37.5471,-14.4,452.9306],[37.5155,-14.3872,458.5167],[37.5044,-14.3872,444.5023],[37.4857,-14.394,460.8638],[37.4703,-14.4149,453.1853],[37.4304,-14.4417,461.7785],[37.4271,-14.45,466.6037],[37.4245,-14.4648,468.7553],[37.4153,-14.4767,461.9778],[37.3968,-14.4946,483.8804],[37.3599,-14.5184,490.6695],[37.3475,-14.5304,481.5115],[37.3383,-14.5423,485.6106],[37.3321,-14.5542,481.3136],[37.3014,-14.5721,488.203],[37.2962,-14.5713,481.8474],[37.283,-14.5759,487.8954],[37.2584,-14.5909,490.1149],[37.2549,-14.5909,482.079],[37.2401,-14.5996,493.4835],[37.2339,-14.6088,494.6657],[37.2305,-14.6088,482.0981],[37.2301,-14.6201,502.5067],[37.2218,-14.6329,514.8176],[37.2291,-14.6456,537.3368],[37.2481,-14.6555,538.5043],[37.2788,-14.6541,545.7356],[37.2948,-14.6653,530.7168],[37.3137,-14.6705,551.7894],[37.3536,-14.6705,521.8572],[37.3737,-14.7345,611.8418],[37.3737,-14.7642,622.9941],[37.3679,-14.7726,632.8853],[37.3401,-14.7868,629.0514],[37.3475,-14.8107,677.0433],[37.3997,-14.8318,627.8676],[37.4307,-14.8256,590.8953],[37.4419,-14.8256,584.149],[37.4522,-14.8137,580.6272],[37.4522,-14.8018,571.6488],[37.446,-14.7869,586.2153],[37.4553,-14.7749,571.1218],[37.4738,-14.769,585.4044],[37.4799,-14.769,598.1664],[37.4799,-14.76,599.5631],[37.4824,-14.7576,589.3416],[37.5322,-14.763,628.9199],[37.5476,-14.766,614.657],[37.5723,-14.7749,627.5935],[37.595,-14.7749,598.5452],[37.5877,-14.763,587.21],[37.5877,-14.7481,583.3401],[37.5969,-14.7451,606.6795],[37.6092,-14.7362,612.9746],[37.6092,-14.7302,605.1445],[37.6,-14.7242,577.9141],[37.6061,-14.7183,585.7841],[37.6001,-14.6936,551.6075],[37.5907,-14.6765,643.892],[37.603,-14.6705,775.8892],[37.6708,-14.6527,533.8637],[37.6769,-14.6497,523.7173],[37.68,-14.6407,517.7797],[37.6923,-14.6258,519.1102],[37.7015,-14.6228,515.2277],[37.7231,-14.59,503.0424],[37.7286,-14.5847,495.1347],[37.7152,-14.5829,505.1801],[37.6985,-14.5693,638.0114],[37.6985,-14.5095,591.8226],[37.7015,-14.4886,580.6518],[37.6804,-14.4301,474.3576],[37.6761,-14.4134,483.0711],[37.6738,-14.3962,512.3755],[37.6738,-14.3723,471.994],[37.6831,-14.3634,477.3467],[37.6862,-14.3544,461.8363],[37.6862,-14.3425,453.6591],[37.692,-14.3198,436.8263],[37.6985,-14.3156,432.7585],[37.7108,-14.3037,429.2265],[37.7195,-14.2998,424.9341]]]]}
,"properties": {"GID_3": "MOZ.7.4.1_1","GID_0": "MOZ","country": "Mozambique","GID_1": "MOZ.7_1","province": "Nampula","NL_NAME_1": "NA","GID_2": "MOZ.7.4_1","county": "Malema","NL_NAME_2": "NA","city": "Chihulo","VARNAME_3": "NA","NL_NAME_3": "NA","TYPE_3": "Localidad","ENGTYPE_3": "Locality","CC_3": "NA","HASC_3": "NA","name": "Chihulo.city","area_km2": 1597.216,"hist_schema_id": "Elevation0-9000","hist_area_km2": {"425": 21.387,"450": 73.472,"475": 157.411,"500": 317.317,"525": 370.425,"550": 232.495,"575": 128.163,"600": 97.774,"625": 53.395,"650": 28.278,"675": 17.083,"700": 10.727,"725": 7.507,"750": 6.913,"775": 5.99,"800": 5.477,"825": 4.554,"850": 3.733,"875": 3.548,"900": 3.569,"925": 4.123,"950": 4.143,"975": 4.717,"1000": 5.025,"1025": 3.733,"1050": 2.933,"1075": 2.626,"1100": 2.113,"1125": 2.585,"1150": 2.564,"1175": 3.2,"1200": 3.303,"1225": 1.621,"1250": 1.19,"1275": 1.169,"1300": 0.677,"1325": 0.39,"1350": 0.574,"1375": 0.431,"1400": 0.185,"1425": 0.246,"1450": 0.144,"1475": 0.103,"1500": 0.123,"1525": 0.062,"1550": 0.021}}}