{"type":"Feature","properties":{"GID_3":"MOZ.8.2.5_1","GID_0":"MOZ","country":"Mozambique","GID_1":"MOZ.8_1","province":"Nassa","NL_NAME_1":"NA","GID_2":"MOZ.8.2_1","county":"Lago","NL_NAME_2":"NA","city":"Meluluca(MetangulaSede)","VARNAME_3":"NA","NL_NAME_3":"NA","TYPE_3":"Localidad","ENGTYPE_3":"Locality","CC_3":"NA","HASC_3":"NA","name":"Meluluca(Metangula_Sede).city"},
"geometry":{"type": "MultiPolygon","coordinates": [[[[34.8121,-13.1021,475.3178],[34.8363,-13.0928,721.2605],[34.8563,-13.1068,816.0319],[34.8716,-13.0979,876.1131],[34.8839,-13.0949,877.9321],[34.8956,-13.0863,968.2478],[34.9076,-13.0848,973.6774],[34.9162,-13.0587,1088.0638],[34.9194,-13.0324,1224.844],[34.922,-13.0256,1218.3936],[34.9375,-13.0085,1295.6744],[34.9489,-13.0,1320.7294],[34.9578,-12.9846,1286.9556],[34.963,-12.9699,1261.3365],[34.9632,-12.9646,1287.0714],[34.9579,-12.955,1294.8134],[34.9491,-12.9459,1275.8395],[34.9529,-12.9305,1261.6151],[34.9629,-12.9186,1250.2258],[34.9624,-12.9059,1273.5475],[34.9504,-12.9045,1252.8257],[34.9416,-12.9072,1255.4072],[34.9297,-12.906,1330.8051],[34.9261,-12.8981,1464.9427],[34.9292,-12.8887,1549.3781],[34.9246,-12.7486,938.1132],[34.9224,-12.7265,1171.3547],[34.9366,-12.6906,1252.3837],[34.9411,-12.6573,1081.7886],[34.9394,-12.6468,855.4062],[34.9325,-12.6496,827.785],[34.9118,-12.6472,771.1366],[34.9095,-12.6385,747.0179],[34.9047,-12.6346,701.0151],[34.8848,-12.6256,578.8061],[34.8629,-12.6029,509.1038],[34.861,-12.605,503.6475],[34.8494,-12.6092,500.1366],[34.8328,-12.6038,496.5938],[34.827,-12.5989,496.6465],[34.8101,-12.6105,488.7969],[34.7936,-12.6151,485.5449],[34.7869,-12.6223,480.1384],[34.7805,-12.6219,478.6539],[34.7693,-12.6242,476.2255],[34.7718,-12.6299,474.5],[34.7935,-12.6404,478.2046],[34.7988,-12.6471,480.8578],[34.8024,-12.6668,474.5],[34.8043,-12.6693,515.0928],[34.8046,-12.6743,489.8438],[34.809,-12.686,475.9542],[34.8085,-12.6879,475.8475],[34.8032,-12.6901,474.5],[34.8046,-12.6965,481.3257],[34.8018,-12.6962,474.5],[34.801,-12.6988,474.5],[34.8026,-12.7054,474.5],[34.8046,-12.7063,474.5],[34.8107,-12.7035,476.1496],[34.8121,-12.6957,476.4324],[34.8182,-12.6965,477.3081],[34.8207,-12.7001,475.8365],[34.8157,-12.7104,474.5],[34.8179,-12.7171,474.5],[34.8179,-12.7207,474.5],[34.8157,-12.7229,474.5],[34.8174,-12.7374,477.0415],[34.8124,-12.7432,477.8849],[34.8115,-12.7524,474.5],[34.8085,-12.7579,477.261],[34.804,-12.7632,491.5648],[34.7982,-12.7643,474.5],[34.7979,-12.7674,482.6897],[34.7943,-12.7721,474.5],[34.7957,-12.7782,494.8159],[34.7907,-12.7843,474.5],[34.7904,-12.7871,475.6073],[34.7865,-12.7885,474.5],[34.7863,-12.7899,474.5],[34.7882,-12.7907,477.175],[34.7863,-12.7946,474.5],[34.789,-12.796,475.0581],[34.7868,-12.8026,474.5],[34.789,-12.8124,477.5052],[34.789,-12.8193,475.3822],[34.7868,-12.8224,474.5],[34.7876,-12.8268,483.7552],[34.7851,-12.8343,474.5],[34.779,-12.8424,481.3752],[34.7776,-12.8562,482.7638],[34.771,-12.8651,477.1339],[34.7704,-12.8735,474.5],[34.7724,-12.8826,475.4266],[34.7626,-12.8885,478.1091],[34.7624,-12.8929,476.6183],[34.7579,-12.8982,474.5],[34.7588,-12.906,477.7093],[34.7557,-12.9126,475.3748],[34.7557,-12.9146,474.5],[34.7576,-12.9157,480.9941],[34.7568,-12.9185,475.5576],[34.7626,-12.9213,480.4956],[34.7626,-12.9251,487.313],[34.7596,-12.9276,474.5],[34.7593,-12.9357,474.5],[34.7618,-12.9401,487.2412],[34.7604,-12.9424,474.5],[34.7643,-12.9537,475.2083],[34.7626,-12.9596,476.7504],[34.764,-12.9599,476.7504],[34.7654,-12.9649,480.4422],[34.7621,-12.9685,478.5444],[34.7621,-12.9751,478.4503],[34.7635,-12.9776,485.378],[34.7651,-12.9776,501.9753],[34.7649,-12.9807,510.7605],[34.7635,-12.981,476.4525],[34.764,-12.9857,476.2923],[34.7679,-12.9865,474.5],[34.7713,-12.9904,502.2857],[34.7729,-12.9999,485.0429],[34.7771,-13.0029,512.9419],[34.776,-13.0112,474.5],[34.7776,-13.0157,477.6858],[34.7804,-13.0179,478.8493],[34.7835,-13.016,483.023],[34.7837,-13.0215,474.5],[34.7874,-13.0257,497.5508],[34.7868,-13.0279,474.5],[34.7879,-13.0296,474.5],[34.7915,-13.0301,479.9991],[34.7912,-13.0349,475.6147],[34.7896,-13.036,475.6147],[34.7904,-13.0413,474.5],[34.7949,-13.0465,474.5],[34.7962,-13.0512,492.5369],[34.8004,-13.0524,484.9402],[34.8024,-13.056,488.063],[34.8015,-13.0582,487.9771],[34.799,-13.0582,477.6304],[34.7985,-13.0632,474.5],[34.8026,-13.0618,477.0615],[34.8037,-13.0676,492.6136],[34.8065,-13.0699,505.1905],[34.8071,-13.0804,476.1044],[34.811,-13.0846,474.5],[34.8115,-13.0882,474.5],[34.8115,-13.091,474.5],[34.8079,-13.0949,475.317],[34.8093,-13.0951,475.317],[34.8099,-13.0993,477.4369],[34.8121,-13.1021,475.3178]]]]}}