{"type": "Feature","bbox": [33.6483,-23.7022,34.9523,-22.1535],"geometry": {"type": "MultiPolygon","coordinates": [[[[33.9355,-23.5806,34.9672],[33.94,-23.5837,34.5901],[33.9724,-23.5738,50.4927],[33.9837,-23.5752,55.331],[33.9882,-23.5788,54.7469],[33.9908,-23.5889,59.931399999999996],[34.0009,-23.6115,64.0424],[34.0168,-23.6593,62.5015],[34.0299,-23.6496,66.4694],[34.0853,-23.6991,83.5162],[34.7991,-23.7022,105.5355],[34.7911,-23.623,103.6868],[34.8047,-23.5187,119.6038],[34.8205,-23.467,106.0352],[34.8939,-23.2013,116.0284],[34.9523,-23.0562,144.9302],[34.8859,-22.9988,108.7189],[34.8645,-22.9873,110.3079],[34.8661,-22.875,119.3541],[34.7863,-22.8638,110.7693],[34.773,-22.8654,111.5997],[34.6054,-22.867,139.1754],[34.4735,-22.8066,140.7167],[34.4502,-22.8037,134.0116],[34.3875,-22.7463,125.458],[34.3835,-22.7375,128.422],[34.3812,-22.7252,130.0336],[34.3812,-22.699,125.6976],[34.3751,-22.6902,132.1657],[34.3732,-22.6745,134.131],[34.4427,-22.6498,134.4017],[34.5166,-22.5959,161.5235],[34.501,-22.3481,150.2856],[34.3941,-22.3409,174.5159],[34.3687,-22.2109,181.7848],[34.3462,-22.2024,180.2169],[34.336,-22.2003,177.0515],[34.2951,-22.1787,160.652],[34.2314,-22.1535,160.593],[34.1194,-22.228,168.2803],[34.0401,-22.339,148.9854],[33.9976,-22.3636,149.9229],[33.9305,-22.3899,119.8962],[33.9315,-22.3987,118.832],[33.9435,-22.4135,117.548],[33.9118,-22.4104,119.3911],[33.8731,-22.5181,140.7883],[33.9397,-22.5803,108.2606],[33.8966,-22.7843,124.027],[33.8547,-22.791,117.6457],[33.7084,-22.8827,90.7703],[33.6686,-22.9022,77.3936],[33.6483,-22.9042,62.1309],[33.6483,-22.9168,60.4362],[33.6581,-22.9237,63.2501],[33.6612,-22.9354,64.609],[33.6688,-22.9406,58.5149],[33.6762,-22.9489,62.4686],[33.6791,-22.959,58.1154],[33.6838,-22.968,59.5786],[33.6846,-22.9846,60.3111],[33.6913,-23.0016,55.75],[33.6874,-23.0177,55.3987],[33.6979,-23.0259,57.7884],[33.7131,-23.0314,54.2539],[33.7358,-23.0696,51.9836],[33.7386,-23.0813,50.7952],[33.7431,-23.0868,51.3358],[33.7551,-23.0828,55.57],[33.7749,-23.0822,56.8272],[33.7803,-23.1106,50.4762],[33.793,-23.1162,51.5732],[33.8021,-23.1252,49.8155],[33.81,-23.1444,50.7744],[33.8203,-23.1479,48.7926],[33.8294,-23.153199999999998,47.986],[33.8281,-23.1761,49.6613],[33.8441,-23.179,49.0851],[33.8495,-23.1868,51.8621],[33.8459,-23.2341,46.787],[33.8563,-23.2418,48.3854],[33.8678,-23.2562,46.0785],[33.875,-23.2697,46.3316],[33.8712,-23.2813,47.0762],[33.8699,-23.298,45.3163],[33.8791,-23.3221,47.1437],[33.9013,-23.3253,44.1788],[33.9021,-23.3356,43.8621],[33.8416,-23.3582,41.8422],[33.8459,-23.3796,41.2567],[33.8429,-23.3887,41.1654],[33.8634,-23.3979,44.6625],[33.8633,-23.4177,39.9724],[33.8656,-23.4308,44.1271],[33.8709,-23.4371,39.7015],[33.8741,-23.4355,40.5952],[33.8796,-23.4399,40.0044],[33.8852,-23.467,38.3393],[33.8883,-23.4749,37.5499],[33.8953,-23.4842,41.7333],[33.9091,-23.4816,37.0095],[33.927,-23.4911,37.5402],[33.9272,-23.5027,37.7585],[33.9305,-23.5077,37.0643],[33.9403,-23.539,36.5418],[33.9473,-23.5454,35.0764],[33.9452,-23.5564,35.8291],[33.9345,-23.5652,33.8678],[33.9303,-23.5753,35.0692],[33.9355,-23.5806,34.9672]]]]}
,"properties": {"GID_2": "MOZ.3.1_1","GID_0": "MOZ","country": "Mozambique","GID_1": "MOZ.3_1","province": "Inhambane","NL_NAME_1": "NA","county": "Funhalouro","VARNAME_2": "NA","NL_NAME_2": "NA","TYPE_2": "Distrito","ENGTYPE_2": "District","CC_2": "NA","HASC_2": "MZ.IN.FU","name": "Funhalouro.county","area_km2": 13568.26,"hist_schema_id": "Elevation0-9000","hist_area_km2": {"25": 4.04,"50": 441.59,"75": 1955.4,"100": 4018.51,"125": 3922.73,"150": 2230.54,"175": 769.33,"200": 224.48,"225": 1.65}}}