{"type": "Feature","bbox": [30.4193,-16.059,31.233,-15.6146],"geometry": {"type": "MultiPolygon","coordinates": [[[[31.233,-15.7151,321.0],[31.1904,-15.7169,321.0],[31.1433,-15.7252,321.0],[31.0723,-15.7231,321.0],[31.0403,-15.7148,321.0],[31.0121,-15.7029,321.0],[30.9867,-15.6902,321.0],[30.9028,-15.6634,321.0],[30.8559,-15.6498,321.0],[30.827,-15.6449,321.0],[30.8071,-15.6378,321.0],[30.7556,-15.6295,321.0],[30.6991,-15.6146,321.0],[30.6717,-15.6171,321.0],[30.6357,-15.6234,321.0],[30.6094,-15.6341,321.0],[30.5892,-15.6378,325.0764],[30.4673,-15.6321,321.5],[30.4283,-15.6187,329.4147],[30.4193,-15.6186,322.5],[30.4252,-15.6283,350.8321],[30.4258,-15.6843,365.8318],[30.4233,-15.7313,392.6582],[30.4247,-15.7471,416.6532],[30.4239,-15.9029,408.5872],[30.4222,-15.9171,417.8617],[30.4237,-15.9286,414.7381],[30.4246,-16.0,395.529],[30.9225,-16.0,379.0434],[30.9499,-16.0163,367.8208],[30.9549,-16.0282,367.6248],[30.9572,-16.0387,362.1764],[30.9663,-16.0494,355.6686],[30.9821,-16.059,349.0901],[30.9983,-16.0569,344.9347],[31.0203,-16.0446,341.6356],[31.0289,-16.0279,338.2754],[31.0306,-16.0188,338.7131],[31.0536,-16.013,333.0933],[31.0605,-16.0081,331.2249],[31.0643,-16.0,331.7406],[31.07,-16.007,331.8463],[31.0724,-16.0162,328.6518],[31.1032,-16.0,328.2035],[31.1018,-15.9955,325.878],[31.1355,-15.984,328.9185],[31.1341,-15.977,329.2178],[31.1351,-15.9604,328.5266],[31.1239,-15.9545,325.2278],[31.1242,-15.9429,321.0],[31.1279,-15.926,321.0],[31.159,-15.8544,321.0],[31.1684,-15.8379,321.0],[31.1803,-15.8194,321.0],[31.2135,-15.7847,321.0],[31.225,-15.7689,321.0],[31.231,-15.7424,321.0],[31.233,-15.7151,321.0]]]]}
,"properties": {"GID_3": "MOZ.10.7.1_1","GID_0": "MOZ","country": "Mozambique","GID_1": "MOZ.10_1","province": "Tete","NL_NAME_1": "NA","GID_2": "MOZ.10.7_1","county": "Magoe","NL_NAME_2": "NA","city": "Chinhopo(Chinthopo)","VARNAME_3": "NA","NL_NAME_3": "NA","TYPE_3": "Localidad","ENGTYPE_3": "Locality","CC_3": "NA","HASC_3": "NA","name": "Chinhopo(Chinthopo).city","area_km2": 3083.821,"hist_schema_id": "Elevation0-9000","hist_area_km2": {"325": 669.364,"350": 837.523,"375": 729.833,"400": 498.48,"425": 241.534,"450": 83.339,"475": 23.647,"500": 0.102}}}