{"type":"Feature","properties":{"GID_2":"MOZ.2.11_1","GID_0":"MOZ","country":"Mozambique","GID_1":"MOZ.2_1","province":"Gaza","NL_NAME_1":"NA","county":"Xai-Xai","VARNAME_2":"NA","NL_NAME_2":"NA","TYPE_2":"Distrito","ENGTYPE_2":"District","CC_2":"NA","HASC_2":"MZ.GA.XX","name":"Xai-Xai.county"},
"geometry":{"type": "MultiPolygon","coordinates": [[[[33.5018,-25.2124,1.4454],[33.5004,-25.2121,1.0433],[33.5001,-25.2143,0.8726],[33.496,-25.2165,0.5454],[33.5013,-25.2151,0.0],[33.5018,-25.2124,1.4454]]],
[[[33.3338,-25.0734,0.5],[33.328,-25.076,12.0674],[33.3356,-25.1124,29.0213],[33.3385,-25.1434,28.8654],[33.3365,-25.155,30.8747],[33.3184,-25.1868,31.6104],[33.322,-25.1946,29.7008],[33.3279,-25.2166,27.9886],[33.332,-25.2376,34.8179],[33.3546,-25.2721,5.7891],[33.4012,-25.2518,1.5787],[33.4118,-25.2488,0.0],[33.421,-25.2437,4.6605],[33.429,-25.2421,0.0],[33.4426,-25.2346,2.1867],[33.4932,-25.2179,3.5287],[33.4957,-25.2135,5.9984],[33.5015,-25.2093,0.0],[33.5115,-25.2062,0.0],[33.5121,-25.2079,0.0],[33.5163,-25.2074,0.0],[33.5457,-25.1937,6.3],[33.5785,-25.1843,0.8286],[33.5793,-25.1824,2.9378],[33.6046,-25.1762,1.6529],[33.6365,-25.1621,3.1708],[33.6943,-25.1321,9.4483],[33.7074,-25.1282,0.0],[33.7151,-25.124,6.6568],[33.7249,-25.1221,1.3072],[33.7329,-25.1171,6.5089],[33.7618,-25.1101,0.0],[33.7788,-25.1007,30.6089],[33.809,-25.0915,0.0],[33.869,-25.0688,11.6262],[33.9012,-25.0588,1.4161],[33.9096,-25.0576,2.5371],[33.9249,-25.0518,8.8794],[33.9746,-25.0387,0.0],[33.9747,-25.0075,16.8814],[33.9721,-24.9752,40.6941],[33.8744,-24.8913,83.1529],[33.8523,-24.834,77.8836],[33.8343,-24.8227,73.3875],[33.8061,-24.8204,75.9165],[33.7972,-24.8236,76.0413],[33.7891,-24.8242,78.2304],[33.78,-24.8224,70.7558],[33.7696,-24.826,55.5658],[33.7588,-24.8244,62.8267],[33.7562,-24.82,60.5121],[33.7459,-24.8107,69.0197],[33.7325,-24.8087,34.9926],[33.7284,-24.8089,38.3174],[33.7215,-24.8124,24.2787],[33.7146,-24.8103,42.1029],[33.7031,-24.8113,36.7275],[33.6935,-24.8169,24.0578],[33.6804,-24.8207,22.5525],[33.6723,-24.8269,14.479],[33.671,-24.8335,13.5216],[33.6627,-24.8427,33.0872],[33.6378,-24.8619,5.6238],[33.6385,-24.8683,5.1984],[33.636,-24.8723,5.3154],[33.6278,-24.8737,5.4341],[33.6112,-24.871,5.5755],[33.5963,-24.8644,7.5298],[33.5866,-24.8503,3.9682],[33.5837,-24.8193,4.7764],[33.5353,-24.8071,9.3909],[33.5229,-24.8018,5.5986],[33.4858,-24.8229,8.639],[33.4646,-24.8248,10.1816],[33.4543,-24.8424,7.819],[33.4577,-24.8454,7.6092],[33.4592,-24.8522,7.2385],[33.4528,-24.8759,12.7681],[33.4535,-24.8994,16.0173],[33.4589,-24.9125,34.7584],[33.4459,-24.9195,44.8834],[33.4223,-24.9258,48.2694],[33.371,-24.9332,54.74],[33.3642,-24.9399,42.8552],[33.3673,-24.9609,13.0686],[33.3723,-24.9717,13.6299],[33.3715,-24.9892,6.1182],[33.3748,-25.0042,7.175],[33.3741,-25.0125,14.546],[33.3763,-25.025,14.9687],[33.3526,-25.041,0.5],[33.35,-25.0477,0.5],[33.3497,-25.0632,0.5],[33.3484,-25.0655,1.5318],[33.3338,-25.0734,0.5]]]]}}