{"type": "Feature","bbox": [32.2754,-23.6269,33.2471,-22.9644],"geometry": {"type": "MultiPolygon","coordinates": [[[[32.2832,-23.2825,100.0208],[32.2888,-23.2996,89.7411],[32.2966,-23.3155,91.3693],[32.3242,-23.3473,88.4993],[32.3362,-23.354,85.8852],[32.3645,-23.385,86.4303],[32.3875,-23.4164,84.1054],[32.4131,-23.4457,86.3307],[32.4272,-23.4553,82.6645],[32.4388,-23.4601,80.469],[32.4487,-23.4663,86.4254],[32.4556,-23.4806,74.8461],[32.4599,-23.494,83.1253],[32.4661,-23.5247,75.1877],[32.4819,-23.5261,91.3251],[32.4939,-23.5249,99.4742],[32.5198,-23.5069,120.2232],[32.5304,-23.5085,123.7424],[32.5655,-23.4993,124.7057],[32.708,-23.4974,109.9261],[32.7244,-23.5128,108.7373],[32.7547,-23.523,102.8781],[32.7817,-23.5458,99.1873],[32.7891,-23.5571,99.8038],[32.8174,-23.5773,93.8067],[32.853,-23.5853,90.3396],[32.8786,-23.5828,84.6942],[32.9043,-23.5763,81.9086],[32.9197,-23.576,79.12],[32.9481,-23.5802,78.2441],[32.9616,-23.5887,76.6278],[32.9719,-23.6003,76.1178],[33.0161,-23.6269,69.1336],[33.0242,-23.5576,79.3714],[33.101,-23.4317,64.7662],[33.1122,-23.3679,71.5862],[33.1409,-23.3514,67.0141],[33.1853,-23.2395,69.2546],[33.2135,-23.0433,69.7294],[33.2471,-23.0008,68.3825],[33.0194,-22.9644,81.2386],[32.9985,-22.965699999999998,88.186],[32.9053,-22.9816,94.0919],[32.4195,-22.9855,153.2439],[32.3962,-22.9989,158.0238],[32.3343,-23.0897,169.6355],[32.2998,-23.1593,185.3517],[32.2854,-23.1912,168.7046],[32.2835,-23.2164,161.1075],[32.2796,-23.2297,135.0202],[32.2754,-23.2585,107.9009],[32.2812,-23.2616,105.1211],[32.2809,-23.2715,109.8586],[32.2832,-23.2825,100.0208]]]]}
,"properties": {"GID_3": "MOZ.2.7.1_1","GID_0": "MOZ","country": "Mozambique","GID_1": "MOZ.2_1","province": "Gaza","NL_NAME_1": "NA","GID_2": "MOZ.2.7_1","county": "Mabalane","NL_NAME_2": "NA","city": "Combomune","VARNAME_3": "NA","NL_NAME_3": "NA","TYPE_3": "Localidad","ENGTYPE_3": "Locality","CC_3": "NA","HASC_3": "NA","name": "Combomune.city","area_km2": 5128.066,"hist_schema_id": "Elevation0-9000","hist_area_km2": {"75": 1274.467,"100": 1528.774,"125": 1298.966,"150": 785.989,"175": 239.578,"200": 0.253}}}