{"type": "Feature","bbox": [38.4898,-13.9664,38.8391,-13.6088],"geometry": {"type": "MultiPolygon","coordinates": [[[[38.4898,-13.8303,409.9091],[38.509,-13.8301,432.8141],[38.5247,-13.8255,435.3546],[38.5499,-13.8377,424.0588],[38.564,-13.8423,414.3055],[38.5625,-13.8515,403.3706],[38.5625,-13.882,378.7837],[38.5779,-13.8985,377.2931],[38.5961,-13.896,375.1408],[38.5961,-13.9109,370.0939],[38.6176,-13.9109,362.1759],[38.6447,-13.9168,354.0495],[38.6607,-13.9228,350.8279],[38.6637,-13.9408,357.2303],[38.7048,-13.9664,343.2661],[38.711,-13.9649,343.6707],[38.7137,-13.9631,334.9523],[38.7099,-13.9557,341.0856],[38.7191,-13.9497,352.6167],[38.7222,-13.9348,349.3994],[38.7037,-13.9348,357.6767],[38.6847,-13.9255,360.1939],[38.6778,-13.9139,355.2784],[38.676,-13.902,358.4765],[38.7068,-13.8781,395.063],[38.7191,-13.8781,396.5139],[38.7406,-13.8692,401.0099],[38.7406,-13.8573,396.9321],[38.7428,-13.8487,388.0928],[38.7775,-13.8244,424.6482],[38.7775,-13.8125,433.1886],[38.7683,-13.7857,441.5015],[38.7837,-13.7588,418.1473],[38.8066,-13.7394,399.1877],[38.8391,-13.7224,383.0782],[38.8331,-13.7039,388.429],[38.8238,-13.7033,383.2276],[38.8114,-13.7081,389.1857],[38.8057,-13.7081,391.8912],[38.7877,-13.6993,397.1897],[38.7793,-13.6825,400.2312],[38.7457,-13.654,413.0178],[38.7216,-13.6299,421.2629],[38.7067,-13.6198,421.7774],[38.6898,-13.619,428.8539],[38.6798,-13.6166,437.9191],[38.6609,-13.6088,444.7805],[38.6467,-13.6127,446.3557],[38.6401,-13.6121,448.016],[38.6207,-13.6276,462.9186],[38.5992,-13.6336,483.1174],[38.5945,-13.6366,477.968],[38.5835,-13.6357,488.5021],[38.58,-13.6326,495.6357],[38.5742,-13.6336,496.048],[38.5735,-13.6365,496.4817],[38.5477,-13.6499,541.0306],[38.5232,-13.6852,500.2738],[38.5177,-13.6968,489.2757],[38.5235,-13.7449,453.7549],[38.4977,-13.7887,429.9852],[38.4977,-13.8095,421.9922],[38.4898,-13.8303,409.9091]]]]}
,"properties": {"GID_3": "MOZ.1.11.6_1","GID_0": "MOZ","country": "Mozambique","GID_1": "MOZ.1_1","province": "CaboDelgado","NL_NAME_1": "NA","GID_2": "MOZ.1.11_1","county": "Namuno","NL_NAME_2": "NA","city": "Ncumpe","VARNAME_3": "NA","NL_NAME_3": "NA","TYPE_3": "Localidad","ENGTYPE_3": "Locality","CC_3": "NA","HASC_3": "NA","name": "Ncumpe.city","area_km2": 811.8332,"hist_schema_id": "Elevation0-9000","hist_area_km2": {"325": 0.2263,"350": 25.682,"375": 77.1062,"400": 123.5765,"425": 188.3922,"450": 204.022,"475": 128.0204,"500": 48.8016,"525": 12.1542,"550": 1.8333,"575": 0.9062,"600": 0.4326,"625": 0.1854,"650": 0.2678,"675": 0.0618,"700": 0.0824,"725": 0.0618,"750": 0.0206}}}