{"type":"Feature","properties":{"GID_3":"MOZ.9.6.3_1","GID_0":"MOZ","country":"Mozambique","GID_1":"MOZ.9_1","province":"Sofala","NL_NAME_1":"NA","GID_2":"MOZ.9.6_1","county":"Dondo","NL_NAME_2":"NA","city":"Mafambisse","VARNAME_3":"NA","NL_NAME_3":"NA","TYPE_3":"Localidad","ENGTYPE_3":"Locality","CC_3":"NA","HASC_3":"NA","name":"Mafambisse.city"},
"geometry":{"type": "MultiPolygon","coordinates": [[[[34.6543,-19.6526,5.4849],[34.6552,-19.6502,5.1084],[34.662,-19.6523,3.9501],[34.6621,-19.6453,4.3951],[34.6568,-19.6253,5.0689],[34.6578,-19.6159,5.7187],[34.6643,-19.6012,6.7609],[34.6776,-19.5805,23.1215],[34.6842,-19.5574,36.4019],[34.6908,-19.5477,47.4047],[34.7038,-19.5378,59.3902],[34.7055,-19.5283,67.2937],[34.7032,-19.5163,70.5405],[34.719,-19.4996,71.9705],[34.7179,-19.4675,87.4629],[34.7054,-19.4138,97.9787],[34.7073,-19.3914,107.2524],[34.7059,-19.3686,103.5117],[34.7022,-19.3529,116.4132],[34.6898,-19.3263,119.5339],[34.6908,-19.2933,125.8081],[34.6859,-19.2801,131.1324],[34.6702,-19.2546,118.1477],[34.6453,-19.2377,93.5822],[34.6048,-19.1852,38.8034],[34.5953,-19.1819,34.0546],[34.5865,-19.1754,32.5043],[34.5772,-19.1745,29.133],[34.5729,-19.1701,27.5658],[34.5676,-19.1718,25.6491],[34.5623,-19.1714,25.4145],[34.5563,-19.1681,24.4206],[34.5514,-19.1675,20.7043],[34.5342,-19.17,16.4874],[34.5343,-19.176,14.4863],[34.5233,-19.1879,15.8588],[34.5163,-19.2004,14.4196],[34.522,-19.2067,16.4479],[34.5262,-19.2154,13.5172],[34.5286,-19.2336,14.82],[34.5266,-19.2392,14.3149],[34.5278,-19.2428,15.0927],[34.55,-19.2461,12.6744],[34.5529,-19.2509,14.8269],[34.5432,-19.2625,12.9168],[34.5577,-19.2787,11.4856],[34.5502,-19.2755,10.6603],[34.5492,-19.2814,9.9909],[34.5593,-19.3029,10.5169],[34.5536,-19.309,10.0631],[34.5503,-19.3164,9.4264],[34.55,-19.3251,9.1674],[34.5582,-19.3253,8.956],[34.5547,-19.3302,8.3311],[34.5574,-19.3583,7.792],[34.5546,-19.3765,6.1832],[34.5542,-19.4038,5.3215],[34.5459,-19.3997,6.613],[34.534,-19.4088,4.5112],[34.5305,-19.4131,5.4742],[34.5279,-19.4219,4.4835],[34.5296,-19.4242,3.9779],[34.5359,-19.423,4.5927],[34.5356,-19.4323,4.3125],[34.5255,-19.4337,6.0762],[34.5228,-19.4388,5.3699],[34.5305,-19.4431,3.8711],[34.5394,-19.4433,4.456],[34.54,-19.4475,4.2707],[34.5225,-19.4534,3.9656],[34.526,-19.4605,3.8127],[34.5313,-19.4605,4.1183],[34.5447,-19.453,3.5363],[34.5424,-19.459,5.412],[34.5322,-19.4661,3.5472],[34.5279,-19.4717,5.44],[34.5272,-19.4798,5.6636],[34.5234,-19.4857,3.631],[34.5295,-19.494,4.2746],[34.5361,-19.4997,2.8842],[34.5388,-19.5067,2.8173],[34.5365,-19.5105,4.2353],[34.5243,-19.5035,4.4476],[34.5234,-19.507,4.5497],[34.537,-19.5245,3.5677],[34.5466,-19.5149,3.7901],[34.5532,-19.5166,4.58],[34.5547,-19.528,2.1708],[34.5451,-19.5358,2.8119],[34.5388,-19.5444,4.123],[34.5375,-19.5539,3.8882],[34.527,-19.5556,4.9937],[34.5216,-19.5619,5.2158],[34.5244,-19.5985,0.5],[34.5341,-19.6137,1.6321],[34.5883,-19.6594,4.358],[34.6385,-19.6599,0.5],[34.6505,-19.6504,5.9038],[34.6543,-19.6526,5.4849]]]]}}