{"type": "Feature","bbox": [39.969,-11.1477,40.2834,-10.6819],"geometry": {"type": "MultiPolygon","coordinates": [[[[40.2834,-11.1454,83.4208],[40.2785,-11.1445,87.7455],[40.2754,-11.1325,92.9475],[40.2754,-11.1206,47.1109],[40.2663,-11.1057,72.4019],[40.2511,-11.0938,78.5548],[40.2329,-11.0699,86.1762],[40.2268,-11.058,112.1811],[40.2067,-11.0456,115.5709],[40.1933,-11.0222,122.4968],[40.1933,-11.0103,118.0776],[40.1919,-11.0059,94.6859],[40.1599,-10.9745,107.2102],[40.1538,-10.9536,123.1269],[40.1416,-10.9387,127.8394],[40.1356,-10.9178,125.897],[40.1356,-10.8939,136.9641],[40.1386,-10.879,139.5774],[40.1293,-10.8527,137.0125],[40.1174,-10.7895,141.3871],[40.1325,-10.7836,137.7019],[40.1638,-10.7558,134.225],[40.1702,-10.7387,134.6309],[40.1933,-10.7329,74.8775],[40.2036,-10.7329,118.9275],[40.2105,-10.7244,89.3449],[40.2085,-10.715,47.4995],[40.1903,-10.7031,56.3092],[40.1824,-10.6854,14.7252],[40.1501,-10.6819,13.0],[40.1353,-10.698,13.5],[40.1205,-10.7081,14.5],[40.0994,-10.7285,16.1853],[40.0847,-10.7365,16.5],[40.0629,-10.7553,17.5],[40.0299,-10.7892,21.1953],[39.9917,-10.816,23.5899],[39.9849,-10.8173,24.7635],[39.9891,-10.8273,25.5416],[39.9837,-10.8319,26.3877],[39.9806,-10.837,25.8994],[39.9865,-10.8521,113.2292],[39.9851,-10.8566,107.3147],[39.9767,-10.868,148.2438],[39.969,-10.9301,154.9079],[39.993899999999996,-10.9588,134.4259],[39.9827,-10.9713,147.3349],[39.9979,-10.9907,145.6309],[40.0835,-11.0667,113.7579],[40.0868,-11.0577,112.8546],[40.0948,-11.0588,108.7747],[40.1049,-11.0503,97.2776],[40.1123,-11.0502,113.7702],[40.1229,-11.0544,114.6875],[40.1346,-11.0562,106.1811],[40.1539,-11.0574,107.1106],[40.1812,-11.0938,100.529],[40.2146,-11.1206,89.1539],[40.2268,-11.1325,76.1729],[40.2359,-11.1385,91.8752],[40.2393,-11.1443,75.7795],[40.2572,-11.1474,54.1558],[40.2715,-11.1477,87.0595],[40.2834,-11.1454,83.4208]]]]}
,"properties": {"GID_3": "MOZ.1.13.3_1","GID_0": "MOZ","country": "Mozambique","GID_1": "MOZ.1_1","province": "CaboDelgado","NL_NAME_1": "NA","GID_2": "MOZ.1.13_1","county": "Palma","NL_NAME_2": "NA","city": "Pundanhar","VARNAME_3": "NA","NL_NAME_3": "NA","TYPE_3": "Localidad","ENGTYPE_3": "Locality","CC_3": "NA","HASC_3": "NA","name": "Pundanhar.city","area_km2": 683.7857,"hist_schema_id": "Elevation0-9000","hist_area_km2": {"25": 87.5909,"50": 11.7877,"75": 30.2863,"100": 117.3318,"125": 313.4256,"150": 122.0935,"175": 1.27}}}