{"type": "Feature","bbox": [36.3498,-12.7532,36.9475,-11.5782],"geometry": {"type": "MultiPolygon","coordinates": [[[[36.9147,-12.7135,425.2086],[36.92,-12.7161,419.5813],[36.9266,-12.7167,414.295],[36.9358,-12.7078,383.0],[36.9475,-12.671,404.9426],[36.9468,-12.6667,408.894],[36.9342,-12.6521,418.1237],[36.9275,-12.6412,425.3185],[36.9,-12.5829,476.0198],[36.8476,-12.4945,534.3959],[36.8263,-12.4708,630.0685],[36.7638,-12.4098,633.8989],[36.6781,-12.329,611.7894],[36.6512,-12.3013,688.8409],[36.6346,-12.2816,663.0456],[36.6236,-12.275,638.5883],[36.5981,-12.2553,782.882],[36.5895,-12.2344,684.7911],[36.5945,-12.2168,650.9635],[36.6048,-12.2113,642.1803],[36.6147,-12.2025,629.0954],[36.6285,-12.1852,609.7468],[36.6516,-12.1643,576.8805],[36.6565,-12.1507,571.3022],[36.667,-12.1329,554.7241],[36.6842,-12.1101,545.5066],[36.6917,-12.0961,544.2798],[36.6951,-12.0834,528.1516],[36.728,-12.0587,525.8587],[36.7312,-12.0474,508.5187],[36.7221,-12.0257,490.8627],[36.722,-12.0126,491.7733],[36.7269,-11.9997,489.0054],[36.7396,-11.9912,479.4591],[36.7423,-11.9855,476.2856],[36.7492,-11.9777,485.2642],[36.7577,-11.9722,478.4102],[36.7681,-11.9541,484.9071],[36.7885,-11.9269,457.4432],[36.7924,-11.9021,466.2702],[36.7971,-11.8925,458.9992],[36.8142,-11.881,451.9885],[36.8212,-11.8559,438.7108],[36.8292,-11.8376,434.4108],[36.8444,-11.7946,427.683],[36.8387,-11.7738,424.9955],[36.8418,-11.7639,417.7311],[36.8412,-11.7498,416.9633],[36.8434,-11.7388,412.1011],[36.8524,-11.7298,417.8762],[36.88,-11.6957,409.8327],[36.8835,-11.68,402.161],[36.8994,-11.6383,389.5804],[36.9037,-11.6327,385.0139],[36.9177,-11.6256,386.6462],[36.9242,-11.6159,378.7397],[36.9238,-11.6039,374.2817],[36.8887,-11.6061,409.7669],[36.8817,-11.6041,410.6389],[36.8657,-11.5925,392.5342],[36.8606,-11.5922,405.5817],[36.8578,-11.5904,398.0852],[36.8414,-11.5903,417.8376],[36.8384,-11.5885,412.3849],[36.836,-11.5834,405.9965],[36.8266,-11.5782,413.2403],[36.8213,-11.5796,437.9615],[36.8108,-11.587,436.1902],[36.7761,-11.6323,412.8916],[36.7691,-11.6353,418.8938],[36.7624,-11.6413,425.7126],[36.7557,-11.6561,421.8364],[36.7283,-11.6859,441.1679],[36.7195,-11.6929,454.3858],[36.6993,-11.7015,431.2157],[36.6899,-11.7025,416.5],[36.6846,-11.7094,428.5327],[36.6727,-11.7184,432.8271],[36.6634,-11.7229,427.307],[36.651,-11.7257,425.9169],[36.6361,-11.726,441.5338],[36.6036,-11.7227,453.7838],[36.5824,-11.7313,490.3604],[36.5603,-11.7457,482.4491],[36.5496,-11.7455,471.1],[36.5359,-11.729,490.8216],[36.5267,-11.7277,496.842],[36.4719,-11.7711,506.9976],[36.4596,-11.789,514.887],[36.4596,-11.8099,511.2683],[36.4383,-11.8129,503.9025],[36.4139,-11.8248,489.3649],[36.4139,-11.8487,517.6661],[36.42,-11.8695,540.7559],[36.3895,-11.8994,497.5004],[36.3742,-11.9292,507.0508],[36.3651,-11.9531,508.0933],[36.3681,-11.9769,527.8256],[36.3773,-12.0097,539.5156],[36.3834,-12.0485,572.002],[36.3727,-12.0786,537.0188],[36.3712,-12.0903,537.1839],[36.362,-12.1201,548.7264],[36.362,-12.1678,558.8092],[36.3681,-12.1887,563.0409],[36.3712,-12.2185,569.7332],[36.3498,-12.2603,582.6035],[36.3498,-12.2722,586.4396],[36.3767,-12.3089,613.6421],[36.4017,-12.3348,632.9298],[36.3773,-12.3796,619.1917],[36.3925,-12.3945,619.7578],[36.4036,-12.4094,638.4706],[36.4078,-12.4243,652.2174],[36.4028,-12.4485,657.4464],[36.3773,-12.4869,708.3275],[36.3773,-12.5794,740.7036],[36.3591,-12.6559,637.1306],[36.3858,-12.6549,647.1969],[36.4025,-12.6567,586.8071],[36.4036,-12.6756,694.3126],[36.4094,-12.6838,618.6777],[36.4122,-12.6918,558.9696],[36.4103,-12.7132,563.3419],[36.4157,-12.7197,566.5607],[36.4205,-12.7288,558.12],[36.445,-12.7431,546.4597],[36.4475,-12.7532,536.6828],[36.4757,-12.7421,540.7334],[36.4847,-12.7431,539.8281],[36.4923,-12.7472,534.8484],[36.4995,-12.7433,532.5126],[36.5162,-12.7449,525.2673],[36.5373,-12.7393,517.4365],[36.5367,-12.733,539.4927],[36.5443,-12.7284,506.1597],[36.5602,-12.7046,518.7927],[36.5683,-12.6971,520.9163],[36.576,-12.6927,514.6797],[36.5847,-12.6906,511.8495],[36.6044,-12.6916,508.7302],[36.6219,-12.689,509.2756],[36.6283,-12.682,503.7159],[36.6575,-12.6642,483.4875],[36.6598,-12.672,472.5223],[36.6726,-12.6753,476.7992],[36.6851,-12.6759,473.0617],[36.6899,-12.6821,469.7179],[36.7026,-12.688,484.9192],[36.7144,-12.6839,478.3654],[36.7427,-12.6874,468.1908],[36.7574,-12.6976,457.4852],[36.7655,-12.7099,440.3153],[36.7791,-12.71,457.2672],[36.7924,-12.6975,449.5015],[36.7976,-12.6874,457.6682],[36.8082,-12.701,441.7755],[36.8134,-12.7113,443.5505],[36.8227,-12.7014,448.9027],[36.8397,-12.7069,439.6294],[36.8452,-12.6926,471.8335],[36.8543,-12.6974,451.815],[36.8624,-12.7061,448.9812],[36.8746,-12.7093,438.8465],[36.8912,-12.708,429.3291],[36.9025,-12.7001,428.7402],[36.9102,-12.7022,443.1024],[36.9147,-12.7135,425.2086]]]]}
,"properties": {"GID_3": "MOZ.8.8.1_1","GID_0": "MOZ","country": "Mozambique","GID_1": "MOZ.8_1","province": "Nassa","NL_NAME_1": "NA","GID_2": "MOZ.8.8_1","county": "Mavago","NL_NAME_2": "NA","city": "M'Sawize","VARNAME_3": "NA","NL_NAME_3": "NA","TYPE_3": "Localidad","ENGTYPE_3": "Locality","CC_3": "NA","HASC_3": "NA","name": "M'Sawize.city","area_km2": 4764.601,"hist_schema_id": "Elevation0-9000","hist_area_km2": {"375": 5.253,"400": 30.153,"425": 113.695,"450": 257.35,"475": 406.866,"500": 486.304,"525": 549.432,"550": 539.25,"575": 465.117,"600": 319.294,"625": 266.545,"650": 265.567,"675": 258.24,"700": 198.418,"725": 118.752,"750": 79.448,"775": 70.884,"800": 55.208,"825": 41.293,"850": 34.709,"875": 28.165,"900": 25.39,"925": 22.056,"950": 19.136,"975": 16.692,"1000": 13.13,"1025": 12.55,"1050": 11.494,"1075": 10.334,"1100": 10.499,"1125": 9.629,"1150": 8.676,"1175": 5.839,"1200": 3.23,"1225": 2.174,"1250": 1.718,"1275": 1.242,"1300": 0.766,"1325": 0.104}}}