{"type":"Feature","properties":{"GID_3":"MOZ.9.10.2_1","GID_0":"MOZ","country":"Mozambique","GID_1":"MOZ.9_1","province":"Sofala","NL_NAME_1":"NA","GID_2":"MOZ.9.10_1","county":"Marromeu","NL_NAME_2":"NA","city":"Marromeu","VARNAME_3":"NA","NL_NAME_3":"NA","TYPE_3":"Localidad","ENGTYPE_3":"Locality","CC_3":"NA","HASC_3":"NA","name":"Marromeu.city"},
"geometry":{"type": "MultiPolygon","coordinates": [[[[35.9835,-18.9212,0.0],[35.9835,-18.9207,0.0],[35.9813,-18.921,0.0],[35.9846,-18.9218,0.0],[35.9835,-18.9212,0.0]]],
[[[36.0024,-18.9104,1.4721],[35.9949,-18.9101,0.523],[35.9918,-18.9118,1.2592],[35.9957,-18.9115,4.64],[35.9963,-18.9157,1.686],[35.999,-18.9162,3.9704],[36.0038,-18.9126,0.0],[36.0024,-18.9104,1.4721]]],
[[[35.8762,-18.953,7.7472],[35.8816,-18.9582,12.8452],[35.8843,-18.9579,1.6791],[35.8882,-18.9532,0.5],[35.8932,-18.9524,2.3736],[35.8979,-18.9543,1.6426],[35.9024,-18.9538,0.5],[35.9035,-18.9557,0.5],[35.9063,-18.956,0.5],[35.9129,-18.9532,0.0],[35.9199,-18.9529,4.4392],[35.926,-18.956,2.254],[35.9254,-18.9571,0.721],[35.9324,-18.9624,2.8513],[35.949,-18.9562,0.7473],[35.9549,-18.9518,0.0],[35.9579,-18.9449,0.0],[35.9576,-18.9387,0.0],[35.951,-18.9329,1.8738],[35.951,-18.9238,0.0],[35.9549,-18.9149,0.0],[35.9615,-18.9101,3.2128],[35.9676,-18.909,0.9672],[35.9699,-18.9068,2.4932],[35.9874,-18.9029,4.3445],[35.9912,-18.9049,0.0],[36.0043,-18.9054,2.7456],[36.0076,-18.9154,2.2503],[35.9982,-18.9196,4.6868],[35.9918,-18.9271,4.5056],[35.9843,-18.9307,0.0],[35.9863,-18.9343,3.1388],[35.9907,-18.9365,0.5294],[36.0113,-18.9349,0.0],[36.0404,-18.9265,0.0],[36.0426,-18.924,0.0],[36.0426,-18.9218,0.0],[36.0399,-18.9201,0.0],[36.039,-18.9174,0.0],[36.0407,-18.9115,0.0],[36.0429,-18.9099,0.0],[36.0557,-18.9082,0.0],[36.0646,-18.9018,4.2633],[36.0687,-18.9007,1.6224],[36.0774,-18.8937,4.3136],[36.0804,-18.8946,2.345],[36.0765,-18.8987,4.4605],[36.0685,-18.903199999999998,2.3833],[36.0685,-18.9049,0.0],[36.0774,-18.9085,2.0326],[36.0829,-18.9088,2.1475],[36.0926,-18.8999,11.7075],[36.0924,-18.9029,9.2029],[36.081,-18.9132,2.2919],[36.0768,-18.9104,0.3651],[36.0668,-18.911,2.4701],[36.0649,-18.9146,2.1952],[36.0574,-18.9185,1.8603],[36.0585,-18.9204,2.2079],[36.0612,-18.9221,2.7253],[36.0682,-18.9224,1.487],[36.0896,-18.9174,3.5571],[36.1099,-18.9165,0.0],[36.1179,-18.9107,0.0],[36.1215,-18.8935,0.0],[36.1196,-18.8943,0.6298],[36.1188,-18.8987,0.0],[36.1171,-18.8993,0.8389],[36.1174,-18.8932,1.5811],[36.1237,-18.8893,0.0],[36.1226,-18.8874,3.7695],[36.1296,-18.8826,0.0],[36.1304,-18.879,0.0],[36.1288,-18.8743,2.0972],[36.1312,-18.8685,0.0],[36.1396,-18.8679,9.6528],[36.1401,-18.8715,0.0],[36.1454,-18.8765,2.43],[36.1529,-18.8893,0.0],[36.1585,-18.891,3.6809],[36.1954,-18.8796,1.1789],[36.2051,-18.8738,0.5],[36.2115,-18.8668,1.6594],[36.224,-18.861,3.3116],[36.2215,-18.8637,4.5393],[36.2146,-18.8665,2.0529],[36.2049,-18.876,0.5],[36.1943,-18.8815,3.7991],[36.1632,-18.8926,0.0],[36.1501,-18.8943,0.0],[36.1465,-18.8979,0.0],[36.1479,-18.9007,0.0],[36.1585,-18.9018,0.0],[36.2251,-18.8899,0.0],[36.2485,-18.8879,0.0],[36.2649,-18.8843,1.8065],[36.2707,-18.8851,0.0],[36.2785,-18.8829,5.8031],[36.2826,-18.8796,3.416],[36.2874,-18.8804,0.0],[36.2863,-18.8779,7.2246],[36.2824,-18.8776,7.3611],[36.2776,-18.8749,9.7153],[36.2818,-18.8749,6.9667],[36.2829,-18.871,5.2111],[36.2849,-18.8732,6.3667],[36.2871,-18.8726,4.123],[36.2874,-18.8704,3.205],[36.289,-18.8704,3.205],[36.2885,-18.8693,1.8715],[36.2935,-18.864,0.0],[36.2943,-18.8599,0.0],[36.2935,-18.8568,0.0],[36.2912,-18.8574,14.0902],[36.2849,-18.8549,10.5334],[36.2757,-18.8557,0.0],[36.271,-18.8582,9.3063],[36.2654,-18.8571,8.4432],[36.2629,-18.8482,1.0],[36.2557,-18.8454,5.931],[36.251,-18.8371,7.0564],[36.2476,-18.8346,12.0715],[36.2476,-18.8326,4.6708],[36.2518,-18.8371,7.0564],[36.2568,-18.8451,1.0],[36.2635,-18.8465,4.4217],[36.2676,-18.8551,1.4477],[36.2743,-18.8551,0.25],[36.281,-18.8526,6.5682],[36.2813,-18.8507,3.5215],[36.2618,-18.8249,5.1426],[36.2557,-18.8118,2.8303],[36.1491,-18.7202,4.2356],[36.1478,-18.7139,1.9317],[36.1073,-18.6795,2.8327],[36.1074,-18.6656,3.3634],[36.1117,-18.6521,4.7125],[36.1036,-18.6231,2.054],[36.1272,-18.6086,4.4732],[36.1331,-18.5915,3.5373],[36.1458,-18.5928,6.7603],[36.1392,-18.5814,6.0705],[36.1393,-18.566,4.5665],[36.1425,-18.5458,5.4945],[36.1406,-18.5288,4.3327],[36.1279,-18.4834,2.0],[36.1187,-18.4643,3.4339],[36.0813,-18.3684,4.8013],[36.0743,-18.355,5.6266],[36.0585,-18.3423,6.5395],[36.0326,-18.3394,5.0],[36.0259,-18.3336,7.3763],[36.0259,-18.3248,7.1641],[36.0138,-18.3054,7.6863],[35.9976,-18.3068,5.5],[35.9853,-18.3001,5.5],[35.9698,-18.2907,5.5],[35.9494,-18.269,6.0],[35.933,-18.2658,9.3079],[35.909,-18.2658,6.5],[35.903,-18.2616,10.4733],[35.8928,-18.2469,7.5],[35.8873,-18.2254,8.0],[35.8611,-18.174,12.5368],[35.8414,-18.151,11.0],[35.8374,-18.1225,11.0],[35.8275,-18.1102,11.8881],[35.8163,-18.1041,11.5],[35.7941,-18.0977,15.4904],[35.7811,-18.0914,14.8738],[35.7553,-18.0748,13.0],[35.7479,-18.1056,16.8141],[35.7411,-18.1229,16.2638],[35.7316,-18.1652,20.6492],[35.7333,-18.21,21.2039],[35.7316,-18.2304,12.1717],[35.7176,-18.2444,23.4666],[35.6942,-18.2788,31.2854],[35.6832,-18.2858,40.7874],[35.6733,-18.2957,34.5502],[35.6223,-18.3527,52.4726],[35.6128,-18.3612,59.3693],[35.5998,-18.3783,59.3026],[35.5954,-18.3933,62.7364],[35.5739,-18.4117,71.0465],[35.5552,-18.4147,72.498],[35.5413,-18.4117,76.3778],[35.5226,-18.4042,91.2749],[35.4679,-18.3902,96.5313],[35.4495,-18.3867,125.7525],[35.432,-18.3884,133.4444],[35.4136,-18.3829,138.7494],[35.4483,-18.4899,84.7856],[35.8857,-18.9263,9.3343],[35.8885,-18.9435,1.3936],[35.8838,-18.9488,9.1302],[35.8745,-18.9487,10.4969],[35.8671,-18.9524,8.6994],[35.8666,-18.9541,11.8438],[35.8677,-18.9536,12.1639],[35.869,-18.958,10.2103],[35.8762,-18.953,7.7472]]]]}}