{"type": "Feature","bbox": [33.8098,-17.3848,34.5349,-16.5735],"geometry": {"type": "MultiPolygon","coordinates": [[[[33.8181,-17.3162,504.465],[33.819,-17.3261,486.3304],[33.8363,-17.3444,474.3729],[33.8439,-17.3468,462.6071],[33.8492,-17.3526,457.2274],[33.8819,-17.3677,451.1251],[33.8903,-17.3671,433.7592],[33.9056,-17.3797,417.2051],[33.9914,-17.3676,391.8221],[34.0107,-17.3755,345.8232],[34.0137,-17.3754,378.2197],[34.028,-17.3684,342.0552],[34.0323,-17.3642,332.6768],[34.0436,-17.3593,314.8065],[34.1878,-17.3848,430.98],[34.2076,-17.2905,275.1368],[34.2255,-17.2754,240.5273],[34.2292,-17.2688,233.2339],[34.2304,-17.2609,226.7504],[34.2247,-17.2432,219.3344],[34.2068,-17.239,229.7724],[34.1748,-17.2225,262.2729],[34.2632,-17.0604,330.7361],[34.3042,-17.0316,306.2115],[34.4496,-16.999,209.2107],[34.4662,-16.9931,223.1731],[34.5349,-16.8664,103.9698],[34.5074,-16.8639,96.005],[34.5074,-16.8528,87.8498],[34.5142,-16.837,76.9176],[34.5308,-16.8188,78.6416],[34.534,-16.8084,78.4889],[34.5335,-16.783,78.1742],[34.4798,-16.7612,79.6275],[34.4724,-16.7476,80.5629],[34.4606,-16.736,81.206],[34.4182,-16.7201,83.0206],[34.4028,-16.7168,84.2652],[34.3582,-16.7162,86.3994],[34.3239,-16.7131,87.8333],[34.3072,-16.7083,86.5],[34.2879,-16.6986,89.0139],[34.2674,-16.6938,89.9218],[34.2094,-16.694,95.854],[34.1983,-16.6917,93.8629],[34.172,-16.6801,95.8824],[34.1491,-16.6546,93.0],[34.1334,-16.6273,94.5],[34.1237,-16.6207,95.0],[34.0832,-16.6117,188.1056],[34.0681,-16.6048,97.0],[34.0362,-16.6144,104.7133],[34.0182,-16.6154,113.9414],[34.0082,-16.6138,104.969],[33.9982,-16.6064,100.0],[33.9954,-16.6014,100.0],[33.9959,-16.5784,100.0],[33.9897,-16.5735,100.0],[33.9675,-16.5746,100.0],[33.9411,-16.5863,114.0176],[33.9312,-16.5948,120.4382],[33.9107,-16.6071,134.0544],[33.8986,-16.6174,146.9839],[33.8777,-16.658,176.7202],[33.8502,-16.6818,210.5486],[33.8269,-16.7129,227.8972],[33.8252,-16.7246,243.7697],[33.8186,-16.7369,245.8774],[33.8204,-16.7432,249.6163],[33.8134,-16.7513,265.2438],[33.8098,-16.7612,264.8323],[33.8166,-16.7756,292.0992],[33.8162,-16.7868,296.2276],[33.813,-16.7975,308.9102],[33.8268,-16.8226,340.0582],[33.8217,-16.8421,375.0945],[33.8253,-16.8518,386.0666],[33.8456,-16.871,421.8568],[33.8282,-16.9898,379.4914],[33.8231,-16.99,380.0273],[33.8246,-16.9941,368.9143],[33.8325,-17.0004,343.7341],[33.8354,-17.0111,339.4478],[33.8476,-17.0361,320.6474],[33.8457,-17.0407,340.5717],[33.8377,-17.0429,367.8651],[33.8392,-17.0574,360.0515],[33.8444,-17.0589,372.2493],[33.8492,-17.064,362.6475],[33.8572,-17.0929,406.1628],[33.8573,-17.1029,416.6361],[33.8646,-17.1107,421.9718],[33.8637,-17.1188,424.3929],[33.8718,-17.1327,442.5492],[33.8776,-17.155,467.0492],[33.8826,-17.1923,490.8743],[33.876,-17.2176,473.5062],[33.8688,-17.2372,475.8011],[33.8659,-17.2421,463.1102],[33.8399,-17.2695,590.3547],[33.824,-17.2994,529.4025],[33.8181,-17.3162,504.465]]]]}
,"properties": {"GID_2": "MOZ.4.9_1","GID_0": "MOZ","country": "Mozambique","GID_1": "MOZ.4_1","province": "Manica","NL_NAME_1": "NA","county": "Tambara","VARNAME_2": "NA","NL_NAME_2": "NA","TYPE_2": "Distrito","ENGTYPE_2": "District","CC_2": "NA","HASC_2": "MZ.MN.TA","name": "Tambara.county","area_km2": 4335.182,"hist_schema_id": "Elevation0-9000","hist_area_km2": {"75": 181.425,"100": 186.63,"125": 187.397,"150": 221.191,"175": 204.034,"200": 232.54,"225": 253.703,"250": 324.038,"275": 390.48,"300": 338.303,"325": 338.667,"350": 325.729,"375": 295.964,"400": 264.658,"425": 232.45,"450": 163.524,"475": 121.648,"500": 51.364,"525": 16.62,"550": 3.199,"575": 1.174,"600": 0.385,"625": 0.061}}}