{"type":"Feature","properties":{"GID_3":"MOZ.3.6.2_1","GID_0":"MOZ","country":"Mozambique","GID_1":"MOZ.3_1","province":"Inhambane","NL_NAME_1":"NA","GID_2":"MOZ.3.6_1","county":"Jangamo","NL_NAME_2":"NA","city":"Inhambane(Cidade)","VARNAME_3":"NA","NL_NAME_3":"NA","TYPE_3":"Localidad","ENGTYPE_3":"Locality","CC_3":"NA","HASC_3":"NA","name":"Inhambane(Cidade).city"},
"geometry":{"type": "MultiPolygon","coordinates": [[[[35.5134,-23.9393,24.9289],[35.5254,-23.9329,10.2281],[35.5268,-23.9293,10.9359],[35.5304,-23.9265,0.0],[35.5257,-23.924,15.5826],[35.5265,-23.9165,5.1648],[35.5337,-23.9015,2.1882],[35.551,-23.8779,0.0],[35.5513,-23.8735,0.0],[35.5551,-23.8688,0.0],[35.5549,-23.866,0.0],[35.5524,-23.8654,8.6735],[35.551,-23.8632,0.9042],[35.5524,-23.8574,1.69],[35.5515,-23.8535,0.8374],[35.5485,-23.8546,16.7149],[35.5429,-23.8501,0.0],[35.5376,-23.8396,8.9813],[35.5357,-23.8249,6.1207],[35.5371,-23.8221,0.0],[35.5374,-23.8035,11.5268],[35.5396,-23.7974,6.8909],[35.5388,-23.7929,0.0],[35.5193,-23.794,5.6922],[35.5143,-23.791,0.0],[35.5115,-23.7912,5.7921],[35.5046,-23.786,0.6893],[35.4932,-23.7843,2.0905],[35.4918,-23.7901,0.2463],[35.499,-23.7904,0.5307],[35.5035,-23.7954,0.4302],[35.501,-23.7968,0.9104],[35.4982,-23.7938,0.1465],[35.4901,-23.7951,0.2393],[35.4904,-23.7965,0.0],[35.4929,-23.7954,0.3557],[35.4946,-23.7968,0.28],[35.4846,-23.8079,0.0],[35.4876,-23.8207,0.0],[35.4921,-23.8229,1.3044],[35.4929,-23.8251,1.0465],[35.4926,-23.8296,1.0978],[35.4907,-23.8304,0.0],[35.4899,-23.8354,0.3498],[35.4935,-23.8418,0.5845],[35.4932,-23.8465,0.631],[35.4885,-23.8493,0.0],[35.4738,-23.8493,0.0],[35.4676,-23.8546,0.0],[35.4665,-23.8585,0.5278],[35.4682,-23.8604,0.0],[35.471,-23.8599,0.9594],[35.4735,-23.8718,0.1534],[35.4757,-23.8754,0.0],[35.4743,-23.8801,0.2957],[35.4696,-23.8826,0.0],[35.4604,-23.8807,0.2233],[35.4582,-23.879,0.0],[35.4585,-23.8751,0.1487],[35.4493,-23.8729,0.556],[35.4501,-23.8668,0.0],[35.4476,-23.8582,0.5334],[35.4463,-23.8576,0.0],[35.4468,-23.8532,0.1313],[35.4432,-23.8543,0.6979],[35.4426,-23.851,0.2204],[35.4385,-23.846,0.0],[35.4354,-23.8471,0.2484],[35.4332,-23.8451,0.0925],[35.4332,-23.8499,0.3769],[35.4354,-23.8501,0.7169],[35.4382,-23.8565,0.6119],[35.4371,-23.8593,0.4232],[35.4396,-23.8618,0.5895],[35.4429,-23.861,0.7078],[35.4435,-23.8629,0.3973],[35.446,-23.8618,1.0508],[35.4457,-23.8654,1.1379],[35.4399,-23.8674,0.1351],[35.4351,-23.866,5.1161],[35.4185,-23.8499,0.7538],[35.4135,-23.8479,0.0],[35.4104,-23.841,0.0],[35.4096,-23.8429,0.6685],[35.4068,-23.8429,0.0],[35.4018,-23.8365,0.9856],[35.3913,-23.8354,0.3155],[35.3899,-23.8399,3.3383],[35.3843,-23.841,0.2276],[35.3835,-23.8435,0.0],[35.3874,-23.8535,0.0],[35.391,-23.8554,0.0],[35.3924,-23.8551,0.2535],[35.3929,-23.8515,0.0829],[35.3946,-23.8524,3.4682],[35.394,-23.8651,0.0],[35.3982,-23.8635,3.0493],[35.399,-23.8646,0.3155],[35.3935,-23.8676,0.1142],[35.3904,-23.866,0.8719],[35.3896,-23.8618,1.576],[35.3779,-23.8618,1.4948],[35.3812,-23.8724,0.3494],[35.3801,-23.8812,1.564],[35.3926,-23.9004,7.3277],[35.394,-23.9071,0.0],[35.3932,-23.916,3.6014],[35.3901,-23.9201,1.1799],[35.3882,-23.9201,0.6362],[35.3868,-23.9276,1.3206],[35.3843,-23.931,6.3911],[35.3804,-23.9335,2.8753],[35.3699,-23.9357,0.0],[35.3757,-23.9465,0.8786],[35.4158,-23.9743,31.9763],[35.4328,-23.9751,35.1478],[35.4472,-23.9613,20.4723],[35.4946,-23.9395,38.0485],[35.5134,-23.9393,24.9289]]],
[[[35.4546,-23.8682,0.0],[35.4546,-23.8662,0.0],[35.4512,-23.8674,0.0],[35.4529,-23.8696,0.0],[35.4562,-23.8679,0.0],[35.4546,-23.8682,0.0]]],
[[[35.4546,-23.8618,0.0],[35.4557,-23.8574,0.0],[35.4529,-23.8585,0.0],[35.4529,-23.8615,0.0],[35.4538,-23.8624,0.0],[35.4546,-23.8618,0.0]]],
[[[35.4507,-23.8371,0.0],[35.4496,-23.8368,0.0],[35.4471,-23.8382,0.0],[35.4507,-23.8385,0.0],[35.4507,-23.8371,0.0]]],
[[[35.4463,-23.8321,0.0],[35.4485,-23.8312,0.0],[35.4485,-23.8307,0.0],[35.446,-23.8312,0.0],[35.4463,-23.8321,0.0]]],
[[[35.4207,-23.8237,0.4565],[35.4188,-23.8232,0.0],[35.4176,-23.8235,0.0],[35.4221,-23.8249,0.0],[35.4207,-23.8237,0.4565]]],
[[[35.4476,-23.8213,0.0],[35.4446,-23.8213,0.0],[35.4432,-23.8251,0.0],[35.4457,-23.8232,0.0],[35.4457,-23.8218,0.0],[35.4468,-23.8221,0.0],[35.446,-23.8232,0.0],[35.4479,-23.8226,0.0],[35.4476,-23.8213,0.0]]],
[[[35.4482,-23.8179,0.0],[35.4488,-23.8124,0.0],[35.4468,-23.8132,0.0],[35.4451,-23.8187,0.0],[35.4474,-23.8193,0.0],[35.4482,-23.8179,0.0]]],
[[[35.4226,-23.8091,0.6411],[35.4212,-23.8079,0.1567],[35.4188,-23.8101,0.0],[35.4199,-23.8171,0.0],[35.4224,-23.8149,0.5142],[35.4207,-23.8182,0.0],[35.4215,-23.8204,1.3518],[35.4271,-23.8224,0.1485],[35.4293,-23.8187,0.0],[35.429,-23.8143,0.0],[35.4238,-23.8115,0.4839],[35.4226,-23.8091,0.6411]]],
[[[35.4301,-23.7907,0.0],[35.4265,-23.7907,0.0],[35.4224,-23.7974,0.0],[35.4257,-23.7993,2.0831],[35.4274,-23.8029,0.1877],[35.4299,-23.8029,0.0],[35.434,-23.7996,0.0],[35.4332,-23.7949,7.5544],[35.4301,-23.7907,0.0]]],
[[[35.4843,-23.7824,3.9563],[35.4826,-23.7821,1.1273],[35.4874,-23.7854,2.1569],[35.4912,-23.786,0.2519],[35.4888,-23.7832,5.788],[35.4843,-23.7824,3.9563]]],
[[[35.4985,-23.7824,0.0],[35.4968,-23.7818,0.0],[35.494,-23.7838,2.0905],[35.5004,-23.7846,2.696],[35.4985,-23.7824,0.0]]]]}}