{"type": "Feature","bbox": [39.6495,-12.0785,40.0124,-11.6262],"geometry": {"type": "MultiPolygon","coordinates": [[[[39.8671,-12.0012,77.1592],[39.8709,-11.9966,75.7412],[39.88,-11.9637,75.5301],[39.8907,-11.9386,66.1216],[39.9073,-11.926,82.5452],[39.9125,-11.9088,87.3203],[39.9115,-11.902,100.1371],[39.8934,-11.889099999999999,190.444],[39.8937,-11.8837,174.9457],[39.9157,-11.8669,128.3804],[39.928,-11.8614,139.0082],[39.9373,-11.8552,161.8815],[39.9463,-11.8472,189.5501],[39.985,-11.8346,127.1385],[39.9758,-11.8077,111.9113],[39.9636,-11.7809,140.6255],[39.985,-11.757,171.1223],[39.9941,-11.7362,103.9054],[40.0124,-11.7242,115.9148],[39.9582,-11.6794,156.5564],[39.9514,-11.6288,104.7838],[39.9536,-11.6277,103.5383],[39.9399,-11.6342,109.0311],[39.9265,-11.6341,117.5377],[39.9097,-11.631,128.5695],[39.8954,-11.6311,136.1652],[39.8807,-11.6278,164.0641],[39.8679,-11.6285,148.0541],[39.8541,-11.6262,175.7698],[39.8344,-11.6326,174.7958],[39.8222,-11.6282,169.6726],[39.8068,-11.6309,192.6315],[39.7931,-11.6265,211.8428],[39.772,-11.6318,254.4728],[39.7649,-11.6597,286.3169],[39.7578,-11.675,323.9107],[39.7417,-11.6902,446.9277],[39.7529,-11.7424,528.4852],[39.7288,-11.763,648.605],[39.7288,-11.7899,681.9818],[39.6739,-11.8763,470.2842],[39.6867,-11.8763,532.9943],[39.6556,-11.9032,336.5041],[39.6556,-11.9151,405.7122],[39.6648,-11.9449,264.1537],[39.6495,-11.9569,227.6032],[39.6709,-11.9867,193.5926],[39.6648,-12.0046,160.8736],[39.6615,-12.0346,128.3345],[39.6689,-12.0402,221.3683],[39.6664,-12.0496,121.5614],[39.6679,-12.0603,133.713],[39.6748,-12.0703,127.012],[39.6756,-12.0785,112.7827],[39.6843,-12.0783,109.4874],[39.6898,-12.076,118.0305],[39.7353,-12.0736,95.5317],[39.756,-12.0753,95.3556],[39.7669,-12.0685,91.385],[39.7799,-12.0574,88.585],[39.7956,-12.0478,86.941],[39.8285,-12.0348,82.3581],[39.8671,-12.0012,77.1592]]]]}
,"properties": {"GID_3": "MOZ.1.10.3_1","GID_0": "MOZ","country": "Mozambique","GID_1": "MOZ.1_1","province": "CaboDelgado","NL_NAME_1": "NA","GID_2": "MOZ.1.10_1","county": "Muidumbe","NL_NAME_2": "NA","city": "Muidumbe","VARNAME_3": "NA","NL_NAME_3": "NA","TYPE_3": "Localidad","ENGTYPE_3": "Locality","CC_3": "NA","HASC_3": "NA","name": "Muidumbe.city","area_km2": 1184.3385,"hist_schema_id": "Elevation0-9000","hist_area_km2": {"75": 10.4531,"100": 41.6902,"125": 67.5102,"150": 92.2295,"175": 97.9399,"200": 87.0254,"225": 80.5672,"250": 68.4082,"275": 60.6927,"300": 48.1637,"325": 40.3205,"350": 33.4109,"375": 28.4928,"400": 29.6554,"425": 30.611,"450": 29.9276,"475": 29.7833,"500": 33.3742,"525": 41.9664,"550": 56.2664,"575": 43.9787,"600": 34.722,"625": 39.2051,"650": 29.7822,"675": 14.901,"700": 9.1935,"725": 2.6355,"750": 0.8508,"775": 0.5811}}}