{"type":"Feature","properties":{"GID_3":"MOZ.6.3.4_1","GID_0":"MOZ","country":"Mozambique","GID_1":"MOZ.6_1","province":"Maputo","NL_NAME_1":"NA","GID_2":"MOZ.6.3_1","county":"Manhiça","NL_NAME_2":"NA","city":"Maluana","VARNAME_3":"NA","NL_NAME_3":"NA","TYPE_3":"Localidad","ENGTYPE_3":"Locality","CC_3":"NA","HASC_3":"NA","name":"Maluana.city"},
"geometry":{"type": "MultiPolygon","coordinates": [[[[32.5526,-25.3897,81.5207],[32.55,-25.393,85.0433],[32.5409,-25.4972,54.5463],[32.5299,-25.504,51.8842],[32.5265,-25.5378,47.8663],[32.5113,-25.5591,41.9729],[32.5501,-25.5835,55.0368],[32.5818,-25.5913,61.1209],[32.7094,-25.5963,0.5],[32.7117,-25.571,1.8199],[32.7206,-25.5626,1.9423],[32.7352,-25.5553,1.8007],[32.744,-25.5455,1.0],[32.7445,-25.5329,1.4813],[32.7481,-25.5239,16.6018],[32.7592,-25.5223,2.7088],[32.7627,-25.5168,2.7705],[32.7594,-25.5074,2.2975],[32.7716,-25.5047,2.1189],[32.7822,-25.4995,2.5445],[32.7964,-25.483,1.7025],[32.7739,-25.4635,1.8289],[32.7459,-25.4474,19.3642],[32.7435,-25.4422,38.6472],[32.7442,-25.4073,34.8808],[32.5526,-25.3897,81.5207]]]]}}