{"type": "Feature","bbox": [33.8523,-25.0385,34.1104,-24.7631],"geometry": {"type": "MultiPolygon","coordinates": [[[[33.9941,-24.7683,49.2268],[33.9547,-24.7974,58.8438],[33.9453,-24.7926,60.311],[33.9448,-24.804,63.9129],[33.9292,-24.8144,74.264],[33.8844,-24.8217,81.2962],[33.8523,-24.8343,77.8836],[33.8744,-24.8913,83.1529],[33.9721,-24.9752,40.6941],[33.9747,-25.0075,16.8814],[33.9745,-25.0385,0.0],[33.986,-25.0365,0.0],[34.0015,-25.031,1.9429],[34.0154,-25.0232,3.7552],[34.0488,-25.0121,0.0],[34.0557,-25.0079,15.5952],[34.1015,-24.9954,6.5498],[34.1093,-24.9907,15.6721],[34.1104,-24.8744,84.4835],[34.0521,-24.8751,84.6342],[34.0469,-24.8695,78.3255],[34.0425,-24.8554,63.7216],[34.0382,-24.8473,64.1522],[34.0247,-24.8382,69.5121],[34.0103,-24.8215,77.4951],[34.0291,-24.797,54.3168],[34.0305,-24.7864,52.2819],[34.0287,-24.7814,41.4844],[34.0175,-24.7668,52.6767],[34.0012,-24.7631,51.4601],[33.9941,-24.7683,49.2268]]]]}
,"properties": {"GID_3": "MOZ.2.8.7_1","GID_0": "MOZ","country": "Mozambique","GID_1": "MOZ.2_1","province": "Gaza","NL_NAME_1": "NA","GID_2": "MOZ.2.8_1","county": "Mandlakazi","NL_NAME_2": "NA","city": "Nguzene","VARNAME_3": "NA","NL_NAME_3": "NA","TYPE_3": "Localidad","ENGTYPE_3": "Locality","CC_3": "NA","HASC_3": "NA","name": "Nguzene.city","area_km2": 425.7166,"hist_schema_id": "Elevation0-9000","hist_area_km2": {"0": 17.4494,"25": 53.8497,"50": 78.1317,"75": 162.2107,"100": 107.1334,"125": 6.9416}}}