{"type":"Feature","properties":{"GID_2":"MOZ.9.2_1","GID_0":"MOZ","country":"Mozambique","GID_1":"MOZ.9_1","province":"Sofala","NL_NAME_1":"NA","county":"Caia","VARNAME_2":"NA","NL_NAME_2":"NA","TYPE_2":"Distrito","ENGTYPE_2":"District","CC_2":"NA","HASC_2":"MZ.SO.CA","name":"Caia.county"},
"geometry":{"type": "MultiPolygon","coordinates": [[[[35.3477,-17.7493,28.4953],[35.3496,-17.7373,27.5077],[35.3445,-17.7257,26.5],[35.3299,-17.7149,28.3371],[35.284,-17.7012,29.3076],[35.229,-17.6759,31.8299],[35.2102,-17.6655,32.1523],[35.1892,-17.6504,32.5512],[35.1713,-17.6294,32.5],[35.1594,-17.6094,33.5],[35.1407,-17.5658,34.5],[35.0951,-17.5134,37.8014],[35.0829,-17.4973,39.4956],[35.0631,-17.4543,40.7126],[35.0568,-17.4354,41.0],[35.026,-17.3719,45.119],[34.978,-17.3749,53.5113],[34.965,-17.3744,65.6958],[34.9422,-17.3898,75.1733],[34.9232,-17.406,86.3064],[34.921,-17.4239,100.9708],[34.9082,-17.439,115.2669],[34.8749,-17.4514,134.5003],[34.852,-17.4699,158.3619],[34.8254,-17.4961,199.104],[34.789,-17.5497,235.1993],[34.7674,-17.5923,184.7953],[34.7575,-17.6065,168.7334],[34.7517,-17.6253,187.0726],[34.7378,-17.6502,171.9311],[34.7509,-17.6557,167.6083],[34.7559,-17.663,162.9806],[34.7569,-17.6695,163.1652],[34.7733,-17.6706,161.7706],[34.7813,-17.6817,159.5527],[34.7694,-17.6878,152.1218],[34.7632,-17.6933,149.5549],[34.7492,-17.6964,159.7036],[34.7388,-17.6961,167.2582],[34.7279,-17.6997,171.9563],[34.7283,-17.7079,173.0718],[34.7374,-17.7288,188.2647],[34.7586,-17.7679,222.8895],[34.7915,-17.8069,153.0742],[34.801,-17.8236,163.5703],[34.798,-17.8328,171.8346],[34.7831,-17.8471,175.7992],[34.7689,-17.8638,176.9043],[34.7627,-17.8799,189.2478],[34.7447,-17.8925,211.6893],[34.7419,-17.8999,199.8591],[34.7477,-17.8999,207.6979],[34.7532,-17.9027,199.6622],[34.7601,-17.9391,170.3652],[34.7628,-17.9459,152.5568],[34.7693,-17.9511,145.9787],[34.7688,-17.9616,136.4117],[34.7765,-17.9987,108.8557],[34.8189,-18.1211,67.4935],[34.8214,-18.1234,66.4938],[34.832,-18.1222,59.1689],[34.8658,-18.2333,42.5466],[34.9118,-18.199,37.2943],[34.9376,-18.177,33.5483],[34.9578,-18.1573,31.8162],[34.9573,-18.1449,29.0294],[34.9728,-18.1294,29.4848],[34.9754,-18.1158,27.3076],[34.9818,-18.1046,28.8925],[34.9969,-18.0973,28.5255],[35.0041,-18.1043,27.9021],[35.0127,-18.0994,27.7139],[35.0167,-18.0952,27.798],[35.0208,-18.0956,27.3118],[35.0511,-18.0749,25.1996],[35.0569,-18.0727,25.6351],[35.0647,-18.0647,25.0617],[35.0724,-18.064,24.0178],[35.0699,-18.0577,24.090699999999998],[35.076,-18.0334,23.8943],[35.072,-18.0232,23.3669],[35.0704,-18.0128,23.0519],[35.0709,-17.9995,23.0091],[35.0841,-17.9887,23.0338],[35.0974,-17.9745,22.8283],[35.1313,-17.9645,25.4157],[35.1494,-17.9496,24.0829],[35.1602,-17.9507,23.3427],[35.1963,-17.911,24.945],[35.2073,-17.9031,26.7062],[35.2197,-17.8984,24.9207],[35.2457,-17.9182,23.8863],[35.2629,-17.9235,23.5592],[35.2764,-17.9157,23.3024],[35.2855,-17.9126,23.2754],[35.308,-17.8888,23.1543],[35.3114,-17.8753,24.2077],[35.3229,-17.8626,23.7693],[35.3448,-17.8502,23.6669],[35.35,-17.856,23.7678],[35.3614,-17.8563,22.6284],[35.3676,-17.8615,22.8522],[35.3841,-17.8623,23.895],[35.4143,-17.9075,23.2454],[35.4343,-17.9129,23.8291],[35.4472,-17.9127,22.8125],[35.4643,-17.9084,22.3553],[35.4467,-17.8742,24.6753],[35.4198,-17.8361,22.5],[35.3903,-17.8021,23.5],[35.3649,-17.7582,25.5],[35.3516,-17.7569,28.8057],[35.3477,-17.7493,28.4953]]]]}}