{"type": "Feature","bbox": [32.8543,-26.3862,32.961,-26.0829],"geometry": {"type": "MultiPolygon","coordinates": [[[[32.8882,-26.2871,0.919],[32.8874,-26.2887,0.8291],[32.889,-26.2912,1.8343],[32.8893,-26.2887,3.5402],[32.8882,-26.2871,0.919]]],
[[[32.9247,-26.385,29.0793],[32.9249,-26.3862,29.0793],[32.9326,-26.3632,2.6514],[32.934,-26.3549,0.0],[32.9293,-26.341,0.0],[32.9307,-26.3165,8.2611],[32.9349,-26.2843,41.3362],[32.9421,-26.2626,2.908],[32.9415,-26.2588,0.0],[32.9379,-26.2549,0.0],[32.9376,-26.2482,0.0],[32.9418,-26.2207,2.0833],[32.9457,-26.2065,0.0],[32.949,-26.1518,5.721],[32.9576,-26.1182,12.278],[32.9607,-26.1121,2.1947],[32.9607,-26.1104,3.9338],[32.9568,-26.1076,1.0406],[32.9568,-26.0999,3.9234],[32.961,-26.0874,9.3513],[32.9604,-26.0829,0.0],[32.9529,-26.0832,1.1941],[32.9526,-26.0885,1.4338],[32.9499,-26.0932,3.6682],[32.9299,-26.0985,0.8549],[32.924,-26.104,0.6783],[32.9221,-26.1018,1.981],[32.9193,-26.1021,2.0767],[32.9121,-26.106,0.0],[32.9071,-26.111,0.0],[32.8915,-26.1429,0.0],[32.8899,-26.151,0.0],[32.8765,-26.1846,3.5325],[32.8693,-26.1976,0.0],[32.8665,-26.2187,1.192],[32.8693,-26.2524,0.0],[32.866,-26.2599,14.399],[32.8726,-26.271,0.5541],[32.8793,-26.274,1.3976],[32.8904,-26.2879,1.7371],[32.8907,-26.2918,1.2267],[32.8874,-26.2962,0.2946],[32.8857,-26.3029,0.5387],[32.8871,-26.3076,1.3609],[32.8849,-26.3029,0.5387],[32.8874,-26.2901,1.8906],[32.8812,-26.2804,2.3286],[32.8713,-26.2779,0.0],[32.8543,-26.2812,0.0],[32.8638,-26.2908,31.0989],[32.8638,-26.3017,44.6724],[32.8774,-26.326,12.1647],[32.9072,-26.3394,44.9144],[32.9118,-26.3491,17.947],[32.9121,-26.3625,20.0317],[32.9264,-26.377,57.7096],[32.9247,-26.385,29.0793]]]]}
,"properties": {"GID_3": "MOZ.6.5.3_1","GID_0": "MOZ","country": "Mozambique","GID_1": "MOZ.6_1","province": "Maputo","NL_NAME_1": "NA","GID_2": "MOZ.6.5_1","county": "Matutuíne","NL_NAME_2": "NA","city": "Machangulo","VARNAME_3": "NA","NL_NAME_3": "NA","TYPE_3": "Localidad","ENGTYPE_3": "Locality","CC_3": "NA","HASC_3": "NA","name": "Machangulo.city","area_km2": 179.0149,"hist_schema_id": "Elevation0-9000","hist_area_km2": {"0": 59.9899,"25": 83.5927,"50": 33.188,"75": 2.2062,"100": 0.0381}}}