{"type":"Feature","properties":{"GID_3":"MOZ.9.1.3_1","GID_0":"MOZ","country":"Mozambique","GID_1":"MOZ.9_1","province":"Sofala","NL_NAME_1":"NA","GID_2":"MOZ.9.1_1","county":"Buzi","NL_NAME_2":"NA","city":"Sofala","VARNAME_3":"NA","NL_NAME_3":"NA","TYPE_3":"Localidad","ENGTYPE_3":"Locality","CC_3":"NA","HASC_3":"NA","name":"Sofala.city"},
"geometry":{"type": "MultiPolygon","coordinates": [[[[34.7001,-20.4324,0.0],[34.6946,-20.4332,1.4608],[34.6868,-20.4396,2.5162],[34.684,-20.4437,1.6382],[34.6862,-20.4468,1.1564],[34.6779,-20.4421,0.0],[34.6632,-20.4485,0.5],[34.6615,-20.4507,0.5],[34.6621,-20.4557,1.9713],[34.6529,-20.4662,0.992],[34.6529,-20.4685,0.5],[34.6587,-20.4735,1.8332],[34.6585,-20.4782,3.3991],[34.6543,-20.4843,0.5],[34.6538,-20.4887,3.6498],[34.6599,-20.5004,3.3796],[34.6587,-20.5132,0.0],[34.6771,-20.5104,1.6576],[34.6821,-20.5129,0.6806],[34.6843,-20.516,1.446],[34.6871,-20.5154,0.473],[34.6901,-20.5104,1.5938],[34.6849,-20.5065,1.4683],[34.6829,-20.4968,0.967],[34.6807,-20.496,0.5],[34.6724,-20.4985,2.224],[34.676,-20.496,3.7274],[34.6818,-20.4951,0.5],[34.6801,-20.4915,1.9901],[34.6846,-20.4979,3.4587],[34.6865,-20.506,2.7884],[34.6899,-20.5071,0.0],[34.6926,-20.506,0.0],[34.6937,-20.504,0.0],[34.6913,-20.4954,2.136],[34.6946,-20.4993,0.0],[34.6937,-20.4935,1.4413],[34.6971,-20.4915,0.375],[34.6979,-20.489,3.7105],[34.7012,-20.4882,0.5],[34.701,-20.4835,0.625],[34.6976,-20.4771,3.3847],[34.7021,-20.474,2.062],[34.7026,-20.4718,2.8515],[34.7035,-20.4732,2.7308],[34.6993,-20.4785,5.002],[34.7018,-20.4829,4.4042],[34.7035,-20.4829,3.8096],[34.7035,-20.4885,2.3922],[34.6993,-20.4926,2.087],[34.699,-20.4951,4.6071],[34.6976,-20.4937,0.0],[34.6957,-20.4971,0.0],[34.6965,-20.4993,0.0],[34.6982,-20.4985,0.679],[34.6982,-20.5029,0.0],[34.6999,-20.5029,0.8654],[34.7188,-20.4749,0.0],[34.7132,-20.4579,0.0],[34.711,-20.4574,1.4732],[34.7126,-20.4543,1.7656],[34.7118,-20.4496,0.6541],[34.7101,-20.4493,1.2052],[34.7121,-20.4474,0.0],[34.7101,-20.4424,0.0958],[34.7054,-20.4349,0.7214],[34.7015,-20.4346,3.6751],[34.7001,-20.4324,0.0]]],
[[[34.6913,-20.3871,0.0],[34.6899,-20.3854,3.0068],[34.6879,-20.389,0.0],[34.6896,-20.389,0.0],[34.6913,-20.3871,0.0]]],
[[[34.7018,-20.3113,3.0351],[34.7038,-20.3104,2.8951],[34.7038,-20.3087,2.3631],[34.7021,-20.309,1.2189],[34.7018,-20.3113,3.0351]]],
[[[34.6285,-20.5226,1.1371],[34.6299,-20.5224,0.5],[34.6301,-20.521,0.5],[34.6293,-20.5212,0.5],[34.6285,-20.5226,1.1371]]],
[[[34.6626,-20.3904,3.3904],[34.6618,-20.3896,3.3904],[34.6601,-20.3921,2.5998],[34.6596,-20.3954,2.1954],[34.6615,-20.394,5.7718],[34.6626,-20.3904,3.3904]]],
[[[34.6779,-20.3401,3.1259],[34.6751,-20.3393,0.0],[34.6743,-20.3412,3.6083],[34.6768,-20.3435,1.6648],[34.6779,-20.3401,3.1259]]],
[[[34.354,-20.1082,71.2187],[34.3413,-20.1101,74.6242],[34.3402,-20.1406,57.5543],[34.3533,-20.1575,62.3124],[34.386,-20.1632,39.4807],[34.4054,-20.1635,39.3816],[34.4054,-20.1956,40.0496],[34.4178,-20.2189,32.2446],[34.4269,-20.2139,33.8581],[34.4344,-20.2387,30.4675],[34.3627,-20.2993,32.4127],[34.3258,-20.2935,52.4868],[34.3074,-20.3143,67.4305],[34.2281,-20.2936,113.8765],[34.2186,-20.329,140.2913],[34.1422,-20.3647,148.8971],[34.168,-20.3824,135.9853],[34.1789,-20.388,125.265],[34.1972,-20.3912,112.2084],[34.2186,-20.3912,103.8842],[34.2309,-20.3971,97.6556],[34.237,-20.3971,93.2109],[34.2677,-20.4068,78.9969],[34.2725,-20.4248,75.4063],[34.2795,-20.4636,68.9758],[34.2772,-20.4701,68.5529],[34.2769,-20.4773,64.3052],[34.2812,-20.4946,60.9217],[34.2851,-20.5017,62.6114],[34.2978,-20.5089,66.7889],[34.3006,-20.5257,58.9767],[34.333,-20.5471,56.8553],[34.3781,-20.5323,46.6004],[34.3965,-20.5336,44.9908],[34.4101,-20.5356,40.9452],[34.4209,-20.5438,37.1109],[34.4407,-20.553,31.5057],[34.4702,-20.5561,23.1923],[34.4824,-20.5607,19.9607],[34.502,-20.5649,16.3347],[34.5197,-20.5605,15.6202],[34.5616,-20.5444,13.8577],[34.5734,-20.5409,15.6223],[34.5901,-20.5387,3.9774],[34.6032,-20.5296,2.1737],[34.6018,-20.5243,1.8737],[34.5988,-20.526,3.0905],[34.5999,-20.5232,4.5695],[34.6015,-20.5226,4.2121],[34.604,-20.529,1.9272],[34.6063,-20.5276,0.5],[34.6063,-20.524,0.5],[34.6115,-20.5204,2.6485],[34.6235,-20.5246,0.5],[34.6296,-20.5182,0.5],[34.6332,-20.5168,0.5],[34.6329,-20.511,1.1541],[34.6346,-20.5085,2.3442],[34.6354,-20.5085,2.0551],[34.634,-20.5112,1.1541],[34.6346,-20.5151,1.556],[34.6368,-20.5165,0.5],[34.6479,-20.5182,0.125],[34.6549,-20.5165,0.0],[34.6563,-20.514,0.0],[34.6546,-20.5101,3.5441],[34.6571,-20.5024,1.1608],[34.6504,-20.4887,1.3422],[34.6451,-20.4849,3.6108],[34.6421,-20.4787,1.7292],[34.6393,-20.4779,1.653],[34.6385,-20.4796,2.4686],[34.6399,-20.4926,2.9649],[34.6376,-20.494,2.9132],[34.6276,-20.4879,2.7669],[34.6251,-20.4796,2.2427],[34.6154,-20.4749,2.9457],[34.616,-20.4737,2.2721],[34.6257,-20.4782,1.5572],[34.6288,-20.4868,4.6572],[34.6351,-20.4896,1.7291],[34.6376,-20.4926,2.3584],[34.6387,-20.4924,2.3584],[34.6371,-20.4796,2.4686],[34.6382,-20.4768,1.8803],[34.6421,-20.4774,2.7084],[34.6465,-20.4846,3.0257],[34.6512,-20.4868,1.0712],[34.6571,-20.4735,3.9354],[34.6493,-20.4687,4.2813],[34.646,-20.4643,1.4066],[34.6368,-20.4612,1.6395],[34.639,-20.4518,2.5448],[34.6376,-20.4499,1.6396],[34.6399,-20.4504,3.0038],[34.6387,-20.4599,0.5],[34.651,-20.4662,4.1028],[34.6613,-20.4549,2.2827],[34.6599,-20.4496,0.5],[34.6699,-20.4435,0.0],[34.671,-20.439,1.3464],[34.6768,-20.4354,0.0],[34.676,-20.4246,1.7327],[34.6738,-20.421,0.0],[34.6638,-20.4146,0.5394],[34.6618,-20.4162,0.7359],[34.6629,-20.4265,0.0],[34.6593,-20.4346,3.0122],[34.6404,-20.4407,1.2019],[34.641,-20.439,3.6727],[34.6446,-20.4376,4.1344],[34.6557,-20.4354,1.2203],[34.6587,-20.4326,1.9833],[34.6582,-20.4268,0.5645],[34.6596,-20.4235,0.0],[34.6565,-20.4176,0.0],[34.6568,-20.401,0.7413],[34.6535,-20.3999,5.7701],[34.6457,-20.403199999999998,1.946],[34.6501,-20.3993,2.8322],[34.6563,-20.3974,0.0],[34.6621,-20.3876,3.3187],[34.6601,-20.3838,1.3016],[34.6515,-20.3785,1.3001],[34.6515,-20.3749,1.0],[34.6554,-20.3735,3.7105],[34.6529,-20.3757,1.0],[34.6529,-20.3782,1.3001],[34.6649,-20.3849,4.1291],[34.666,-20.3915,3.8577],[34.6621,-20.3999,0.5988],[34.6632,-20.4021,0.0],[34.6662,-20.4024,0.0],[34.6676,-20.4001,0.8999],[34.6757,-20.401,0.0],[34.6768,-20.3949,0.0],[34.6826,-20.3901,0.0],[34.6832,-20.3849,0.375],[34.6804,-20.3821,1.9765],[34.6821,-20.3793,4.1487],[34.684,-20.3799,1.5386],[34.6846,-20.3815,2.1032],[34.6826,-20.3804,1.5386],[34.6826,-20.3815,1.99],[34.6876,-20.3868,1.9476],[34.6896,-20.3829,4.6756],[34.6935,-20.3821,0.0],[34.6979,-20.3771,2.2237],[34.7035,-20.3782,0.0],[34.7071,-20.3754,0.488],[34.7101,-20.3762,2.2788],[34.711,-20.3746,2.2788],[34.7065,-20.3707,4.1936],[34.7038,-20.3651,2.1982],[34.7001,-20.3632,3.4769],[34.6996,-20.3593,0.5258],[34.7018,-20.3582,0.0],[34.7012,-20.3557,0.0],[34.6985,-20.354,6.5249],[34.6979,-20.3476,0.0],[34.6907,-20.3365,0.0],[34.6862,-20.336,0.0],[34.6813,-20.339,0.0],[34.6785,-20.3463,4.3204],[34.6726,-20.3404,0.0],[34.6712,-20.3404,0.0],[34.6701,-20.3437,1.5422],[34.6696,-20.3401,2.9438],[34.6726,-20.3385,0.0],[34.6724,-20.3354,0.0],[34.6662,-20.3335,1.7373],[34.6587,-20.3349,3.3272],[34.6538,-20.3304,2.376],[34.6529,-20.3265,3.1037],[34.654,-20.3262,2.816],[34.6551,-20.3307,2.376],[34.6579,-20.3324,2.763],[34.6662,-20.329,4.7023],[34.6732,-20.3324,1.3956],[34.6765,-20.3318,0.0],[34.6793,-20.3299,0.0],[34.6818,-20.3235,2.2633],[34.6851,-20.3229,0.4098],[34.6901,-20.3165,4.5702],[34.6937,-20.3162,3.2143],[34.6982,-20.3104,6.0161],[34.7001,-20.3118,1.4567],[34.7007,-20.3087,3.2591],[34.7032,-20.3068,1.3326],[34.7107,-20.3043,4.0917],[34.7171,-20.2843,2.3247],[34.7168,-20.2829,0.3907],[34.7143,-20.2832,1.708],[34.7201,-20.2757,0.0],[34.7196,-20.2721,3.3421],[34.721,-20.2721,3.3421],[34.7207,-20.2687,5.5333],[34.7221,-20.2687,1.886],[34.7215,-20.2676,3.0845],[34.7246,-20.2643,0.6307],[34.7246,-20.2593,2.4749],[34.7287,-20.2568,0.0],[34.7337,-20.2462,0.0],[34.7337,-20.2426,0.91],[34.7374,-20.2396,0.0],[34.7404,-20.2318,0.0],[34.7401,-20.2287,0.0],[34.7349,-20.2304,0.7884],[34.7321,-20.2343,0.5],[34.7296,-20.2451,3.4252],[34.7251,-20.2474,3.0282],[34.7246,-20.251,4.8596],[34.7243,-20.2474,3.0282],[34.7276,-20.2443,1.0],[34.7293,-20.2379,2.7814],[34.7287,-20.231,1.4162],[34.7315,-20.2251,2.0745],[34.7351,-20.2218,0.0],[34.7404,-20.221,0.0],[34.7421,-20.2165,0.0],[34.7401,-20.2146,0.0],[34.7376,-20.2146,0.9754],[34.7343,-20.2151,1.6593],[34.7337,-20.2176,5.1325],[34.7315,-20.2182,4.0156],[34.7279,-20.2146,0.0],[34.7271,-20.2196,2.7656],[34.7243,-20.224,1.6608],[34.7185,-20.224,0.0],[34.7179,-20.2257,5.8745],[34.7199,-20.2276,2.4604],[34.7168,-20.2271,4.291],[34.7168,-20.2237,3.6422],[34.721,-20.2221,2.6362],[34.7218,-20.2201,3.083],[34.7238,-20.2229,2.5001],[34.7263,-20.219,0.7779],[34.7276,-20.2124,0.0],[34.7249,-20.2104,0.0],[34.7196,-20.2099,3.9939],[34.7193,-20.2082,0.5777],[34.7118,-20.2046,2.7948],[34.7085,-20.2007,0.0],[34.7082,-20.1954,0.3672],[34.7051,-20.1971,1.085],[34.7068,-20.1932,2.9538],[34.7051,-20.1887,1.0002],[34.6979,-20.1837,2.7827],[34.6949,-20.1835,3.822],[34.6988,-20.1832,3.68],[34.7082,-20.1863,2.3094],[34.7085,-20.1829,7.4078],[34.7035,-20.1751,4.4747],[34.6985,-20.1726,0.3954],[34.6949,-20.1729,0.0],[34.6835,-20.1824,2.6387],[34.686,-20.1793,0.0],[34.6754,-20.1785,2.4533],[34.6732,-20.1743,0.375],[34.6696,-20.174,0.5],[34.6699,-20.1757,3.2998],[34.6685,-20.1757,2.7915],[34.6671,-20.1726,0.5],[34.6629,-20.1712,2.9558],[34.6626,-20.1643,2.8623],[34.6671,-20.1507,5.9093],[34.6668,-20.1432,2.3088],[34.6632,-20.1413,3.7203],[34.6679,-20.1421,3.5217],[34.669,-20.1443,1.5902],[34.6674,-20.1479,2.2856],[34.671,-20.1485,1.5455],[34.6693,-20.1554,1.5029],[34.6649,-20.1626,3.5434],[34.6651,-20.1679,3.9642],[34.6682,-20.1712,5.2456],[34.6735,-20.1724,2.9077],[34.6793,-20.1765,0.0],[34.6829,-20.1749,0.0],[34.6915,-20.1657,5.2981],[34.6985,-20.1654,0.0],[34.6999,-20.1635,0.0],[34.6982,-20.1624,6.9171],[34.6993,-20.1593,6.7653],[34.7004,-20.1593,6.7653],[34.7001,-20.1612,8.2454],[34.7085,-20.1601,0.0],[34.7146,-20.1518,2.3103],[34.7207,-20.1521,0.0],[34.7199,-20.1471,0.5],[34.7238,-20.144,2.4581],[34.7243,-20.1443,2.4581],[34.721,-20.1468,0.5],[34.724,-20.151,4.9659],[34.7235,-20.1535,3.6117],[34.716,-20.156,0.0],[34.7151,-20.1582,0.0],[34.7165,-20.159,0.0],[34.721,-20.1599,0.0],[34.7271,-20.1574,1.8909],[34.7329,-20.159,2.073],[34.741,-20.1571,2.6724],[34.746,-20.1593,1.7496],[34.7507,-20.1679,0.5847],[34.7551,-20.1707,2.2147],[34.7624,-20.1726,0.8819],[34.7674,-20.169,1.0296],[34.7701,-20.164,1.8804],[34.7679,-20.1612,4.759],[34.7699,-20.1615,0.0],[34.771,-20.1588,0.0],[34.776,-20.156,4.0874],[34.7779,-20.1529,0.0],[34.7801,-20.1468,0.0],[34.7751,-20.1437,0.5481],[34.7801,-20.1418,0.0],[34.7804,-20.1393,1.1287],[34.7718,-20.1046,0.0],[34.764,-20.0915,4.4078],[34.7615,-20.0901,4.4484],[34.7576,-20.0785,1.6169],[34.7538,-20.0754,5.6757],[34.7543,-20.0724,1.2081],[34.7568,-20.0701,2.3075],[34.7549,-20.0651,0.0],[34.7515,-20.0218,4.2907],[34.7493,-20.0207,0.5],[34.7476,-20.0224,0.5],[34.7496,-20.031,3.1949],[34.7463,-20.0251,1.0],[34.7405,-20.0558,7.0909],[34.6534,-20.048,3.7074],[34.6412,-20.0539,3.7026],[34.6045,-20.0598,3.7835],[34.6003,-20.0677,3.7231],[34.5539,-20.0711,4.7178],[34.5218,-20.0598,5.3164],[34.4938,-20.0773,5.0439],[34.485,-20.0717,5.8572],[34.4022,-20.0688,29.5864],[34.3788,-20.0798,44.709],[34.3654,-20.1065,57.0339],[34.354,-20.1082,71.2187]]]]}}