{"type": "Feature","bbox": [36.5895,-12.671,38.4818,-11.2565],"geometry": {"type": "MultiPolygon","coordinates": [[[[37.2542,-12.4947,317.375],[37.2818,-12.4828,332.1789],[37.3064,-12.4828,342.2714],[37.3401,-12.4858,341.5732],[37.3527,-12.4893,332.3406],[37.3643,-12.4876,321.9297],[37.376,-12.4813,311.75],[37.4241,-12.4726,311.1249],[37.5087,-12.45,306.4319],[37.5304,-12.453,308.9079],[37.5472,-12.4517,313.2613],[37.561,-12.4474,309.9565],[37.5907,-12.4427,325.7917],[37.6063,-12.4421,292.3861],[37.6469,-12.444,283.9152],[37.6254,-12.4833,519.3546],[37.6653,-12.4869,312.7964],[37.7113,-12.4798,371.6694],[37.727,-12.4525,352.0072],[37.7013,-12.4201,272.7264],[37.7086,-12.4032,272.95],[37.7726,-12.3098,286.5971],[37.7777,-12.2963,268.0326],[37.7857,-12.2868,265.3871],[37.802,-12.2773,268.8419],[37.8384,-12.2622,271.112],[37.8734,-12.2543,257.3161],[37.8838,-12.2486,257.5334],[37.929,-12.2312,247.0],[37.9545,-12.2288,245.6053],[37.9966,-12.2352,242.5],[38.0486,-12.2025,240.3017],[38.0663,-12.1946,241.1893],[38.0863,-12.1791,239.0148],[38.0941,-12.1765,244.4762],[38.1132,-12.1878,244.4781],[38.1318,-12.2036,236.9591],[38.1407,-12.2033,229.8481],[38.169,-12.1937,217.8812],[38.2018,-12.1913,211.065],[38.222,-12.1868,202.0],[38.2531,-12.1608,205.9264],[38.3069,-12.1328,200.5839],[38.3543,-12.1147,182.4583],[38.3719,-12.1057,178.5],[38.3791,-12.0954,180.2429],[38.381,-12.0726,175.5],[38.401,-11.9996,172.0],[38.4077,-11.952,168.238],[38.4204,-11.9193,165.3403],[38.4212,-11.8866,163.5659],[38.4177,-11.8648,169.163],[38.4188,-11.8561,173.8837],[38.4182,-11.7907,172.1599],[38.4159,-11.7679,171.2064],[38.4049,-11.7299,168.7512],[38.4063,-11.7105,152.0],[38.4154,-11.6513,153.9779],[38.4114,-11.6299,150.0959],[38.4114,-11.6103,145.5],[38.4161,-11.5883,146.1091],[38.4187,-11.5625,144.5242],[38.4433,-11.5029,138.5],[38.4509,-11.4801,138.6999],[38.4659,-11.453,134.2458],[38.4818,-11.4163,134.8734],[38.4689,-11.4135,139.9068],[38.4539,-11.4134,135.8548],[38.4481,-11.4107,134.5],[38.4406,-11.4069,143.9846],[38.4273,-11.391,141.9457],[38.4144,-11.3881,143.0003],[38.3925,-11.3875,144.5401],[38.3782,-11.383,156.5331],[38.3636,-11.3678,154.4076],[38.3397,-11.3388,152.9619],[38.3291,-11.3293,162.3764],[38.3213,-11.3255,165.1521],[38.2885,-11.3288,169.5323],[38.2826,-11.3243,164.8403],[38.2741,-11.2968,158.125],[38.2619,-11.2884,164.4747],[38.2243,-11.2833,196.1409],[38.2102,-11.2752,191.3069],[38.2028,-11.2744,188.0],[38.1823,-11.2778,195.6631],[38.1398,-11.2732,205.3588],[38.1131,-11.2597,215.0],[38.1028,-11.2607,219.0584],[38.0748,-11.2711,219.5365],[38.0575,-11.274,220.5],[38.0497,-11.2707,226.5226],[38.03,-11.2677,223.0],[38.0175,-11.271,224.25],[37.999,-11.2616,226.0],[37.9844,-11.2615,235.3736],[37.9687,-11.2657,234.8219],[37.9599,-11.264099999999999,232.2715],[37.9458,-11.2579,237.0],[37.9335,-11.2565,240.645],[37.9151,-11.261,240.3042],[37.8976,-11.2716,242.9338],[37.8746,-11.2826,250.5303],[37.866,-11.2888,247.766],[37.8593,-11.298,249.2842],[37.8519,-11.3037,276.7603],[37.8336,-11.3066,256.6166],[37.8311,-11.3083,257.9625],[37.8274,-11.3439,273.3623],[37.8271,-11.3655,279.6464],[37.8157,-11.3778,278.25],[37.8142,-11.3886,280.25],[37.8079,-11.4063,283.5],[37.8022,-11.4122,295.1049],[37.7909,-11.4165,286.75],[37.7856,-11.4226,287.75],[37.7819,-11.432,295.0059],[37.7812,-11.4451,292.5],[37.7739,-11.4601,295.5],[37.7755,-11.4698,297.125],[37.7854,-11.4768,303.5],[37.7879,-11.4804,305.0],[37.7881,-11.4868,305.25],[37.7856,-11.4956,308.3079],[37.7785,-11.5138,311.3134],[37.7638,-11.534,309.0121],[37.7479,-11.5487,308.0],[37.7406,-11.5517,308.0],[37.7289,-11.5526,308.5],[37.7184,-11.5554,309.8185],[37.7016,-11.5628,313.0336],[37.688,-11.5634,310.0],[37.6724,-11.5733,310.5],[37.6588,-11.5742,313.8679],[37.6226,-11.6043,323.3684],[37.5962,-11.6182,312.5],[37.5835,-11.6225,325.1898],[37.5499,-11.6177,327.9579],[37.5316,-11.6104,328.0555],[37.5151,-11.6138,326.6117],[37.5006,-11.6118,329.0],[37.4964,-11.6134,334.3146],[37.4853,-11.6236,337.8469],[37.4771,-11.6248,333.4195],[37.4498,-11.6343,339.6076],[37.4389,-11.6412,334.0],[37.4307,-11.6489,340.6763],[37.423,-11.6657,336.7054],[37.4194,-11.68,336.8999],[37.4144,-11.6825,336.0],[37.3842,-11.6882,343.8518],[37.3773,-11.6863,337.9889],[37.3656,-11.6791,345.7572],[37.3586,-11.6769,346.3073],[37.338,-11.6752,344.25],[37.3317,-11.6723,354.2816],[37.3242,-11.6645,355.7155],[37.3182,-11.6632,348.5],[37.3169,-11.6582,350.3957],[37.2993,-11.6397,351.5],[37.2816,-11.6336,359.1142],[37.2724,-11.6326,360.2836],[37.2623,-11.6341,365.7691],[37.2292,-11.6511,357.2721],[37.2213,-11.6517,365.7647],[37.1988,-11.6469,369.5903],[37.1568,-11.6322,362.0],[37.1486,-11.6312,362.5],[37.1368,-11.633,363.0],[37.1176,-11.6285,364.0],[37.1131,-11.6257,364.6798],[37.0913,-11.6262,365.5],[37.0789,-11.6233,366.0],[37.0698,-11.612,366.0],[37.0536,-11.5995,368.5931],[37.0411,-11.5803,404.7229],[37.0332,-11.573,410.6495],[37.0251,-11.5692,416.1081],[37.0168,-11.5719,401.9154],[37.0115,-11.5805,374.6226],[37.0093,-11.5991,412.6667],[37.007,-11.6026,421.3073],[36.9848,-11.6004,407.7271],[36.9615,-11.6047,388.2299],[36.9448,-11.6026,382.3627],[36.9238,-11.6039,374.2817],[36.9242,-11.6159,378.7397],[36.9177,-11.6256,386.6462],[36.9037,-11.6327,385.0139],[36.8994,-11.6383,389.5804],[36.8835,-11.68,402.161],[36.88,-11.6957,409.8327],[36.8524,-11.7298,417.8762],[36.8434,-11.7388,412.1011],[36.8412,-11.7498,416.9633],[36.8418,-11.7639,417.7311],[36.8387,-11.7738,424.9955],[36.8444,-11.7946,427.683],[36.8292,-11.8376,434.4108],[36.8212,-11.8559,438.7108],[36.8142,-11.881,451.9885],[36.7971,-11.8925,458.9992],[36.7924,-11.9021,466.2702],[36.7885,-11.9269,457.4432],[36.7681,-11.9541,484.9071],[36.7577,-11.9722,478.4102],[36.7492,-11.9777,485.2642],[36.7423,-11.9855,476.2856],[36.7396,-11.9912,479.4591],[36.7269,-11.9997,489.0054],[36.722,-12.0126,491.7733],[36.7221,-12.0257,490.8627],[36.7312,-12.0474,508.5187],[36.728,-12.0587,525.8587],[36.6951,-12.0834,528.1516],[36.6917,-12.0961,544.2798],[36.6842,-12.1101,545.5066],[36.667,-12.1329,554.7241],[36.6565,-12.1507,571.3022],[36.6516,-12.1643,576.8805],[36.6285,-12.1852,609.7468],[36.6147,-12.2025,629.0954],[36.6048,-12.2113,642.1803],[36.5945,-12.2168,650.9635],[36.5895,-12.2344,684.7911],[36.5981,-12.2553,782.882],[36.6236,-12.275,638.5883],[36.6346,-12.2816,663.0456],[36.6512,-12.3013,688.8409],[36.6781,-12.329,611.7894],[36.7638,-12.4098,633.8989],[36.8263,-12.4708,630.0685],[36.8476,-12.4945,534.3959],[36.9,-12.5829,476.0198],[36.9275,-12.6412,425.3185],[36.9342,-12.6521,418.1237],[36.9468,-12.6667,408.894],[36.9475,-12.671,404.9426],[36.9673,-12.6559,397.68],[36.9738,-12.6552,406.0865],[36.9894,-12.6606,397.405],[37.0008,-12.6584,394.5438],[37.031,-12.662,395.7947],[37.0484,-12.6463,392.1078],[37.0584,-12.6458,400.6434],[37.0703,-12.6426,396.8731],[37.0905,-12.6264,391.2575],[37.1011,-12.6288,379.5473],[37.1195,-12.6473,388.0689],[37.1297,-12.6517,380.6872],[37.1404,-12.6543,371.7572],[37.153,-12.653,378.4985],[37.1612,-12.648,373.3932],[37.1662,-12.6469,383.001],[37.2081,-12.6033,343.839],[37.2144,-12.5872,338.8788],[37.2122,-12.544,325.9997],[37.2236,-12.5246,321.881],[37.242,-12.5126,355.8191],[37.2542,-12.4947,317.375]]]]}
,"properties": {"GID_2": "MOZ.8.10_1","GID_0": "MOZ","country": "Mozambique","GID_1": "MOZ.8_1","province": "Nassa","NL_NAME_1": "NA","county": "Mecula","VARNAME_2": "NA","NL_NAME_2": "NA","TYPE_2": "Distrito","ENGTYPE_2": "District","CC_2": "NA","HASC_2": "MZ.NS.MC","name": "Mecula.county","area_km2": 18118.37,"hist_schema_id": "Elevation0-9000","hist_area_km2": {"125": 5.82,"150": 100.52,"175": 239.67,"200": 516.96,"225": 778.66,"250": 906.29,"275": 1093.06,"300": 1132.23,"325": 1326.91,"350": 1599.28,"375": 1758.86,"400": 1722.2,"425": 1601.12,"450": 1237.7,"475": 1030.52,"500": 936.49,"525": 667.7,"550": 374.86,"575": 258.63,"600": 196.18,"625": 144.48,"650": 107.37,"675": 72.11,"700": 51.29,"725": 38.59,"750": 32.71,"775": 29.0,"800": 23.59,"825": 22.56,"850": 18.2,"875": 15.9,"900": 14.31,"925": 12.19,"950": 9.58,"975": 8.21,"1000": 5.97,"1025": 5.93,"1050": 4.71,"1075": 5.12,"1100": 3.46,"1125": 2.55,"1150": 2.18,"1175": 1.51,"1200": 1.53,"1225": 0.62,"1250": 0.44,"1275": 0.29,"1300": 0.15}}}