{"type": "Feature","bbox": [35.8197,-16.0866,36.5984,-15.2581],"geometry": {"type": "MultiPolygon","coordinates": [[[[35.8423,-15.5362,639.2368],[35.8356,-15.6329,634.6852],[35.8317,-15.6749,664.4623],[35.828,-15.6969,1353.9816],[35.8197,-15.8305,673.0958],[35.8968,-15.8334,681.58],[35.9047,-15.8315,684.0204],[35.9371,-15.8103,667.1478],[35.9464,-15.7924,664.2595],[35.9588,-15.7864,682.9171],[35.9739,-15.7962,718.8174],[35.9825,-15.8134,718.4287],[36.0055,-15.827,695.9965],[36.0055,-15.8335,691.6099],[36.026,-15.8479,660.6476],[36.0333,-15.855,656.7697],[36.0267,-15.894,588.8723],[35.9974,-15.9109,595.0144],[36.0085,-15.9474,540.2554],[36.0116,-15.9832,690.3275],[36.0147,-16.0011,546.19],[36.0023,-16.028,451.0297],[35.9994,-16.0476,469.231],[36.0279,-16.0608,456.3506],[36.0866,-16.0629,440.6089],[36.1085,-16.084,429.6819],[36.1343,-16.084,437.3118],[36.1534,-16.0776,435.1045],[36.1639,-16.0702,442.4698],[36.1463,-16.0866,421.4364],[36.1591,-16.0762,435.6681],[36.1696,-16.0716,429.6055],[36.1771,-16.0584,455.334],[36.1928,-16.0492,458.1391],[36.2018,-16.0486,457.6743],[36.2284,-16.0371,481.3133],[36.2324,-16.0263,486.2835],[36.2444,-16.0124,507.6334],[36.2413,-15.9981,487.9301],[36.2475,-15.9713,533.3913],[36.2475,-15.9534,556.6906],[36.2506,-15.9445,534.9527],[36.2599,-15.9385,532.2181],[36.2724,-15.9117,653.5815],[36.2941,-15.8878,594.408],[36.3133,-15.8598,611.6544],[36.3328,-15.8418,657.9777],[36.3412,-15.8244,649.8812],[36.3562,-15.8311,655.5587],[36.4027,-15.861,646.9303],[36.4068,-15.8687,639.2722],[36.4132,-15.8723,639.2555],[36.4401,-15.8715,625.764],[36.4794,-15.888,633.1292],[36.4972,-15.886,620.3713],[36.5026,-15.8836,614.4977],[36.4913,-15.8589,629.1475],[36.4854,-15.8525,623.9858],[36.4847,-15.8334,650.0963],[36.4877,-15.8289,640.928],[36.5189,-15.8275,628.2657],[36.5147,-15.8145,638.0702],[36.5144,-15.809,632.7678],[36.5168,-15.7841,643.752],[36.5114,-15.7655,655.4115],[36.5114,-15.7357,670.5656],[36.5145,-15.7268,691.9684],[36.542,-15.6966,642.9626],[36.5784,-15.6409,675.6116],[36.5853,-15.6386,659.4193],[36.5908,-15.6339,651.8009],[36.5969,-15.6313,643.9172],[36.5984,-15.6245,664.3932],[36.5933,-15.6232,650.2836],[36.5823,-15.6158,672.3945],[36.5626,-15.6074,689.3947],[36.5584,-15.6,688.082],[36.5598,-15.5929,695.8688],[36.5486,-15.5687,751.0729],[36.5444,-15.5506,792.7192],[36.5349,-15.5244,927.3801],[36.5397,-15.51,856.4728],[36.5527,-15.4949,920.9617],[36.522,-15.4047,779.6276],[36.5145,-15.4017,774.0329],[36.5041,-15.3941,759.7288],[36.4832,-15.3889,738.9393],[36.474,-15.3767,730.3036],[36.4675,-15.3461,708.0093],[36.4625,-15.3333,691.6835],[36.4653,-15.3177,665.6514],[36.4634,-15.3013,651.8713],[36.4672,-15.2926,661.394],[36.4727,-15.2944,639.79],[36.4824,-15.2764,636.9292],[36.4808,-15.2659,678.5034],[36.4691,-15.2581,629.4028],[36.4567,-15.2675,636.28],[36.448,-15.269,637.4448],[36.4399,-15.2685,634.5641],[36.3585,-15.2893,648.7927],[36.347,-15.3113,655.1892],[36.3359,-15.3208,659.8463],[36.3221,-15.3388,669.6652],[36.3146,-15.3526,669.309],[36.2841,-15.3875,686.4537],[36.2676,-15.3998,695.4833],[36.2698,-15.4298,721.7726],[36.2875,-15.4486,815.4332],[36.2851,-15.4621,1024.894],[36.2827,-15.4663,1012.7494],[36.2363,-15.4684,779.1602],[36.1863,-15.4503,703.1409],[36.1781,-15.45,700.3949],[36.1399,-15.4347,690.0157],[36.1244,-15.4263,684.1463],[36.1133,-15.4283,674.1846],[36.0846,-15.4457,704.7186],[35.8506,-15.4441,625.0656],[35.8423,-15.5362,639.2368]]]]}
,"properties": {"GID_3": "MOZ.11.9.3_1","GID_0": "MOZ","country": "Mozambique","GID_1": "MOZ.11_1","province": "Zambezia","NL_NAME_1": "NA","GID_2": "MOZ.11.9_1","county": "Milange","NL_NAME_2": "NA","city": "Molumbo","VARNAME_3": "NA","NL_NAME_3": "NA","TYPE_3": "Localidad","ENGTYPE_3": "Locality","CC_3": "NA","HASC_3": "NA","name": "Molumbo.city","area_km2": 4333.683,"hist_schema_id": "Elevation0-9000","hist_area_km2": {"425": 5.419,"450": 28.097,"475": 30.401,"500": 24.209,"525": 18.872,"550": 25.499,"575": 29.845,"600": 40.959,"625": 201.904,"650": 518.326,"675": 484.965,"700": 577.092,"725": 560.113,"750": 534.9,"775": 555.306,"800": 412.02,"825": 152.988,"850": 43.222,"875": 20.498,"900": 13.516,"925": 10.107,"950": 8.494,"975": 6.331,"1000": 5.168,"1025": 4.474,"1050": 4.147,"1075": 4.148,"1100": 2.268,"1125": 1.941,"1150": 1.369,"1175": 1.267,"1200": 1.021,"1225": 0.858,"1250": 0.613,"1275": 0.47,"1300": 0.429,"1325": 0.429,"1350": 0.388,"1375": 0.388,"1400": 0.347,"1425": 0.449,"1450": 0.388,"1475": 0.041}}}