{"type": "Feature","bbox": [33.9768,-21.3166,35.1293,-20.6594],"geometry": {"type": "MultiPolygon","coordinates": [[[[35.0467,-20.9733,2.3954],[35.0504,-20.9728,0.5294],[35.0485,-20.9688,1.8878],[35.0521,-20.9649,0.0],[35.0518,-20.9574,1.6314],[35.0551,-20.9482,0.0],[35.0543,-20.9468,1.788],[35.044,-20.9463,3.8024],[35.041,-20.9432,0.0],[35.0404,-20.9393,0.0],[35.0435,-20.9346,0.0],[35.0582,-20.9312,5.2643],[35.0687,-20.9179,0.0],[35.0599,-20.9085,0.0],[35.0579,-20.9085,1.3334],[35.0571,-20.9049,0.1389],[35.044,-20.9074,2.0759],[35.0504,-20.9046,0.5622],[35.049,-20.903199999999998,1.7741],[35.0513,-20.9035,0.0],[35.054,-20.8974,0.0],[35.0535,-20.8924,0.6049],[35.056,-20.8887,0.0],[35.0563,-20.8907,0.3023],[35.0543,-20.8929,0.6049],[35.0551,-20.8946,0.0],[35.0607,-20.8865,0.0],[35.0557,-20.8757,1.0777],[35.0563,-20.874,0.0],[35.0524,-20.8701,2.445],[35.0468,-20.8679,0.2722],[35.0462,-20.864,0.3659],[35.0426,-20.8604,0.0],[35.0438,-20.8596,0.0],[35.0465,-20.8629,2.212],[35.0343,-20.8393,0.0],[35.0285,-20.819,0.0],[35.0262,-20.8165,0.0],[35.0232,-20.8224,0.0],[35.0254,-20.8271,0.9743],[35.024,-20.836,5.6265],[35.0301,-20.8412,4.4604],[35.021,-20.8351,0.1421],[35.0193,-20.8365,0.0],[35.0215,-20.8404,0.0],[35.021,-20.8437,0.0],[35.0176,-20.8476,0.0],[35.0115,-20.8493,1.0056],[35.0126,-20.8465,0.0],[35.0165,-20.846,0.5157],[35.0182,-20.8424,0.2051],[35.0157,-20.8301,0.0],[35.0137,-20.8285,0.9475],[35.0154,-20.8257,0.3408],[35.0104,-20.8187,0.0],[35.0062,-20.8185,0.0],[35.0068,-20.816,0.0],[35.0013,-20.814,0.0],[34.9999,-20.8162,0.5131],[34.9985,-20.816,0.0],[34.9987,-20.814,1.2581],[35.0046,-20.8121,0.0],[35.004,-20.8035,0.3437],[35.001,-20.7999,2.2198],[34.9863,-20.8007,0.0],[34.9757,-20.8121,1.164],[34.9643,-20.8124,0.0],[34.9618,-20.8176,0.8531],[34.9643,-20.8237,1.9571],[34.9643,-20.8276,3.7223],[34.9624,-20.8299,1.9494],[34.9588,-20.8296,2.0775],[34.9557,-20.8262,0.893],[34.9493,-20.8293,0.8303],[34.9549,-20.8254,0.893],[34.9568,-20.8254,1.0156],[34.9604,-20.829,0.6345],[34.9629,-20.8282,0.9129],[34.9632,-20.824,0.0],[34.9601,-20.8199,1.1233],[34.9604,-20.8172,0.8531],[34.9594,-20.8175,1.8057],[34.9587,-20.8219,2.5127],[34.9456,-20.8241,1.8953],[34.9366,-20.8278,1.8513],[34.9285,-20.8252,1.8176],[34.8989,-20.8472,1.9837],[34.8829,-20.8824,2.6715],[34.8613,-20.8969,4.6076],[34.8594,-20.9114,4.0075],[34.8561,-20.9176,5.4549],[34.8442,-20.9241,5.1262],[34.8175,-20.9274,11.4801],[34.792,-20.9442,21.933],[34.7634,-20.9481,35.1303],[34.7533,-20.9522,38.5667],[34.6743,-20.9519,54.3952],[34.6636,-20.9145,49.68],[34.6449,-20.8948,50.2551],[34.6296,-20.8687,53.9573],[34.626,-20.8584,55.2287],[34.6132,-20.8502,53.4015],[34.6036,-20.8372,50.3491],[34.5952,-20.8303,51.8281],[34.5879,-20.8172,48.0631],[34.578,-20.8054,52.6101],[34.5537,-20.7952,61.4595],[34.5431,-20.7866,53.3103],[34.5398,-20.7781,48.5746],[34.5394,-20.767,52.0084],[34.5428,-20.7543,55.3055],[34.5391,-20.7368,48.3088],[34.5391,-20.7297,42.2381],[34.5303,-20.7125,28.9509],[34.5275,-20.6988,21.8367],[34.5409,-20.6718,18.7217],[34.5348,-20.6594,17.0688],[34.5188,-20.681,17.4158],[34.4971,-20.699,19.1734],[34.4959,-20.7067,14.77],[34.4915,-20.7146,18.5886],[34.4637,-20.7403,23.8004],[34.4482,-20.7452,25.4183],[34.4373,-20.7424,23.5422],[34.4279,-20.7522,26.7309],[34.4168,-20.7573,25.7531],[34.4063,-20.7651,27.5473],[34.4016,-20.7661,29.2099],[34.3826,-20.7577,29.238],[34.3689,-20.7586,31.9991],[34.3309,-20.7866,29.8952],[34.3224,-20.7904,30.0837],[34.3131,-20.7923,33.0494],[34.3012,-20.7925,35.4689],[34.2768,-20.7887,34.2665],[34.2695,-20.7851,34.2802],[34.2597,-20.7871,35.1632],[34.2548,-20.7859,38.5719],[34.2462,-20.7966,36.676],[34.2394,-20.8131,35.5725],[34.2303,-20.8195,38.993],[34.2249,-20.8258,38.249],[34.2108,-20.8282,40.2556],[34.1977,-20.8278,41.3968],[34.1931,-20.8191,43.6203],[34.1886,-20.8149,42.5607],[34.173,-20.8149,44.3855],[34.1662,-20.8188,44.0505],[34.155,-20.8284,48.6237],[34.1488,-20.8475,47.4579],[34.1419,-20.8502,50.0358],[34.1299,-20.8518,49.265],[34.1214,-20.8562,49.868],[34.1128,-20.8631,52.0301],[34.1054,-20.8722,53.4007],[34.0984,-20.8873,52.9701],[34.0913,-20.892,55.0269],[34.0733,-20.8979,59.9578],[34.0644,-20.9077,60.2221],[34.0582,-20.9191,59.4213],[34.0483,-20.9546,60.4919],[34.0411,-20.9676,64.4336],[34.0279,-20.9762,63.08],[34.0157,-20.9793,68.5433],[34.0026,-20.9914,63.8689],[33.9979,-20.9919,63.1043],[33.987,-20.9966,66.1519],[33.9768,-21.0057,65.0633],[33.9947,-21.0066,72.8706],[34.1082,-21.0751,83.1916],[34.0936,-21.1299,92.7208],[34.0399,-21.1666,103.6084],[34.0319,-21.2234,113.1516],[34.0123,-21.2436,121.4048],[34.0052,-21.2686,88.9683],[34.0063,-21.3111,44.3097],[34.0388,-21.3068,48.1552],[34.0508,-21.3018,42.7524],[34.0808,-21.2938,45.0426],[34.1047,-21.2901,41.5696],[34.1292,-21.3104,43.2035],[34.1428,-21.3166,39.4845],[34.1723,-21.3137,37.2929],[34.1875,-21.3079,37.8767],[34.2033,-21.2808,42.6652],[34.2094,-21.2673,36.4603],[34.2286,-21.2607,33.0835],[34.2445,-21.265,37.8401],[34.2564,-21.2732,32.9417],[34.2669,-21.284,33.8764],[34.2929,-21.3005,28.3156],[34.2999,-21.3073,32.1533],[34.324,-21.3141,29.2428],[34.3361,-21.3091,27.2417],[34.3478,-21.2937,33.493],[34.3741,-21.2737,24.0594],[34.386,-21.2561,29.6228],[34.4401,-21.214,24.1237],[34.4507,-21.1793,24.3574],[34.4671,-21.165,20.7701],[34.4843,-21.1643,19.0353],[34.4982,-21.1599,19.02],[34.5132,-21.1435,18.6962],[34.5288,-21.1385,18.0143],[34.5661,-21.1351,20.1368],[34.5783,-21.1308,16.3622],[34.6007,-21.1176,17.5613],[34.6113,-21.1081,16.8308],[34.621,-21.1022,17.7981],[34.6409,-21.0931,14.6101],[34.6717,-21.092,14.3806],[34.6935,-21.102,13.5071],[34.7043,-21.1126,12.6844],[34.7216,-21.122,14.2158],[34.7519,-21.1221,15.3603],[34.7722,-21.1127,9.9921],[34.8072,-21.0791,10.8837],[34.869,-21.0335,8.0668],[34.93,-21.0042,7.189],[34.9415,-20.9965,4.1918],[34.9637,-20.99,2.3983],[34.9997,-20.9854,4.7233],[35.0467,-20.9733,2.3954]]],
[[[35.0549,-20.9565,0.0],[35.0535,-20.956,2.8268],[35.0532,-20.9588,2.3641],[35.054,-20.9585,2.3641],[35.0549,-20.9565,0.0]]],
[[[35.1049,-20.9007,0.0],[35.1029,-20.9004,0.0],[35.1037,-20.9029,0.5076],[35.1024,-20.9024,0.5076],[35.1018,-20.9049,1.2643],[35.0996,-20.9057,1.0895],[35.0982,-20.9099,2.8135],[35.0943,-20.9115,7.3871],[35.096,-20.9154,7.9739],[35.0926,-20.9135,5.6446],[35.0904,-20.9082,6.158],[35.0874,-20.9071,4.3518],[35.0804,-20.9065,1.3231],[35.0749,-20.9093,0.0],[35.069,-20.9099,0.0],[35.0724,-20.9154,0.326],[35.0704,-20.9229,0.0],[35.059,-20.9343,2.9573],[35.0549,-20.9363,4.4459],[35.046,-20.9371,0.9676],[35.0435,-20.939,3.1243],[35.0429,-20.9424,5.9769],[35.0446,-20.9443,0.0],[35.0554,-20.9415,0.0],[35.0588,-20.9443,1.3797],[35.059,-20.9607,5.5],[35.0551,-20.9679,0.6632],[35.0521,-20.9704,1.8987],[35.0526,-20.9729,1.6947],[35.0565,-20.974,2.8614],[35.0668,-20.9726,4.3017],[35.0696,-20.9682,0.0],[35.074,-20.966,2.7902],[35.0749,-20.9635,0.9557],[35.0732,-20.9632,2.5396],[35.0782,-20.9576,1.7827],[35.0832,-20.9574,1.4387],[35.0874,-20.961,0.0],[35.0915,-20.9615,0.0],[35.0935,-20.959,1.1115],[35.0913,-20.9582,3.591],[35.0971,-20.9562,0.0],[35.0951,-20.9549,1.0762],[35.0863,-20.9554,1.234],[35.081,-20.9515,1.0034],[35.0863,-20.9546,1.234],[35.0932,-20.9493,2.7656],[35.0996,-20.9529,1.071],[35.106,-20.9524,0.7823],[35.121,-20.9454,0.0],[35.1149,-20.9418,0.5953],[35.1146,-20.936,2.8554],[35.1096,-20.9371,1.361],[35.1121,-20.9351,0.0],[35.1157,-20.936,2.8554],[35.1165,-20.9404,0.445],[35.1232,-20.9413,0.0],[35.1263,-20.9451,0.0],[35.1279,-20.9451,0.0],[35.1293,-20.9382,0.0],[35.1246,-20.9349,4.1198],[35.1162,-20.9207,0.3124],[35.1124,-20.9188,0.0],[35.1135,-20.9168,0.0],[35.1049,-20.9007,0.0]]],
[[[35.0943,-20.9526,0.0],[35.0924,-20.9521,1.0346],[35.0921,-20.954,0.6627],[35.0943,-20.954,0.0],[35.0943,-20.9526,0.0]]],
[[[35.1012,-20.8899,0.0],[35.0999,-20.8901,0.0],[35.1024,-20.8926,0.0],[35.1024,-20.8918,0.0],[35.1012,-20.8899,0.0]]]]}
,"properties": {"GID_3": "MOZ.9.8.2_1","GID_0": "MOZ","country": "Mozambique","GID_1": "MOZ.9_1","province": "Sofala","NL_NAME_1": "NA","GID_2": "MOZ.9.8_1","county": "Machanga","NL_NAME_2": "NA","city": "Machanga","VARNAME_3": "NA","NL_NAME_3": "NA","TYPE_3": "Localidad","ENGTYPE_3": "Locality","CC_3": "NA","HASC_3": "NA","name": "Machanga.city","area_km2": 3803.365,"hist_schema_id": "Elevation0-9000","hist_area_km2": {"0": 468.969,"25": 401.502,"50": 1093.127,"75": 1367.207,"100": 452.852,"125": 19.706}}}