{"type": "Feature","bbox": [36.4625,-15.5878,37.3102,-14.9959],"geometry": {"type": "MultiPolygon","coordinates": [[[[37.2419,-15.0208,679.9869],[37.2355,-15.0209,687.1439],[37.2244,-15.032,703.1271],[37.2178,-15.0291,716.5925],[37.215,-15.0252,733.7779],[37.2216,-15.0138,828.9099],[37.2202,-15.0075,849.5629],[37.2123,-15.005,953.5238],[37.2016,-15.0051,1389.0027],[37.192,-14.9973,1653.4681],[37.003,-14.9959,616.1622],[36.6973,-14.9992,561.2633],[36.7012,-15.0135,565.6082],[36.6995,-15.0175,570.7094],[36.7007,-15.023,563.9945],[36.6982,-15.0271,565.3142],[36.6969,-15.0454,570.2954],[36.6918,-15.0519,568.1384],[36.6896,-15.0606,573.385],[36.6824,-15.0664,572.2357],[36.6776,-15.0752,571.0184],[36.6684,-15.0771,572.3217],[36.6644,-15.0961,577.4849],[36.6601,-15.1072,582.6891],[36.6385,-15.1068,581.5798],[36.6164,-15.1541,592.4147],[36.5954,-15.17,596.8478],[36.5877,-15.1711,599.9178],[36.5774,-15.1788,601.4587],[36.5685,-15.1992,601.3104],[36.562,-15.2045,612.5538],[36.5388,-15.215,611.3191],[36.5347,-15.223,612.4946],[36.5201,-15.2283,611.6032],[36.5154,-15.2357,613.8217],[36.5107,-15.2383,617.741],[36.5112,-15.2428,616.1191],[36.5051,-15.2459,625.5876],[36.4964,-15.2477,624.9424],[36.4797,-15.2492,629.5592],[36.4708,-15.2531,628.3082],[36.4697,-15.2585,629.4028],[36.4808,-15.2659,678.5034],[36.4824,-15.2764,636.9292],[36.4727,-15.2944,639.79],[36.4672,-15.2926,661.394],[36.4634,-15.3013,651.8713],[36.4653,-15.3177,665.6514],[36.4625,-15.3333,691.6835],[36.4675,-15.3461,708.0093],[36.474,-15.3767,730.3036],[36.4832,-15.3889,738.9393],[36.5041,-15.3941,759.7288],[36.5145,-15.4017,774.0329],[36.522,-15.4047,779.6276],[36.5527,-15.4949,920.9617],[36.5397,-15.51,856.4728],[36.5553,-15.5171,796.1351],[36.5622,-15.5221,967.6925],[36.5629,-15.5339,755.5651],[36.5671,-15.5372,738.5158],[36.596,-15.5344,701.0313],[36.6013,-15.5394,690.2354],[36.6042,-15.5504,679.0537],[36.6162,-15.5713,662.0329],[36.6578,-15.5826,642.6787],[36.6659,-15.5878,623.8771],[36.6679,-15.5864,623.8771],[36.6692,-15.5742,626.8757],[36.6716,-15.5664,637.3104],[36.6742,-15.5653,624.4309],[36.6714,-15.5456,637.7092],[36.6679,-15.5413,643.2002],[36.6685,-15.5329,661.6075],[36.6748,-15.5273,650.9589],[36.6748,-15.5212,664.6512],[36.6963,-15.5001,687.5357],[36.7098,-15.4813,691.838],[36.7346,-15.4257,738.9001],[36.7273,-15.4062,908.0684],[36.7727,-15.3821,1168.5566],[36.7724,-15.3709,1061.2268],[36.8032,-15.3249,1078.1261],[36.8555,-15.3143,1362.5352],[36.8758,-15.2535,949.7759],[36.9546,-15.2512,1662.1855],[36.9999,-15.2657,1287.8339],[37.0344,-15.2741,1349.6038],[37.0511,-15.2759,1081.5453],[37.0747,-15.2658,1075.7417],[37.1045,-15.262,1072.8033],[37.1251,-15.2626,1047.8911],[37.1383,-15.2697,1037.5419],[37.1497,-15.2649,1033.2256],[37.153,-15.2679,1035.9657],[37.1871,-15.2617,1015.3566],[37.1934,-15.2586,1015.1583],[37.1954,-15.2523,1031.1152],[37.201,-15.2496,1020.345],[37.2042,-15.2534,1012.2711],[37.2141,-15.2555,1013.9876],[37.2228,-15.2547,996.0204],[37.2438,-15.2429,901.8596],[37.2604,-15.2414,814.8778],[37.2696,-15.2382,789.7983],[37.276,-15.2479,785.7459],[37.2826,-15.25,767.5326],[37.2945,-15.2355,750.6013],[37.3003,-15.2169,752.0051],[37.3004,-15.2027,747.7709],[37.3094,-15.1556,736.7383],[37.306,-15.1363,742.988],[37.3045,-15.1357,740.6787],[37.3102,-15.1274,733.1443],[37.309,-15.1239,728.0685],[37.2947,-15.1142,774.1783],[37.2883,-15.1004,807.7141],[37.2828,-15.0948,800.0337],[37.2645,-15.0983,917.4797],[37.2579,-15.0874,799.6748],[37.2469,-15.077,779.7471],[37.2399,-15.0481,719.8971],[37.2423,-15.0351,698.6048],[37.2419,-15.0208,679.9869]]]]}
,"properties": {"GID_3": "MOZ.11.4.2_1","GID_0": "MOZ","country": "Mozambique","GID_1": "MOZ.11_1","province": "Zambezia","NL_NAME_1": "NA","GID_2": "MOZ.11.4_1","county": "Gurue","NL_NAME_2": "NA","city": "Lioma","VARNAME_3": "NA","NL_NAME_3": "NA","TYPE_3": "Localidad","ENGTYPE_3": "Locality","CC_3": "NA","HASC_3": "NA","name": "Lioma.city","area_km2": 2927.462,"hist_schema_id": "Elevation0-9000","hist_area_km2": {"550": 0.164,"575": 15.417,"600": 54.218,"625": 156.732,"650": 321.658,"675": 337.299,"700": 311.973,"725": 292.602,"750": 231.801,"775": 187.315,"800": 135.749,"825": 95.611,"850": 69.617,"875": 51.842,"900": 41.533,"925": 38.649,"950": 35.193,"975": 31.101,"1000": 29.424,"1025": 30.119,"1050": 35.581,"1075": 35.724,"1100": 33.31,"1125": 29.629,"1150": 26.868,"1175": 24.924,"1200": 22.959,"1225": 22.284,"1250": 19.275,"1275": 19.622,"1300": 18.292,"1325": 17.125,"1350": 15.815,"1375": 13.483,"1400": 12.767,"1425": 13.892,"1450": 13.155,"1475": 10.802,"1500": 8.061,"1525": 7.611,"1550": 6.731,"1575": 5.995,"1600": 7.959,"1625": 6.813,"1650": 6.466,"1675": 5.893,"1700": 5.381,"1725": 3.233,"1750": 2.271,"1775": 1.432,"1800": 1.084,"1825": 1.064,"1850": 1.003,"1875": 0.859,"1900": 0.552,"1925": 0.552,"1950": 0.368,"1975": 0.348,"2000": 0.123,"2025": 0.102,"2050": 0.041}}}