{"type":"Feature","properties":{"GID_3":"MOZ.11.2.2_1","GID_0":"MOZ","country":"Mozambique","GID_1":"MOZ.11_1","province":"Zambezia","NL_NAME_1":"NA","GID_2":"MOZ.11.2_1","county":"Chinde","NL_NAME_2":"NA","city":"Luabo","VARNAME_3":"NA","NL_NAME_3":"NA","TYPE_3":"Localidad","ENGTYPE_3":"Locality","CC_3":"NA","HASC_3":"NA","name":"Luabo.city"},
"geometry":{"type": "MultiPolygon","coordinates": [[[[36.2557,-18.8118,2.8303],[36.2543,-18.8099,4.7774],[36.2632,-18.8046,1.1575],[36.2738,-18.8163,0.0],[36.2851,-18.8224,0.0],[36.291,-18.8285,0.0],[36.2982,-18.8326,1.4135],[36.301,-18.8371,0.0],[36.3007,-18.844,0.0],[36.3063,-18.8557,1.0755],[36.3093,-18.8585,0.0],[36.3079,-18.8626,0.0],[36.3151,-18.8604,0.0],[36.3326,-18.8454,0.0],[36.2473,-18.7136,3.5736],[36.2403,-18.7076,0.0],[36.2373,-18.6738,4.3889],[36.2282,-18.6625,3.5116],[36.2226,-18.649,2.6409],[36.228,-18.6459,3.1638],[36.243,-18.6215,3.4822],[36.2478,-18.6078,3.6147],[36.2552,-18.5767,5.8875],[36.2983,-18.5576,2.1364],[36.2983,-18.552,1.996],[36.2912,-18.5471,2.0874],[36.2769,-18.5471,2.099],[36.2723,-18.5384,4.9136],[36.2978,-18.5371,2.3116],[36.3023,-18.5329,2.5456],[36.308,-18.5203,3.1731],[36.3304,-18.5174,9.3024],[36.3753,-18.522,2.1525],[36.3656,-18.5174,2.6444],[36.3719,-18.5059,2.4382],[36.3489,-18.5069,1.5395],[36.3453,-18.5014,2.8312],[36.3531,-18.4887,5.3616],[36.3447,-18.4918,4.135],[36.3415,-18.4887,3.4372],[36.3426,-18.4709,6.7276],[36.3274,-18.4671,6.0767],[36.3173,-18.4534,8.1841],[36.3114,-18.4492,6.4237],[36.3065,-18.4405,3.0911],[36.2714,-18.4124,4.679],[36.2637,-18.4134,5.5416],[36.2552,-18.4039,5.7415],[36.2423,-18.4053,6.3839],[36.2318,-18.3971,6.3275],[36.2286,-18.391,4.5878],[36.2595,-18.3267,6.5216],[36.2512,-18.3175,6.1375],[36.2491,-18.3082,5.2693],[36.2416,-18.3004,5.7143],[36.2448,-18.2885,7.5555],[36.2416,-18.2803,6.3498],[36.208,-18.2544,7.0867],[36.2076,-18.2387,4.9366],[36.2034,-18.2262,7.5436],[36.1856,-18.222,8.4626],[36.1718,-18.222,7.3579],[36.1485,-18.2077,6.7881],[36.1387,-18.1996,6.4454],[36.1189,-18.1728,7.676],[36.1102,-18.1664,5.8038],[36.0807,-18.1621,9.383],[36.053,-18.1538,11.4902],[36.0401,-18.1549,10.5527],[36.023,-18.1506,10.8629],[36.012,-18.1365,11.5239],[35.9945,-18.1036,10.9392],[35.984,-18.109,12.3271],[35.9774,-18.11,12.0681],[35.9676,-18.1214,11.5288],[35.959,-18.1181,12.2112],[35.9579,-18.1144,14.3661],[35.9547,-18.111,13.511],[35.9201,-18.1029,13.0948],[35.8899,-18.1064,13.2513],[35.8874,-18.1023,13.4902],[35.8844,-18.1021,13.9745],[35.8726,-18.1032,13.4057],[35.8655,-18.1058,15.9153],[35.8374,-18.1225,11.0],[35.8414,-18.151,11.0],[35.8611,-18.174,12.5368],[35.8873,-18.2254,8.0],[35.8928,-18.2469,7.5],[35.903,-18.2616,10.4733],[35.909,-18.2658,6.5],[35.933,-18.2658,9.3079],[35.9494,-18.269,6.0],[35.9698,-18.2907,5.5],[35.9853,-18.3001,5.5],[35.9976,-18.3068,5.5],[36.0138,-18.3054,7.6863],[36.0259,-18.3248,7.1641],[36.0259,-18.3336,7.3763],[36.0272,-18.3349,7.0195],[36.0326,-18.3394,5.0],[36.0585,-18.3423,6.5395],[36.0743,-18.355,5.6266],[36.0813,-18.3684,4.8013],[36.1187,-18.4643,3.4339],[36.1279,-18.4834,2.0],[36.1406,-18.5288,4.3327],[36.1425,-18.5458,5.4945],[36.1393,-18.566,4.5665],[36.1392,-18.5814,6.0705],[36.1458,-18.5928,6.7603],[36.1331,-18.5915,3.5373],[36.1272,-18.6086,4.4732],[36.1036,-18.6231,2.054],[36.1117,-18.6521,4.7125],[36.1074,-18.6656,3.3634],[36.1073,-18.6795,2.8327],[36.1478,-18.7139,1.9317],[36.1491,-18.7202,4.2356],[36.2551,-18.8123,2.8303],[36.2557,-18.8118,2.8303]]]]}}