{"type": "Feature","bbox": [34.3015,-24.8626,34.6521,-24.4555],"geometry": {"type": "MultiPolygon","coordinates": [[[[34.3017,-24.7429,24.5],[34.3021,-24.7931,77.1626],[34.4361,-24.8065,75.9224],[34.4736,-24.8626,8.7577],[34.4899,-24.8596,0.0],[34.5107,-24.8532,0.0],[34.516,-24.8479,6.6208],[34.5343,-24.8421,0.0],[34.5376,-24.8382,6.9923],[34.549,-24.8335,6.4187],[34.6521,-24.8015,0.0],[34.6277,-24.7176,104.0687],[34.6283,-24.7123,91.9404],[34.6172,-24.7057,81.3131],[34.609,-24.7034,81.0852],[34.612,-24.6978,66.1163],[34.6058,-24.6663,66.8111],[34.5991,-24.6549,72.0879],[34.5954,-24.6407,57.7216],[34.5798,-24.6107,15.2288],[34.5916,-24.5998,32.1078],[34.6013,-24.5879,25.6788],[34.6077,-24.5836,14.38],[34.6394,-24.5767,0.5],[34.6385,-24.5666,0.5],[34.6428,-24.5511,0.5],[34.6085,-24.5391,0.5],[34.5999,-24.5117,0.5],[34.5938,-24.5004,0.5],[34.5854,-24.4955,0.5],[34.5465,-24.4918,19.5553],[34.5361,-24.4961,38.303],[34.5271,-24.5032,32.716],[34.5158,-24.5081,6.4966],[34.4983,-24.5083,38.9545],[34.4782,-24.506,0.5],[34.459,-24.49,0.5],[34.4534,-24.4813,0.5],[34.4285,-24.4555,1.8088],[34.3541,-24.5273,51.5274],[34.4551,-24.636,34.9185],[34.3015,-24.7071,27.6245],[34.3017,-24.7429,24.5]]]]}
,"properties": {"GID_3": "MOZ.3.12.2_1","GID_0": "MOZ","country": "Mozambique","GID_1": "MOZ.3_1","province": "Inhambane","NL_NAME_1": "NA","GID_2": "MOZ.3.12_1","county": "Zavala","NL_NAME_2": "NA","city": "Zandamela","VARNAME_3": "NA","NL_NAME_3": "NA","TYPE_3": "Localidad","ENGTYPE_3": "Locality","CC_3": "NA","HASC_3": "NA","name": "Zandamela.city","area_km2": 952.5898,"hist_schema_id": "Elevation0-9000","hist_area_km2": {"0": 47.2863,"25": 86.0541,"50": 301.6999,"75": 376.0979,"100": 119.9445,"125": 21.3339,"150": 0.1733}}}