{"type": "Feature","bbox": [37.6712,-17.479,38.1193,-17.0342],"geometry": {"type": "MultiPolygon","coordinates": [[[[37.6916,-17.1867,36.1706],[37.6874,-17.1968,53.6774],[37.7122,-17.2123,33.8097],[37.7329,-17.2098,9.8295],[37.7337,-17.2247,12.9563],[37.7087,-17.237,14.0029],[37.6933,-17.2546,9.5009],[37.6897,-17.2663,6.7444],[37.6837,-17.2728,10.5834],[37.6712,-17.2817,6.0652],[37.6771,-17.2935,3.5964],[37.6836,-17.3148,3.3141],[37.6809,-17.33,2.145],[37.6714,-17.3391,1.8156],[37.6817,-17.3634,3.0517],[37.6896,-17.3767,2.8153],[37.6994,-17.3863,3.6134],[37.7017,-17.3948,2.1883],[37.6995,-17.41,8.873],[37.7088,-17.4178,4.882],[37.7302,-17.4063,2.1195],[37.7422,-17.4069,5.8273],[37.7591,-17.4111,7.5011],[37.7629,-17.419,1.3823],[37.7617,-17.4206,9.7609],[37.7498,-17.4224,2.9889],[37.7438,-17.425,4.519],[37.742,-17.4305,2.6197],[37.7423,-17.4365,4.0379],[37.7365,-17.4425,11.2071],[37.7141,-17.4497,6.0192],[37.7093,-17.4537,3.3871],[37.6916,-17.4627,3.6993],[37.6975,-17.4729,0.0],[37.7065,-17.479,2.7353],[37.7121,-17.4785,0.6513],[37.7282,-17.471,1.0601],[37.7576,-17.4551,0.0],[37.7929,-17.4332,4.3414],[37.8635,-17.3985,6.4398],[37.9051,-17.3821,0.0],[37.9637,-17.3549,1.3947],[38.0021,-17.3415,0.0],[38.0062,-17.3396,0.0],[38.0074,-17.3374,3.4707],[38.0129,-17.3379,7.0621],[38.0482,-17.3276,3.8646],[38.046,-17.3215,3.1664],[38.0376,-17.3115,1.9545],[38.0201,-17.3007,1.423],[38.0001,-17.284,2.5],[37.9907,-17.2851,3.9085],[37.984,-17.2821,2.9548],[37.9782,-17.2676,2.8411],[37.9715,-17.2612,2.7197],[37.9635,-17.2568,2.7403],[37.9615,-17.2532,3.1123],[37.9776,-17.2632,2.5],[37.9865,-17.2804,2.5],[37.9915,-17.2829,3.3811],[38.0007,-17.2807,3.421],[38.0051,-17.2829,2.8941],[38.009,-17.2876,2.5413],[38.0124,-17.2882,1.75],[38.0129,-17.2854,2.2142],[38.0099,-17.2779,1.5],[38.0104,-17.2721,2.7932],[38.0271,-17.2574,2.3944],[38.0288,-17.2529,1.8693],[38.0285,-17.2437,1.9366],[38.0354,-17.239,2.1238],[38.0354,-17.2404,2.9083],[38.0293,-17.2446,1.5],[38.031,-17.2538,1.885],[38.0293,-17.2574,2.1235],[38.0149,-17.2701,3.3269],[38.0126,-17.2782,1.5],[38.0176,-17.2899,1.5],[38.0246,-17.2962,2.8049],[38.0262,-17.2957,0.5],[38.0318,-17.2854,2.1708],[38.0282,-17.2985,0.5],[38.0412,-17.3054,2.7144],[38.0499,-17.3151,1.5135],[38.0504,-17.3207,0.0],[38.0543,-17.3229,0.6443],[38.0596,-17.3232,0.0],[38.0749,-17.3199,0.0],[38.0793,-17.3237,0.0],[38.086,-17.3232,0.0],[38.0868,-17.319,0.0],[38.0846,-17.3162,0.0],[38.0874,-17.3124,0.8327],[38.1079,-17.3018,0.0],[38.1129,-17.2968,0.0],[38.1129,-17.2943,0.0],[38.111,-17.2932,0.0],[38.0943,-17.2951,1.6412],[38.0807,-17.2929,1.847],[38.0846,-17.291,2.871],[38.1007,-17.2926,0.0],[38.0826,-17.2813,5.5052],[38.0668,-17.2813,4.4056],[38.0635,-17.2799,3.4561],[38.0588,-17.2746,2.8995],[38.0582,-17.2682,1.5],[38.0599,-17.2654,1.5],[38.0585,-17.2632,2.4638],[38.0429,-17.2565,2.3741],[38.0438,-17.256,3.7102],[38.049,-17.2568,2.9553],[38.0596,-17.2604,3.6745],[38.0618,-17.2635,4.5423],[38.0626,-17.274,1.0],[38.0671,-17.2774,1.0],[38.0715,-17.2774,4.2594],[38.0788,-17.2746,1.0],[38.0804,-17.2679,3.7156],[38.0832,-17.264,5.4246],[38.094,-17.2579,2.6243],[38.0918,-17.2612,3.2613],[38.0846,-17.264,3.0031],[38.081,-17.2735,1.0],[38.084,-17.2768,3.1064],[38.0882,-17.2776,5.4271],[38.0996,-17.284,0.0],[38.1037,-17.2815,0.0],[38.1096,-17.2707,2.575],[38.1179,-17.2632,1.9328],[38.1193,-17.2582,1.0],[38.1193,-17.2521,1.0],[38.1162,-17.246,1.9384],[38.0824,-17.2229,1.9257],[38.066,-17.2013,4.2501],[38.0626,-17.2007,2.4556],[38.0651,-17.1999,2.8551],[38.0674,-17.2007,4.812],[38.0699,-17.2051,3.1288],[38.0726,-17.206,4.0244],[38.064,-17.1924,2.905],[38.0632,-17.186,2.0637],[38.0668,-17.1824,5.0475],[38.069,-17.1837,3.7169],[38.0721,-17.1826,1.5],[38.0718,-17.1787,2.3558],[38.066,-17.1724,4.748],[38.0662,-17.1679,5.4888],[38.0679,-17.1654,2.0],[38.0743,-17.1632,2.0],[38.0768,-17.1585,2.0],[38.069,-17.1574,3.3291],[38.0657,-17.1501,4.6722],[38.0635,-17.1482,5.3073],[38.0585,-17.1476,2.6633],[38.0526,-17.1424,3.8495],[38.051,-17.1374,5.8674],[38.0596,-17.1474,2.7612],[38.0651,-17.1479,4.2197],[38.0701,-17.1562,8.06],[38.0745,-17.1554,5.873],[38.0678,-17.1493,5.5417],[38.0533,-17.1203,4.1309],[38.0689,-17.1147,12.0268],[38.0712,-17.1094,10.5758],[38.0589,-17.0879,13.9556],[38.0666,-17.0483,24.5481],[38.0147,-17.0491,53.4027],[37.9804,-17.0372,38.0642],[37.9304,-17.0372,56.7985],[37.8898,-17.0402,67.3471],[37.8648,-17.0402,103.4317],[37.8398,-17.0342,92.8434],[37.8211,-17.0342,93.0227],[37.7901,-17.0725,65.8866],[37.7867,-17.0789,79.6056],[37.7867,-17.0938,58.5846],[37.7791,-17.1017,69.9414],[37.7541,-17.1007,40.1663],[37.7368,-17.1028,32.974],[37.7305,-17.1177,59.5253],[37.743,-17.1416,26.7125],[37.743,-17.1451,24.4608],[37.7392,-17.1532,13.1624],[37.6916,-17.1867,36.1706]]]]}
,"properties": {"GID_3": "MOZ.11.8.1_1","GID_0": "MOZ","country": "Mozambique","GID_1": "MOZ.11_1","province": "Zambezia","NL_NAME_1": "NA","GID_2": "MOZ.11.8_1","county": "MaganjadaCosta","NL_NAME_2": "NA","city": "Bojone(Bajone)","VARNAME_3": "NA","NL_NAME_3": "NA","TYPE_3": "Localidad","ENGTYPE_3": "Locality","CC_3": "NA","HASC_3": "NA","name": "Bojone(Bajone).city","area_km2": 1464.775,"hist_schema_id": "Elevation0-9000","hist_area_km2": {"0": 525.802,"25": 438.632,"50": 312.951,"75": 168.985,"100": 18.262,"125": 0.142}}}