{"type":"Feature","properties":{"GID_3":"MOZ.6.3.3_1","GID_0":"MOZ","country":"Mozambique","GID_1":"MOZ.6_1","province":"Maputo","NL_NAME_1":"NA","GID_2":"MOZ.6.3_1","county":"Manhiça","NL_NAME_2":"NA","city":"IlhaJosinaMachel","VARNAME_3":"NA","NL_NAME_3":"NA","TYPE_3":"Localidad","ENGTYPE_3":"Locality","CC_3":"NA","HASC_3":"NA","name":"Ilha_Josina_Machel.city"},
"geometry":{"type": "MultiPolygon","coordinates": [[[[32.9958,-25.0949,10.2316],[32.9991,-25.086,11.2769],[32.9552,-25.0788,12.735],[32.9468,-25.0763,10.2765],[32.9355,-25.0699,11.0375],[32.9254,-25.0696,11.3828],[32.9232,-25.0623,12.0501],[32.9244,-25.0529,10.5],[32.915,-25.0388,10.5],[32.915,-25.0334,10.5],[32.8924,-25.0543,14.5281],[32.8968,-25.0565,14.0429],[32.8971,-25.0637,13.7313],[32.9006,-25.0696,13.7178],[32.8973,-25.0726,16.3329],[32.8939,-25.0726,15.1183],[32.898,-25.0903,15.4582],[32.9003,-25.0946,13.6009],[32.9,-25.0989,14.249],[32.8904,-25.1014,13.6942],[32.8971,-25.1172,12.0325],[32.8953,-25.1207,11.7542],[32.8959,-25.1241,12.7464],[32.8918,-25.1265,11.6271],[32.8902,-25.1304,12.8262],[32.8973,-25.14,10.7348],[32.9187,-25.1496,9.7898],[32.9293,-25.1496,9.2933],[32.9329,-25.1528,10.2113],[32.9295,-25.1593,9.5856],[32.9329,-25.1721,9.5102],[32.9397,-25.1783,8.8854],[32.9434,-25.1852,8.3464],[32.9434,-25.2303,8.0135],[32.94,-25.2396,6.5744],[32.9258,-25.2492,6.1717],[32.9222,-25.2556,5.9582],[32.9151,-25.2621,5.9881],[32.908,-25.2748,5.3899],[32.8976,-25.2814,5.3535],[32.8968,-25.297,5.7909],[32.9078,-25.3146,6.4561],[32.9101,-25.3132,4.2265],[32.9146,-25.3154,4.5764],[32.9279,-25.3163,4.4686],[32.9338,-25.3118,5.5608],[32.934,-25.3036,4.5316],[32.9407,-25.2976,4.5568],[32.9459,-25.3008,5.1458],[32.9538,-25.2911,5.1119],[32.965,-25.2824,6.9767],[32.9663,-25.2764,7.1233],[32.9734,-25.2738,7.3895],[32.974,-25.269,5.682],[32.9693,-25.2656,7.0229],[32.9736,-25.2522,6.7814],[32.9777,-25.2522,7.2746],[32.9791,-25.2481,8.0736],[32.9855,-25.2446,6.5789],[32.9824,-25.2337,5.8411],[32.9846,-25.2325,6.565],[32.9812,-25.2219,6.8775],[32.9926,-25.1993,7.5968],[32.9969,-25.1801,8.0337],[32.9946,-25.1757,8.4896],[32.9958,-25.1721,8.9235],[33.0072,-25.1565,8.4319],[33.012,-25.1525,8.4221],[33.0122,-25.1491,12.6411],[33.0103,-25.146,10.874],[33.0123,-25.1337,9.378],[33.0095,-25.1303,10.3811],[33.0037,-25.1316,9.9061],[32.9976,-25.1356,9.4289],[32.9898,-25.1332,9.6071],[32.9843,-25.126,10.5108],[32.9828,-25.1177,9.7611],[32.9958,-25.0949,10.2316]]]]}}