{"type": "Feature","bbox": [39.7342,-15.9557,40.5696,-15.0945],"geometry": {"type": "MultiPolygon","coordinates": [[[[40.1229,-15.949,0.0],[40.1213,-15.9485,0.0],[40.1204,-15.9529,0.0],[40.1224,-15.9518,0.0],[40.1229,-15.949,0.0]]],
[[[40.1307,-15.9443,0.0],[40.1324,-15.9432,1.0663],[40.1324,-15.9415,1.8617],[40.1312,-15.9418,1.8617],[40.1307,-15.9443,0.0]]],
[[[40.1371,-15.9382,1.2846],[40.1346,-15.9376,2.9686],[40.1332,-15.9399,0.0],[40.1371,-15.9396,0.0],[40.1371,-15.9382,1.2846]]],
[[[40.0198,-15.8936,13.444],[40.0347,-15.905,12.7878],[40.0454,-15.9016,11.4485],[40.0547,-15.9011,11.7231],[40.0725,-15.9144,5.2715],[40.0864,-15.9172,4.6284],[40.1124,-15.915,3.8832],[40.1163,-15.9184,2.2178],[40.1264,-15.9209,5.0704],[40.1297,-15.9171,4.1318],[40.1329,-15.9174,5.981],[40.1429,-15.9121,1.7621],[40.1429,-15.9199,1.8514],[40.1451,-15.9235,0.0],[40.1432,-15.9376,0.0],[40.1368,-15.9412,0.0],[40.1324,-15.9468,2.1374],[40.126,-15.9485,0.2136],[40.1204,-15.954,0.0],[40.1204,-15.9557,0.0],[40.1485,-15.9429,6.013],[40.1538,-15.9443,0.0],[40.1565,-15.9382,1.0729],[40.1643,-15.9321,0.0],[40.1646,-15.9285,2.7496],[40.1693,-15.9207,8.4206],[40.1763,-15.914,2.2207],[40.181,-15.906,0.0],[40.1985,-15.889,5.1754],[40.2085,-15.8826,1.2394],[40.2199,-15.8682,0.0],[40.2343,-15.8582,0.0],[40.2374,-15.8551,0.0],[40.2374,-15.8532,0.6908],[40.2346,-15.8538,0.5],[40.2326,-15.8576,0.9611],[40.2299,-15.8588,1.5796],[40.2276,-15.8582,3.4934],[40.2271,-15.854,0.9044],[40.2207,-15.8546,1.8728],[40.2257,-15.8529,4.4081],[40.2313,-15.8543,3.9231],[40.2388,-15.8504,0.0],[40.2496,-15.8382,6.5536],[40.2593,-15.8313,0.0],[40.2649,-15.824,4.4209],[40.2796,-15.8132,0.0],[40.2865,-15.8057,1.2603],[40.2932,-15.8015,1.3551],[40.3107,-15.7857,4.2943],[40.3224,-15.7687,5.2666],[40.3501,-15.7463,0.0],[40.3718,-15.716,15.3056],[40.3771,-15.7012,5.8086],[40.3821,-15.6946,6.1935],[40.3876,-15.6826,15.1842],[40.3935,-15.6779,1.7829],[40.3985,-15.6626,11.7484],[40.421,-15.6351,3.4875],[40.424,-15.6285,1.3882],[40.4229,-15.6226,6.3583],[40.4254,-15.6185,0.0],[40.441,-15.6037,6.2596],[40.4543,-15.594,3.8037],[40.469,-15.5871,0.0],[40.4721,-15.5846,0.8406],[40.4729,-15.5801,0.0],[40.4704,-15.579,0.0],[40.4682,-15.5801,0.0],[40.4593,-15.5885,1.8251],[40.4485,-15.5896,3.8844],[40.4401,-15.5974,2.2376],[40.4238,-15.5957,0.5],[40.4193,-15.6001,3.2578],[40.4215,-15.5957,0.8936],[40.4404,-15.5954,0.5],[40.4482,-15.5874,0.7431],[40.4596,-15.5857,0.2368],[40.4562,-15.579,2.6516],[40.4615,-15.581,0.2316],[40.4635,-15.5768,1.1453],[40.4671,-15.5737,0.9349],[40.4799,-15.5687,0.0],[40.4815,-15.5649,0.0],[40.4826,-15.5671,0.0],[40.486,-15.5685,0.0],[40.484,-15.5654,0.8883],[40.4849,-15.5626,3.2232],[40.4957,-15.5607,0.0],[40.5007,-15.5563,0.6791],[40.4999,-15.5512,0.0],[40.5013,-15.5451,2.9086],[40.4971,-15.5412,0.0],[40.4932,-15.5426,0.5],[40.4879,-15.5482,3.5922],[40.4832,-15.5485,2.6454],[40.4793,-15.5468,2.325],[40.4787,-15.5443,2.7363],[40.4857,-15.546,3.2785],[40.4899,-15.5418,0.5],[40.4851,-15.539,1.3807],[40.4907,-15.5412,3.0859],[40.4949,-15.5371,2.5341],[40.4999,-15.5357,1.2229],[40.504,-15.5393,2.1749],[40.5074,-15.5393,1.038],[40.5143,-15.5332,0.0],[40.5143,-15.5251,0.0],[40.5199,-15.5246,1.6555],[40.5243,-15.5221,1.6613],[40.5251,-15.5201,0.0],[40.5215,-15.519,2.9176],[40.5224,-15.5185,1.4891],[40.526,-15.5193,1.468],[40.526,-15.521,0.0],[40.5221,-15.5251,1.9841],[40.5174,-15.5262,0.0],[40.5168,-15.5337,0.7406],[40.521,-15.5351,0.0],[40.5243,-15.5343,0.0],[40.5271,-15.5313,0.0],[40.5301,-15.5224,3.5052],[40.5332,-15.5201,1.1195],[40.5351,-15.521,0.5859],[40.5396,-15.514,1.0543],[40.5412,-15.5135,1.8344],[40.5426,-15.5151,0.0],[40.5501,-15.5085,0.5463],[40.554,-15.5018,2.3429],[40.5612,-15.4993,1.8255],[40.5696,-15.4871,0.0],[40.5682,-15.4832,0.0],[40.5687,-15.4868,0.0],[40.566,-15.4879,0.0],[40.5638,-15.4946,0.0],[40.5621,-15.4943,0.3343],[40.5643,-15.4918,0.0],[40.5624,-15.4907,0.7714],[40.5618,-15.4862,0.0],[40.5576,-15.4876,0.4705],[40.5515,-15.4854,1.2278],[40.5504,-15.4907,0.9564],[40.5493,-15.4862,0.9514],[40.5513,-15.4843,1.237],[40.5574,-15.4838,0.0],[40.5604,-15.481,0.4182],[40.564,-15.4815,0.0],[40.5638,-15.4829,0.0],[40.5663,-15.4824,0.0],[40.5665,-15.4807,0.0],[40.5638,-15.4801,0.1803],[40.564,-15.4757,1.4479],[40.5671,-15.471,0.0],[40.5651,-15.466,1.9659],[40.566,-15.4624,0.0],[40.5632,-15.4571,0.0],[40.5587,-15.4568,1.7796],[40.5501,-15.4596,3.4827],[40.5479,-15.4585,2.3463],[40.5479,-15.4563,1.8014],[40.5407,-15.4537,2.211],[40.539,-15.4482,0.5],[40.5421,-15.447,2.2508],[40.5404,-15.4445,1.9698],[40.5317,-15.4507,2.5283],[40.5152,-15.4582,3.649],[40.51,-15.4647,4.1999],[40.4875,-15.483,6.0635],[40.4701,-15.5043,15.8508],[40.457,-15.5111,13.0445],[40.4206,-15.5067,7.5026],[40.4033,-15.5117,9.1654],[40.3811,-15.514099999999999,13.4205],[40.3711,-15.5091,25.9961],[40.3686,-15.5051,25.3562],[40.36,-15.4749,21.1996],[40.3567,-15.4681,25.635],[40.3489,-15.4631,37.8418],[40.3435,-15.456,34.3384],[40.3227,-15.46,39.8951],[40.3166,-15.4572,40.8177],[40.302,-15.4438,50.3894],[40.2791,-15.4068,87.232],[40.2602,-15.3827,90.2583],[40.2521,-15.3814,82.8971],[40.2455,-15.33,93.5654],[40.2453,-15.3162,100.3577],[40.2491,-15.2774,96.5797],[40.2531,-15.2605,63.0579],[40.2419,-15.2491,70.9536],[40.2325,-15.2264,95.7409],[40.2202,-15.2076,116.8689],[40.2246,-15.198,110.8313],[40.2413,-15.1741,96.2592],[40.2534,-15.166,97.0758],[40.2497,-15.1611,99.2812],[40.2468,-15.1513,107.5565],[40.2403,-15.1446,111.1534],[40.2332,-15.1405,124.6566],[40.2262,-15.13,128.3408],[40.2237,-15.1125,103.5123],[40.2314,-15.0945,99.3336],[40.2216,-15.0945,92.4484],[40.1954,-15.0997,98.0214],[40.1883,-15.1076,103.1385],[40.1324,-15.1566,163.775],[40.1285,-15.171,155.5838],[40.1129,-15.1839,144.4648],[40.1092,-15.1919,133.9536],[40.1097,-15.2163,109.391],[40.108,-15.2204,103.8222],[40.0752,-15.2197,113.2439],[40.0531,-15.213,130.1695],[40.0442,-15.2125,138.7181],[40.035,-15.2067,131.3288],[40.03,-15.1965,138.9489],[40.0256,-15.1932,135.6602],[40.0173,-15.1912,139.9023],[40.009,-15.1853,143.5928],[40.0,-15.1713,151.154],[39.9838,-15.1656,167.4269],[39.9706,-15.1655,167.4907],[39.9647,-15.1677,171.8276],[39.9516,-15.1646,187.8924],[39.9382,-15.1673,193.9856],[39.9201,-15.1804,161.5154],[39.9126,-15.1882,149.7853],[39.9079,-15.1955,135.5262],[39.9127,-15.2028,142.4399],[39.9096,-15.216,125.8904],[39.8398,-15.2518,126.1795],[39.8394,-15.2606,128.9366],[39.835,-15.262,131.6427],[39.8296,-15.2605,143.4939],[39.8246,-15.2624,135.1716],[39.8188,-15.2683,135.9458],[39.8133,-15.2655,152.4406],[39.8076,-15.2657,148.0922],[39.7992,-15.2705,148.9592],[39.7948,-15.2751,153.1997],[39.8027,-15.3073,162.3803],[39.7979,-15.3127,156.277],[39.7978,-15.3168,164.1724],[39.808,-15.326,148.6705],[39.8172,-15.3269,145.273],[39.8211,-15.3343,142.5485],[39.8213,-15.338,151.8366],[39.8172,-15.3412,143.0156],[39.7987,-15.3889,127.1185],[39.8214,-15.4003,122.9337],[39.8318,-15.4157,108.1984],[39.8399,-15.4187,105.2711],[39.8491,-15.4274,103.7056],[39.8493,-15.4341,111.3995],[39.8378,-15.4302,98.8377],[39.8105,-15.4389,103.969],[39.774,-15.4553,130.7388],[39.7667,-15.4603,132.9343],[39.762,-15.4673,198.2396],[39.7747,-15.4743,184.2058],[39.771,-15.4829,151.6287],[39.7729,-15.4908,154.4734],[39.7708,-15.5,142.6142],[39.7726,-15.516,128.7275],[39.7714,-15.5238,125.7037],[39.7724,-15.5388,125.24],[39.7772,-15.5428,131.6509],[39.7837,-15.557,122.722],[39.7876,-15.5685,111.0398],[39.7874,-15.5735,110.1054],[39.7844,-15.5757,105.9343],[39.7767,-15.5758,115.6935],[39.7633,-15.5795,113.9499],[39.7554,-15.5896,126.9651],[39.7418,-15.5932,149.5247],[39.7415,-15.6234,100.9683],[39.7361,-15.6307,92.0706],[39.7399,-15.6376,108.188],[39.7342,-15.6621,90.2122],[39.7439,-15.6724,82.7887],[39.7615,-15.6853,82.4442],[39.7739,-15.7002,72.8546],[39.7849,-15.7064,67.2045],[39.8151,-15.7178,62.1258],[39.8313,-15.7165,59.1859],[39.8582,-15.7189,56.2097],[39.8642,-15.7347,56.9575],[39.8707,-15.738,51.2208],[39.8779,-15.7481,50.1586],[39.8815,-15.7581,53.1086],[39.8745,-15.7686,59.0307],[39.8727,-15.7847,46.6],[39.8801,-15.7951,44.8002],[39.8797,-15.8086,42.3398],[39.8873,-15.8113,36.5302],[39.8981,-15.8095,47.8977],[39.8983,-15.8148,36.9742],[39.8879,-15.824,32.617],[39.8898,-15.8326,34.8886],[39.8966,-15.8355,43.2207],[39.919,-15.8511,28.5105],[39.9419,-15.8508,35.7628],[39.9578,-15.8546,24.0196],[39.9718,-15.8611,21.4941],[39.9788,-15.8604,20.4996],[39.9862,-15.8633,22.2213],[39.9972,-15.8831,20.4126],[40.0009,-15.8835,19.0411],[40.0198,-15.8936,13.444]]],
[[[40.4637,-15.5799,0.0],[40.4629,-15.5824,0.0],[40.4663,-15.5774,0.0],[40.4654,-15.5776,0.0],[40.4637,-15.5799,0.0]]],
[[[40.4999,-15.5632,0.0],[40.4999,-15.5604,1.2169],[40.496,-15.5612,0.0],[40.4871,-15.569,0.0],[40.4829,-15.5701,0.234],[40.4824,-15.5732,0.7119],[40.4832,-15.5737,0.0],[40.4999,-15.5632,0.0]]],
[[[40.4868,-15.5649,1.5054],[40.4857,-15.5657,1.5054],[40.4874,-15.5671,0.6337],[40.4879,-15.5657,0.0],[40.4868,-15.5649,1.5054]]],
[[[40.5179,-15.5384,0.0],[40.5176,-15.536,0.0],[40.5151,-15.5363,1.5823],[40.5113,-15.5462,0.0],[40.5157,-15.5435,0.0],[40.5179,-15.5384,0.0]]],
[[[40.5168,-15.5276,0.7871],[40.5165,-15.526,0.0],[40.5157,-15.5257,0.0],[40.5151,-15.5282,0.4303],[40.5168,-15.5276,0.7871]]],
[[[40.5349,-15.5221,0.0],[40.5324,-15.5212,1.1195],[40.5301,-15.5235,2.4738],[40.5304,-15.5287,0.7278],[40.5326,-15.5279,0.478],[40.5349,-15.5221,0.0]]],
[[[40.5412,-15.5168,0.0],[40.5404,-15.5143,1.0543],[40.5374,-15.5201,0.0],[40.5385,-15.5204,0.0],[40.5412,-15.5168,0.0]]],
[[[40.5554,-15.4521,1.0032],[40.5479,-15.4521,0.5],[40.5465,-15.454,0.5],[40.5524,-15.4574,1.947],[40.556,-15.4546,0.8044],[40.5554,-15.4521,1.0032]]],
[[[40.5626,-15.4535,0.0],[40.561,-15.4532,0.0],[40.5638,-15.4554,0.0],[40.5638,-15.4546,0.0],[40.5626,-15.4535,0.0]]]]}
,"properties": {"GID_2": "MOZ.7.11_1","GID_0": "MOZ","country": "Mozambique","GID_1": "MOZ.7_1","province": "Nampula","NL_NAME_1": "NA","county": "Mongincual","VARNAME_2": "Mogincual","NL_NAME_2": "NA","TYPE_2": "Distrito","ENGTYPE_2": "District","CC_2": "NA","HASC_2": "MZ.NM.MG","name": "Mongincual.county","area_km2": 4390.965,"hist_schema_id": "Elevation0-9000","hist_area_km2": {"0": 215.217,"25": 423.088,"50": 715.573,"75": 945.472,"100": 986.29,"125": 630.496,"150": 346.413,"175": 113.549,"200": 12.536,"225": 1.513,"250": 0.491,"275": 0.225,"300": 0.061,"325": 0.041}}}