{"type":"Feature","properties":{"GID_3":"MOZ.8.3.4_1","GID_0":"MOZ","country":"Mozambique","GID_1":"MOZ.8_1","province":"Nassa","NL_NAME_1":"NA","GID_2":"MOZ.8.3_1","county":"Lichinga","NL_NAME_2":"NA","city":"Lione","VARNAME_3":"NA","NL_NAME_3":"NA","TYPE_3":"Localidad","ENGTYPE_3":"Locality","CC_3":"NA","HASC_3":"NA","name":"Lione.city"},
"geometry":{"type": "MultiPolygon","coordinates": [[[[34.9638,-13.5809,572.1866],[35.0867,-13.6965,638.2184],[35.1623,-13.7968,716.1917],[35.1623,-13.7939,714.7803],[35.1699,-13.7784,911.2086],[35.1741,-13.7805,764.9184],[35.1824,-13.7741,805.0491],[35.2003,-13.7473,996.1278],[35.2716,-13.7424,1184.6638],[35.2766,-13.7386,1165.0098],[35.2771,-13.7267,1167.6692],[35.2818,-13.7156,1164.4492],[35.3053,-13.7133,1145.3276],[35.3146,-13.7186,1146.4351],[35.3217,-13.7197,1126.5497],[35.3238,-13.7151,1126.0768],[35.3202,-13.6229,1099.2845],[35.2699,-13.5949,1174.8746],[35.2699,-13.5576,1207.9271],[35.2576,-13.5216,1143.104],[35.2543,-13.4796,1174.0642],[35.181,-13.4945,1092.092],[35.1258,-13.4916,853.8234],[35.0125,-13.4886,649.7335],[34.9114,-13.4945,598.4709],[34.8778,-13.4895,537.2516],[34.8664,-13.4819,474.5],[34.9638,-13.5809,572.1866]]]]}}