{"type": "Feature","bbox": [40.0159,-14.4734,40.7388,-13.6069],"geometry": {"type": "MultiPolygon","coordinates": [[[[40.3758,-14.3284,74.4548],[40.3767,-14.3423,77.7344],[40.3741,-14.3521,94.4673],[40.3768,-14.3717,99.1921],[40.3753,-14.3796,110.2185],[40.3872,-14.3913,126.7899],[40.3923,-14.4222,154.9014],[40.3921,-14.4431,170.2982],[40.4053,-14.4506,137.5952],[40.4319,-14.4576,125.1829],[40.4391,-14.4674,100.7794],[40.4466,-14.472,82.4161],[40.4666,-14.4734,72.298],[40.4831,-14.4667,75.5105],[40.4884,-14.4664,53.4175],[40.517,-14.4283,39.552],[40.5317,-14.4213,36.894],[40.5398,-14.4191,35.0042],[40.5531,-14.4073,27.1914],[40.5732,-14.3801,18.6528],[40.5851,-14.3716,16.4605],[40.6401,-14.3733,0.8151],[40.6371,-14.3704,1.7923],[40.6368,-14.3674,0.0],[40.6374,-14.3649,0.0],[40.6401,-14.364,0.0],[40.6399,-14.3618,0.0],[40.6349,-14.3582,3.9979],[40.6349,-14.3543,2.3634],[40.6335,-14.3535,2.3634],[40.6354,-14.3496,0.0],[40.6354,-14.3476,0.0],[40.6335,-14.3468,2.5476],[40.6349,-14.3435,2.5827],[40.6338,-14.3385,0.5647],[40.631,-14.3346,3.3249],[40.6232,-14.3346,3.2137],[40.621,-14.329,0.5606],[40.6237,-14.3265,0.0],[40.629,-14.3271,1.4509],[40.6321,-14.3301,0.0],[40.6376,-14.329,4.8306],[40.639,-14.3301,0.5173],[40.6399,-14.3337,1.8523],[40.646,-14.3418,6.0455],[40.6515,-14.3529,0.0],[40.6551,-14.3549,1.5569],[40.6571,-14.3638,0.0],[40.6632,-14.3713,2.8003999999999998],[40.6654,-14.3779,0.9516],[40.6732,-14.3837,0.9452],[40.6774,-14.3835,0.7236],[40.6854,-14.371,8.9435],[40.6946,-14.366,6.5025],[40.6982,-14.3574,4.9155],[40.7046,-14.349,12.8028],[40.7129,-14.3485,0.7322],[40.7196,-14.3457,3.3298],[40.7243,-14.3404,0.0],[40.7287,-14.3382,0.0],[40.7307,-14.3332,1.9832],[40.734,-14.3329,2.7017],[40.7324,-14.3299,0.0],[40.7349,-14.3196,0.0],[40.7321,-14.3171,0.0],[40.7313,-14.3129,8.0753],[40.7332,-14.2965,0.0],[40.7388,-14.2751,0.7461],[40.7346,-14.2699,0.8667],[40.7287,-14.2682,6.4739],[40.7176,-14.2604,2.5266],[40.7135,-14.2537,4.2571],[40.7126,-14.2471,11.2451],[40.7143,-14.2371,5.9431],[40.7132,-14.226,27.7853],[40.7182,-14.2065,1.5755],[40.711,-14.2026,12.992],[40.706,-14.1899,0.0],[40.7029,-14.1882,7.3423],[40.6926,-14.1868,1.3665],[40.6899,-14.1912,1.303],[40.6885,-14.1987,0.0],[40.6815,-14.2029,0.0],[40.6701,-14.199,10.3827],[40.6654,-14.1921,0.9289],[40.664,-14.196,1.4342],[40.6507,-14.1987,1.5038],[40.6454,-14.2049,1.8774],[40.6415,-14.2065,8.6905],[40.6404,-14.2096,0.0],[40.6418,-14.2126,3.4953],[40.6393,-14.214,0.0],[40.6385,-14.2176,2.6502],[40.634,-14.219,3.4878999999999998],[40.6301,-14.2151,2.4451],[40.6229,-14.2157,0.0],[40.6207,-14.2193,2.0403],[40.6207,-14.2246,5.5547],[40.6165,-14.2274,0.0],[40.6185,-14.2288,0.0],[40.6168,-14.2299,1.1784],[40.6157,-14.2374,1.4531],[40.6135,-14.2407,2.6481],[40.6126,-14.2465,0.0],[40.6165,-14.249,0.9564],[40.6179,-14.2568,1.0702],[40.616,-14.2599,0.0],[40.6168,-14.2615,3.0235],[40.6149,-14.2643,1.3227],[40.6146,-14.2701,0.0],[40.6096,-14.2793,2.5833],[40.6093,-14.276,3.3517],[40.6132,-14.2704,0.0],[40.6135,-14.2674,0.0],[40.5993,-14.2762,0.0],[40.5971,-14.2762,0.0],[40.5951,-14.274,1.5245],[40.5965,-14.2699,0.0],[40.5935,-14.2657,0.7721],[40.5935,-14.2626,2.3323],[40.5954,-14.2599,1.0766],[40.6004,-14.2579,0.0],[40.6015,-14.254,0.0],[40.5996,-14.2537,4.6735],[40.5999,-14.2501,4.89],[40.5962,-14.2451,0.0],[40.5899,-14.2437,4.9263],[40.5863,-14.2376,0.0],[40.5879,-14.236,3.1888],[40.5871,-14.2346,3.1888],[40.5924,-14.2312,0.0],[40.5915,-14.2288,9.4512],[40.5938,-14.2279,1.5072],[40.594,-14.2221,3.0256],[40.5974,-14.2207,1.2045],[40.5921,-14.2193,1.2466],[40.5904,-14.2163,4.1508],[40.5871,-14.216,1.7856],[40.5879,-14.214,4.5288],[40.5851,-14.2124,3.2122],[40.5863,-14.2074,0.0],[40.5851,-14.206,0.0],[40.5804,-14.2082,0.0],[40.5815,-14.2129,0.0],[40.5796,-14.2163,3.1076],[40.5774,-14.2165,2.9699],[40.5749,-14.2126,0.7834],[40.5724,-14.2121,0.536],[40.5718,-14.214,1.8528],[40.5701,-14.2118,0.607],[40.5687,-14.2124,1.5416],[40.5682,-14.2165,8.6116],[40.5657,-14.2187,7.449],[40.574,-14.2299,2.3632],[40.5701,-14.2335,3.8816],[40.5674,-14.2329,0.0],[40.5626,-14.2249,4.359],[40.5579,-14.2246,7.3338],[40.5612,-14.2338,0.0],[40.561,-14.2362,0.0],[40.5585,-14.2368,1.8709],[40.5457,-14.2304,2.5903],[40.5471,-14.2271,2.7465],[40.5529,-14.2265,1.6933],[40.5546,-14.2201,11.4025],[40.5568,-14.2193,8.1567],[40.5568,-14.2176,4.1917],[40.5549,-14.2165,9.3829],[40.5549,-14.2146,6.8261],[40.546,-14.2085,7.8737],[40.544,-14.2029,0.0],[40.5387,-14.2024,3.1183],[40.5363,-14.1999,10.2984],[40.5307,-14.1835,0.0],[40.5274,-14.1812,6.2982],[40.5262,-14.1746,3.4088],[40.5199,-14.1757,1.7004],[40.5082,-14.174,3.8636],[40.5032,-14.1746,3.935],[40.5013,-14.1765,3.9749],[40.4999,-14.1754,4.5893],[40.5015,-14.1729,7.9015],[40.5099,-14.1707,5.1185],[40.5132,-14.1715,2.1156],[40.5182,-14.1693,5.2899],[40.526,-14.1687,1.0239],[40.526,-14.1651,3.1616],[40.5282,-14.1651,1.4259],[40.531,-14.1613,0.0],[40.5365,-14.159,1.8492],[40.5401,-14.151,2.5557],[40.541,-14.1563,0.0],[40.5468,-14.1551,1.7956],[40.5565,-14.156,1.4978],[40.559,-14.1529,3.0502],[40.5604,-14.1454,1.5578],[40.5612,-14.1551,0.0],[40.5724,-14.1532,1.1291],[40.5815,-14.1543,1.8239],[40.584,-14.1526,8.0609],[40.5865,-14.1538,0.0],[40.5899,-14.149,7.3497],[40.5985,-14.1479,5.5839],[40.6004,-14.1449,2.9524],[40.6018,-14.1457,2.9524],[40.6046,-14.1435,1.5447],[40.6101,-14.1426,9.0019],[40.6051,-14.1379,1.4454],[40.6035,-14.1332,4.2585],[40.6037,-14.1304,4.4498],[40.6126,-14.1231,1.4499],[40.6124,-14.1218,4.4794],[40.6068,-14.1224,4.4837],[40.6051,-14.111,3.5272],[40.6071,-14.1112,4.7416],[40.6079,-14.1085,6.4969],[40.6026,-14.109,1.4571],[40.6007,-14.1057,0.0],[40.6007,-14.1018,0.0],[40.5976,-14.1021,6.7245],[40.5954,-14.1004,3.0163],[40.5901,-14.1018,2.2625],[40.5851,-14.096,2.5781],[40.5871,-14.0926,2.4374],[40.5932,-14.0893,3.1279],[40.6024,-14.0937,0.0],[40.6043,-14.0893,9.7217],[40.6115,-14.0901,0.0],[40.6143,-14.086,13.3936],[40.6215,-14.0829,0.0],[40.6232,-14.0799,0.0],[40.6276,-14.0813,0.0],[40.6254,-14.0779,4.0008],[40.6268,-14.0704,12.8425],[40.6288,-14.0699,0.0],[40.6318,-14.0635,0.0],[40.6307,-14.0588,5.7499],[40.6321,-14.0532,0.0],[40.6304,-14.0532,9.8179],[40.6296,-14.051,0.0],[40.6329,-14.0479,6.7738],[40.6338,-14.0426,0.0],[40.6321,-14.0349,3.1659],[40.6343,-14.0299,3.1732],[40.6382,-14.0271,0.0],[40.6365,-14.0179,0.0],[40.6312,-14.0176,0.8844],[40.6263,-14.0137,7.1341],[40.6224,-13.9982,2.9309],[40.6196,-13.9988,2.299],[40.6171,-13.9968,1.4194],[40.6124,-13.999,1.2373],[40.6101,-13.9976,0.0],[40.6074,-14.0013,0.0],[40.6085,-14.0071,2.8604],[40.604,-14.0085,3.1758],[40.5976,-14.006,0.0],[40.591,-14.0085,4.9962],[40.5843,-14.0024,0.0],[40.5779,-14.0007,0.5699],[40.5751,-13.9949,4.9956],[40.5757,-13.9862,0.719],[40.5801,-13.9824,0.0],[40.5804,-13.9799,1.6006],[40.5821,-13.9801,0.0],[40.5863,-13.9765,0.0],[40.5915,-13.9765,0.0],[40.594,-13.979,0.0],[40.5962,-13.9782,2.6865],[40.5974,-13.9812,0.6379],[40.5957,-13.9835,1.0306],[40.5993,-13.9851,0.0],[40.6121,-13.9801,0.9119],[40.6179,-13.9846,0.0],[40.6226,-13.9846,0.0],[40.6229,-13.9807,8.075],[40.621,-13.9693,0.0],[40.6174,-13.9665,7.964],[40.6196,-13.9535,0.0],[40.6176,-13.9463,6.2786],[40.6162,-13.9271,3.499],[40.6065,-13.916,1.3818],[40.6026,-13.9085,0.0],[40.5929,-13.8996,3.0746],[40.5882,-13.8888,1.0384],[40.5882,-13.8496,1.091],[40.5854,-13.834,1.9125],[40.5857,-13.8182,3.771],[40.5826,-13.8107,6.0818],[40.5838,-13.7976,9.9035],[40.581,-13.7951,9.8343],[40.5793,-13.7871,1.6767],[40.5762,-13.784,0.0],[40.5732,-13.7687,12.0093],[40.5746,-13.759,5.1918],[40.5738,-13.7137,0.0],[40.5713,-13.7101,3.6929],[40.5027,-13.7707,48.0241],[40.4852,-13.7595,59.1026],[40.4814,-13.7771,57.2396],[40.4699,-13.7938,72.1747],[40.4478,-13.8054,90.0545],[40.4018,-13.8036,127.8391],[40.3705,-13.8187,185.7219],[40.3181,-13.8279,241.6555],[40.3331,-13.7725,227.5977],[40.3242,-13.7501,221.3776],[40.3489,-13.7501,182.4433],[40.3595,-13.7526,194.817],[40.3671,-13.7496,191.5799],[40.3683,-13.7351,240.4063],[40.3833,-13.7322,268.134],[40.3828,-13.7054,115.0215],[40.3683,-13.6643,147.8764],[40.3785,-13.6562,92.4721],[40.3979,-13.6488,77.1332],[40.409,-13.6342,81.4741],[40.4086,-13.6326,68.9558],[40.3777,-13.6134,132.4897],[40.3681,-13.6088,217.3671],[40.3551,-13.6069,238.3375],[40.323,-13.6114,199.6946],[40.2792,-13.6231,254.7208],[40.243,-13.6276,181.2493],[40.2406,-13.6369,182.9188],[40.2252,-13.6578,203.538],[40.2129,-13.6876,235.8483],[40.2038,-13.6942,255.9557],[40.2009,-13.7083,262.3627],[40.2017,-13.7402,417.2193],[40.1746,-13.7638,263.5536],[40.1712,-13.7643,270.5184],[40.1549,-13.7569,302.5672],[40.1352,-13.7618,310.1085],[40.1274,-13.77,321.4519],[40.1221,-13.7687,344.4677],[40.1177,-13.7799,391.7277],[40.1148,-13.7932,313.1796],[40.1184,-13.8031,296.9153],[40.128,-13.806,286.3832],[40.1399,-13.8042,279.9948],[40.1495,-13.8094,267.7761],[40.1567,-13.8321,237.2895],[40.1656,-13.8721,183.1197],[40.1177,-13.8801,231.0831],[40.0732,-13.8779,249.0689],[40.053,-13.8817,252.5181],[40.0437,-13.8855,243.2261],[40.0363,-13.8855,262.5706],[40.0285,-13.9223,315.2722],[40.0248,-13.9311,323.1806],[40.0201,-13.9354,309.5367],[40.019,-13.9437,288.8534],[40.0159,-13.9497,275.9357],[40.0216,-13.9554,283.7737],[40.0369,-13.9796,262.3362],[40.05,-13.9826,252.8262],[40.064,-13.9979,248.2548],[40.0618,-14.0076,234.2475],[40.065,-14.0156,232.4483],[40.0796,-14.0189,231.6681],[40.0857,-14.0236,224.2861],[40.0967,-14.0202,209.7094],[40.1112,-14.0193,201.8686],[40.1182,-14.0245,214.9382],[40.1326,-14.0303,203.0335],[40.138,-14.0347,186.687],[40.1433,-14.0491,188.9559],[40.1473,-14.0505,178.4526],[40.1527,-14.0488,175.3299],[40.1519,-14.0548,179.7145],[40.1485,-14.0594,177.9226],[40.1341,-14.0645,192.2729],[40.1335,-14.0694,215.7622],[40.1353,-14.0752,244.117],[40.1312,-14.0827,207.1215],[40.1153,-14.0988,249.4542],[40.1121,-14.1047,277.2161],[40.1426,-14.1258,258.2908],[40.1513,-14.1396,253.9331],[40.1605,-14.1481,244.7782],[40.1778,-14.1574,218.1738],[40.2041,-14.1811,216.2006],[40.2085,-14.1868,181.2675],[40.2163,-14.2086,162.9645],[40.22,-14.2116,145.8012],[40.2308,-14.2289,119.0599],[40.2316,-14.2455,96.1986],[40.243899999999996,-14.2473,104.645],[40.2608,-14.2435,93.7403],[40.2678,-14.2488,83.045],[40.2727,-14.266,84.0888],[40.2797,-14.2726,82.8617],[40.29,-14.2742,61.7733],[40.3267,-14.271,65.6352],[40.3397,-14.2829,59.7901],[40.3454,-14.2862,72.3584],[40.3536,-14.2853,49.9274],[40.3702,-14.2736,47.8779],[40.3954,-14.2588,41.3919],[40.419,-14.2513,36.3069],[40.4277,-14.2402,29.1161],[40.4341,-14.2372,43.9862],[40.4454,-14.2386,29.5106],[40.4527,-14.2634,37.7531],[40.4388,-14.2642,46.7342],[40.4332,-14.2664,56.6442],[40.4296,-14.276,85.6189],[40.4223,-14.2816,61.2569],[40.4119,-14.2859,57.5556],[40.4164,-14.2946,79.2343],[40.4162,-14.2996,60.1006],[40.4145,-14.3019,64.0964],[40.398,-14.307,71.1082],[40.3915,-14.3116,71.2333],[40.3842,-14.3127,80.8204],[40.3776,-14.3166,71.3436],[40.3758,-14.3284,74.4548]]],
[[[40.6274,-14.0843,0.0],[40.6254,-14.0851,0.0],[40.6293,-14.0871,0.0],[40.6287,-14.0851,1.1123],[40.6274,-14.0843,0.0]]]]}
,"properties": {"GID_2": "MOZ.7.7_1","GID_0": "MOZ","country": "Mozambique","GID_1": "MOZ.7_1","province": "Nampula","NL_NAME_1": "NA","county": "Memba","VARNAME_2": "NA","NL_NAME_2": "NA","TYPE_2": "Distrito","ENGTYPE_2": "District","CC_2": "NA","HASC_2": "MZ.NM.MM","name": "Memba.county","area_km2": 3669.463,"hist_schema_id": "Elevation0-9000","hist_area_km2": {"0": 178.646,"25": 364.229,"50": 416.964,"75": 326.53,"100": 336.446,"125": 325.74,"150": 326.403,"175": 334.135,"200": 289.764,"225": 254.965,"250": 215.548,"275": 156.332,"300": 85.812,"325": 33.204,"350": 9.922,"375": 4.282,"400": 2.964,"425": 2.265,"450": 1.544,"475": 1.112,"500": 0.823,"525": 0.494,"550": 0.556,"575": 0.309,"600": 0.247,"625": 0.144,"650": 0.062}}}