{"type": "Feature","bbox": [34.9237,-13.7197,35.9272,-13.0716],"geometry": {"type": "MultiPolygon","coordinates": [[[[35.3217,-13.7197,1126.5497],[35.331,-13.7094,1112.2902],[35.3381,-13.7096,1092.6957],[35.3677,-13.7015,1002.5114],[35.3771,-13.7035,990.2573],[35.3895,-13.6966,966.0242],[35.4071,-13.6761,949.0573],[35.4317,-13.6655,941.894],[35.4463,-13.6572,943.966],[35.4574,-13.6486,930.855],[35.4782,-13.6278,921.0455],[35.5047,-13.6111,897.6397],[35.5112,-13.6099,897.1868],[35.5291,-13.6008,895.4155],[35.5916,-13.5603,836.2606],[35.6025,-13.5597,817.0015],[35.6212,-13.5464,812.4557],[35.6481,-13.5361,802.345],[35.696,-13.5275,782.493],[35.7487,-13.5033,769.4537],[35.7586,-13.5026,772.8081],[35.7714,-13.4923,750.1802],[35.7772,-13.4837,752.0616],[35.8017,-13.4662,748.0167],[35.8069,-13.4593,749.7451],[35.8085,-13.4528,732.9727],[35.8071,-13.4414,736.8627],[35.8164,-13.4223,721.2474],[35.8247,-13.4122,714.3245],[35.8476,-13.4057,715.2747],[35.853,-13.3979,709.4689],[35.8643,-13.398,695.7876],[35.8705,-13.3843,713.1155],[35.8542,-13.3699,742.7784],[35.8462,-13.3663,733.3726],[35.8411,-13.362,739.8402],[35.8364,-13.3508,757.617],[35.8398,-13.2812,867.6808],[35.8553,-13.2838,831.2479],[35.8668,-13.2808,812.0266],[35.8817,-13.2746,809.5822],[35.8975,-13.2648,784.3934],[35.9197,-13.257,791.5757],[35.9272,-13.2466,773.0984],[35.9183,-13.2299,755.7698],[35.9126,-13.2271,786.3425],[35.9008,-13.2273,808.0424],[35.8879,-13.2222,812.3395],[35.8706,-13.2183,903.953],[35.8456,-13.2262,838.5155],[35.8195,-13.2267,849.8295],[35.8037,-13.2288,834.6413],[35.7888,-13.227,854.9465],[35.7689,-13.2273,922.2015],[35.7514,-13.2368,928.2805],[35.7261,-13.247,898.1468],[35.7085,-13.2466,966.7772],[35.7011,-13.2485,945.6636],[35.6792,-13.2395,988.7534],[35.6583,-13.2254,1017.1891],[35.649,-13.2216,1003.0332],[35.6222,-13.2054,1040.8125],[35.5882,-13.205,1053.491],[35.5359,-13.1745,1162.3972],[35.5338,-13.1903,1318.1858],[35.4998,-13.1825,1155.0686],[35.4824,-13.1752,1128.9858],[35.4771,-13.1694,1133.1484],[35.4367,-13.1621,1105.7812],[35.418,-13.1401,1086.618],[35.4016,-13.1465,1112.5],[35.3821,-13.1451,1130.0837],[35.3659,-13.1516,1118.4385],[35.3374,-13.1564,1155.6736],[35.3211,-13.1566,1189.0442],[35.3157,-13.1559,1222.1146],[35.3107,-13.1468,1281.2039],[35.2557,-13.1365,1297.6643],[35.2408,-13.1291,1159.4727],[35.238,-13.122,1178.5758],[35.2159,-13.1236,1205.4027],[35.1786,-13.1406,1308.3774],[35.1203,-13.1195,1127.9075],[35.1059,-13.0851,889.5179],[35.0842,-13.0716,861.6555],[35.0658,-13.0899,860.8911],[35.0234,-13.1126,825.3445],[35.0049,-13.1285,790.9853],[34.9788,-13.1605,770.9911],[34.9521,-13.1981,774.5505],[34.9511,-13.2205,837.3076],[34.9431,-13.236,855.8746],[34.9237,-13.2505,833.2612],[34.9237,-13.2649,812.2285],[34.9582,-13.2985,967.311],[35.0187,-13.3723,885.2062],[35.0401,-13.408,926.8381],[35.1075,-13.4647,822.3275],[35.1268,-13.4916,860.2559],[35.181,-13.4945,1092.092],[35.2543,-13.4796,1174.0642],[35.2576,-13.5216,1143.104],[35.2699,-13.5576,1207.9271],[35.2699,-13.5949,1174.8746],[35.3202,-13.6229,1099.2845],[35.3238,-13.7151,1126.0768],[35.3217,-13.7197,1126.5497]],
[[35.2949,-13.4122,1164.907],[35.286,-13.4122,1188.9126],[35.2724,-13.4005,1203.9089],[35.2445,-13.3843,1253.5408],[35.2379,-13.3639,1301.0127],[35.2068,-13.3429,1276.3148],[35.2008,-13.3367,1294.0951],[35.1864,-13.3069,1192.7559],[35.1784,-13.297,1166.215],[35.15,-13.2835,1050.0394],[35.1387,-13.2822,1029.3074],[35.1261,-13.2781,994.3765],[35.1344,-13.265,1011.5778],[35.1526,-13.2637,1062.4539],[35.161,-13.254,1132.8102],[35.1956,-13.23,1233.8783],[35.2065,-13.2184,1267.3525],[35.2145,-13.2133,1295.115],[35.2369,-13.2069,1266.3146],[35.2625,-13.1955,1234.7404],[35.2659,-13.2037,1241.6179],[35.2664,-13.2148,1268.483],[35.2697,-13.2189,1260.9281],[35.273,-13.2334,1319.0406],[35.3593,-13.3257,1237.9282],[35.3157,-13.3286,1332.8375],[35.3069,-13.3475,1376.6876],[35.3089,-13.3616,1312.5717],[35.3121,-13.3701,1296.2881],[35.3067,-13.3737,1268.6709],[35.2897,-13.3916,1197.5958],[35.2949,-13.4122,1164.907]]]]}
,"properties": {"GID_3": "MOZ.8.3.1_1","GID_0": "MOZ","country": "Mozambique","GID_1": "MOZ.8_1","province": "Nassa","NL_NAME_1": "NA","GID_2": "MOZ.8.3_1","county": "Lichinga","NL_NAME_2": "NA","city": "Chimbonila","VARNAME_3": "NA","NL_NAME_3": "NA","TYPE_3": "Localidad","ENGTYPE_3": "Locality","CC_3": "NA","HASC_3": "NA","name": "Chimbonila.city","area_km2": 3688.638,"hist_schema_id": "Elevation0-9000","hist_area_km2": {"700": 1.238,"725": 17.077,"750": 34.157,"775": 49.276,"800": 66.253,"825": 91.827,"850": 117.836,"875": 139.862,"900": 170.246,"925": 195.539,"950": 214.451,"975": 209.682,"1000": 200.794,"1025": 201.046,"1050": 199.994,"1075": 193.715,"1100": 205.435,"1125": 227.446,"1150": 238.865,"1175": 235.406,"1200": 224.506,"1225": 182.19,"1250": 120.376,"1275": 76.018,"1300": 37.346,"1325": 18.94,"1350": 8.663,"1375": 4.269,"1400": 2.722,"1425": 1.093,"1450": 1.134,"1475": 0.639,"1500": 0.309,"1525": 0.206,"1550": 0.082}}}