{"type": "Feature","bbox": [32.7004,-19.2693,33.4522,-18.3376],"geometry": {"type": "MultiPolygon","coordinates": [[[[33.2061,-19.2113,567.2329],[33.2084,-19.2166,558.4703],[33.2071,-19.2283,580.4955],[33.2201,-19.229,581.5369],[33.2266,-19.2432,578.4619],[33.242,-19.2482,554.7433],[33.2755,-19.2488,556.5803],[33.2838,-19.2513,562.8383],[33.2929,-19.2693,549.21],[33.2889,-19.2512,556.1487],[33.29,-19.2441,561.4326],[33.2864,-19.2336,553.0861],[33.2909,-19.2222,564.9563],[33.2879,-19.216,572.8636],[33.278,-19.2113,560.9634],[33.2732,-19.2061,563.0936],[33.2673,-19.1938,561.6895],[33.2759,-19.1452,577.7183],[33.2858,-19.1335,586.5994],[33.2909,-19.1195,580.6025],[33.2991,-19.1096,592.6003],[33.3127,-19.101,608.8367],[33.3242,-19.0965,598.9406],[33.332,-19.0891,599.631],[33.3369,-19.0758,607.6558],[33.3576,-19.0595,617.4257],[33.3698,-19.03,648.8482],[33.3879,-18.9982,686.774],[33.3953,-18.9816,685.0174],[33.401,-18.9759,666.4122],[33.405,-18.9566,645.0331],[33.4089,-18.9469,639.8475],[33.4323,-18.8566,575.3162],[33.4342,-18.8401,551.8604],[33.4316,-18.8286,534.1676],[33.4291,-18.7889,492.2734],[33.4332,-18.7643,478.0162],[33.4316,-18.741,428.9761],[33.4396,-18.7146,421.5533],[33.4411,-18.6879,428.7486],[33.4522,-18.6662,402.6434],[33.4375,-18.6675,399.7153],[33.4146,-18.6604,422.4231],[33.4013,-18.6492,444.0258],[33.3817,-18.5999,458.5115],[33.3713,-18.5896,458.9918],[33.3638,-18.5722,450.7651],[33.3069,-18.5398,475.0121],[33.3002,-18.5524,480.1406],[33.2837,-18.5547,480.9746],[33.2644,-18.5439,483.0651],[33.2586,-18.5275,490.4062],[33.2264,-18.4949,498.9726],[33.1762,-18.505,503.7844],[33.1378,-18.452,530.9691],[33.123,-18.4124,534.3652],[33.1127,-18.4102,547.7854],[33.1051,-18.4006,543.2292],[33.1048,-18.3894,558.3036],[33.0952,-18.3867,556.1161],[33.0868,-18.3617,563.2067],[33.0867,-18.3502,566.1475],[33.0395,-18.3376,680.5056],[33.0388,-18.3434,684.2936],[33.0543,-18.3578,649.1463],[33.055,-18.3619,629.9346],[33.0467,-18.3796,601.6384],[33.0416,-18.3827,593.2228],[33.0339,-18.3836,612.0461],[33.0238,-18.3911,608.218],[33.0174,-18.417,644.6061],[33.0163,-18.4313,633.1639],[33.0227,-18.4442,704.7108],[33.0229,-18.4575,770.7197],[33.0211,-18.4655,747.9047],[33.0144,-18.4737,682.3383],[32.9979,-18.4828,653.8071],[32.9791,-18.4896,662.6843],[32.9743,-18.4893,690.8305],[32.964,-18.478,677.8199],[32.9604,-18.478,706.5961],[32.9446,-18.4905,690.3386],[32.9361,-18.4939,678.354],[32.9311,-18.4941,700.2426],[32.92,-18.5018,714.2458],[32.9149,-18.5025,695.3819],[32.9041,-18.4994,847.7649],[32.8992,-18.5061,699.2433],[32.8917,-18.5067,708.6923],[32.8881,-18.5115,715.3336],[32.8845,-18.5223,740.4022],[32.8946,-18.5427,1163.8978],[32.8956,-18.5578,1362.7271],[32.8928,-18.5679,1428.5272],[32.8859,-18.5791,1488.611],[32.8988,-18.5911,1562.1945],[32.9029,-18.601,1391.3275],[32.9028,-18.6062,1265.4351],[32.9092,-18.6215,974.1525],[32.9369,-18.6616,699.059],[32.9541,-18.6902,1289.8448],[32.955,-18.698,1178.5165],[32.9487,-18.7143,1012.02],[32.9333,-18.7443,1032.7307],[32.9325,-18.753,1116.238],[32.9278,-18.7663,1264.6685],[32.9207,-18.7759,1290.8079],[32.9091,-18.7868,1418.1525],[32.8924,-18.7963,1243.3806],[32.8776,-18.7972,1184.2511],[32.843,-18.779,1587.303],[32.836,-18.7776,1576.6406],[32.827,-18.7775,1728.1642],[32.8137,-18.7813,1789.3485],[32.7973,-18.7896,1821.2921],[32.7895,-18.7965,1742.2993],[32.7772,-18.7998,1790.0847],[32.7589,-18.8142,1786.1844],[32.7483,-18.8171,1697.894],[32.7396,-18.8164,1843.3839],[32.734,-18.8182,1716.4078],[32.7119,-18.8336,1661.557],[32.7041,-18.8444,1645.9485],[32.7047,-18.8568,1483.4634],[32.7186,-18.8769,1423.6057],[32.724,-18.8911,1389.2946],[32.7307,-18.9254,1498.9215],[32.7297,-18.9293,1541.4563],[32.7024,-18.936,1597.0719],[32.7004,-18.9406,1535.3246],[32.7078,-18.9785,1130.5253],[32.7096,-19.0018,915.3167],[32.7159,-19.0187,1093.0631],[32.7227,-19.0248,1063.1819],[32.7398,-19.0291,1035.824],[32.765,-19.0281,1457.7637],[32.7798,-19.0214,1392.0902],[32.8013,-19.0169,1307.49],[32.8334,-19.0164,1218.4557],[32.8453,-19.0248,1181.9568],[32.8487,-19.0554,1017.7126],[32.8513,-19.0648,1123.0107],[32.858,-19.0768,995.4934],[32.8712,-19.0822,909.3349],[32.8774,-19.0979,787.2916],[32.8775,-19.1128,850.8966],[32.8719,-19.1259,721.0748],[32.8666,-19.1483,913.1115],[32.8638,-19.1695,674.0063],[32.8812,-19.1727,632.6763],[32.8829,-19.1673,649.2768],[32.8952,-19.161,626.2908],[32.9306,-19.153199999999998,620.2263],[32.9421,-19.1575,612.4202],[32.9483,-19.1556,612.9857],[32.9617,-19.1568,610.0],[32.9668,-19.155,610.0],[32.9855,-19.1558,610.0],[33.0142,-19.1494,610.0],[33.0293,-19.1484,610.0],[33.0446,-19.1405,610.0],[33.0863,-19.1098,610.0],[33.1082,-19.1199,610.0],[33.1303,-19.139,610.0],[33.1638,-19.1934,564.4353],[33.2061,-19.2113,567.2329]]]]}
,"properties": {"GID_2": "MOZ.4.6_1","GID_0": "MOZ","country": "Mozambique","GID_1": "MOZ.4_1","province": "Manica","NL_NAME_1": "NA","county": "Manica","VARNAME_2": "NA","NL_NAME_2": "NA","TYPE_2": "Distrito","ENGTYPE_2": "District","CC_2": "NA","HASC_2": "MZ.MN.MN","name": "Manica.county","area_km2": 4449.993,"hist_schema_id": "Elevation0-9000","hist_area_km2": {"400": 1.185,"425": 9.601,"450": 32.439,"475": 65.804,"500": 117.151,"525": 169.019,"550": 226.49,"575": 306.725,"600": 405.122,"625": 478.99,"650": 523.403,"675": 467.725,"700": 338.412,"725": 211.177,"750": 129.328,"775": 83.541,"800": 73.812,"825": 73.711,"850": 64.743,"875": 60.368,"900": 52.665,"925": 45.904,"950": 45.423,"975": 41.03,"1000": 37.199,"1025": 35.413,"1050": 33.629,"1075": 28.332,"1100": 27.811,"1125": 23.758,"1150": 22.715,"1175": 21.329,"1200": 18.761,"1225": 16.955,"1250": 15.27,"1275": 14.428,"1300": 12.161,"1325": 11.298,"1350": 9.773,"1375": 8.891,"1400": 8.309,"1425": 7.486,"1450": 7.588,"1475": 7.186,"1500": 6.965,"1525": 6.463,"1550": 6.443,"1575": 6.664,"1600": 5.279,"1625": 4.536,"1650": 4.738,"1675": 3.774,"1700": 3.252,"1725": 2.811,"1750": 2.369,"1775": 2.109,"1800": 1.165,"1825": 0.783,"1850": 0.221,"1875": 0.141,"1900": 0.141,"1925": 0.04,"1950": 0.04}}}