{"type": "Feature","bbox": [35.8684,-14.9903,36.3918,-14.3926],"geometry": {"type": "MultiPolygon","coordinates": [[[[35.87,-14.8497,628.3297],[35.8705,-14.8468,628.1157],[35.8705,-14.8946,629.1276],[35.915,-14.895,628.8911],[35.9123,-14.9009,629.077],[36.0004,-14.8975,679.8699],[36.0358,-14.9021,715.0188],[36.0974,-14.965,633.056],[36.1021,-14.9903,643.1782],[36.3172,-14.9895,605.6093],[36.3334,-14.9626,599.8204],[36.3442,-14.9331,596.8798],[36.3483,-14.8823,587.8091],[36.3435,-14.8583,584.25],[36.3429,-14.8433,580.1171],[36.3469,-14.8349,581.2545],[36.3567,-14.8346,582.7899],[36.3671,-14.8382,578.0804],[36.3709,-14.8343,578.1848],[36.3731,-14.8267,578.0508],[36.3897,-14.8194,575.9455],[36.3918,-14.8149,576.4958],[36.3897,-14.8113,575.6581],[36.3831,-14.8075,577.2808],[36.3671,-14.8051,581.1798],[36.3626,-14.7966,582.165],[36.3471,-14.7824,589.5645],[36.3441,-14.7758,586.454],[36.3387,-14.7697,589.2924],[36.3165,-14.768,592.7034],[36.2976,-14.7556,605.2053],[36.288,-14.7514,601.1537],[36.2676,-14.7509,606.4421],[36.2575,-14.7399,608.2293],[36.239,-14.7129,613.4365],[36.2294,-14.6943,616.4653],[36.2258,-14.6822,622.7994],[36.2257,-14.6642,629.6658],[36.2205,-14.6422,634.0342],[36.2246,-14.6294,639.748],[36.2228,-14.587,653.6213],[36.215,-14.5768,662.0712],[36.2071,-14.5719,667.7012],[36.1938,-14.5703,678.1645],[36.1393,-14.5395,670.9548],[36.0463,-14.5223,681.9659],[36.0524,-14.5061,636.3152],[36.0454,-14.5049,636.073],[36.0324,-14.4947,635.6979],[36.0284,-14.4846,638.0394],[36.0261,-14.472,638.4325],[36.0133,-14.4372,633.0364],[36.0078,-14.4313,630.2296],[35.9736,-14.4247,628.4993],[35.9667,-14.4202,627.5],[35.9617,-14.4122,627.5],[35.947,-14.3955,627.5],[35.9221,-14.3926,627.5],[35.9151,-14.4065,627.5],[35.9138,-14.4136,627.5],[35.9217,-14.4298,627.5],[35.9151,-14.4642,627.5],[35.9108,-14.4751,627.5],[35.9103,-14.4819,627.5],[35.916,-14.4881,627.5],[35.9121,-14.5012,627.5],[35.9121,-14.5114,627.5],[35.9139,-14.5185,627.5],[35.9109,-14.5293,627.5],[35.9067,-14.535,627.5],[35.8911,-14.5357,627.5],[35.8885,-14.5415,627.5],[35.8985,-14.5597,627.5],[35.898,-14.571,627.5],[35.8917,-14.5792,627.5],[35.8854,-14.6011,627.5],[35.8794,-14.6089,627.5],[35.8697,-14.6399,627.5],[35.8693,-14.6509,627.5],[35.8722,-14.6685,627.5],[35.8698,-14.671,627.5],[35.8707,-14.7092,627.5],[35.8694,-14.7074,627.5],[35.8684,-14.7236,627.5],[35.8698,-14.7296,627.5],[35.87,-14.8497,628.3297]]]]}
,"properties": {"GID_3": "MOZ.8.9.1_1","GID_0": "MOZ","country": "Mozambique","GID_1": "MOZ.8_1","province": "Nassa","NL_NAME_1": "NA","GID_2": "MOZ.8.9_1","county": "Mecanhelas","NL_NAME_2": "NA","city": "Chiuta","VARNAME_3": "NA","NL_NAME_3": "NA","TYPE_3": "Localidad","ENGTYPE_3": "Locality","CC_3": "NA","HASC_3": "NA","name": "Chiuta.city","area_km2": 2185.436,"hist_schema_id": "Elevation0-9000","hist_area_km2": {"575": 12.01,"600": 146.52,"625": 615.788,"650": 1010.553,"675": 348.613,"700": 44.021,"725": 3.689,"750": 1.619,"775": 1.127,"800": 0.779,"825": 0.369,"850": 0.164,"875": 0.061,"900": 0.102,"925": 0.02}}}