{"type":"Feature","properties":{"GID_3":"MOZ.1.7.1_1","GID_0":"MOZ","country":"Mozambique","GID_1":"MOZ.1_1","province":"CaboDelgado","NL_NAME_1":"NA","GID_2":"MOZ.1.7_1","county":"MocimboadaPraia","NL_NAME_2":"NA","city":"Diaca","VARNAME_3":"NA","NL_NAME_3":"NA","TYPE_3":"Localidad","ENGTYPE_3":"Locality","CC_3":"NA","HASC_3":"NA","name":"Diaca.city"},
"geometry":{"type": "MultiPolygon","coordinates": [[[[40.1282,-11.7303,34.0372],[40.1325,-11.6299,160.2092],[40.1001,-11.4956,149.5527],[40.113,-11.4627,157.3486],[40.1117,-11.4405,114.8746],[40.0978,-11.3955,148.5416],[40.097,-11.3885,137.9064],[40.0924,-11.3815,111.5601],[40.082,-11.3814,153.6042],[40.0417,-11.2961,151.6811],[40.027,-11.2719,162.3797],[40.0186,-11.2696,162.4156],[40.0193,-11.3135,161.2697],[39.9767,-11.3304,182.2674],[39.947,-11.3376,211.3478],[39.9046,-11.3799,275.2224],[39.8816,-11.389,315.9635],[39.8582,-11.3955,367.4091],[39.8399,-11.4073,341.1176],[39.7928,-11.4434,374.4476],[39.8706,-11.5478,318.1744],[39.8541,-11.6262,175.7698],[39.8679,-11.6285,148.0541],[39.8807,-11.6278,164.0641],[39.8954,-11.6311,136.1652],[39.9097,-11.631,128.5695],[39.9265,-11.6341,117.5377],[39.9399,-11.6342,109.0311],[39.951,-11.6284,104.7838],[39.9739,-11.6224,95.4176],[40.0065,-11.626,87.4409],[40.0215,-11.6377,82.8918],[40.0562,-11.695,49.3686],[40.0633,-11.7006,46.4908],[40.0733,-11.7154,41.4809],[40.1003,-11.7302,34.8402],[40.1155,-11.7337,35.3577],[40.128,-11.7346,29.0087],[40.1282,-11.7303,34.0372]]]]}}