{"type":"Feature","properties":{"GID_3":"MOZ.7.11.2_1","GID_0":"MOZ","country":"Mozambique","GID_1":"MOZ.7_1","province":"Nampula","NL_NAME_1":"NA","GID_2":"MOZ.7.11_1","county":"Mongincual","NL_NAME_2":"NA","city":"Namige2","VARNAME_3":"NA","NL_NAME_3":"NA","TYPE_3":"Localidad","ENGTYPE_3":"Locality","CC_3":"NA","HASC_3":"NA","name":"Namige2.city"},
"geometry":{"type": "MultiPolygon","coordinates": [[[[39.8981,-15.8095,47.8977],[39.912,-15.8081,78.9379],[39.9336,-15.8134,89.0581],[39.9428,-15.8183,71.3025],[39.961,-15.8206,56.8983],[39.9685,-15.8178,39.3473],[39.9751,-15.8132,30.2817],[40.0001,-15.812,29.063],[40.0064,-15.8211,23.0095],[40.0075,-15.8261,22.0434],[40.0184,-15.8317,18.9919],[40.0219,-15.8369,23.6792],[40.0223,-15.8413,24.9709],[40.0273,-15.8444,25.9503],[40.0349,-15.8539,14.7198],[40.0539,-15.8601,13.1682],[40.0551,-15.8584,10.7096],[40.0544,-15.8442,17.9085],[40.0467,-15.8204,38.1765],[40.0641,-15.7747,80.4273],[40.0829,-15.7708,49.5104],[40.0891,-15.7681,38.0788],[40.0946,-15.7629,32.2944],[40.1008,-15.7614,27.4193],[40.1066,-15.7627,26.9724],[40.1096,-15.7595,27.0064],[40.1011,-15.7317,44.7172],[40.1044,-15.6954,61.8204],[40.1032,-15.6783,63.7509],[40.1059,-15.6686,78.7121],[40.1183,-15.6503,84.2195],[40.129,-15.638,60.4279],[40.1348,-15.6347,53.0092],[40.1304,-15.6299,63.2827],[40.1172,-15.6206,63.7011],[40.1034,-15.607,73.5182],[40.0954,-15.6047,79.5358],[40.0813,-15.5894,101.5149],[40.0773,-15.5678,94.1672],[40.0682,-15.5641,107.7858],[40.0666,-15.5583,98.1072],[40.0881,-15.5251,55.7299],[40.0916,-15.515,59.78],[40.097,-15.5132,41.4146],[40.1148,-15.5153,43.1842],[40.1181,-15.5129,52.8266],[40.1168,-15.5047,52.0555],[40.114,-15.5021,55.1039],[40.1111,-15.4936,68.7628],[40.1068,-15.489,77.4785],[40.1091,-15.4857,75.951],[40.1221,-15.4763,67.921],[40.0862,-15.4498,61.4722],[40.0488,-15.447,61.3273],[40.0191,-15.4646,66.6122],[40.0072,-15.4819,93.2218],[39.9838,-15.4766,86.3122],[39.9684,-15.4761,100.3461],[39.9456,-15.479,123.7595],[39.9337,-15.468,127.90089999999999],[39.8914,-15.4555,102.4989],[39.8581,-15.4498,123.9926],[39.8378,-15.4302,98.8377],[39.8105,-15.4389,103.969],[39.774,-15.4553,130.7388],[39.7667,-15.4603,132.9343],[39.762,-15.4673,198.2396],[39.7747,-15.4743,184.2058],[39.771,-15.4829,151.6287],[39.7729,-15.4908,154.4734],[39.7708,-15.5,142.6142],[39.7726,-15.516,128.7275],[39.7714,-15.5238,125.7037],[39.7724,-15.5388,125.24],[39.7772,-15.5428,131.6509],[39.7837,-15.557,122.722],[39.7876,-15.5685,111.0398],[39.7874,-15.5735,110.1054],[39.7844,-15.5757,105.9343],[39.7767,-15.5758,115.6935],[39.7633,-15.5795,113.9499],[39.7554,-15.5896,126.9651],[39.7418,-15.5932,149.5247],[39.7415,-15.6234,100.9683],[39.7361,-15.6307,92.0706],[39.7399,-15.6376,108.188],[39.7342,-15.6621,90.2122],[39.7439,-15.6724,82.7887],[39.7615,-15.6853,82.4442],[39.7739,-15.7002,72.8546],[39.7849,-15.7064,67.2045],[39.8151,-15.7178,62.1258],[39.8313,-15.7165,59.1859],[39.8582,-15.7189,56.2097],[39.8642,-15.7347,56.9575],[39.8707,-15.738,51.2208],[39.8779,-15.7481,50.1586],[39.8815,-15.7581,53.1086],[39.8745,-15.7686,59.0307],[39.8727,-15.7847,46.6],[39.8801,-15.7951,44.8002],[39.8797,-15.8086,42.3398],[39.8873,-15.8113,36.5302],[39.8981,-15.8095,47.8977]]]]}}