{"type":"Feature","properties":{"GID_3":"MOZ.10.10.3_1","GID_0":"MOZ","country":"Mozambique","GID_1":"MOZ.10_1","province":"Tete","NL_NAME_1":"NA","GID_2":"MOZ.10.10_1","county":"Mutarara","NL_NAME_2":"NA","city":"Inhangoma","VARNAME_3":"NA","NL_NAME_3":"NA","TYPE_3":"Localidad","ENGTYPE_3":"Locality","CC_3":"NA","HASC_3":"NA","name":"Inhangoma.city"},
"geometry":{"type": "MultiPolygon","coordinates": [[[[35.3649,-17.7582,25.5],[35.3684,-17.74,26.0],[35.3675,-17.7333,26.0],[35.3623,-17.7238,26.9048],[35.3362,-17.6914,27.8003],[35.318,-17.6914,28.4222],[35.3146,-17.6857,28.8338],[35.3178,-17.6796,27.0],[35.3297,-17.68,28.1538],[35.336,-17.6767,27.7249],[35.3362,-17.669,28.7036],[35.3218,-17.6256,27.4632],[35.3234,-17.597,28.4794],[35.3203,-17.587,29.8331],[35.3269,-17.5778,27.5],[35.3308,-17.5655,29.196],[35.3307,-17.5485,30.2136],[35.3327,-17.5441,29.5229],[35.335,-17.5276,33.5322],[35.3395,-17.5168,32.1556],[35.3429,-17.4944,30.2683],[35.3344,-17.4802,29.7995],[35.3355,-17.4715,30.4532],[35.3345,-17.4507,29.2217],[35.3381,-17.4427,29.3901],[35.3259,-17.4217,31.525],[35.3191,-17.3378,29.0978],[35.3061,-17.335,30.314],[35.2915,-17.3354,29.4719],[35.2706,-17.339,30.4864],[35.262,-17.3463,30.1004],[35.2598,-17.3511,29.8212],[35.2461,-17.3445,31.465699999999998],[35.2349,-17.3482,31.4952],[35.2173,-17.3651,33.2883],[35.2053,-17.3605,33.4454],[35.1871,-17.3662,33.5758],[35.181,-17.3661,35.6194],[35.1526,-17.3714,36.2909],[35.1355,-17.3895,36.9611],[35.0988,-17.4188,38.6189],[35.0881,-17.4403,39.2444],[35.0904,-17.4518,41.6321],[35.0851,-17.4634,39.5],[35.0711,-17.4706,40.78],[35.0829,-17.4973,39.4956],[35.0951,-17.5134,37.8014],[35.1407,-17.5658,34.5],[35.1594,-17.6094,33.5],[35.1713,-17.6294,32.5],[35.1892,-17.6504,32.5512],[35.2102,-17.6655,32.1523],[35.229,-17.6759,31.8299],[35.284,-17.7012,29.3076],[35.3299,-17.7149,28.3371],[35.3445,-17.7257,26.5],[35.3496,-17.7373,27.5077],[35.3477,-17.7493,28.4953],[35.3516,-17.7569,28.8057],[35.3649,-17.7582,25.5]]]]}}