{"type":"Feature","properties":{"GID_3":"MOZ.7.11.1_1","GID_0":"MOZ","country":"Mozambique","GID_1":"MOZ.7_1","province":"Nampula","NL_NAME_1":"NA","GID_2":"MOZ.7.11_1","county":"Mongincual","NL_NAME_2":"NA","city":"Chunga(Liupo)","VARNAME_3":"NA","NL_NAME_3":"NA","TYPE_3":"Localidad","ENGTYPE_3":"Locality","CC_3":"NA","HASC_3":"NA","name":"Chunga(Liupo).city"},
"geometry":{"type": "MultiPolygon","coordinates": [[[[40.0516,-15.9013,13.0403],[40.0516,-15.8595,12.6129],[40.0349,-15.8539,14.7198],[40.0273,-15.8444,25.9503],[40.0223,-15.8413,24.9709],[40.0219,-15.8369,23.6792],[40.0184,-15.8317,18.9919],[40.0075,-15.8261,22.0434],[40.0064,-15.8211,23.0095],[40.0001,-15.812,29.063],[39.9751,-15.8132,30.2817],[39.9685,-15.8178,39.3473],[39.961,-15.8206,56.8983],[39.9428,-15.8183,71.3025],[39.9336,-15.8134,89.0581],[39.912,-15.8081,78.9379],[39.8981,-15.8095,47.8977],[39.8983,-15.8148,36.9742],[39.8879,-15.824,32.617],[39.8898,-15.8326,34.8886],[39.8966,-15.8355,43.2207],[39.919,-15.8511,28.5105],[39.9419,-15.8508,35.7628],[39.9578,-15.8546,24.0196],[39.9718,-15.8611,21.4941],[39.9788,-15.8604,20.4996],[39.9862,-15.8633,22.2213],[39.9972,-15.8831,20.4126],[40.0009,-15.8835,19.0411],[40.0148,-15.8903,16.09],[40.0297,-15.9022,13.5143],[40.0347,-15.905,12.7878],[40.0454,-15.9016,11.4485],[40.0516,-15.9013,13.0403]]]]}}