{"type": "Feature","bbox": [32.5501,-25.8735,32.9732,-25.4729],"geometry": {"type": "MultiPolygon","coordinates": [[[[32.7246,-25.8204,3.0099],[32.7226,-25.8204,0.9619],[32.7115,-25.8285,1.4064],[32.7065,-25.8371,0.0],[32.7076,-25.8454,0.0],[32.7151,-25.8593,0.9031],[32.7187,-25.8585,0.0],[32.7212,-25.8551,1.2243],[32.7224,-25.8493,0.4214],[32.721,-25.8474,2.7502],[32.7212,-25.8426,3.0795],[32.7271,-25.8318,0.0],[32.7268,-25.8237,0.0],[32.7246,-25.8204,3.0099]]],
[[[32.7207,-25.759,0.9377],[32.7071,-25.7676,0.6981],[32.7004,-25.7682,1.681],[32.6957,-25.7704,1.3606],[32.689,-25.7699,1.5193],[32.6874,-25.7715,0.0],[32.6885,-25.7935,0.6678],[32.6954,-25.7971,1.6542],[32.7026,-25.8046,0.9634],[32.7118,-25.806,1.0009],[32.7218,-25.8049,0.0],[32.7218,-25.7896,0.8231],[32.7254,-25.7824,0.0],[32.7318,-25.776,0.409],[32.7326,-25.7726,1.3693],[32.7207,-25.759,0.9377]]],
[[[32.5775,-25.7958,35.8642],[32.5741,-25.8052,31.9935],[32.6968,-25.8535,1.1449],[32.6954,-25.8462,1.0237],[32.6976,-25.8429,3.5804],[32.6982,-25.8351,2.5313],[32.7012,-25.8293,0.0],[32.7007,-25.8221,1.7758],[32.7032,-25.824,0.0],[32.7071,-25.8215,0.4713],[32.714,-25.8221,0.8179],[32.7171,-25.8207,0.0],[32.721,-25.8143,1.4554],[32.7215,-25.8074,0.0],[32.7068,-25.8071,1.9307],[32.7018,-25.8054,0.9634],[32.6885,-25.7949,1.5675],[32.6857,-25.7865,1.2463],[32.6857,-25.7729,6.1161],[32.6899,-25.7685,0.9234],[32.6957,-25.7693,0.8752],[32.7151,-25.7621,0.8176],[32.7182,-25.7588,0.0],[32.7143,-25.7535,1.9267],[32.7168,-25.7515,0.0],[32.729,-25.7596,0.2018],[32.7354,-25.7665,0.0],[32.7365,-25.7776,0.0],[32.729,-25.7882,1.4717],[32.7279,-25.7943,2.1969],[32.729,-25.8021,0.0],[32.7332,-25.8126,0.0],[32.7332,-25.8204,0.0],[32.7363,-25.8282,0.0],[32.7346,-25.8426,0.0],[32.7385,-25.8515,4.6093],[32.7401,-25.8624,1.2313],[32.7454,-25.8668,2.2666],[32.7454,-25.871,1.8724],[32.7438,-25.8715,0.0],[32.7468,-25.8735,0.0],[32.7526,-25.8735,0.0],[32.7449,-25.8629,1.5481],[32.7374,-25.8376,5.8291],[32.7368,-25.8285,0.0],[32.7329,-25.8082,2.698],[32.7349,-25.784,3.7883],[32.7374,-25.7779,0.0],[32.7474,-25.7349,3.7688],[32.7701,-25.6796,15.4164],[32.7788,-25.6626,14.0448],[32.7918,-25.6435,0.0],[32.8126,-25.6065,9.1093],[32.8429,-25.5726,1.7445],[32.9001,-25.5246,1.8128],[32.9099,-25.519,0.0],[32.9157,-25.5135,1.5605],[32.9193,-25.5129,0.0],[32.9238,-25.5076,8.1068],[32.9304,-25.5046,0.0],[32.9301,-25.5032,0.0],[32.9351,-25.501,2.3657],[32.9371,-25.4979,11.6139],[32.9396,-25.4979,0.0],[32.9412,-25.4954,3.5657],[32.9476,-25.4929,0.0],[32.9515,-25.4885,8.1027],[32.9551,-25.4879,0.0],[32.9732,-25.4751,0.0],[32.8072,-25.4729,1.6052],[32.7867,-25.4929,1.7266],[32.7822,-25.4995,2.5445],[32.7716,-25.5047,2.1189],[32.7594,-25.5074,2.2975],[32.7627,-25.5168,2.7705],[32.7592,-25.5223,2.7088],[32.7481,-25.5239,16.6018],[32.7445,-25.5329,1.4813],[32.744,-25.5455,1.0],[32.7352,-25.5553,1.8007],[32.7206,-25.5626,1.9423],[32.7117,-25.571,1.8199],[32.7094,-25.5963,0.5],[32.5818,-25.5913,61.1209],[32.5501,-25.5835,55.0368],[32.58,-25.6595,55.3723],[32.5651,-25.6991,53.2016],[32.5603,-25.7169,56.0459],[32.5628,-25.7228,56.1467],[32.5699,-25.7303,54.5477],[32.577,-25.7431,56.5336],[32.582,-25.7466,54.3959],[32.5919,-25.7694,46.7599],[32.5775,-25.7958,35.8642]]],
[[[32.7307,-25.7635,1.1685],[32.729,-25.7643,0.0],[32.7329,-25.7671,0.4857],[32.7329,-25.7649,3.5913],[32.7307,-25.7635,1.1685]]]]}
,"properties": {"GID_2": "MOZ.6.4_1","GID_0": "MOZ","country": "Mozambique","GID_1": "MOZ.6_1","province": "Maputo","NL_NAME_1": "NA","county": "Marracuene","VARNAME_2": "NA","NL_NAME_2": "NA","TYPE_2": "Distrito","ENGTYPE_2": "District","CC_2": "NA","HASC_2": "MZ.MP.MR","name": "Marracuene.county","area_km2": 691.0633,"hist_schema_id": "Elevation0-9000","hist_area_km2": {"0": 371.0013,"25": 114.4032,"50": 191.8119,"75": 13.7897,"100": 0.0573}}}