{"type":"Feature","properties":{"GID_3":"MOZ.10.9.3_1","GID_0":"MOZ","country":"Mozambique","GID_1":"MOZ.10_1","province":"Tete","NL_NAME_1":"NA","GID_2":"MOZ.10.9_1","county":"Moatize","NL_NAME_2":"NA","city":"Zobue","VARNAME_3":"NA","NL_NAME_3":"NA","TYPE_3":"Localidad","ENGTYPE_3":"Locality","CC_3":"NA","HASC_3":"NA","name":"Zobue.city"},
"geometry":{"type": "MultiPolygon","coordinates": [[[[34.3535,-15.74,795.3117],[34.3573,-15.7371,762.6449],[34.3641,-15.7391,777.2344],[34.3737,-15.7287,673.1994],[34.3778,-15.7153,666.5259],[34.3874,-15.7069,694.6917],[34.3897,-15.6987,718.8868],[34.3876,-15.6913,744.4708],[34.3917,-15.6838,718.6989],[34.3949,-15.682,718.6917],[34.4038,-15.6832,761.2229],[34.4038,-15.6752,743.7937],[34.4086,-15.6694,790.0519],[34.418,-15.6691,783.431],[34.4229,-15.6635,820.8616],[34.4257,-15.6632,862.6044],[34.4267,-15.6606,840.9431],[34.435,-15.6604,924.2975],[34.4374,-15.6554,843.9884],[34.4318,-15.6508,866.3577],[34.4302,-15.6418,881.5593],[34.4332,-15.6287,883.4023],[34.4313,-15.6238,901.0146],[34.4333,-15.6178,898.1804],[34.4399,-15.61,896.436],[34.4537,-15.6063,931.6985],[34.4542,-15.5935,994.9948],[34.4403,-15.571,967.2856],[34.4429,-15.5484,1084.3846],[34.4403,-15.5427,1063.9377],[34.4415,-15.5388,1129.9917],[34.4354,-15.5234,1222.6244],[34.4356,-15.5195,1132.3225],[34.4278,-15.5014,1245.4565],[34.4257,-15.4892,1168.4302],[34.4261,-15.4745,1224.8789],[34.4309,-15.4651,1147.5848],[34.4352,-15.4652,1134.381],[34.4388,-15.4568,1069.129],[34.4419,-15.4547,1069.9293],[34.4376,-15.4456,1052.322],[34.425,-15.4289,990.3925],[34.2189,-15.4175,661.2285],[34.2202,-15.4217,654.8589],[34.2148,-15.4262,662.4117],[34.2185,-15.4316,658.144],[34.2095,-15.4413,666.5743],[34.213,-15.4491,634.6868],[34.2057,-15.4528,640.4352],[34.1948,-15.449,619.436],[34.1824,-15.449,628.2554],[34.1877,-15.4573,609.1752],[34.1872,-15.4611,615.3862],[34.177,-15.4668,604.9671],[34.173,-15.472,600.3574],[34.168,-15.4748,584.7461],[34.1581,-15.4874,585.6028],[34.1541,-15.4808,582.8335],[34.1585,-15.4632,597.9529],[34.159,-15.4532,600.501],[34.1575,-15.4487,631.8577],[34.1526,-15.4445,630.2442],[34.1023,-15.4363,724.2126],[34.0846,-15.4251,687.4676],[34.0751,-15.4086,674.5054],[34.0678,-15.4098,670.1789],[34.0579,-15.4168,643.7885],[34.0545,-15.4232,650.9342],[34.0479,-15.4268,628.0685],[34.0404,-15.4297,618.3776],[34.0294,-15.4296,591.4675],[34.0124,-15.4219,580.6146],[34.0072,-15.4151,584.559],[34.004,-15.4136,573.6921],[34.0,-15.4025,563.6487],[33.9732,-15.4151,556.6318],[33.9651,-15.4212,562.472],[33.9626,-15.4363,537.1642],[33.9555,-15.4427,551.2505],[33.9452,-15.4455,545.2381],[33.9342,-15.4728,641.3989],[33.9279,-15.4814,534.2267],[33.916,-15.4881,506.1563],[33.9117,-15.5114,519.359],[33.9086,-15.519,492.0457],[33.9011,-15.5246,495.1988],[33.8965,-15.5414,476.617],[33.8902,-15.5478,531.8395],[33.8851,-15.5459,437.692],[33.882,-15.549,503.9626],[33.8797,-15.558,433.9712],[33.8737,-15.5677,431.7834],[33.8715,-15.5768,400.9665],[33.8656,-15.5865,355.9969],[33.8553,-15.5972,348.4361],[33.8385,-15.6093,343.7785],[33.8213,-15.6286,349.8527],[33.814,-15.6343,326.5836],[33.8018,-15.6395,313.5828],[33.7961,-15.6447,298.3259],[33.7951,-15.6525,316.369],[33.7993,-15.6602,315.6158],[33.805,-15.669,307.7038],[33.8191,-15.6811,294.2878],[33.8229,-15.6898,298.0262],[33.8202,-15.699,296.5069],[33.8139,-15.703,295.9791],[33.8071,-15.7013,302.3292],[33.8052,-15.6931,298.8959],[33.8014,-15.688,291.4572],[33.7938,-15.6895,300.347],[33.7698,-15.7011,297.2922],[33.7693,-15.7156,295.8831],[33.7619,-15.7252,296.4189],[33.7579,-15.7366,292.9433],[33.7577,-15.7468,286.5928],[33.7492,-15.7684,282.7187],[33.7487,-15.7774,270.0947],[33.7521,-15.7891,282.797],[33.7668,-15.7964,250.0363],[33.772,-15.8041,245.5537],[33.7842,-15.8301,260.5413],[33.7922,-15.8418,248.2752],[33.7927,-15.8457,246.3659],[33.7827,-15.8515,238.6763],[33.7829,-15.857,248.1576],[33.7915,-15.8634,242.0777],[33.7955,-15.8694,234.6968],[33.8044,-15.8689,246.9879],[33.8119,-15.8658,246.0776],[33.8348,-15.8674,248.8018],[33.841,-15.8665,244.3227],[33.8513,-15.8722,253.9942],[33.8591,-15.8621,256.8649],[33.8668,-15.8658,246.8582],[33.8856,-15.8621,258.5645],[33.8926,-15.8671,257.8925],[33.9061,-15.8652,259.0799],[33.913,-15.862,270.2563],[33.9161,-15.8568,270.4905],[33.921,-15.8535,269.9025],[33.926,-15.8558,258.0387],[33.932,-15.8452,264.5013],[33.9292,-15.8394,263.3809],[33.9298,-15.8367,268.2727],[33.9396,-15.8389,278.2623],[33.9456,-15.8375,304.9104],[33.9582,-15.8216,293.5919],[33.9617,-15.8212,291.1212],[33.9752,-15.8249,288.1427],[33.985,-15.8253,287.9934],[33.9896,-15.8275,285.6988],[33.9943,-15.8357,286.962],[34.0082,-15.8394,300.9358],[34.0208,-15.8461,298.6523],[34.0245,-15.8453,308.5683],[34.0258,-15.8471,303.3191],[34.0524,-15.8495,307.4829],[34.0673,-15.841,318.9517],[34.0723,-15.8405,315.9877],[34.0921,-15.8496,326.0583],[34.0983,-15.8478,345.9266],[34.1039,-15.8498,332.2665],[34.1146,-15.8493,338.8862],[34.1628,-15.856,359.8121],[34.1813,-15.8494,369.3644],[34.2067,-15.844,386.8475],[34.2508,-15.8448,393.7823],[34.2487,-15.8402,391.9095],[34.2545,-15.8351,388.6455],[34.2586,-15.8208,390.0702],[34.2633,-15.8161,399.9355],[34.2679,-15.8159,398.6872],[34.2728,-15.8121,408.2159],[34.2704,-15.8013,397.5471],[34.2727,-15.7918,409.812],[34.2796,-15.788,512.4742],[34.2829,-15.7838,503.3862],[34.2854,-15.7855,514.101],[34.2871,-15.7849,514.101],[34.2924,-15.7751,548.9072],[34.2977,-15.7689,557.4388],[34.2996,-15.7585,588.8983],[34.3117,-15.7544,589.3149],[34.3225,-15.7467,616.9465],[34.326,-15.7419,618.472],[34.3281,-15.7426,605.3226],[34.3363,-15.7389,613.9373],[34.349,-15.7419,809.7965],[34.3535,-15.74,795.3117]]]]}}