{"type": "Feature","bbox": [31.9489,-25.3124,32.9508,-24.2032],"geometry": {"type": "MultiPolygon","coordinates": [[[[32.9093,-24.8532,21.0974],[32.9508,-24.764,23.1754],[32.8879,-24.7613,28.7676],[32.8788,-24.7672,25.5762],[32.8722,-24.7756,26.325],[32.8673,-24.7711,21.7997],[32.8683,-24.7641,22.5321],[32.8737,-24.7515,24.0104],[32.8728,-24.7494,23.8509],[32.8663,-24.7471,23.7841],[32.8615,-24.7434,24.7002],[32.8612,-24.7415,25.4187],[32.8367,-24.7228,25.2072],[32.8394,-24.6963,27.7921],[32.8382,-24.6837,26.3892],[32.8316,-24.6701,28.2342],[32.8185,-24.6607,31.4735],[32.7986,-24.6294,33.1843],[32.7828,-24.6101,33.2884],[32.7642,-24.575,38.0922],[32.7633,-24.5638,38.1559],[32.7507,-24.5541,38.0801],[32.7463,-24.5444,41.0704],[32.7467,-24.5409,42.5932],[32.7306,-24.5309,44.83],[32.7192,-24.5088,43.3619],[32.7164,-24.4984,41.6449],[32.7197,-24.483,43.0997],[32.724,-24.4752,44.4758],[32.7285,-24.4577,45.5373],[32.725,-24.4234,45.4513],[32.7185,-24.4026,49.3667],[32.6964,-24.3857,50.6882],[32.6664,-24.3759,59.3351],[32.6146,-24.3796,68.5264],[32.606,-24.3758,70.201],[32.5991,-24.3694,70.9036],[32.587,-24.3499,76.3299],[32.5679,-24.3355,80.0943],[32.5579,-24.3333,79.6756],[32.5455,-24.346,82.2709],[32.5371,-24.3463,83.7225],[32.5339,-24.3452,83.787],[32.528,-24.3383,86.0801],[32.5219,-24.334,86.4076],[32.5127,-24.3343,89.8429],[32.5068,-24.3322,91.2537],[32.4884,-24.33,93.172],[32.4809,-24.326,94.153],[32.4806,-24.3271,94.2083],[32.4757,-24.3248,94.2151],[32.4638,-24.308,97.299],[32.4491,-24.3023,100.0074],[32.4476,-24.2937,101.6157],[32.4397,-24.2802,103.927],[32.4331,-24.2803,106.7279],[32.3957,-24.2674,119.7785],[32.3865,-24.261,124.2837],[32.3573,-24.2476,136.5854],[32.3425,-24.2462,140.5695],[32.3212,-24.2526,147.5583],[32.312,-24.2502,149.4532],[32.3007,-24.2496,153.5132],[32.2934,-24.2511,155.6822],[32.2756,-24.2486,163.0844],[32.2691,-24.2427,173.0744],[32.2564,-24.2361,179.6506],[32.2333,-24.2349,177.3126],[32.2293,-24.2399,179.4306],[32.2147,-24.2335,188.377],[32.208,-24.2333,186.0453],[32.1918,-24.2164,193.8022],[32.1654,-24.2138,217.5654],[32.1274,-24.2127,234.0218],[32.0959,-24.2056,254.8862],[32.0748,-24.2032,262.65],[32.0448,-24.209,277.7128],[31.9704,-24.2458,329.0201],[31.9489,-24.2463,348.5293],[31.9813,-24.2973,312.619],[31.9871,-24.3022,310.5925],[32.0131,-24.4546,157.9758],[32.0089,-24.5751,288.8507],[31.9983,-24.6897,362.5546],[32.0071,-24.8104,206.6502],[32.031,-24.8151,178.0402],[32.0409,-24.8101,191.8903],[32.084,-24.7975,143.4301],[32.0945,-24.807,136.1968],[32.1044,-24.8082,128.7402],[32.1092,-24.7989,133.5762],[32.1091,-24.7927,123.8765],[32.118,-24.787,128.9315],[32.125,-24.7999,121.1663],[32.1275,-24.817,121.9922],[32.1345,-24.8293,121.7457],[32.1447,-24.8344,117.8298],[32.1653,-24.8352,113.5145],[32.1728,-24.8322,113.2734],[32.1816,-24.833,110.5656],[32.1831,-24.8381,108.3316],[32.1807,-24.8464,103.0269],[32.1866,-24.8517,108.1601],[32.2087,-24.8528,104.014],[32.2202,-24.8609,107.081],[32.2284,-24.8761,101.6775],[32.2428,-24.8762,98.8681],[32.2475,-24.8813,93.2609],[32.2465,-24.8869,97.9853],[32.2489,-24.8881,99.4625],[32.2545,-24.8873,97.6476],[32.2594,-24.8894,95.2229],[32.2604,-24.8951,95.5733],[32.2438,-24.9066,92.6137],[32.2448,-24.9103,94.1758],[32.2631,-24.9107,93.5227],[32.2799,-24.9156,91.2466],[32.2883,-24.9135,87.8951],[32.293,-24.8754,92.1069],[32.3071,-24.8899,78.1107],[32.3087,-24.8993,83.549],[32.3149,-24.9022,80.3882],[32.3285,-24.9007,79.1115],[32.3372,-24.8971,78.1569],[32.3467,-24.9035,75.3947],[32.338,-24.92,81.4366],[32.3372,-24.9336,73.7138],[32.3487,-24.9407,72.8557],[32.3547,-24.9407,71.7208],[32.3615,-24.9431,73.2458],[32.3553,-24.9522,70.6984],[32.361,-24.9578,72.4768],[32.3652,-24.9597,68.9869],[32.3762,-24.954,76.5581],[32.3819,-24.9545,84.9744],[32.3971,-24.9782,63.0068],[32.4089,-24.9931,65.2435],[32.4096,-24.9994,62.1777],[32.3784,-25.0257,61.2717],[32.3743,-25.0424,56.0056],[32.3767,-25.0567,50.5396],[32.3811,-25.0649,54.6489],[32.3837,-25.0813,79.7429],[32.3811,-25.1098,78.1082],[32.4025,-25.1465,81.8297],[32.3984,-25.1806,151.0586],[32.3918,-25.2013,58.2142],[32.3942,-25.2105,53.2379],[32.4187,-25.2495,41.735],[32.4178,-25.2666,43.7134],[32.4349,-25.2859,48.1115],[32.4466,-25.2892,48.5653],[32.4619,-25.2859,41.4025],[32.4985,-25.2952,36.3154],[32.5051,-25.2852,39.2908],[32.506,-25.2722,35.7113],[32.5015,-25.2625,35.6216],[32.4966,-25.2568,42.8624],[32.6235,-25.3124,48.2595],[32.6452,-25.2407,63.2021],[32.6899,-25.184,38.8351],[32.6863,-25.172,32.3536],[32.6992,-25.1734,30.8358],[32.7201,-25.1701,28.9303],[32.7318,-25.157,19.1323],[32.7326,-25.1479,24.6109],[32.7385,-25.14,21.3435],[32.7621,-25.1376,12.0],[32.7585,-25.1247,21.3278],[32.7496,-25.1183,26.0744],[32.7686,-25.1157,16.4054],[32.7717,-25.1044,17.4152],[32.7632,-25.1036,17.2463],[32.7504,-25.0872,16.9955],[32.7427,-25.0726,19.6208],[32.7378,-25.0547,21.9628],[32.7258,-25.0466,21.2719],[32.7067,-25.0379,24.2129],[32.6995,-25.0382,24.8217],[32.7073,-25.0236,25.054],[32.7067,-25.0151,25.4283],[32.7277,-25.0091,24.6592],[32.7413,-25.0088,23.8732],[32.7494,-25.0128,22.9647],[32.7571,-25.0195,22.6216],[32.765,-25.021,20.5],[32.7698,-25.012,29.6203],[32.7764,-24.9925,21.1306],[32.7917,-24.9807,14.4332],[32.805,-24.9816,15.0635],[32.8133,-24.9857,14.066],[32.8318,-24.9967,18.1222],[32.8367,-25.0031,16.666],[32.8399,-25.0031,16.6314],[32.8526,-24.9936,14.9504],[32.8575,-24.9873,13.9115],[32.868,-24.9873,13.7843],[32.8746,-24.9832,14.3209],[32.8875,-24.984,14.0649],[32.9023,-24.9924,12.8452],[32.9059,-24.9918,13.257],[32.9052,-24.9855,14.2231],[32.9072,-24.9826,13.9362],[32.9186,-24.9828,14.466],[32.9217,-24.979,11.0],[32.9232,-24.974,13.977],[32.9199,-24.9716,13.6971],[32.9117,-24.9708,15.6315],[32.9053,-24.9666,11.0],[32.9018,-24.9609,11.0],[32.9034,-24.9561,12.0329],[32.9029,-24.943,11.2867],[32.9125,-24.934,12.4478],[32.9145,-24.9296,11.9033],[32.9139,-24.926,15.5354],[32.9189,-24.9257,12.5502],[32.9319,-24.9157,14.5351],[32.9381,-24.9156,14.2359],[32.9405,-24.9123,14.4955],[32.9393,-24.9086,13.9519],[32.9401,-24.903199999999998,14.3616],[32.9375,-24.8982,15.3274],[32.9247,-24.8977,15.7851],[32.9155,-24.89,16.1191],[32.9155,-24.8827,16.7818],[32.9099,-24.8759,17.65],[32.9126,-24.8721,17.0184],[32.9058,-24.8681,16.6963],[32.9054,-24.8661,17.8164],[32.9089,-24.858,17.7793],[32.9093,-24.8532,21.0974]]]]}
,"properties": {"GID_2": "MOZ.6.2_1","GID_0": "MOZ","country": "Mozambique","GID_1": "MOZ.6_1","province": "Maputo","NL_NAME_1": "NA","county": "Magude","VARNAME_2": "NA","NL_NAME_2": "NA","TYPE_2": "Distrito","ENGTYPE_2": "District","CC_2": "NA","HASC_2": "MZ.MP.MG","name": "Magude.county","area_km2": 6960.187,"hist_schema_id": "Elevation0-9000","hist_area_km2": {"0": 4.824,"25": 855.324,"50": 1368.807,"75": 1130.264,"100": 765.296,"125": 649.345,"150": 641.57,"175": 506.006,"200": 380.315,"225": 252.34,"250": 170.743,"275": 100.453,"300": 77.395,"325": 47.462,"350": 10.042}}}