{"type":"Feature","properties":{"GID_2":"MOZ.4.5_1","GID_0":"MOZ","country":"Mozambique","GID_1":"MOZ.4_1","province":"Manica","NL_NAME_1":"NA","county":"Macossa","VARNAME_2":"NA","NL_NAME_2":"NA","TYPE_2":"Distrito","ENGTYPE_2":"District","CC_2":"NA","HASC_2":"MZ.MN.MS","name":"Macossa.county"},
"geometry":{"type": "MultiPolygon","coordinates": [[[[33.5513,-18.6584,379.5983],[33.5506,-18.6722,389.5257],[33.5682,-18.6751,384.4446],[33.5842,-18.6874,375.2057],[33.6136,-18.6784,365.4633],[33.6355,-18.6694,354.269],[33.6477,-18.6748,346.6402],[33.6728,-18.7075,343.3192],[33.6968,-18.722,347.1332],[33.7161,-18.7307,340.2502],[33.7377,-18.7339,343.1932],[33.7522,-18.7166,323.2892],[33.7465,-18.7191,338.6258],[33.733,-18.7075,352.3565],[33.7222,-18.6958,356.1276],[33.7197,-18.6844,370.8843],[33.7219,-18.6758,378.8062],[33.7283,-18.6657,384.3767],[33.7295,-18.6377,413.2056],[33.7723,-18.601,447.1941],[33.7739,-18.522,510.0569],[33.7854,-18.5258,488.8312],[33.8098,-18.5296,457.2556],[33.836,-18.5267,433.1424],[33.8379,-18.5225,437.4596],[33.8458,-18.5152,425.7344],[33.8627,-18.5137,408.0808],[33.8745,-18.5221,408.0725],[33.8821,-18.5173,407.6431],[33.8714,-18.5004,417.0674],[33.8681,-18.4914,411.1287],[33.8668,-18.4699,420.3717],[33.8701,-18.4622,421.3287],[33.8582,-18.4518,445.7431],[33.8556,-18.4443,431.949],[33.8588,-18.4058,435.9662],[33.8505,-18.4083,437.6094],[33.8412,-18.4202,438.3511],[33.8334,-18.4171,446.0607],[33.8315,-18.4074,446.6712],[33.8426,-18.3745,459.6101],[33.8236,-18.344,470.5081],[33.8199,-18.3256,471.487],[33.8237,-18.3175,462.2663],[33.8263,-18.3057,470.0833],[33.8237,-18.2921,477.0243],[33.8125,-18.2932,477.8727],[33.8062,-18.2897,470.0861],[33.8065,-18.2825,473.4238],[33.814,-18.2766,482.726],[33.8268,-18.2706,500.3814],[33.837,-18.2624,503.7094],[33.8468,-18.2366,524.6511],[33.8585,-18.2321,533.8845],[33.8673,-18.2253,550.3442],[33.9235,-18.1684,502.4866],[33.952,-18.1259,431.0618],[33.9992,-18.1323,410.8896],[34.0078,-18.1233,416.5219],[34.0138,-18.1206,425.1751],[34.0261,-18.127,416.9459],[34.0277,-18.1313,409.4312],[34.026,-18.1391,400.0023],[34.0273,-18.1544,415.3786],[34.0325,-18.1602,400.9132],[34.0439,-18.1656,391.1505],[34.0487,-18.1706,388.7576],[34.0456,-18.1778,396.2482],[34.045,-18.1865,392.686],[34.0502,-18.1973,388.8404],[34.0567,-18.2049,387.1039],[34.0584,-18.2143,386.4448],[34.0637,-18.2194,380.5878],[34.0693,-18.2151,385.148],[34.0725,-18.2145,391.3723],[34.1035,-18.2426,439.3963],[34.1119,-18.2523,365.7003],[34.1241,-18.2582,412.5114],[34.1368,-18.2587,332.7931],[34.1497,-18.253,330.1078],[34.1896,-18.1844,370.5789],[34.196,-18.1842,364.1736],[34.23,-18.2099,318.6812],[34.2458,-18.2106,295.1254],[34.2822,-18.0792,225.8391],[34.2892,-18.0716,246.4329],[34.2902,-18.0671,335.3583],[34.2785,-17.9988,433.7843],[34.2651,-17.9766,395.2136],[34.2741,-17.9599,387.6405],[34.2793,-17.9539,328.6069],[34.2881,-17.9334,295.0992],[34.2787,-17.9205,264.5167],[34.2769,-17.9149,267.2556],[34.2718,-17.9077,282.0931],[34.2629,-17.9035,293.8641],[34.2538,-17.8966,304.805],[34.2394,-17.8776,325.6593],[34.2324,-17.8769,319.8269],[34.2144,-17.87,351.3932],[34.194,-17.8716,361.8837],[34.1926,-17.8452,349.2096],[34.1996,-17.8222,360.9056],[34.2086,-17.7449,401.9001],[34.2027,-17.7144,404.8038],[34.1718,-17.6996,437.3807],[34.161,-17.6903,464.5283],[34.1628,-17.6286,405.4287],[34.1404,-17.5927,453.9521],[34.1768,-17.5162,393.1235],[34.2037,-17.422,303.1297],[34.202,-17.4118,340.9278],[34.1878,-17.3848,430.98],[34.0436,-17.3593,314.8065],[34.0323,-17.3642,332.6768],[34.028,-17.3684,342.0552],[34.0137,-17.3754,378.2197],[34.0107,-17.3755,345.8232],[33.9914,-17.3676,391.8221],[33.9056,-17.3797,417.2051],[33.8903,-17.3671,433.7592],[33.8819,-17.3677,451.1251],[33.8492,-17.3526,457.2274],[33.8439,-17.3468,462.6071],[33.8363,-17.3444,474.3729],[33.819,-17.3261,486.3304],[33.8029,-17.3321,510.5332],[33.7738,-17.3395,530.1481],[33.7653,-17.343,523.071],[33.7615,-17.3481,519.1772],[33.7568,-17.3499,523.8594],[33.7422,-17.3514,534.0834],[33.7118,-17.3448,547.4137],[33.6707,-17.3584,575.7367],[33.6554,-17.3688,603.7258],[33.6511,-17.3675,613.1332],[33.6426,-17.3695,613.5529],[33.6038,-17.3825,667.1224],[33.5994,-17.3898,709.0851],[33.5972,-17.4103,712.6322],[33.5508,-17.4389,758.3851],[33.4902,-17.4247,644.817],[33.4825,-17.4308,658.6645],[33.4752,-17.4454,655.2688],[33.4639,-17.4574,684.0984],[33.4648,-17.4692,667.9652],[33.4612,-17.475,688.4232],[33.4603,-17.4822,679.9991],[33.4251,-17.4754,706.3541],[33.4155,-17.4771,721.1846],[33.4097,-17.4742,725.7177],[33.4004,-17.475,726.8613],[33.3831,-17.4889,756.8802],[33.3645,-17.5177,792.5287],[33.36,-17.5175,792.8991],[33.3627,-17.5322,786.0638],[33.3809,-17.5549,765.3919],[33.3833,-17.5654,741.4003],[33.3824,-17.5861,717.9852],[33.3863,-17.6151,691.9277],[33.3855,-17.6276,688.1389],[33.3783,-17.663,662.3716],[33.3782,-17.6764,667.4053],[33.3643,-17.6864,667.5344],[33.3573,-17.7004,649.3406],[33.3753,-17.7353,707.5057],[33.3958,-17.8264,722.5562],[33.4002,-17.8358,698.2211],[33.3977,-17.8618,666.0051],[33.3955,-17.87,661.694],[33.386,-17.8796,639.4697],[33.3802,-17.8933,632.8085],[33.3764,-17.9302,598.143],[33.417,-18.0147,598.4659],[33.4174,-18.0311,586.6116],[33.4144,-18.0417,575.0957],[33.4203,-18.0552,564.0464],[33.4295,-18.0672,554.7789],[33.4309,-18.0848,540.8622],[33.4294,-18.1074,538.7117],[33.4341,-18.1172,526.6605],[33.4363,-18.1402,522.5551],[33.4353,-18.1539,515.8233],[33.4684,-18.21,497.9717],[33.458,-18.2647,493.7632],[33.4716,-18.3055,472.1913],[33.4767,-18.3338,470.2322],[33.4877,-18.3578,469.7755],[33.4902,-18.3721,460.9166],[33.4995,-18.3859,461.0847],[33.5132,-18.3944,459.6617],[33.5076,-18.4014,467.0458],[33.5297,-18.457,460.3109],[33.5385,-18.4659,454.4279],[33.5417,-18.4776,449.9198],[33.5373,-18.4834,441.798],[33.5416,-18.4861,448.7503],[33.5445,-18.5007,457.6398],[33.5326,-18.516,456.7838],[33.532,-18.5306,445.0381],[33.5324,-18.5368,445.4326],[33.5404,-18.5428,420.3313],[33.541,-18.5672,432.9239],[33.5462,-18.5729,433.1789],[33.5446,-18.5944,425.5976],[33.548,-18.6175,404.4038],[33.5458,-18.6231,403.6884],[33.5427,-18.6442,398.3163],[33.5438,-18.6497,382.0514],[33.5499,-18.6527,391.1699],[33.5513,-18.6584,379.5983]]]]}}