{"type":"Feature","properties":{"GID_3":"MOZ.4.8.3_1","GID_0":"MOZ","country":"Mozambique","GID_1":"MOZ.4_1","province":"Manica","NL_NAME_1":"NA","GID_2":"MOZ.4.8_1","county":"Sussundenga","NL_NAME_2":"NA","city":"Rotanda","VARNAME_3":"NA","NL_NAME_3":"NA","TYPE_3":"Localidad","ENGTYPE_3":"Locality","CC_3":"NA","HASC_3":"NA","name":"Rotanda.city"},
"geometry":{"type": "MultiPolygon","coordinates": [[[[32.8638,-19.1695,674.0063],[32.8488,-19.2337,1173.5111],[32.8489,-19.2553,1098.1064],[32.8526,-19.2787,1032.3508],[32.8498,-19.2936,1043.7389],[32.832,-19.3126,1408.2255],[32.8245,-19.3171,1528.5735],[32.8091,-19.3351,1691.6661],[32.7764,-19.3613,1654.386],[32.7756,-19.3705,1777.9377],[32.7857,-19.3867,2178.354],[32.7854,-19.3945,2167.2266],[32.7782,-19.4087,2094.9568],[32.7802,-19.4312,1801.3463],[32.7765,-19.4498,1544.4158],[32.7766,-19.4576,1483.8711],[32.7824,-19.4668,1567.8915],[32.7935,-19.4754,1727.8243],[32.8033,-19.4773,1917.1458],[32.8291,-19.478,1879.0006],[32.8352,-19.4759,1888.2651],[32.8449,-19.4765,1779.125],[32.8453,-19.4836,1753.8226],[32.8402,-19.5189,1494.7654],[32.8413,-19.5279,1559.4252],[32.8512,-19.5413,1363.7892],[32.8523,-19.5525,1343.8615],[32.8475,-19.6095,1784.1333],[32.8528,-19.6238,1729.1965],[32.8342,-19.6693,1970.3373],[32.8351,-19.6772,1839.3977],[32.8385,-19.6809,1826.5559],[32.8501,-19.6846,2140.5068],[32.8727,-19.6829,1860.5524],[32.8764,-19.6853,1649.0433],[32.8897,-19.6847,1614.8594],[32.9026,-19.6806,1619.3021],[32.9165,-19.6789,1541.2407],[32.9498,-19.6642,1469.3374],[32.9627,-19.6546,1501.6915],[32.9688,-19.6549,1462.5557],[32.9727,-19.6583,1456.7961],[32.9784,-19.6724,1439.8296],[32.9808,-19.685,1485.6143],[32.9793,-19.6917,1486.1726],[32.9629,-19.7084,1227.0962],[32.9573,-19.7118,1341.4153],[32.9555,-19.7166,1105.5875],[32.9587,-19.723,1108.4824],[32.9925,-19.7474,1714.2997],[33.0199,-19.7563,1785.5656],[33.0388,-19.7669,1725.0692],[33.0504,-19.7782,1913.2235],[33.0644,-19.7687,1709.6904],[33.0754,-19.7684,1766.8901],[33.0971,-19.7725,1669.3879],[33.1168,-19.7741,1423.1698],[33.1374,-19.7726,1446.3307],[33.1852,-19.758,795.4554],[33.1981,-19.7239,641.1475],[33.2312,-19.6979,524.8895],[33.2407,-19.6967,758.4984],[33.2572,-19.7014,609.2478],[33.28,-19.7013,263.8302],[33.2779,-19.678,271.759],[33.2696,-19.6451,366.6996],[33.2559,-19.6422,347.7095],[33.2345,-19.6488,393.6042],[33.215,-19.6312,357.9091],[33.2064,-19.6199,357.4754],[33.2015,-19.6051,372.3513],[33.189,-19.6049,392.9844],[33.1606,-19.5938,475.3729],[33.1515,-19.5864,454.0818],[33.1386,-19.5814,512.9693],[33.1209,-19.5657,594.1115],[33.116,-19.5492,641.3057],[33.0915,-19.5416,655.5052],[33.0853,-19.5299,674.5502],[33.0714,-19.532,684.2278],[33.057,-19.5303,680.4411],[33.0593,-19.5155,715.428],[33.0607,-19.4779,763.336],[33.0316,-19.4291,752.6788],[33.0274,-19.4168,734.7268],[33.0285,-19.3918,726.7276],[33.0224,-19.3766,750.3206],[33.0175,-19.3303,745.967],[33.0196,-19.3071,682.311],[33.0179,-19.278199999999998,720.025],[33.0129,-19.2663,673.9256],[33.01,-19.2505,664.6696],[33.0121,-19.2203,638.1022],[33.0149,-19.2066,639.5977],[33.0242,-19.1864,618.0099],[33.0319,-19.1562,610.0],[33.0382,-19.1438,610.0],[33.0293,-19.1484,610.0],[33.0142,-19.1494,610.0],[32.9855,-19.1558,610.0],[32.9668,-19.155,610.0],[32.9617,-19.1568,610.0],[32.9483,-19.1556,612.9857],[32.9421,-19.1575,612.4202],[32.9306,-19.153199999999998,620.2263],[32.8952,-19.161,626.2908],[32.8829,-19.1673,649.2768],[32.8812,-19.1727,632.6763],[32.8638,-19.1695,674.0063]]]]}}