{"type": "Feature","bbox": [37.9003,-17.2962,38.5051,-16.4798],"geometry": {"type": "MultiPolygon","coordinates": [[[[38.4665,-17.1471,0.0],[38.4635,-17.1487,0.0],[38.4665,-17.1493,0.0],[38.4679,-17.1476,0.0],[38.4665,-17.1471,0.0]]],
[[[38.469,-17.1454,0.0],[38.4671,-17.1449,0.0],[38.4668,-17.1463,0.0],[38.4696,-17.1471,0.0],[38.469,-17.1454,0.0]]],
[[[38.4615,-17.1449,0.0],[38.4571,-17.1443,0.0],[38.4543,-17.1471,3.6355],[38.4593,-17.1474,2.7134],[38.4615,-17.1449,0.0]]],
[[[38.0832,-17.2012,1.5],[38.079,-17.2007,1.5],[38.0788,-17.2021,1.5],[38.0849,-17.2154,6.082],[38.0907,-17.2213,1.5],[38.0907,-17.219,3.3031],[38.0943,-17.2165,1.7362],[38.0935,-17.2112,1.5],[38.0893,-17.2051,8.143],[38.0832,-17.2012,1.5]]],
[[[38.0749,-17.2062,1.5],[38.074,-17.2051,1.5],[38.0776,-17.2124,1.5],[38.0771,-17.2076,1.5],[38.0749,-17.2062,1.5]]],
[[[38.0721,-17.1793,2.3558],[38.0718,-17.179,2.3558],[38.0723,-17.1815,1.5],[38.0724,-17.1793,2.3558],[38.0721,-17.1793,2.3558]]],
[[[37.9917,-16.4856,140.7067],[37.9661,-16.4798,157.4963],[37.9523,-16.4832,155.1068],[37.9303,-16.5002,163.8158],[37.9246,-16.4992,171.1402],[37.9198,-16.5005,171.5544],[37.9071,-16.5069,188.3256],[37.9017,-16.5168,170.9296],[37.9003,-16.5279,194.4095],[37.9023,-16.5448,188.8366],[37.9163,-16.5591,191.0073],[37.9202,-16.5711,171.0251],[37.9175,-16.5817,175.2299],[37.9179,-16.5883,173.8111],[37.9271,-16.5913,158.1489],[37.9237,-16.6069,152.3332],[37.9194,-16.6142,150.9935],[37.9212,-16.6499,135.354],[37.9434,-16.6704,136.4209],[37.9589,-16.6824,123.2044],[37.9858,-16.6886,115.3383],[37.9949,-16.6956,113.6959],[37.9857,-16.7131,117.8687],[37.9931,-16.7173,119.0482],[37.9907,-16.7296,107.3394],[37.9833,-16.7356,102.9132],[37.9784,-16.7482,110.1784],[37.984,-16.7505,97.8048],[37.9863,-16.7552,103.1645],[37.9914,-16.7593,109.7817],[37.9908,-16.762,96.0979],[37.9852,-16.7652,101.3483],[37.9849,-16.7687,91.8687],[37.9894,-16.7719,103.3376],[37.9974,-16.7838,95.7354],[37.9957,-16.798,74.6952],[38.0022,-16.8013,85.3367],[38.0044,-16.8044,89.9616],[37.999,-16.8116,77.2499],[37.9931,-16.8161,74.5558],[37.9894,-16.824,80.0005],[37.9928,-16.8351,70.0335],[37.99,-16.8367,70.5135],[37.9872,-16.8337,70.5728],[37.9882,-16.8469,73.5254],[37.9914,-16.8546,62.6858],[37.9974,-16.858,82.5714],[37.9985,-16.8609,79.6158],[37.9973,-16.8661,71.483],[37.9987,-16.8715,67.5259],[37.9943,-16.8798,61.8961],[38.002,-16.8921,67.6915],[37.9987,-16.8993,55.8496],[38.0028,-16.9107,54.4769],[38.0042,-16.9228,48.638],[38.0081,-16.9307,54.9141],[38.0155,-16.9372,58.7846],[38.0118,-16.9493,43.2314],[37.9992,-16.9576,44.1949],[37.9968,-16.9624,47.3525],[37.9983,-16.9642,40.2979],[38.0031,-16.963,40.5628],[38.0156,-16.9635,37.9825],[38.0278,-16.9747,31.1094],[38.0411,-16.984,26.8502],[38.034,-16.9985,25.962],[38.0508,-17.0129,44.6126],[38.0523,-17.0201,24.3068],[38.0666,-17.0483,24.5481],[38.0589,-17.0879,13.9556],[38.0712,-17.1094,10.5758],[38.0689,-17.1147,12.0268],[38.0533,-17.1203,4.1309],[38.0678,-17.1493,5.5417],[38.0779,-17.1582,9.132],[38.0776,-17.1626,9.98],[38.0707,-17.166,2.0],[38.0674,-17.1696,8.1722],[38.0679,-17.1724,5.8926],[38.0735,-17.1749,4.5516],[38.0743,-17.1815,2.2312],[38.0726,-17.184,1.5],[38.0668,-17.1871,1.5],[38.0668,-17.1918,1.5],[38.0749,-17.1979,4.0706],[38.0746,-17.1935,4.9488],[38.0726,-17.1915,4.7715],[38.0738,-17.191,5.9854],[38.0779,-17.1988,3.167],[38.0843,-17.1996,2.3488],[38.091,-17.2026,2.1929],[38.1057,-17.2176,3.9452],[38.1154,-17.2185,1.5],[38.1176,-17.2046,3.2353],[38.1132,-17.1957,2.0],[38.1151,-17.1904,2.0],[38.1126,-17.1876,3.5517],[38.1162,-17.1907,2.0],[38.1146,-17.1965,3.7986],[38.1176,-17.201,2.8959],[38.1226,-17.1971,3.4448],[38.1246,-17.1915,4.5475],[38.1246,-17.1879,3.263],[38.1201,-17.1793,1.5],[38.1229,-17.1735,1.5],[38.1157,-17.1674,2.7431],[38.1168,-17.1624,3.0965],[38.1168,-17.1676,3.0915],[38.1246,-17.1715,1.5],[38.1232,-17.1818,3.2673],[38.1263,-17.1829,3.9719],[38.1349,-17.1815,2.01],[38.1265,-17.1846,1.5],[38.1276,-17.1924,5.1477],[38.1221,-17.2076,2.0592],[38.1237,-17.2221,1.9584],[38.1268,-17.2237,2.2203],[38.1354,-17.2196,1.5],[38.1496,-17.2046,2.887],[38.1493,-17.201,3.0324],[38.1504,-17.2012,3.3575],[38.1507,-17.2046,2.887],[38.1446,-17.2135,1.8857],[38.1382,-17.2204,2.8681],[38.1257,-17.229,1.5],[38.1268,-17.2349,1.5],[38.1471,-17.2382,2.1669],[38.1507,-17.2346,2.3791],[38.1474,-17.239,2.1669],[38.1329,-17.2362,1.5],[38.1282,-17.2362,1.5],[38.1271,-17.2376,2.5393],[38.1301,-17.2462,2.1717],[38.1315,-17.2585,1.336],[38.1315,-17.2796,0.7581],[38.139,-17.2954,0.0],[38.1437,-17.2962,6.7014],[38.1607,-17.2907,3.2183],[38.1774,-17.281,5.3624],[38.1821,-17.2804,4.6629],[38.1826,-17.2818,0.0],[38.1857,-17.2821,0.0],[38.1849,-17.2776,3.3889],[38.1874,-17.2746,0.0],[38.1862,-17.2685,12.4064],[38.199,-17.2571,0.0],[38.221,-17.2462,1.0304],[38.2257,-17.2415,0.0],[38.2588,-17.2251,1.0202],[38.2676,-17.2246,0.0],[38.2749,-17.2165,3.5593],[38.2754,-17.2174,2.4916],[38.2743,-17.2196,1.0],[38.2687,-17.2254,0.0],[38.2576,-17.2274,0.0],[38.254,-17.2313,0.0],[38.2479,-17.2326,0.0],[38.2454,-17.2351,0.0],[38.3151,-17.2101,0.0],[38.3335,-17.2018,3.0654],[38.4138,-17.1721,0.0],[38.421,-17.1679,7.9407],[38.4265,-17.1671,0.0],[38.4413,-17.1585,4.7511],[38.4885,-17.1465,0.0],[38.4996,-17.1424,0.0],[38.5051,-17.1357,3.8215],[38.5043,-17.1329,0.0],[38.4896,-17.1368,2.9273],[38.481,-17.1468,5.3046],[38.469,-17.1501,3.9524],[38.4554,-17.1493,0.0],[38.4465,-17.1465,2.6832],[38.4338,-17.1465,4.3037],[38.4263,-17.1501,2.8896],[38.4318,-17.1454,2.2868],[38.434,-17.1457,2.4065],[38.4241,-17.1424,9.121],[38.4115,-17.1454,6.3462],[38.4097,-17.1418,4.9202],[38.4097,-17.1334,6.305],[38.3981,-17.1452,6.9343],[38.3904,-17.1473,7.857],[38.3786,-17.1461,7.838],[38.3736,-17.1437,7.6018],[38.3725,-17.1497,9.825],[38.369,-17.1549,10.4176],[38.3665,-17.1495,9.2153],[38.3687,-17.1421,6.3785],[38.362,-17.1299,12.069],[38.3368,-17.134,2.4732],[38.324,-17.1344,2.0352],[38.313,-17.1238,2.1764],[38.3073,-17.1274,2.1513],[38.287,-17.123,1.9318],[38.2895,-17.1176,3.0619],[38.2964,-17.1126,5.7371],[38.2972,-17.1023,3.9087],[38.3038,-17.0982,3.7196],[38.3006,-17.09,8.0081],[38.2972,-17.0681,13.9388],[38.2901,-17.0504,12.6747],[38.2811,-17.0449,25.1413],[38.2536,-17.0415,23.171],[38.2483,-17.0387,27.7033],[38.2272,-17.0095,37.8054],[38.2244,-16.9991,43.1784],[38.2263,-16.9896,37.4745],[38.2196,-16.9828,38.5012],[38.2003,-16.9813,46.6127],[38.1936,-16.9741,51.7735],[38.1834,-16.9696,52.8264],[38.1653,-16.9357,58.3856],[38.1642,-16.9245,59.3773],[38.1595,-16.9207,62.1421],[38.1581,-16.9021,66.373],[38.1394,-16.888,75.6936],[38.1121,-16.8566,95.6649],[38.0993,-16.8531,107.5521],[38.0965,-16.7624,88.5741],[38.0744,-16.715,106.7972],[38.0457,-16.6417,122.8971],[38.045,-16.6066,113.1571],[38.0436,-16.5998,112.9816],[38.0455,-16.5888,112.455],[38.0443,-16.5723,120.0642],[38.0472,-16.5615,112.1795],[38.0441,-16.5575,117.1858],[38.0448,-16.5441,129.9431],[38.0394,-16.5243,130.7647],[38.0379,-16.5274,130.3339],[38.0331,-16.5226,132.5912],[38.0261,-16.5217,135.7897],[38.0232,-16.5192,126.7773],[38.0199,-16.5072,131.4788],[38.0164,-16.5063,136.9495],[38.0078,-16.4977,137.0967],[38.0027,-16.5005,143.0397],[38.0005,-16.4992,139.5217],[37.9997,-16.4925,152.6088],[37.9917,-16.4856,140.7067]]]]}
,"properties": {"GID_3": "MOZ.11.16.3_1","GID_0": "MOZ","country": "Mozambique","GID_1": "MOZ.11_1","province": "Zambezia","NL_NAME_1": "NA","GID_2": "MOZ.11.16_1","county": "Pebane","NL_NAME_2": "NA","city": "Pebane","VARNAME_3": "NA","NL_NAME_3": "NA","TYPE_3": "Localidad","ENGTYPE_3": "Locality","CC_3": "NA","HASC_3": "NA","name": "Pebane.city","area_km2": 1473.15,"hist_schema_id": "Elevation0-9000","hist_area_km2": {"0": 242.164,"25": 259.331,"50": 198.075,"75": 170.183,"100": 162.797,"125": 165.247,"150": 152.411,"175": 99.244,"200": 21.136,"225": 2.561}}}