{"type": "Feature","bbox": [33.423,-16.2595,33.6639,-16.0524],"geometry": {"type": "MultiPolygon","coordinates": [[[[33.6639,-16.2431,116.4685],[33.6559,-16.2386,120.2301],[33.6391,-16.2231,117.0],[33.6297,-16.2109,118.0165],[33.6198,-16.1859,118.5],[33.6222,-16.1781,126.3767],[33.635,-16.1657,125.8983],[33.6455,-16.1436,125.4904],[33.6429,-16.1393,125.3047],[33.6441,-16.1244,125.8834],[33.651,-16.1125,134.2708],[33.6498,-16.0898,155.2167],[33.645,-16.0847,159.5843],[33.6378,-16.067,181.5409],[33.6303,-16.0622,186.8573],[33.6227,-16.0524,202.2302],[33.4973,-16.0956,124.7471],[33.4659,-16.0681,124.0],[33.4487,-16.0761,137.934],[33.423,-16.0833,153.553],[33.439,-16.1109,167.548],[33.4527,-16.1245,169.8802],[33.4686,-16.1367,175.4258],[33.4957,-16.147,161.3718],[33.5288,-16.1682,202.8367],[33.5673,-16.2058,413.0406],[33.5792,-16.2314,220.2894],[33.6141,-16.2545,218.0663],[33.6231,-16.2595,171.1709],[33.642,-16.2574,147.2971],[33.6579,-16.2492,116.0],[33.6639,-16.2431,116.4685]]]]}
,"properties": {"GID_3": "MOZ.10.3.4_1","GID_0": "MOZ","country": "Mozambique","GID_1": "MOZ.10_1","province": "Tete","NL_NAME_1": "NA","GID_2": "MOZ.10.3_1","county": "Changara","NL_NAME_2": "NA","city": "Sede","VARNAME_3": "NA","NL_NAME_3": "NA","TYPE_3": "Localidad","ENGTYPE_3": "Locality","CC_3": "NA","HASC_3": "NA","name": "Sede.city","area_km2": 275.5598,"hist_schema_id": "Elevation0-9000","hist_area_km2": {"125": 94.6811,"150": 116.9882,"175": 44.8903,"200": 12.729,"225": 2.1584,"250": 0.8552,"275": 1.0792,"300": 0.509,"325": 0.4887,"350": 0.4276,"375": 0.2036,"400": 0.3054,"425": 0.2036,"450": 0.0407}}}