{"type": "Feature","bbox": [40.2519,-14.4734,40.7388,-14.0239],"geometry": {"type": "MultiPolygon","coordinates": [[[[40.3746,-14.3502,90.7401],[40.3768,-14.3717,99.1921],[40.3753,-14.3796,110.2185],[40.3872,-14.3913,126.7899],[40.3923,-14.4222,154.9014],[40.3921,-14.4431,170.2982],[40.4053,-14.4506,137.5952],[40.4319,-14.4576,125.1829],[40.4391,-14.4674,100.7794],[40.4466,-14.472,82.4161],[40.4666,-14.4734,72.298],[40.4831,-14.4667,75.5105],[40.4884,-14.4664,53.4175],[40.517,-14.4283,39.552],[40.5317,-14.4213,36.894],[40.5398,-14.4191,35.0042],[40.5531,-14.4073,27.1914],[40.5732,-14.3801,18.6528],[40.5851,-14.3716,16.4605],[40.6401,-14.3733,0.8151],[40.6371,-14.3704,1.7923],[40.6368,-14.3674,0.0],[40.6374,-14.3649,0.0],[40.6401,-14.364,0.0],[40.6399,-14.3618,0.0],[40.6349,-14.3582,3.9979],[40.6349,-14.3543,2.3634],[40.6335,-14.3535,2.3634],[40.6354,-14.3496,0.0],[40.6354,-14.3476,0.0],[40.6335,-14.3468,2.5476],[40.6349,-14.3435,2.5827],[40.6338,-14.3385,0.5647],[40.631,-14.3346,3.3249],[40.6232,-14.3346,3.2137],[40.621,-14.329,0.5606],[40.6237,-14.3265,0.0],[40.629,-14.3271,1.4509],[40.6321,-14.3301,0.0],[40.6376,-14.329,4.8306],[40.639,-14.3301,0.5173],[40.6399,-14.3337,1.8523],[40.646,-14.3418,6.0455],[40.6515,-14.3529,0.0],[40.6551,-14.3549,1.5569],[40.6571,-14.3638,0.0],[40.6632,-14.3713,2.8003999999999998],[40.6654,-14.3779,0.9516],[40.6732,-14.3837,0.9452],[40.6774,-14.3835,0.7236],[40.6854,-14.371,8.9435],[40.6946,-14.366,6.5025],[40.6982,-14.3574,4.9155],[40.7046,-14.349,12.8028],[40.7129,-14.3485,0.7322],[40.7196,-14.3457,3.3298],[40.7243,-14.3404,0.0],[40.7287,-14.3382,0.0],[40.7307,-14.3332,1.9832],[40.734,-14.3329,2.7017],[40.7324,-14.3299,0.0],[40.7349,-14.3196,0.0],[40.7321,-14.3171,0.0],[40.7313,-14.3129,8.0753],[40.7332,-14.2965,0.0],[40.7388,-14.2751,0.7461],[40.7346,-14.2699,0.8667],[40.7287,-14.2682,6.4739],[40.7176,-14.2604,2.5266],[40.7135,-14.2537,4.2571],[40.7126,-14.2471,11.2451],[40.7143,-14.2371,5.9431],[40.7132,-14.226,27.7853],[40.7182,-14.2065,1.5755],[40.711,-14.2026,12.992],[40.706,-14.1899,0.0],[40.699,-14.1868,3.692],[40.6921,-14.1874,1.3665],[40.6885,-14.1987,0.0],[40.6838,-14.2026,2.2425],[40.6782,-14.2026,1.705],[40.6701,-14.199,10.3827],[40.6657,-14.1921,0.9289],[40.664,-14.196,1.4342],[40.6507,-14.1987,1.5038],[40.6454,-14.2049,1.8774],[40.6404,-14.2079,1.2851],[40.6418,-14.2126,3.4953],[40.6393,-14.214,0.0],[40.6385,-14.2176,2.6502],[40.634,-14.219,3.4878999999999998],[40.6301,-14.2151,2.4451],[40.6246,-14.2151,3.0613],[40.6218,-14.2168,6.2353],[40.6207,-14.2246,5.5547],[40.6165,-14.2274,0.0],[40.6185,-14.2288,0.0],[40.6168,-14.2299,1.1784],[40.6126,-14.2449,0.0],[40.6135,-14.2476,4.3365],[40.6171,-14.2501,1.7068],[40.6179,-14.2554,0.0],[40.6149,-14.2643,1.3227],[40.6146,-14.2701,0.0],[40.6101,-14.2793,2.5833],[40.6087,-14.2787,2.5833],[40.6093,-14.276,3.3517],[40.6132,-14.2704,0.0],[40.6135,-14.2674,0.0],[40.6085,-14.2715,2.4975],[40.5971,-14.2762,0.0],[40.5951,-14.274,1.5245],[40.5965,-14.2699,0.0],[40.5935,-14.2657,0.7721],[40.5935,-14.2626,2.3323],[40.5954,-14.2599,1.0766],[40.6004,-14.2579,0.0],[40.6015,-14.254,0.0],[40.5996,-14.2537,4.6735],[40.5999,-14.2501,4.89],[40.5962,-14.2451,0.0],[40.5899,-14.2437,4.9263],[40.5863,-14.2376,0.0],[40.5879,-14.236,3.1888],[40.5871,-14.2346,3.1888],[40.5924,-14.2312,0.0],[40.5915,-14.2288,9.4512],[40.5938,-14.2279,1.5072],[40.594,-14.2221,3.0256],[40.5974,-14.2207,1.2045],[40.5921,-14.2193,1.2466],[40.5904,-14.2163,4.1508],[40.5871,-14.216,1.7856],[40.5879,-14.214,4.5288],[40.5851,-14.2124,3.2122],[40.5863,-14.2107,0.0],[40.5854,-14.2063,5.1871],[40.5804,-14.2082,0.0],[40.5815,-14.2129,0.0],[40.5796,-14.2163,3.1076],[40.5774,-14.2165,2.9699],[40.5749,-14.2126,0.7834],[40.5724,-14.2121,0.536],[40.5718,-14.214,1.8528],[40.5701,-14.2118,0.607],[40.5687,-14.2124,1.5416],[40.5682,-14.2165,8.6116],[40.5657,-14.2187,7.449],[40.574,-14.2299,2.3632],[40.5701,-14.2335,3.8816],[40.5674,-14.2329,0.0],[40.5626,-14.2249,4.359],[40.5579,-14.2246,7.3338],[40.5612,-14.2338,0.0],[40.561,-14.2362,0.0],[40.5585,-14.2368,1.8709],[40.5457,-14.2304,2.5903],[40.5471,-14.2271,2.7465],[40.5529,-14.2265,1.6933],[40.5546,-14.2201,11.4025],[40.5568,-14.2193,8.1567],[40.5568,-14.2176,4.1917],[40.5549,-14.2165,9.3829],[40.5549,-14.2146,6.8261],[40.546,-14.2085,7.8737],[40.544,-14.2029,0.0],[40.5387,-14.2024,3.1183],[40.5363,-14.1999,10.2984],[40.5307,-14.1835,0.0],[40.5274,-14.1812,6.2982],[40.5262,-14.1746,3.4088],[40.5199,-14.1757,1.7004],[40.5082,-14.174,3.8636],[40.5032,-14.1746,3.935],[40.5013,-14.1765,3.9749],[40.4999,-14.1754,4.5893],[40.5015,-14.1729,7.9015],[40.5099,-14.1707,5.1185],[40.5132,-14.1715,2.1156],[40.5182,-14.1693,5.2899],[40.526,-14.1687,1.0239],[40.526,-14.1651,3.1616],[40.5282,-14.1651,1.4259],[40.531,-14.1613,0.0],[40.5365,-14.159,1.8492],[40.5401,-14.151,2.5557],[40.541,-14.1563,0.0],[40.5468,-14.1551,1.7956],[40.5565,-14.156,1.4978],[40.559,-14.1529,3.0502],[40.5604,-14.1454,1.5578],[40.5612,-14.1551,0.0],[40.5724,-14.1532,1.1291],[40.5815,-14.1543,1.8239],[40.584,-14.1526,8.0609],[40.5865,-14.1538,0.0],[40.5899,-14.149,7.3497],[40.5985,-14.1479,5.5839],[40.6004,-14.1449,2.9524],[40.6018,-14.1457,2.9524],[40.6046,-14.1435,1.5447],[40.6101,-14.1426,9.0019],[40.6051,-14.1379,1.4454],[40.6035,-14.1332,4.2585],[40.6037,-14.1304,4.4498],[40.6126,-14.1231,1.4499],[40.6124,-14.1218,4.4794],[40.6068,-14.1224,4.4837],[40.6051,-14.111,3.5272],[40.6071,-14.1112,4.7416],[40.6079,-14.1085,6.4969],[40.6026,-14.109,1.4571],[40.6007,-14.1057,0.0],[40.6007,-14.1018,0.0],[40.5976,-14.1021,6.7245],[40.5954,-14.1004,3.0163],[40.5901,-14.1018,2.2625],[40.5851,-14.0968,4.2166],[40.5865,-14.0942,0.0],[40.5848,-14.0914,3.0272],[40.5888,-14.086,3.5668],[40.583,-14.0746,3.2997],[40.5778,-14.0575,11.1774],[40.5701,-14.0511,23.2442],[40.5607,-14.0529,26.0453],[40.5445,-14.0607,34.3737],[40.5318,-14.0629,42.1795],[40.5072,-14.047,60.7149],[40.4977,-14.0476,77.6579],[40.4807,-14.053,90.2085],[40.4656,-14.0531,108.7783],[40.4531,-14.045,146.2924],[40.4448,-14.0362,141.4998],[40.4344,-14.0309,131.5499],[40.4078,-14.0239,125.6456],[40.3695,-14.0279,212.2806],[40.367,-14.0325,178.4903],[40.3698,-14.0482,128.4984],[40.3658,-14.0567,135.4458],[40.3635,-14.0715,101.0853],[40.3733,-14.0929,85.6422],[40.368,-14.0968,89.0084],[40.3587,-14.0942,74.499],[40.3493,-14.089,85.3667],[40.3395,-14.0899,89.7893],[40.3372,-14.0966,83.8242],[40.3301,-14.0969,91.0768],[40.3204,-14.1024,91.4282],[40.3102,-14.127,116.8123],[40.3053,-14.1308,119.2101],[40.2994,-14.1293,130.1982],[40.2963,-14.1332,121.2143],[40.2912,-14.1306,125.7902],[40.2878,-14.1356,130.6316],[40.2808,-14.1384,134.3262],[40.276,-14.1382,136.4283],[40.2707,-14.1338,149.1948],[40.2546,-14.1388,146.8477],[40.2528,-14.1429,159.8216],[40.2519,-14.1577,180.9636],[40.2564,-14.1872,152.9083],[40.2689,-14.2066,126.9584],[40.2679,-14.2151,127.3515],[40.2783,-14.231,109.9639],[40.2778,-14.238,91.9491],[40.2726,-14.2401,83.9722],[40.2678,-14.2488,83.045],[40.2727,-14.266,84.0888],[40.2797,-14.2726,82.8617],[40.29,-14.2742,61.7733],[40.3267,-14.271,65.6352],[40.3397,-14.2829,59.7901],[40.3454,-14.2862,72.3584],[40.3536,-14.2853,49.9274],[40.3702,-14.2736,47.8779],[40.3954,-14.2588,41.3919],[40.419,-14.2513,36.3069],[40.4277,-14.2402,29.1161],[40.4341,-14.2372,43.9862],[40.4454,-14.2386,29.5106],[40.4527,-14.2634,37.7531],[40.4388,-14.2642,46.7342],[40.4332,-14.2664,56.6442],[40.4296,-14.276,85.6189],[40.4223,-14.2816,61.2569],[40.4119,-14.2859,57.5556],[40.4164,-14.2946,79.2343],[40.4162,-14.2996,60.1006],[40.4145,-14.3019,64.0964],[40.398,-14.307,71.1082],[40.3915,-14.3116,71.2333],[40.3842,-14.3127,80.8204],[40.3776,-14.3166,71.3436],[40.3758,-14.3284,74.4548],[40.3767,-14.3423,77.7344],[40.3746,-14.3502,90.7401]]]]}
,"properties": {"GID_3": "MOZ.7.7.3_1","GID_0": "MOZ","country": "Mozambique","GID_1": "MOZ.7_1","province": "Nampula","NL_NAME_1": "NA","GID_2": "MOZ.7.7_1","county": "Memba","NL_NAME_2": "NA","city": "Memba","VARNAME_3": "NA","NL_NAME_3": "NA","TYPE_3": "Localidad","ENGTYPE_3": "Locality","CC_3": "NA","HASC_3": "NA","name": "Memba.city","area_km2": 1390.373,"hist_schema_id": "Elevation0-9000","hist_area_km2": {"0": 120.165,"25": 210.253,"50": 218.931,"75": 187.997,"100": 193.643,"125": 167.01,"150": 132.894,"175": 102.843,"200": 43.83,"225": 9.045,"250": 3.289,"275": 0.432,"300": 0.041}}}