{"type": "Feature","bbox": [32.7636,-24.8622,33.2109,-24.531],"geometry": {"type": "MultiPolygon","coordinates": [[[[33.124,-24.8622,46.7858],[33.1893,-24.8131,45.1316],[33.1794,-24.7732,48.1782],[33.1767,-24.7503,34.5858],[33.1569,-24.6647,20.7906],[33.2109,-24.6391,20.6311],[33.1496,-24.616,22.8048],[33.137,-24.6057,21.797],[33.1291,-24.59,17.8716],[33.1171,-24.5816,22.7649],[33.0999,-24.5804,24.9617],[33.0959,-24.5775,25.1503],[33.0928,-24.5667,23.464],[33.0923,-24.5571,23.0653],[33.0751,-24.5571,18.5202],[33.0551,-24.5517,25.3518],[33.052,-24.5585,22.9935],[33.043,-24.5503,25.8974],[33.0299,-24.5443,27.8649],[33.0293,-24.5532,25.4391],[33.0245,-24.5646,27.8168],[33.0139,-24.5672,28.5241],[32.9767,-24.5574,27.9475],[32.9607,-24.5753,28.8298],[32.9263,-24.5965,29.7478],[32.9101,-24.6039,29.1903],[32.8913,-24.6175,28.0665],[32.8845,-24.6247,28.2052],[32.8827,-24.6246,27.1179],[32.862,-24.6011,28.8941],[32.8588,-24.5944,29.3337],[32.8539,-24.5735,30.7095],[32.8465,-24.5633,31.9495],[32.843,-24.5504,32.2984],[32.8179,-24.531,37.5851],[32.7636,-24.5635,38.1559],[32.7642,-24.575,38.0922],[32.7797,-24.605,34.2438],[32.7986,-24.6294,33.1843],[32.8185,-24.6607,31.4735],[32.8316,-24.6701,28.2342],[32.838,-24.683,26.3892],[32.8394,-24.6963,27.7921],[32.8367,-24.7228,25.2072],[32.8612,-24.7415,25.4187],[32.8615,-24.7434,24.7002],[32.8663,-24.7471,23.7841],[32.8728,-24.7494,23.8509],[32.8737,-24.7515,24.0104],[32.8672,-24.7693,22.9754],[32.8673,-24.7711,21.7997],[32.8722,-24.7756,26.325],[32.8788,-24.7672,25.5762],[32.8879,-24.7613,28.7676],[32.9508,-24.764,23.1754],[32.9512,-24.763,23.1754],[32.9842,-24.7874,22.1512],[32.9874,-24.8142,21.7173],[32.9997,-24.8248,21.2877],[33.0271,-24.8398,20.7197],[33.0417,-24.8431,21.1724],[33.0728,-24.8543,27.9954],[33.0872,-24.858,35.5994],[33.124,-24.8622,46.7858]]]]}
,"properties": {"GID_3": "MOZ.2.5.2_1","GID_0": "MOZ","country": "Mozambique","GID_1": "MOZ.2_1","province": "Gaza","NL_NAME_1": "NA","GID_2": "MOZ.2.5_1","county": "Chókwè","NL_NAME_2": "NA","city": "Lionde","VARNAME_3": "NA","NL_NAME_3": "NA","TYPE_3": "Localidad","ENGTYPE_3": "Locality","CC_3": "NA","HASC_3": "NA","name": "Lionde.city","area_km2": 930.715,"hist_schema_id": "Elevation0-9000","hist_area_km2": {"25": 869.1791,"50": 61.5359}}}