{"type":"Feature","properties":{"GID_3":"MOZ.4.6.4_1","GID_0":"MOZ","country":"Mozambique","GID_1":"MOZ.4_1","province":"Manica","NL_NAME_1":"NA","GID_2":"MOZ.4.6_1","county":"Manica","NL_NAME_2":"NA","city":"Messica","VARNAME_3":"NA","NL_NAME_3":"NA","TYPE_3":"Localidad","ENGTYPE_3":"Locality","CC_3":"NA","HASC_3":"NA","name":"Messica.city"},
"geometry":{"type": "MultiPolygon","coordinates": [[[[32.8328,-19.0163,1218.4557],[32.8453,-19.0248,1181.9568],[32.8487,-19.0554,1017.7126],[32.8513,-19.0648,1123.0107],[32.858,-19.0768,995.4934],[32.8712,-19.0822,909.3349],[32.8774,-19.0979,787.2916],[32.8775,-19.1128,850.8966],[32.8719,-19.1259,721.0748],[32.8666,-19.1483,913.1115],[32.8638,-19.1695,674.0063],[32.8812,-19.1727,632.6763],[32.8829,-19.1673,649.2768],[32.8952,-19.161,626.2908],[32.9306,-19.153199999999998,620.2263],[32.9421,-19.1575,612.4202],[32.9483,-19.1556,612.9857],[32.9617,-19.1568,610.0],[32.9668,-19.155,610.0],[32.9855,-19.1558,610.0],[33.0142,-19.1494,610.0],[33.0293,-19.1484,610.0],[33.0446,-19.1405,610.0],[33.0863,-19.1098,610.0],[33.1082,-19.1199,610.0],[33.1303,-19.139,610.0],[33.1638,-19.1934,564.4353],[33.2001,-19.2081,575.4573],[33.2061,-19.2113,567.2329],[33.2084,-19.2166,558.4703],[33.2113,-19.1974,568.2624],[33.2157,-19.1889,581.7677],[33.2184,-19.1789,574.0588],[33.2173,-19.1707,583.1382],[33.2046,-19.1587,586.8066],[33.2035,-19.1511,588.7766],[33.2051,-19.144,600.3143],[33.203,-19.1343,592.1428],[33.2048,-19.1283,592.0756],[33.2014,-19.1077,605.6733],[33.1792,-19.0576,636.972],[33.1733,-19.0404,642.7977],[33.1727,-19.028,649.4745],[33.1821,-18.9847,728.5234],[33.1508,-18.9432,1460.7653],[33.1448,-18.9131,953.4865],[33.1356,-18.9116,807.7783],[33.1231,-18.9128,729.2397],[33.1116,-18.9072,697.9106],[33.0817,-18.912,687.6716],[33.0576,-18.9087,685.0389],[33.041,-18.9125,644.959],[33.0321,-18.934,632.1479],[33.0167,-18.9238,637.3584],[33.0056,-18.9202,642.8525],[32.9904,-18.9011,674.2267],[32.9836,-18.9027,652.9799],[32.9799,-18.8997,653.3046],[32.9447,-18.9137,670.8997],[32.9354,-18.9158,658.458],[32.9324,-18.9489,708.4925],[32.9292,-18.9632,723.7559],[32.9293,-18.9753,711.387],[32.9173,-18.985,722.67],[32.9162,-18.9944,710.5415],[32.9007,-18.9986,930.8116],[32.8773,-18.9992,1443.8921],[32.8441,-19.0093,1259.5258],[32.8328,-19.0163,1218.4557]]]]}}