{"type":"Feature","properties":{"GID_3":"MOZ.4.2.8_1","GID_0":"MOZ","country":"Mozambique","GID_1":"MOZ.4_1","province":"Manica","NL_NAME_1":"NA","GID_2":"MOZ.4.2_1","county":"Gondola","NL_NAME_2":"NA","city":"Urbana1(Sede)","VARNAME_3":"NA","NL_NAME_3":"NA","TYPE_3":"Localidad","ENGTYPE_3":"Locality","CC_3":"NA","HASC_3":"NA","name":"Urbana1(Sede).city"},
"geometry":{"type": "MultiPolygon","coordinates": [[[[33.5185,-19.0619,574.1658],[33.5072,-19.0719,594.5955],[33.4981,-19.0756,608.6652],[33.4905,-19.0686,647.0994],[33.3953,-19.0734,686.0728],[33.3861,-19.0883,675.9777],[33.3853,-19.112,628.0134],[33.3861,-19.1209,615.2487],[33.3892,-19.1291,591.1177],[33.3837,-19.1359,587.5876],[33.3744,-19.1427,586.2672],[33.375,-19.1476,594.0012],[33.401,-19.1569,639.0248],[33.4084,-19.1692,656.1829],[33.4279,-19.1877,657.6966],[33.4388,-19.1859,637.0026],[33.4499,-19.1751,644.965],[33.4602,-19.1765,679.0948],[33.4718,-19.1879,684.05],[33.4823,-19.1944,659.8785],[33.4874,-19.2021,645.5612],[33.4931,-19.2032,649.4726],[33.515,-19.1821,576.042],[33.5196,-19.1499,631.3488],[33.5251,-19.1307,678.8074],[33.5182,-19.0817,617.7933],[33.5196,-19.0667,588.8829],[33.5185,-19.0619,574.1658]]]]}}