{"type":"Feature","properties":{"GID_2":"MOZ.1.13_1","GID_0":"MOZ","country":"Mozambique","GID_1":"MOZ.1_1","province":"CaboDelgado","NL_NAME_1":"NA","county":"Palma","VARNAME_2":"NA","NL_NAME_2":"NA","TYPE_2":"Distrito","ENGTYPE_2":"District","CC_2":"NA","HASC_2":"MZ.CD.PA","name":"Palma.county"},
"geometry":{"type": "MultiPolygon","coordinates": [[[[40.6707,-11.1749,0.0],[40.6682,-11.1746,0.0],[40.6671,-11.1768,0.0],[40.6682,-11.1768,0.0],[40.6707,-11.1749,0.0]]],
[[[40.6829,-11.1451,0.0],[40.6757,-11.1451,1.5401],[40.6715,-11.1488,1.6772],[40.671,-11.1535,7.6233],[40.6668,-11.1587,3.7234],[40.6668,-11.1637,4.5863],[40.6604,-11.1743,0.9059],[40.6493,-11.1871,0.0],[40.6579,-11.1832,0.8301],[40.6576,-11.1807,1.8719],[40.6601,-11.1785,0.0],[40.6651,-11.1782,0.0],[40.6671,-11.1729,4.785],[40.676,-11.1724,3.2433],[40.679,-11.1701,0.0],[40.6818,-11.1738,0.0],[40.6899,-11.1674,0.0],[40.6976,-11.1649,0.0],[40.6943,-11.1526,3.1911],[40.6943,-11.1463,0.1428],[40.6865,-11.1465,5.9937],[40.6829,-11.1451,0.0]]],
[[[40.7004,-11.1512,0.8201],[40.7007,-11.149,0.0],[40.6996,-11.1488,0.0],[40.699,-11.1504,0.0],[40.7004,-11.1512,0.8201]]],
[[[40.6982,-11.1385,0.0],[40.6963,-11.1382,0.0],[40.6979,-11.1421,0.0],[40.6988,-11.1415,0.0],[40.6982,-11.1385,0.0]]],
[[[40.5871,-11.1762,0.0],[40.5832,-11.1754,0.0],[40.5863,-11.1815,0.0],[40.6012,-11.1879,7.9726],[40.6079,-11.1921,1.3552],[40.6107,-11.1957,3.8378],[40.6154,-11.1974,0.6656],[40.6293,-11.1971,0.0],[40.6354,-11.1932,0.0],[40.6474,-11.1899,0.0],[40.646,-11.189,0.0],[40.631,-11.1926,0.0],[40.6218,-11.1918,4.3173],[40.6126,-11.189,2.7697],[40.5999,-11.181,1.3242],[40.5871,-11.1762,0.0]]],
[[[40.601,-11.1337,0.5867],[40.5979,-11.1329,0.0],[40.5968,-11.1343,1.4942],[40.5999,-11.1368,0.0],[40.6037,-11.1371,0.0],[40.6043,-11.1354,1.3636],[40.601,-11.1337,0.5867]]],
[[[40.7071,-10.9979,0.0],[40.7054,-10.9971,0.0],[40.7038,-11.0007,0.0],[40.7004,-11.0004,0.0],[40.7012,-11.0021,0.3441],[40.6993,-11.0018,0.0],[40.6985,-11.0071,1.0853],[40.6954,-11.0115,3.9839],[40.6915,-11.0135,1.11],[40.6888,-11.0124,0.0],[40.6871,-11.0154,0.0],[40.6818,-11.0171,0.0],[40.6771,-11.0212,1.1061],[40.671,-11.0221,2.3994],[40.6632,-11.0268,6.1512],[40.6446,-11.0321,2.8619],[40.6279,-11.0307,1.2165],[40.6143,-11.024,0.0],[40.6035,-11.0235,2.5593],[40.601,-11.0249,5.7087],[40.5968,-11.024,0.0],[40.5965,-11.0254,0.4414],[40.6018,-11.0279,4.8208],[40.6071,-11.0346,0.0],[40.6154,-11.039,0.0],[40.624,-11.0374,0.0],[40.6274,-11.0399,0.0],[40.634,-11.0379,3.2096],[40.636,-11.0393,3.4602],[40.6363,-11.0432,0.0],[40.6454,-11.0432,0.0],[40.6543,-11.036,4.2104],[40.6565,-11.0365,0.0],[40.6615,-11.0343,1.3809],[40.6621,-11.036,0.8057],[40.6638,-11.036,0.8057],[40.6732,-11.0329,3.6239],[40.6874,-11.0312,2.9343],[40.701,-11.0268,0.0],[40.7079,-11.0204,0.0],[40.7107,-11.0207,0.0],[40.7174,-11.0124,0.0],[40.716,-11.0087,0.0],[40.7168,-11.0035,0.0],[40.7154,-11.0007,1.2265],[40.7071,-10.9979,0.0]]],
[[[40.621,-10.9068,0.0],[40.6196,-10.906,0.0],[40.6196,-10.909,0.4261],[40.6218,-10.9132,1.7922],[40.6215,-10.9171,1.115],[40.6237,-10.919,0.9909],[40.624,-10.9249,0.0],[40.6251,-10.9249,0.0],[40.6307,-10.9157,0.0],[40.6282,-10.9121,0.0],[40.624,-10.9112,0.0],[40.621,-10.9068,0.0]]],
[[[40.724,-10.999,0.0],[40.7224,-10.9985,0.0],[40.7235,-11.0018,0.0],[40.7254,-11.001,0.258],[40.724,-10.999,0.0]]],
[[[40.6535,-10.8235,0.0],[40.6515,-10.8229,0.0],[40.6535,-10.8254,0.0],[40.6521,-10.8265,0.0],[40.6529,-10.8299,0.0],[40.656,-10.8332,2.4816],[40.6543,-10.8343,0.0],[40.6574,-10.8351,0.0],[40.6593,-10.8404,0.0],[40.6601,-10.851,0.0],[40.6624,-10.8518,4.0875],[40.6654,-10.859,2.0728],[40.6615,-10.8601,8.3206],[40.6593,-10.8529,1.6132],[40.6557,-10.849,2.1412],[40.6499,-10.8357,0.0],[40.6476,-10.8332,2.4176],[40.6446,-10.8343,0.0],[40.6437,-10.8354,0.0],[40.6496,-10.8401,0.0],[40.6482,-10.8424,0.0],[40.6499,-10.8437,0.0],[40.6479,-10.8471,0.0],[40.6501,-10.849,0.0],[40.6457,-10.854,0.0],[40.6446,-10.8629,0.0],[40.6463,-10.8676,0.7213],[40.6426,-10.8785,0.0],[40.6437,-10.8804,0.346],[40.6515,-10.8796,0.0],[40.6604,-10.8746,0.0],[40.6635,-10.8724,0.0],[40.6654,-10.8654,1.2897],[40.6679,-10.8651,0.0],[40.6712,-10.8676,0.0],[40.6707,-10.8657,0.0],[40.6671,-10.864,0.0],[40.6704,-10.8601,0.0],[40.6738,-10.859,1.0448],[40.679,-10.8612,0.0],[40.6835,-10.8568,0.0],[40.6835,-10.8471,0.0],[40.6813,-10.8435,0.0],[40.6721,-10.8362,0.0],[40.6674,-10.8365,0.0],[40.6662,-10.834,0.0],[40.6587,-10.8304,0.0],[40.6535,-10.8235,0.0]]],
[[[40.3982,-11.2424,39.9739],[40.4168,-11.2419,2.6061],[40.4253,-11.2331,3.6863],[40.4329,-11.2326,3.2911],[40.4335,-11.2296,2.7236],[40.4346,-11.2346,0.0],[40.4371,-11.2326,4.7348],[40.4443,-11.2326,1.2108],[40.4876,-11.2063,0.0],[40.4982,-11.2026,1.5714],[40.5062,-11.1979,6.8685],[40.5079,-11.1935,0.0],[40.4985,-11.1882,3.8625],[40.4921,-11.181,2.104],[40.4899,-11.1699,0.0],[40.4904,-11.1646,0.0],[40.489,-11.1626,2.7951],[40.489,-11.1546,2.2279],[40.491,-11.1474,5.5374],[40.4935,-11.1432,1.9777],[40.501,-11.1379,1.4758],[40.5001,-11.1351,2.4676],[40.5029,-11.1318,4.2216],[40.5254,-11.1104,0.0],[40.5321,-11.0985,2.4731],[40.5446,-11.0863,0.0],[40.5504,-11.0782,0.0],[40.5599,-11.0621,0.0],[40.5601,-11.0532,0.6697],[40.5632,-11.0449,1.6135],[40.5621,-11.0351,0.7501],[40.5649,-11.0301,2.0086],[40.5513,-11.0268,1.4689],[40.5376,-11.0207,0.0],[40.5351,-11.0215,1.0639],[40.534,-11.0185,0.3054],[40.5265,-11.0162,0.0],[40.5226,-11.0115,0.0],[40.519,-11.0113,0.2661],[40.5176,-11.0126,0.222],[40.516,-11.0107,0.0],[40.5093,-11.009,0.4226],[40.5071,-11.0057,0.0],[40.5032,-11.0079,0.0],[40.5046,-11.016,1.4757],[40.5082,-11.0204,3.5671],[40.5054,-11.0235,2.4319],[40.5062,-11.021,1.0],[40.5021,-11.0157,1.009],[40.5001,-11.006,2.0647],[40.5046,-11.0007,0.0],[40.5037,-10.9937,0.0],[40.5021,-10.9929,0.0],[40.496,-10.9954,1.004],[40.491,-10.9951,0.2203],[40.4904,-10.9937,0.2759],[40.4918,-10.9929,0.0],[40.4885,-10.9904,0.0],[40.4896,-10.9876,0.8144],[40.4982,-10.9796,0.0],[40.4946,-10.9738,3.939],[40.4943,-10.9671,0.5628],[40.4924,-10.9663,2.1184],[40.494,-10.9621,0.0],[40.4915,-10.9557,0.735],[40.4963,-10.9554,0.0],[40.4982,-10.9496,0.0],[40.4968,-10.9468,0.0],[40.4946,-10.9462,3.0102],[40.4946,-10.9443,3.8949],[40.4963,-10.9437,0.0],[40.4996,-10.9365,0.0],[40.5068,-10.9304,0.0],[40.5062,-10.9279,0.0],[40.5101,-10.9218,0.0],[40.5096,-10.919,4.3292],[40.5137,-10.9135,4.1143],[40.5163,-10.9132,0.0],[40.5224,-10.9085,0.0],[40.5288,-10.901,5.3795],[40.546,-10.8868,4.2949],[40.5901,-10.866,1.4403],[40.6096,-10.8449,1.9371],[40.6096,-10.8432,1.0428],[40.6076,-10.8432,0.0],[40.6035,-10.8457,0.0],[40.6015,-10.8435,1.1079],[40.6176,-10.8321,3.435],[40.6176,-10.8304,1.5729],[40.6126,-10.8265,3.4148],[40.5938,-10.8249,1.9568],[40.5713,-10.819,2.9804],[40.564,-10.8132,0.7782],[40.5599,-10.8121,0.9055],[40.5549,-10.8071,1.6411],[40.5499,-10.8051,2.5692],[40.5479,-10.8024,0.0],[40.5457,-10.8026,0.5995],[40.5265,-10.7893,0.0],[40.5187,-10.7865,2.5431],[40.5171,-10.7837,0.0],[40.5088,-10.7818,2.5488],[40.5043,-10.7782,0.0],[40.501,-10.7779,0.9795],[40.4987,-10.7754,0.9739],[40.4938,-10.7738,1.9566],[40.4912,-10.7693,0.0],[40.4901,-10.7696,0.0],[40.4896,-10.7757,0.9205],[40.4921,-10.781,2.0169],[40.4921,-10.789,4.6114],[40.4813,-10.7982,1.6409],[40.4899,-10.7874,0.5],[40.4896,-10.7818,0.0],[40.4879,-10.7812,0.0],[40.4876,-10.7846,1.8714],[40.486,-10.7837,1.9189],[40.4826,-10.7735,2.8458],[40.4843,-10.7704,0.8633],[40.4893,-10.7671,0.0],[40.4893,-10.7651,0.0],[40.4851,-10.7629,0.8942],[40.4854,-10.7576,0.4496],[40.4835,-10.7551,4.7932],[40.4971,-10.7471,0.0],[40.4987,-10.7449,0.0],[40.4985,-10.7399,0.3079],[40.5007,-10.7413,0.0],[40.5007,-10.7393,0.3314],[40.5043,-10.7382,0.3359],[40.5062,-10.7407,0.0],[40.5054,-10.7376,1.3601],[40.5076,-10.7379,1.096],[40.5085,-10.7365,0.0],[40.5126,-10.7387,0.0],[40.5143,-10.7346,0.0],[40.5199,-10.7321,2.215],[40.5365,-10.7182,3.8877],[40.541,-10.7165,0.0],[40.5435,-10.7129,3.7609],[40.5612,-10.6982,3.287],[40.569,-10.6926,5.6161],[40.5788,-10.6885,2.3971],[40.5874,-10.6904,0.5993],[40.589,-10.6962,0.0],[40.6121,-10.6968,0.0],[40.6179,-10.6985,0.0],[40.631,-10.7085,0.0],[40.6335,-10.7085,0.0],[40.6335,-10.7062,0.0],[40.6382,-10.7029,0.0],[40.6401,-10.6971,0.0],[40.6399,-10.6896,0.0],[40.6338,-10.6785,1.8429],[40.6263,-10.6715,1.8639],[40.6143,-10.6696,2.0585],[40.6113,-10.6704,2.6917],[40.6018,-10.6668,0.8612],[40.5946,-10.6674,2.2982],[40.5876,-10.6643,0.0],[40.5846,-10.6646,4.6328],[40.5757,-10.6579,0.0],[40.5726,-10.6529,0.0],[40.5743,-10.6496,0.0],[40.5721,-10.6382,0.0],[40.5771,-10.6257,0.0],[40.5746,-10.6196,0.0],[40.5751,-10.6154,0.3612],[40.5801,-10.6126,1.1333],[40.5824,-10.6135,0.0],[40.5804,-10.6076,0.0],[40.5849,-10.6071,0.0],[40.5865,-10.6043,0.0],[40.589,-10.604,0.0],[40.5854,-10.5982,0.0],[40.5818,-10.5962,0.0],[40.5801,-10.5976,0.0],[40.5754,-10.5949,0.0],[40.5699,-10.5957,0.6954],[40.5574,-10.5849,0.0],[40.5485,-10.5826,6.7172],[40.5421,-10.5768,0.0],[40.5301,-10.576,0.0],[40.5226,-10.5826,3.9299],[40.5085,-10.589,2.5943],[40.4924,-10.5879,1.3991],[40.4857,-10.5854,2.116],[40.4846,-10.581,1.9138],[40.4824,-10.5815,1.647],[40.4824,-10.5807,3.7123],[40.4857,-10.5799,1.0],[40.486,-10.5832,1.0],[40.4963,-10.5854,1.4927],[40.5099,-10.584,2.0965],[40.5179,-10.5793,4.0163],[40.5213,-10.5726,0.0],[40.5165,-10.5712,0.0],[40.5126,-10.5679,0.0],[40.5076,-10.571,0.0],[40.4982,-10.5718,2.9292],[40.4954,-10.5704,0.5],[40.4946,-10.5657,5.0538],[40.4904,-10.5635,1.721],[40.489,-10.564,1.0],[40.4885,-10.5704,2.3575],[40.4829,-10.5721,2.8056],[40.4782,-10.5674,5.3306],[40.4807,-10.5576,3.0309],[40.4771,-10.5576,2.1702],[40.4754,-10.5607,1.5],[40.471,-10.559,1.5],[40.4712,-10.5579,3.05],[40.4751,-10.5582,1.5],[40.4771,-10.554,2.2144],[40.4824,-10.5562,4.9545],[40.4826,-10.5599,1.5],[40.4804,-10.5651,1.7648],[40.4815,-10.5674,1.0],[40.484,-10.5674,1.0],[40.4868,-10.5618,4.645],[40.4899,-10.5596,0.625],[40.4979,-10.5618,0.5],[40.4982,-10.5557,1.3429],[40.5026,-10.5524,2.2203],[40.5054,-10.5524,1.7437],[40.5137,-10.5571,0.0],[40.5176,-10.5562,2.4139],[40.5213,-10.5576,3.2616],[40.5224,-10.5568,0.0],[40.5215,-10.5535,10.417],[40.531,-10.5535,0.0],[40.5315,-10.5524,0.0],[40.5293,-10.5507,8.2548],[40.5318,-10.5493,5.5977],[40.5357,-10.5496,0.0],[40.5376,-10.5521,0.5605],[40.544,-10.551,1.3399],[40.5446,-10.5412,6.5508],[40.5465,-10.5399,1.3701],[40.549,-10.5407,0.0],[40.5501,-10.5376,0.0],[40.5476,-10.5376,1.5498],[40.544,-10.5343,6.1102],[40.5393,-10.519,0.0],[40.536,-10.516,6.6873],[40.5326,-10.5035,0.0],[40.5337,-10.5018,5.0744],[40.5363,-10.5021,0.0],[40.536,-10.4962,0.0],[40.5332,-10.4962,0.0],[40.534,-10.494,0.1952],[40.5304,-10.489,0.0],[40.5199,-10.4812,0.0],[40.5093,-10.4821,0.7727],[40.5093,-10.4868,0.3722],[40.4976,-10.4974,3.3539],[40.4926,-10.5051,2.4744],[40.4882,-10.5068,3.3016],[40.4857,-10.5057,1.8048],[40.4829,-10.509,0.5],[40.4751,-10.5132,1.5462],[40.4751,-10.5143,1.5462],[40.4796,-10.5137,4.9247],[40.481,-10.5154,4.5896],[40.4793,-10.5229,4.5506],[40.4829,-10.5218,2.8405],[40.484,-10.5229,3.0514],[40.4793,-10.531,4.1854],[40.4782,-10.5288,2.8083],[40.4801,-10.5282,1.5],[40.4824,-10.5237,2.1971],[40.4785,-10.5246,2.3541],[40.4774,-10.5232,3.6516],[40.4799,-10.5187,1.0],[40.4793,-10.5157,1.0],[40.4754,-10.516,1.615],[40.4715,-10.5121,1.6792],[40.4699,-10.5121,3.0625],[40.4679,-10.5154,2.5167],[40.4682,-10.5118,5.1729],[40.4721,-10.5104,2.6381],[40.4746,-10.5124,1.9323],[40.4799,-10.5068,0.5],[40.484,-10.4976,1.3468],[40.4863,-10.4976,3.6219],[40.4926,-10.4915,2.1315],[40.4993,-10.4899,1.1199],[40.4987,-10.4876,0.0],[40.4963,-10.4857,0.0],[40.4888,-10.4862,0.0],[40.4671,-10.4801,0.0],[40.4626,-10.4879,3.0712],[40.4601,-10.4885,1.273],[40.464,-10.4832,0.9607],[40.4626,-10.4793,0.0],[40.4493,-10.4735,0.0],[40.444,-10.4754,2.4274],[40.4365,-10.4712,0.0],[40.4239,-10.4894,0.5],[40.4116,-10.5031,1.0],[40.3992,-10.5148,1.0],[40.3797,-10.5278,2.2684],[40.3745,-10.5351,4.031],[40.366,-10.5586,3.1013],[40.3586,-10.5657,5.7348],[40.3393,-10.5765,3.75],[40.3332,-10.5775,5.1619],[40.3249,-10.5742,5.0012],[40.3062,-10.5757,5.4352],[40.2843,-10.5798,6.0],[40.2621,-10.593,6.5],[40.2335,-10.6074,8.0],[40.1867,-10.6556,12.2756],[40.1815,-10.6589,13.3547],[40.1754,-10.6599,11.875],[40.1484,-10.6834,13.0],[40.1353,-10.698,13.5],[40.1205,-10.7081,14.5],[40.0994,-10.7285,16.1853],[40.0847,-10.7365,16.5],[40.0629,-10.7553,17.5],[40.0299,-10.7892,21.1953],[39.9917,-10.816,23.5899],[39.9849,-10.8173,24.7635],[39.9891,-10.8273,25.5416],[39.9837,-10.8319,26.3877],[39.9806,-10.837,25.8994],[39.9865,-10.8521,113.2292],[39.9851,-10.8566,107.3147],[39.9767,-10.868,148.2438],[39.969,-10.9301,154.9079],[39.993899999999996,-10.9588,134.4259],[39.9827,-10.9713,147.3349],[39.9979,-10.9907,145.6309],[40.0835,-11.0667,113.7579],[40.0868,-11.0577,112.8546],[40.0948,-11.0588,108.7747],[40.1049,-11.0503,97.2776],[40.1123,-11.0502,113.7702],[40.1229,-11.0544,114.6875],[40.1346,-11.0562,106.1811],[40.1539,-11.0574,107.1106],[40.1812,-11.0938,100.529],[40.2146,-11.1206,89.1539],[40.2268,-11.1325,76.1729],[40.2359,-11.1385,91.8752],[40.2393,-11.1443,75.7795],[40.2572,-11.1474,54.1558],[40.2715,-11.1477,87.0595],[40.2834,-11.1454,83.4208],[40.2937,-11.1472,67.8256],[40.3035,-11.1438,85.0529],[40.3264,-11.1527,65.5872],[40.3405,-11.1779,56.0966],[40.3454,-11.1931,43.6045],[40.3568,-11.1969,60.9159],[40.3665,-11.2068,54.2176],[40.3762,-11.2241,57.041],[40.3982,-11.2424,39.9739]]],
[[[40.6421,-10.7676,0.0],[40.639,-10.7668,0.0],[40.6321,-10.7707,0.0],[40.6293,-10.7707,0.0],[40.6285,-10.776,0.0],[40.6429,-10.7812,3.7583],[40.6429,-10.7837,0.0],[40.6451,-10.7849,0.0],[40.6482,-10.7901,2.7234],[40.6507,-10.804,0.0],[40.6535,-10.8049,0.0],[40.6546,-10.7954,0.0],[40.6582,-10.796,0.0],[40.6579,-10.7887,5.3985],[40.6613,-10.7754,0.0],[40.6568,-10.7704,0.0],[40.6518,-10.7693,0.0],[40.6471,-10.7704,3.0838],[40.6421,-10.7676,0.0]]],
[[[40.6376,-10.6657,0.0],[40.6368,-10.6646,0.0],[40.6393,-10.6699,0.0],[40.6387,-10.676,0.0],[40.6504,-10.6974,0.0],[40.6504,-10.7057,0.0],[40.6518,-10.706,0.0],[40.651,-10.6932,0.0],[40.6463,-10.6876,0.0],[40.6454,-10.6829,0.0],[40.6404,-10.6737,0.0],[40.6407,-10.6696,0.0],[40.6376,-10.6657,0.0]]],
[[[40.5851,-10.6124,0.0],[40.5824,-10.6118,0.0],[40.5838,-10.6138,0.0],[40.5854,-10.6138,0.0],[40.5851,-10.6124,0.0]]],
[[[40.5043,-10.5546,1.0078],[40.5004,-10.5562,0.5],[40.5013,-10.5615,0.9259],[40.4985,-10.5671,2.4565],[40.4963,-10.5679,0.5],[40.4968,-10.5699,0.5],[40.5068,-10.5699,0.0],[40.5126,-10.5662,2.4636],[40.5179,-10.5696,0.0],[40.5207,-10.5696,0.0],[40.5246,-10.5665,0.0],[40.5238,-10.5651,1.1474],[40.5143,-10.5626,0.0],[40.5043,-10.5546,1.0078]]],
[[[40.5235,-10.5607,0.0],[40.5154,-10.5604,0.0],[40.5199,-10.5635,0.0],[40.526,-10.5624,0.4032],[40.5235,-10.5607,0.0]]],
[[[40.4968,-10.4971,0.125],[40.4971,-10.496,0.0],[40.4946,-10.4957,0.5],[40.4896,-10.4985,4.2823],[40.4857,-10.5021,0.5],[40.4846,-10.5054,0.5],[40.4924,-10.504,1.81],[40.4968,-10.4971,0.125]]]]}}