{"type":"Feature","properties":{"GID_3":"MOZ.8.1.3_1","GID_0":"MOZ","country":"Mozambique","GID_1":"MOZ.8_1","province":"Nassa","NL_NAME_1":"NA","GID_2":"MOZ.8.1_1","county":"Cuamba","NL_NAME_2":"NA","city":"Lurio2","VARNAME_3":"NA","NL_NAME_3":"NA","TYPE_3":"Localidad","ENGTYPE_3":"Locality","CC_3":"NA","HASC_3":"NA","name":"Lurio2.city"},
"geometry":{"type": "MultiPolygon","coordinates": [[[[36.5803,-14.8051,584.0643],[36.5612,-14.8024,561.0645],[36.5612,-14.8188,576.123],[36.5516,-14.8174,570.5115],[36.5475,-14.8489,624.5782],[36.5516,-14.8516,744.9332],[36.568,-14.8489,647.9935],[36.568,-14.8694,904.2513],[36.6172,-14.8694,785.5231],[36.6186,-14.8503,1087.1412],[36.6295,-14.8544,849.243],[36.6268,-14.842,874.5646],[36.6377,-14.8393,975.5219],[36.6336,-14.8079,855.7881],[36.6035,-14.8079,572.5009],[36.5803,-14.8051,584.0643]]]]}}