{"type":"Feature","properties":{"GID_2":"MOZ.10.12_1","GID_0":"MOZ","country":"Mozambique","GID_1":"MOZ.10_1","province":"Tete","NL_NAME_1":"NA","county":"Zumbu","VARNAME_2":"Zumbo","NL_NAME_2":"NA","TYPE_2":"Distrito","ENGTYPE_2":"District","CC_2":"NA","HASC_2":"MZ.TE.ZU","name":"Zumbu.county"},
"geometry":{"type": "MultiPolygon","coordinates": [[[[31.1904,-15.7169,321.0],[31.233,-15.7151,321.0],[31.2735,-15.7002,321.0],[31.296,-15.6898,321.0],[31.3313,-15.6653,321.0],[31.3633,-15.6535,321.0],[31.384,-15.6502,321.0],[31.4287,-15.6572,321.0],[31.4817,-15.6585,321.0],[31.5043,-15.6558,321.0],[31.5293,-15.6555,321.0],[31.5542,-15.6587,321.0],[31.5837,-15.6681,321.0],[31.6072,-15.6792,321.0],[31.6025,-15.6679,321.0],[31.6112,-15.6522,321.0],[31.6234,-15.6394,321.0],[31.6262,-15.6332,321.0],[31.6268,-15.6277,321.0],[31.624,-15.6184,335.8044],[31.6143,-15.5966,351.3372],[31.6064,-15.5717,378.8618],[31.6044,-15.5607,372.5446],[31.598,-15.5473,380.1749],[31.5945,-15.5322,394.5773],[31.5886,-15.5181,403.7247],[31.5735,-15.5028,470.1356],[31.556,-15.508,491.4719],[31.5451,-15.4978,486.2465],[31.5378,-15.4877,517.0032],[31.5142,-15.4416,672.3864],[31.5065,-15.4303,565.5178],[31.492,-15.4208,569.239],[31.4701,-15.3985,591.4577],[31.4548,-15.3707,647.5051],[31.4459,-15.3484,676.3585],[31.4494,-15.3428,772.9752],[31.4554,-15.2921,697.1057],[31.4465,-15.2811,699.1337],[31.4499,-15.2775,701.0095],[31.453,-15.2701,742.2556],[31.438,-15.2512,739.0161],[31.4375,-15.2463,786.7229],[31.4301,-15.2432,739.9113],[31.4254,-15.235,736.5822],[31.4284,-15.2319,737.6176],[31.437,-15.228,768.9898],[31.4513,-15.2044,750.4273],[31.4391,-15.1881,754.8058],[31.4491,-15.1705,769.2353],[31.4458,-15.1522,782.1514],[31.4654,-15.1329,774.6935],[31.4692,-15.1262,781.6679],[31.4599,-15.1097,796.3784],[31.4594,-15.1041,784.5795],[31.4535,-15.0954,790.9393],[31.4556,-15.0866,791.6611],[31.4599,-15.079,791.796],[31.4464,-15.0535,799.3467],[31.4428,-15.045,796.0442],[31.4411,-15.035,805.3314],[31.4273,-15.0156,811.8163],[31.4208,-14.999,812.8027],[31.4177,-14.995,820.0778],[31.3999,-14.9805,823.0714],[31.3918,-14.9718,837.4823],[31.3892,-14.9648,841.5668],[31.3924,-14.9542,833.5667],[31.3923,-14.9468,842.5231],[31.3812,-14.9252,846.3026],[31.3824,-14.9033,866.3794],[31.3788,-14.8914,860.4911],[31.3815,-14.8846,870.3491],[31.3816,-14.8779,867.889],[31.3628,-14.8622,878.3694],[31.3693,-14.8416,878.5741],[31.3717,-14.8258,897.1367],[31.3822,-14.8113,893.2903],[31.3848,-14.8009,908.8202],[31.3835,-14.7928,909.7257],[31.3785,-14.7891,903.574],[31.3632,-14.7844,907.3353],[31.3559,-14.78,911.3205],[31.3479,-14.7657,925.0331],[31.3454,-14.7573,926.9614],[31.3503,-14.7499,926.6443],[31.3588,-14.7444,938.7892],[31.3594,-14.7291,937.7279],[31.3629,-14.7254,946.5474],[31.365,-14.7198,960.6843],[31.3627,-14.7074,964.1301],[31.3741,-14.697,963.6746],[31.3764,-14.6887,960.7423],[31.3764,-14.6728,966.9135],[31.3737,-14.664,971.4224],[31.3757,-14.6547,970.5328],[31.3667,-14.6408,987.8344],[31.3252,-14.65,1040.0261],[31.2668,-14.6588,1114.184],[31.1902,-14.6795,1062.5103],[31.1714,-14.6908,1059.7197],[31.1531,-14.698,1062.2477],[30.7963,-14.7834,883.9366],[30.7755,-14.7935,844.0735],[30.7016,-14.814,767.1631],[30.6873,-14.8199,790.2252],[30.6638,-14.8331,735.3682],[30.6361,-14.8432,694.8574],[30.6017,-14.8606,738.9609],[30.5565,-14.8755,725.798],[30.5316,-14.8869,726.6622],[30.5242,-14.8886,693.4065],[30.481,-14.9062,756.8864],[30.4583,-14.9175,564.0745],[30.4493,-14.9236,542.0723],[30.3743,-14.9603,598.0956],[30.3231,-14.9677,522.1857],[30.2956,-14.9773,503.2304],[30.2581,-14.9836,466.6893],[30.2274,-14.9944,417.7503],[30.2233,-14.9939,419.6508],[30.2194,-14.9979,441.2132],[30.2266,-15.0305,434.7524],[30.2259,-15.0412,477.3738],[30.2226,-15.0498,359.5],[30.2209,-15.0739,359.6197],[30.2264,-15.0878,363.1687],[30.2392,-15.1411,356.0],[30.2499,-15.161,357.8162],[30.2557,-15.1774,352.9236],[30.2601,-15.2076,349.0],[30.274,-15.2441,346.5],[30.2841,-15.2599,345.5],[30.3431,-15.3134,346.9157],[30.3641,-15.3266,341.6177],[30.3717,-15.3385,345.8858],[30.3826,-15.383,336.0],[30.3828,-15.4024,337.1166],[30.38,-15.4276,338.5575],[30.3815,-15.4394,332.5],[30.3922,-15.4643,331.5],[30.394,-15.473,343.4482],[30.3937,-15.4811,341.3991],[30.3645,-15.5382,349.1653],[30.3634,-15.5437,328.1789],[30.3706,-15.558,326.5],[30.3825,-15.5668,331.971],[30.3943,-15.5804,326.4975],[30.4115,-15.6107,332.2294],[30.4193,-15.6186,322.5],[30.4283,-15.6187,329.4147],[30.4673,-15.6321,321.5],[30.5892,-15.6378,325.0764],[30.6094,-15.6341,321.0],[30.6357,-15.6234,321.0],[30.6717,-15.6171,321.0],[30.6991,-15.6146,321.0],[30.7556,-15.6295,321.0],[30.8071,-15.6378,321.0],[30.827,-15.6449,321.0],[30.8559,-15.6498,321.0],[30.9028,-15.6634,321.0],[30.9867,-15.6902,321.0],[31.0121,-15.7029,321.0],[31.0403,-15.7148,321.0],[31.0723,-15.7231,321.0],[31.1433,-15.7252,321.0],[31.1904,-15.7169,321.0]]]]}}