{"type":"Feature","properties":{"GID_3":"MOZ.8.12.1_1","GID_0":"MOZ","country":"Mozambique","GID_1":"MOZ.8_1","province":"Nassa","NL_NAME_1":"NA","GID_2":"MOZ.8.12_1","county":"Muembe","NL_NAME_2":"NA","city":"Chiconono","VARNAME_3":"NA","NL_NAME_3":"NA","TYPE_3":"Localidad","ENGTYPE_3":"Locality","CC_3":"NA","HASC_3":"NA","name":"Chiconono.city"},
"geometry":{"type": "MultiPolygon","coordinates": [[[[36.4205,-12.7288,558.12],[36.4157,-12.7197,566.5607],[36.4103,-12.7132,563.3419],[36.4122,-12.6918,558.9696],[36.4094,-12.6838,618.6777],[36.4036,-12.6756,694.3126],[36.4025,-12.6567,586.8071],[36.3858,-12.6549,647.1969],[36.3591,-12.6559,637.1306],[36.3268,-12.6645,652.3935],[36.3193,-12.6718,646.1074],[36.2827,-12.6957,673.2681],[36.2758,-12.7024,683.9423],[36.2626,-12.7017,669.3683],[36.243,-12.6884,706.3974],[36.225,-12.6834,713.6218],[36.2066,-12.6815,753.243],[36.1938,-12.6825,781.5226],[36.1881,-12.6778,756.1661],[36.1767,-12.6794,786.9792],[36.1543,-12.6762,783.2706],[36.1352,-12.6654,822.8311],[36.077,-12.66,906.9142],[36.0644,-12.6637,934.0331],[36.0502,-12.6736,966.4086],[36.0388,-12.6846,970.3925],[36.0184,-12.6978,988.808],[36.0146,-12.6895,1074.5704],[36.0134,-12.6711,876.9268],[36.01,-12.6542,836.8527],[36.0051,-12.651,829.7406],[35.9929,-12.636,908.4998],[35.9749,-12.6008,966.7251],[35.9678,-12.5937,1049.5208],[35.9492,-12.5814,1118.0234],[35.9471,-12.5764,1029.3785],[35.9471,-12.5675,907.0552],[35.9447,-12.5633,886.9437],[35.9446,-12.5577,865.7209],[35.9337,-12.5328,824.0265],[35.9288,-12.472,783.7126],[35.9197,-12.4452,759.5491],[35.8906,-12.4111,713.6313],[35.8899,-12.3721,697.4957],[35.9016,-12.3202,681.7671],[35.896,-12.3096,672.0579],[35.8953,-12.302,673.4998],[35.898,-12.286,671.6813],[35.8896,-12.235,650.5857],[35.8727,-12.2326,651.0518],[35.8628,-12.2357,659.741],[35.8516,-12.2441,678.6884],[35.8468,-12.269,688.3049],[35.8366,-12.2869,689.08],[35.8292,-12.2917,710.0563],[35.8049,-12.2839,740.7181],[35.7957,-12.2752,728.1744],[35.7762,-12.2753,744.2045],[35.7712,-12.2808,724.9434],[35.7644,-12.2977,732.0764],[35.7332,-12.3248,810.4261],[35.7119,-12.3305,741.7871],[35.6885,-12.3399,742.8523],[35.6752,-12.3493,741.0847],[35.6535,-12.357,747.4103],[35.6445,-12.3836,762.853],[35.6451,-12.4034,791.4901],[35.647,-12.408,802.7977],[35.6193,-12.4468,830.3303],[35.601,-12.4791,828.7369],[35.5864,-12.494,841.7218],[35.5826,-12.5042,850.2412],[35.5618,-12.5374,867.7194],[35.5571,-12.5525,851.5951],[35.5495,-12.5599,855.9367],[35.5444,-12.5708,856.5146],[35.5589,-12.5978,868.3545],[35.5398,-12.6271,870.0428],[35.5387,-12.6444,880.5592],[35.5445,-12.6595,884.6293],[35.5503,-12.6822,891.6218],[35.5499,-12.6875,888.5241],[35.535,-12.709,899.3234],[35.5167,-12.7276,905.0749],[35.5162,-12.7491,901.8944],[35.5205,-12.7719,914.9818],[35.5205,-12.7957,912.1655],[35.5234,-12.8159,930.1921],[35.5071,-12.836,927.9037],[35.4998,-12.841,931.1763],[35.499,-12.8513,935.1652],[35.5019,-12.8614,939.847],[35.4868,-12.879,959.4802],[35.4877,-12.8805,948.0034],[35.4864,-12.8836,943.7848],[35.4921,-12.889099999999999,947.3384],[35.4873,-12.9088,952.072],[35.4924,-12.9298,962.006],[35.4803,-12.9478,963.1956],[35.499,-12.9629,1002.6628],[35.5287,-12.9541,1038.7098],[35.5322,-12.9575,1035.6642],[35.5477,-12.9654,1020.2448],[35.5699,-13.0105,1048.0588],[35.5791,-13.0224,1043.4609],[35.6055,-13.0422,1073.9158],[35.6468,-13.0492,1166.7006],[35.6877,-13.0492,1080.085],[35.7183,-13.0094,1146.453],[35.7578,-13.0193,1233.8652],[35.7995,-13.0183,1276.7793],[35.857,-12.9628,1231.9666],[35.8941,-12.9001,1100.3253],[35.9281,-12.9303,988.1655],[35.9528,-12.9449,886.9989],[35.9836,-12.9389,788.743],[36.0339,-13.0017,728.8359],[36.0391,-12.9991,737.084],[36.0417,-12.9918,744.4807],[36.0409,-12.9772,751.4706],[36.0365,-12.9543,746.4243],[36.0372,-12.9347,751.2161],[36.0224,-12.9027,788.4124],[36.0282,-12.877,790.5714],[36.0255,-12.8514,819.6164],[36.0179,-12.8413,838.3441],[36.0227,-12.8396,837.008],[36.0434,-12.8459,991.8868],[36.0773,-12.8325,811.418],[36.1005,-12.8173,794.2059],[36.1246,-12.8242,779.7083],[36.1545,-12.8195,763.4302],[36.1752,-12.8078,755.2703],[36.1882,-12.8026,747.4666],[36.2124,-12.8147,743.4045],[36.2112,-12.8085,743.9208],[36.2138,-12.7967,744.3964],[36.236,-12.8072,738.5193],[36.2779,-12.7896,690.2019],[36.3081,-12.7921,704.7653],[36.3256,-12.7898,688.0743],[36.3422,-12.7896,697.2225],[36.353,-12.7924,679.8008],[36.3573,-12.7818,649.7836],[36.3969,-12.7485,592.0447],[36.4096,-12.7467,569.6077],[36.4128,-12.7395,542.6438],[36.4205,-12.7288,558.12]]]]}}