{"type": "Feature","bbox": [38.4843,-14.9616,38.7668,-14.5574],"geometry": {"type": "MultiPolygon","coordinates": [[[[38.4843,-14.5788,399.6945],[38.4982,-14.6022,412.5674],[38.5075,-14.6081,412.0688],[38.5102,-14.6185,421.0622],[38.5161,-14.6203,410.07],[38.5199,-14.6281,417.0999],[38.526,-14.6618,423.3193],[38.5199,-14.6754,434.6755],[38.5378,-14.7029,458.375],[38.5434,-14.7149,448.5394],[38.546,-14.7263,449.7809],[38.5538,-14.7364,461.9781],[38.5537,-14.7455,462.0839],[38.5494,-14.758,464.9744],[38.5393,-14.7733,486.5082],[38.5333,-14.7924,474.5816],[38.5136,-14.8288,509.9599],[38.5089,-14.8424,512.4612],[38.5125,-14.8478,579.1246],[38.5562,-14.8671,562.9636],[38.5785,-14.8825,595.855],[38.5816,-14.9004,606.2762],[38.5846,-14.9064,624.6328],[38.5846,-14.9136,635.1332],[38.5724,-14.927,644.4878],[38.5791,-14.9403,631.2031],[38.5881,-14.9522,582.9178],[38.597,-14.956,560.8478],[38.603,-14.9616,583.1407],[38.6138,-14.9587,603.2333],[38.6381,-14.9585,587.0525],[38.6505,-14.9539,604.8259],[38.6617,-14.947,596.3265],[38.6846,-14.9448,601.1973],[38.6943,-14.9416,601.5975],[38.7174,-14.9214,587.6595],[38.7374,-14.9081,603.8446],[38.7481,-14.9089,607.7255],[38.7452,-14.8974,605.9174],[38.7452,-14.8646,562.415],[38.7421,-14.8467,544.5596],[38.7361,-14.8324,538.2446],[38.7465,-14.8305,538.1509],[38.7519,-14.8251,527.6822],[38.7575,-14.8169,544.6332],[38.7575,-14.802,536.9439],[38.7513,-14.808,524.8843],[38.7333,-14.805,524.603],[38.7407,-14.7929,514.6675],[38.7668,-14.7632,524.7069],[38.7668,-14.7348,478.0432],[38.7536,-14.739,479.8919],[38.7259,-14.7297,526.7278],[38.7152,-14.7276,561.202],[38.6984,-14.7276,578.8019],[38.6927,-14.7348,576.4188],[38.6918,-14.7595,521.2119],[38.6828,-14.769,520.7698],[38.67,-14.7644,525.0732],[38.6589,-14.7443,552.0211],[38.6525,-14.7125,686.8652],[38.6525,-14.6946,501.5226],[38.6587,-14.6618,490.2837],[38.6587,-14.6499,478.5812],[38.6402,-14.6558,534.1456],[38.6217,-14.6409,461.969],[38.6032,-14.6201,463.3182],[38.5677,-14.5655,458.5742],[38.5538,-14.5574,447.4857],[38.5414,-14.5664,448.1735],[38.526,-14.5694,426.8799],[38.5015,-14.5575,403.0936],[38.492,-14.5634,419.2074],[38.4843,-14.5788,399.6945]]]]}
,"properties": {"GID_3": "MOZ.7.6.4_1","GID_0": "MOZ","country": "Mozambique","GID_1": "MOZ.7_1","province": "Nampula","NL_NAME_1": "NA","GID_2": "MOZ.7.6_1","county": "Mecuburi","NL_NAME_2": "NA","city": "Namina","VARNAME_3": "NA","NL_NAME_3": "NA","TYPE_3": "Localidad","ENGTYPE_3": "Locality","CC_3": "NA","HASC_3": "NA","name": "Namina.city","area_km2": 707.6636,"hist_schema_id": "Elevation0-9000","hist_area_km2": {"400": 1.8057,"425": 21.5842,"450": 48.2924,"475": 71.9296,"500": 83.1905,"525": 100.7995,"550": 137.2478,"575": 131.2224,"600": 79.7381,"625": 17.4007,"650": 3.7306,"675": 2.3782,"700": 1.9067,"725": 1.4965,"750": 0.9635,"775": 0.82,"800": 0.697,"825": 0.4305,"850": 0.41,"875": 0.5125,"900": 0.328,"925": 0.3485,"950": 0.1435,"975": 0.1025,"1000": 0.0615,"1025": 0.082,"1050": 0.0205,"1075": 0.0205}}}