{"type":"Feature","properties":{"GID_3":"MOZ.9.10.1_1","GID_0":"MOZ","country":"Mozambique","GID_1":"MOZ.9_1","province":"Sofala","NL_NAME_1":"NA","GID_2":"MOZ.9.10_1","county":"Marromeu","NL_NAME_2":"NA","city":"Chupanga","VARNAME_3":"NA","NL_NAME_3":"NA","TYPE_3":"Localidad","ENGTYPE_3":"Locality","CC_3":"NA","HASC_3":"NA","name":"Chupanga.city"},
"geometry":{"type": "MultiPolygon","coordinates": [[[[35.3229,-17.8626,23.7693],[35.3235,-17.9123,66.8969],[35.3158,-17.9216,48.9255],[35.3082,-17.9494,58.0609],[35.3085,-17.9679,56.6298],[35.2929,-17.9865,48.0003],[35.2905,-17.999,57.3198],[35.4136,-18.3829,138.7494],[35.432,-18.3884,133.4444],[35.4495,-18.3867,125.7525],[35.4679,-18.3902,96.5313],[35.5226,-18.4042,91.2749],[35.5413,-18.4117,76.3778],[35.5552,-18.4147,72.498],[35.5739,-18.4117,71.0465],[35.5954,-18.3933,62.7364],[35.5998,-18.3783,59.3026],[35.6128,-18.3612,59.3693],[35.6223,-18.3527,52.4726],[35.6733,-18.2957,34.5502],[35.6832,-18.2858,40.7874],[35.6942,-18.2788,31.2854],[35.7176,-18.2444,23.4666],[35.7316,-18.2304,12.1717],[35.7333,-18.21,21.2039],[35.7316,-18.1652,20.6492],[35.7411,-18.1229,16.2638],[35.7479,-18.1056,16.8141],[35.7553,-18.0748,13.0],[35.7295,-18.0641,13.5],[35.7054,-18.0476,14.0],[35.6905,-18.0422,16.7456],[35.677,-18.0344,15.0],[35.5838,-18.0181,17.6797],[35.5656,-18.0099,19.4767],[35.5599,-18.0041,19.3536],[35.556399999999996,-17.9961,18.9786],[35.5372,-17.9907,19.8333],[35.5209,-17.9837,20.8156],[35.5107,-17.9663,20.1525],[35.5026,-17.9577,20.1412],[35.4911,-17.9487,22.2344],[35.4765,-17.9299,21.804],[35.4643,-17.9084,22.3553],[35.4472,-17.9127,22.8125],[35.4343,-17.9129,23.8291],[35.4143,-17.9075,23.2454],[35.3841,-17.8623,23.895],[35.3676,-17.8615,22.8522],[35.3614,-17.8563,22.6284],[35.35,-17.856,23.7678],[35.3448,-17.8502,23.6669],[35.3229,-17.8626,23.7693]]]]}}