{"type":"Feature","properties":{"featurecla":"River","scalerank":7,"rivernum":482,"dissolve":"482River","name":"Mazoe1","name_alt":null,"note":null,"min_zoom":6.0,"strokeweig":0.2,"name_en":"Mazoe","min_label":7.0},
"geometry":{"type": "LineString","coordinates": [[31.593994140625,-17.71331145625588,1291.7294],[31.59423828125,-17.69768645625588,1283.7495],[31.601464843750023,-17.66594817500588,1221.0321],[31.6025390625,-17.64519622188088,1203.3685],[31.59326171875,-17.576983331255889,1162.623],[31.592675781250023,-17.54705169063088,1129.5734],[31.627197265625,-17.43084075313088,1104.0465],[31.643457031250023,-17.40569426875588,1137.6179],[31.72900390625,-17.324737237505886,1044.2386],[31.744873046875,-17.304229425005886,1044.8376],[31.754492187500006,-17.281573175005889,887.8938],[31.753320312500023,-17.25432708125588,951.1709],[31.749755859375,-17.23772551875588,1005.2717],[31.747949218750023,-17.21917083125588,997.9286],[31.75,-17.20110442500588,820.9332],[31.758398437500006,-17.186553643755886,913.7786],[31.769628906250006,-17.17815520625588,1029.3787],[31.795019531250006,-17.163604425005886,1148.5101],[31.806396484375,-17.153838800005886,977.9927],[31.8115234375,-17.146807550005889,863.2383],[31.8203125,-17.13152434688088,811.1688],[31.825878906250011,-17.12493255000588,802.4807],[31.83154296875,-17.120635675005886,809.733],[31.850976562500023,-17.10955169063088,762.7469],[31.866943359375,-17.09563567500588,788.2516],[31.880273437500023,-17.07952239375588,767.5812],[31.903076171875,-17.04338958125588,748.0162],[31.907470703125,-17.03337981563088,744.9222],[31.91357421875,-17.000518487505886,712.4406],[31.919677734375,-16.982452081255886,755.0765],[31.9296875,-16.96502044063088,682.8115],[31.9423828125,-16.94988372188088,663.4462],[31.957128906250006,-16.938018487505886,766.3582],[31.98974609375,-16.922393487505886,679.3094],[31.99853515625,-16.914385675005889,634.7587],[32.00390625,-16.904620050005889,643.7424],[32.015234375,-16.85686614375588,702.6946],[32.022216796875,-16.84099700313088,628.6882],[32.03125,-16.826202081255886,662.2687],[32.041748046875,-16.81536223750588,597.7274],[32.06982421875,-16.79876067500588,661.4845],[32.0859375,-16.792510675005886,640.1501],[32.1005859375,-16.790069268755886,681.624],[32.109765625000023,-16.79143645625588,627.7695],[32.1265625,-16.79827239375588,633.9095],[32.135351562500006,-16.80022551875588,621.6384],[32.156982421875,-16.799346612505886,630.4119],[32.180419921875,-16.79412200313088,631.4585],[32.203320312500011,-16.78582122188088,612.3428],[32.222265625,-16.775713800005889,600.096],[32.23876953125,-16.764190362505886,596.2605],[32.247460937500023,-16.76018645625588,605.4901],[32.258398437500006,-16.75798919063088,597.3575],[32.299560546875,-16.759600518755889,633.2451],[32.313232421875,-16.75823333125588,607.6801],[32.339111328125,-16.74895598750588,565.0317],[32.386962890625,-16.721514581255889,537.2374],[32.412695312500006,-16.71233489375588,535.3022],[32.437597656250006,-16.70964934688088,544.1155],[32.572851562500006,-16.72576262813088,547.9498],[32.581640625,-16.728838800005889,626.4532],[32.598535156250023,-16.73723723750588,476.7284],[32.607421875,-16.740557550005889,457.7374],[32.664941406250023,-16.74529387813088,684.4146],[32.683496093750023,-16.742705987505886,430.4912],[32.700585937500023,-16.73552825313088,425.555],[32.72705078125,-16.71111419063088,454.1883],[32.739355468750006,-16.70305755000588,448.8826],[32.753320312500023,-16.697784112505886,435.342],[32.768798828125,-16.695342706255886,445.3191],[32.800048828125,-16.69719817500588,434.7994],[32.861523437500011,-16.71038176875588,397.7314],[32.892822265625,-16.71233489375588,363.2219],[32.909082031250023,-16.708038018755886,325.9429],[32.93896484375,-16.68962981563088,323.2289],[32.95556640625,-16.682940362505889,409.5417],[32.975830078125,-16.680694268755886,341.2228],[33.016992187500023,-16.68303801875588,310.322],[33.045996093750006,-16.681182550005886,270.224],[33.05419921875,-16.67937590938088,209.7025],[33.06201171875,-16.676299737505886,226.7064],[33.100195312500006,-16.64983489375588,244.5188]]}}