{"type":"Feature","properties":{"featurecla":"River","scalerank":3,"rivernum":70,"dissolve":"70River","name":"Zambezi10","name_alt":null,"note":null,"min_zoom":3.0,"strokeweig":0.45,"name_en":"Zambezi","min_label":4.0},
"geometry":{"type": "LineString","coordinates": [[29.729589843750006,-15.644561456255886,356.0867],[29.772851562500023,-15.638018487505889,351.9014],[29.813720703125,-15.61956145625588,349.958],[29.8369140625,-15.614776300005886,367.2945],[29.88134765625,-15.61882903438088,406.9172],[29.967041015625,-15.641436456255889,334.5],[30.010156250000023,-15.64617278438088,397.2207],[30.049707031250023,-15.64006926875588,515.4532],[30.089599609375,-15.62932708125588,348.3139],[30.129492187500006,-15.623565362505886,343.2655],[30.16943359375,-15.63201262813088,653.0781],[30.195068359375,-15.648955987505886,619.2268],[30.206738281250011,-15.65300872188088,468.1613],[30.22265625,-15.64959075313088,358.2782],[30.23046875,-15.644561456255886,391.8152],[30.24560546875,-15.63201262813088,369.6628],[30.25439453125,-15.628741143755889,344.4978],[30.279687500000023,-15.632159112505889,588.8894],[30.327539062500023,-15.65227630000588,326.0847],[30.356201171875,-15.65129973750588,341.0475],[30.409912109375,-15.63030364375588,323.0],[30.4306640625,-15.62810637813088,375.723],[30.4697265625,-15.63030364375588,328.0881],[30.489355468750006,-15.635284112505886,326.2738],[30.504785156250023,-15.64544036250588,321.0],[30.516210937500006,-15.650713800005889,325.2283],[30.529882812500006,-15.64861419063088,325.1161],[30.5439453125,-15.643877862505889,322.9679],[30.55615234375,-15.64202239375588,323.2243],[30.561621093750006,-15.64446380000588,325.1889],[30.572363281250006,-15.653643487505889,321.0],[30.57666015625,-15.65569426875588,322.5481],[30.584570312500006,-15.65471770625588,327.1512],[30.596923828125,-15.649932550005886,333.4843],[30.60400390625,-15.64885833125588,330.2365],[30.61376953125,-15.645538018755886,329.7928],[30.62890625,-15.63103606563088,321.9143],[30.638769531250006,-15.627764581255889,323.7596],[30.65185546875,-15.626299737505889,321.6749],[30.67333984375,-15.620928643755889,321.0],[30.6865234375,-15.62151458125588,321.0],[30.76611328125,-15.63982512813088,321.0],[30.79638671875,-15.64202239375588,321.0]]}}