{"type":"Feature","properties":{"GID_3":"MOZ.1.15.2_1","GID_0":"MOZ","country":"Mozambique","GID_1":"MOZ.1_1","province":"CaboDelgado","NL_NAME_1":"NA","GID_2":"MOZ.1.15_1","county":"Quissanga","NL_NAME_2":"NA","city":"Mahate","VARNAME_3":"NA","NL_NAME_3":"NA","TYPE_3":"Localidad","ENGTYPE_3":"Locality","CC_3":"NA","HASC_3":"NA","name":"Mahate.city"},
"geometry":{"type": "MultiPolygon","coordinates": [[[[40.6074,-12.6782,3.4901],[40.6063,-12.6776,0.0],[40.606,-12.6801,0.0],[40.6082,-12.6826,0.0],[40.6074,-12.6862,0.0],[40.6118,-12.6868,0.0],[40.6146,-12.6801,1.5788],[40.611,-12.6807,0.0],[40.6074,-12.6782,3.4901]]],
[[[40.6243,-12.6082,1.0736],[40.6226,-12.6076,0.0],[40.6246,-12.6101,0.0],[40.6249,-12.609,1.0736],[40.6243,-12.6082,1.0736]]],
[[[40.6151,-12.5935,3.6499],[40.6001,-12.5957,0.0],[40.5976,-12.5988,0.0],[40.5976,-12.6012,0.0],[40.6101,-12.6043,3.5915],[40.6201,-12.6121,0.0],[40.6221,-12.6093,0.0],[40.621,-12.6046,0.0],[40.6254,-12.6015,0.3876],[40.6204,-12.6001,5.1322],[40.6151,-12.5935,3.6499]]],
[[[40.6034,-12.5301,2.934],[40.5968,-12.5318,0.0],[40.5838,-12.5412,0.0],[40.5785,-12.5474,0.0],[40.5793,-12.5499,0.0],[40.5846,-12.5543,5.3654],[40.584,-12.5579,2.286],[40.586,-12.5632,7.4844],[40.584,-12.5679,7.2944],[40.5868,-12.5687,0.0],[40.5896,-12.566,8.1042],[40.5954,-12.5651,1.2278],[40.5982,-12.5665,0.0],[40.6007,-12.5626,3.6384],[40.6035,-12.5618,0.0],[40.606,-12.5543,8.4633],[40.6085,-12.5518,7.0642],[40.6093,-12.5463,4.5859],[40.6118,-12.5454,0.0],[40.6149,-12.5476,0.0],[40.6149,-12.5443,0.0],[40.6113,-12.5429,0.0],[40.6096,-12.5382,8.6459],[40.6034,-12.5301,2.934]]],
[[[40.3682,-12.4586,52.5259],[40.3575,-12.4577,58.6537],[40.344,-12.4489,72.5406],[40.3335,-12.4452,79.6765],[40.3005,-12.4382,136.0643],[40.3005,-12.4467,162.3322],[40.3089,-12.4606,145.5951],[40.3315,-12.4787,92.2138],[40.3519,-12.4865,81.5251],[40.368,-12.5041,45.7059],[40.374,-12.5244,77.3166],[40.3771,-12.5632,87.9287],[40.3761,-12.586,24.1818],[40.3693,-12.5993,16.6989],[40.3158,-12.6072,33.8314],[40.3028,-12.6176,45.0779],[40.2698,-12.6497,125.242],[40.2483,-12.6527,81.1002],[40.2164,-12.7195,72.1429],[40.2226,-12.7263,75.2223],[40.2306,-12.7274,79.83],[40.2393,-12.7315,86.3176],[40.2515,-12.7516,126.4098],[40.265,-12.7578,137.2679],[40.2842,-12.7597,177.9139],[40.3101,-12.7597,150.8941],[40.4017,-12.7686,136.9783],[40.4131,-12.7669,102.6351],[40.435,-12.7601,78.8193],[40.447,-12.7603,67.1927],[40.4718,-12.7675,38.7433],[40.4881,-12.7645,23.6193],[40.4987,-12.7541,50.3961],[40.503,-12.7474,41.3793],[40.5168,-12.7409,32.6476],[40.5284,-12.7315,26.7762],[40.543,-12.7325,15.3913],[40.5476,-12.7213,8.9427],[40.5525,-12.719,4.6266],[40.566,-12.717,0.0],[40.5687,-12.7132,1.0628],[40.5751,-12.7093,4.3833],[40.5754,-12.7063,5.4501],[40.5721,-12.7026,2.2132],[40.571,-12.6932,3.2449],[40.5696,-12.6924,0.0],[40.5674,-12.694,4.7223],[40.5693,-12.6901,2.5599],[40.5663,-12.6799,0.0],[40.5682,-12.6576,0.7754],[40.571,-12.6543,5.3889],[40.5732,-12.654,2.7947],[40.5715,-12.6513,2.8837],[40.5749,-12.6521,1.0966],[40.5779,-12.649,1.3093],[40.5829,-12.6496,0.3407],[40.5846,-12.651,6.3268],[40.5851,-12.656,4.6534],[40.5999,-12.6579,5.0418],[40.6032,-12.661,5.192],[40.6046,-12.6654,3.7007],[40.6085,-12.6674,0.0],[40.6118,-12.6657,0.5703],[40.6135,-12.6721,0.8751],[40.6154,-12.6726,1.0779],[40.6193,-12.6599,0.0],[40.619,-12.6535,0.0],[40.616,-12.6449,2.7082],[40.6057,-12.6357,0.0],[40.6029,-12.6365,0.0],[40.5996,-12.6404,2.6485],[40.5896,-12.6421,2.438],[40.5854,-12.6412,0.0],[40.5835,-12.6382,0.3324],[40.5793,-12.6382,4.1378],[40.579,-12.6343,0.0],[40.574,-12.6332,4.1349],[40.5707,-12.6299,3.2459],[40.5713,-12.6268,2.6461],[40.5649,-12.6279,7.2586],[40.566,-12.626,2.1373],[40.5696,-12.6254,0.0],[40.569,-12.6226,1.9365],[40.5707,-12.6207,0.5635],[40.5665,-12.6235,3.1887],[40.5679,-12.6182,0.0],[40.564,-12.6112,3.162],[40.5587,-12.5929,0.0],[40.5513,-12.5885,2.8436],[40.5496,-12.5854,0.0],[40.5496,-12.5801,0.0],[40.5518,-12.5785,0.0],[40.5499,-12.5682,0.0],[40.5526,-12.5599,0.3496],[40.5529,-12.5518,2.3602],[40.556,-12.5546,0.0],[40.5651,-12.5501,4.0267],[40.5676,-12.5426,0.0],[40.5671,-12.5374,4.3366],[40.5699,-12.5332,0.0],[40.569,-12.531,0.0],[40.5646,-12.5293,0.0],[40.5557,-12.5312,0.0],[40.5449,-12.5282,2.8375],[40.5254,-12.5296,3.6622],[40.5218,-12.5282,0.4435],[40.5196,-12.5299,0.0],[40.5213,-12.5321,3.4982],[40.514,-12.5296,3.5187],[40.5121,-12.5315,5.2328],[40.5043,-12.5337,2.2569],[40.4979,-12.5321,0.5055],[40.4965,-12.5257,0.4411],[40.4935,-12.5254,1.0633],[40.4849,-12.5296,0.5],[40.4857,-12.5396,4.6284],[40.4799,-12.5457,1.5953],[40.4801,-12.5435,1.4757],[40.4846,-12.5371,1.5669],[40.4818,-12.5321,1.8845],[40.4824,-12.5274,4.1523],[40.4874,-12.521,0.5142],[40.4882,-12.5176,1.7636],[40.4912,-12.5157,0.9973],[40.4854,-12.514,0.0],[40.4804,-12.5154,1.5242],[40.4787,-12.5137,2.3444],[40.4807,-12.5126,1.8649],[40.4804,-12.5093,0.4323],[40.4776,-12.5082,1.5657],[40.4749,-12.5101,2.9091],[40.4768,-12.5085,2.7439],[40.4771,-12.5054,0.0],[40.4724,-12.5035,2.5546],[40.4693,-12.5071,3.437],[40.4704,-12.5026,1.0],[40.4607,-12.5068,7.5004],[40.4613,-12.5051,1.5],[40.4643,-12.5051,1.5],[40.4699,-12.5007,1.9454],[40.4674,-12.4979,3.2872],[40.4585,-12.5015,5.2668],[40.4571,-12.5051,4.5663],[40.4549,-12.5046,5.3681],[40.4568,-12.5046,4.5663],[40.4585,-12.5004,2.5427],[40.4646,-12.4974,4.5168],[40.4787,-12.4968,1.8526],[40.4846,-12.4896,0.9153],[40.4918,-12.474,0.4894],[40.4915,-12.4726,0.0],[40.4876,-12.4712,1.0628],[40.4876,-12.4676,1.375],[40.4849,-12.4654,4.2527],[40.4871,-12.4643,3.6346],[40.491,-12.4688,1.924],[40.494,-12.4676,0.5805],[40.4948,-12.4599,3.3481],[40.4884,-12.4537,9.0648],[40.4777,-12.4571,2.4924],[40.475,-12.4551,2.4644],[40.4738,-12.451,11.9267],[40.4714,-12.4508,13.0344],[40.4697,-12.4552,3.4412],[40.4621,-12.4518,8.6196],[40.4562,-12.4522,7.2895],[40.4521,-12.4573,18.3939],[40.4572,-12.4632,4.9618],[40.4577,-12.4662,6.9356],[40.4512,-12.4712,9.7751],[40.4525,-12.472,10.6916],[40.4463,-12.4727,12.0684],[40.4219,-12.4644,23.8211],[40.4131,-12.4585,30.9813],[40.4045,-12.4572,32.9572],[40.3984,-12.4602,37.2512],[40.3682,-12.4586,52.5259]]],
[[[40.5546,-12.5599,0.0],[40.5563,-12.5587,0.0],[40.554,-12.5593,0.0],[40.5535,-12.5618,0.0],[40.5549,-12.561,0.0],[40.5546,-12.5599,0.0]]],
[[[40.4904,-12.5257,0.527],[40.4863,-12.5251,0.125],[40.4857,-12.5268,0.8287],[40.4888,-12.5271,1.0264],[40.4904,-12.5257,0.527]]],
[[[40.4912,-12.5221,1.7944],[40.489,-12.5215,1.0533],[40.4885,-12.5229,1.0533],[40.4912,-12.5229,1.7944],[40.4912,-12.5221,1.7944]]],
[[[40.6151,-12.5396,0.0],[40.6124,-12.5399,0.0],[40.6121,-12.5415,0.0],[40.6149,-12.5426,0.0],[40.6151,-12.5396,0.0]]],
[[[40.4929,-12.5185,2.5343],[40.4899,-12.5179,0.488],[40.4888,-12.5201,0.5142],[40.4915,-12.5204,0.3967],[40.4929,-12.5185,2.5343]]],
[[[40.4899,-12.4688,1.924],[40.4888,-12.4699,1.0628],[40.4912,-12.471,1.9536],[40.4915,-12.4696,0.8286],[40.4899,-12.4688,1.924]]]]}}