{"type":"Feature","properties":{"GID_2":"MOZ.8.8_1","GID_0":"MOZ","country":"Mozambique","GID_1":"MOZ.8_1","province":"Nassa","NL_NAME_1":"NA","county":"Mavago","VARNAME_2":"NA","NL_NAME_2":"NA","TYPE_2":"Distrito","ENGTYPE_2":"District","CC_2":"NA","HASC_2":"MZ.NS.MV","name":"Mavago.county"},
"geometry":{"type": "MultiPolygon","coordinates": [[[[36.359,-12.656,637.1306],[36.3858,-12.6549,647.1969],[36.4025,-12.6567,586.8071],[36.4036,-12.6756,694.3126],[36.4094,-12.6838,618.6777],[36.4122,-12.6918,558.9696],[36.4103,-12.7132,563.3419],[36.4157,-12.7197,566.5607],[36.4205,-12.7288,558.12],[36.445,-12.7431,546.4597],[36.4475,-12.7532,536.6828],[36.4757,-12.7421,540.7334],[36.4847,-12.7431,539.8281],[36.4923,-12.7472,534.8484],[36.4995,-12.7433,532.5126],[36.5162,-12.7449,525.2673],[36.5373,-12.7393,517.4365],[36.5367,-12.733,539.4927],[36.5443,-12.7284,506.1597],[36.5602,-12.7046,518.7927],[36.5683,-12.6971,520.9163],[36.576,-12.6927,514.6797],[36.5847,-12.6906,511.8495],[36.6044,-12.6916,508.7302],[36.6219,-12.689,509.2756],[36.6283,-12.682,503.7159],[36.6575,-12.6642,483.4875],[36.6598,-12.672,472.5223],[36.6726,-12.6753,476.7992],[36.6851,-12.6759,473.0617],[36.6899,-12.6821,469.7179],[36.7026,-12.688,484.9192],[36.7144,-12.6839,478.3654],[36.7427,-12.6874,468.1908],[36.7574,-12.6976,457.4852],[36.7655,-12.7099,440.3153],[36.7791,-12.71,457.2672],[36.7924,-12.6975,449.5015],[36.7976,-12.6874,457.6682],[36.8082,-12.701,441.7755],[36.8134,-12.7113,443.5505],[36.8227,-12.7014,448.9027],[36.8397,-12.7069,439.6294],[36.8452,-12.6926,471.8335],[36.8543,-12.6974,451.815],[36.8624,-12.7061,448.9812],[36.8746,-12.7093,438.8465],[36.8912,-12.708,429.3291],[36.9025,-12.7001,428.7402],[36.9102,-12.7022,443.1024],[36.9147,-12.7135,425.2086],[36.92,-12.7161,419.5813],[36.9266,-12.7167,414.295],[36.9358,-12.7078,383.0],[36.9475,-12.671,404.9426],[36.9468,-12.6667,408.894],[36.9342,-12.6521,418.1237],[36.9275,-12.6412,425.3185],[36.9,-12.5829,476.0198],[36.8476,-12.4945,534.3959],[36.8263,-12.4708,630.0685],[36.7638,-12.4098,633.8989],[36.6781,-12.329,611.7894],[36.6512,-12.3013,688.8409],[36.6346,-12.2816,663.0456],[36.6236,-12.275,638.5883],[36.5981,-12.2553,782.882],[36.5895,-12.2344,684.7911],[36.5945,-12.2168,650.9635],[36.6048,-12.2113,642.1803],[36.6147,-12.2025,629.0954],[36.6285,-12.1852,609.7468],[36.6516,-12.1643,576.8805],[36.6565,-12.1507,571.3022],[36.667,-12.1329,554.7241],[36.6842,-12.1101,545.5066],[36.6917,-12.0961,544.2798],[36.6951,-12.0834,528.1516],[36.728,-12.0587,525.8587],[36.7312,-12.0474,508.5187],[36.7221,-12.0257,490.8627],[36.722,-12.0126,491.7733],[36.7269,-11.9997,489.0054],[36.7396,-11.9912,479.4591],[36.7423,-11.9855,476.2856],[36.7492,-11.9777,485.2642],[36.7577,-11.9722,478.4102],[36.7681,-11.9541,484.9071],[36.7885,-11.9269,457.4432],[36.7924,-11.9021,466.2702],[36.7971,-11.8925,458.9992],[36.8142,-11.881,451.9885],[36.8212,-11.8559,438.7108],[36.8292,-11.8376,434.4108],[36.8444,-11.7946,427.683],[36.8387,-11.7738,424.9955],[36.8418,-11.7639,417.7311],[36.8412,-11.7498,416.9633],[36.8434,-11.7388,412.1011],[36.8524,-11.7298,417.8762],[36.88,-11.6957,409.8327],[36.8835,-11.68,402.161],[36.8994,-11.6383,389.5804],[36.9037,-11.6327,385.0139],[36.9177,-11.6256,386.6462],[36.9242,-11.6159,378.7397],[36.9238,-11.6039,374.2817],[36.8887,-11.6061,409.7669],[36.8817,-11.6041,410.6389],[36.8657,-11.5925,392.5342],[36.8606,-11.5922,405.5817],[36.8578,-11.5904,398.0852],[36.8414,-11.5903,417.8376],[36.8384,-11.5885,412.3849],[36.836,-11.5834,405.9965],[36.8266,-11.5782,413.2403],[36.8213,-11.5796,437.9615],[36.8108,-11.587,436.1902],[36.7761,-11.6323,412.8916],[36.7691,-11.6353,418.8938],[36.7624,-11.6413,425.7126],[36.7557,-11.6561,421.8364],[36.7283,-11.6859,441.1679],[36.7195,-11.6929,454.3858],[36.6993,-11.7015,431.2157],[36.6899,-11.7025,416.5],[36.6846,-11.7094,428.5327],[36.6727,-11.7184,432.8271],[36.6634,-11.7229,427.307],[36.651,-11.7257,425.9169],[36.6361,-11.726,441.5338],[36.6036,-11.7227,453.7838],[36.5824,-11.7313,490.3604],[36.5603,-11.7457,482.4491],[36.5496,-11.7455,471.1],[36.5359,-11.729,490.8216],[36.5165,-11.7264,486.4145],[36.5093,-11.7204,466.0685],[36.5036,-11.708,471.1159],[36.5014,-11.6928,469.762],[36.4995,-11.6903,467.3353],[36.493,-11.6881,478.6671],[36.4752,-11.6863,483.2942],[36.4412,-11.6885,477.0227],[36.4199,-11.6916,481.4214],[36.4111,-11.6903,480.2495],[36.3923,-11.6816,470.9647],[36.383,-11.6814,468.0337],[36.3779,-11.6842,466.3442],[36.3647,-11.7036,467.2281],[36.3425,-11.7041,483.7345],[36.3171,-11.7019,496.3068],[36.2932,-11.7087,485.1872],[36.2871,-11.708,482.3675],[36.2751,-11.7264,480.5679],[36.2834,-11.7274,477.7018],[36.285,-11.736,480.5523],[36.2583,-11.7592,483.9346],[36.24,-11.786,485.6843],[36.2248,-11.801,496.6551],[36.2217,-11.8129,493.1245],[36.2095,-11.8248,492.1548],[36.1942,-11.8338,502.7699],[36.1904,-11.8394,516.5486],[36.1773,-11.843,508.736],[36.1698,-11.8597,508.2866],[36.1559,-11.8715,515.7226],[36.1521,-11.8766,514.1502],[36.1455,-11.906,521.0614],[36.1305,-11.9418,534.5293],[36.1255,-11.9452,540.8749],[36.1197,-11.9552,544.396],[36.1049,-11.9707,533.1089],[36.1047,-11.9833,548.058],[36.1002,-11.9896,544.7196],[36.0864,-11.9975,544.5085],[36.0844,-12.0097,549.9861],[36.0692,-12.0217,547.8461],[36.0387,-12.0395,556.3311],[36.0356,-12.0545,562.2556],[36.0173,-12.0783,570.8165],[36.002,-12.1052,572.0175],[35.9868,-12.1499,605.9221],[35.9746,-12.1708,615.1931],[35.9624,-12.1827,599.1808],[35.9441,-12.1917,627.8034],[35.9319,-12.1946,628.3077],[35.9136,-12.2125,601.2247],[35.9075,-12.2304,626.9518],[35.8896,-12.235,650.5857],[35.898,-12.286,671.6813],[35.8953,-12.302,673.4998],[35.896,-12.3096,672.0579],[35.9016,-12.3202,681.7671],[35.8899,-12.3721,697.4957],[35.8906,-12.4111,713.6313],[35.9197,-12.4452,759.5491],[35.9288,-12.472,783.7126],[35.9337,-12.5328,824.0265],[35.9446,-12.5577,865.7209],[35.9447,-12.5633,886.9437],[35.9471,-12.5675,907.0552],[35.9471,-12.5764,1029.3785],[35.9492,-12.5814,1118.0234],[35.9678,-12.5937,1049.5208],[35.9749,-12.6008,966.7251],[35.9929,-12.636,908.4998],[36.0051,-12.651,829.7406],[36.01,-12.6542,836.8527],[36.0134,-12.6711,876.9268],[36.0146,-12.6895,1074.5704],[36.0184,-12.6978,988.808],[36.0388,-12.6846,970.3925],[36.0502,-12.6736,966.4086],[36.0644,-12.6637,934.0331],[36.077,-12.66,906.9142],[36.1352,-12.6654,822.8311],[36.1543,-12.6762,783.2706],[36.1767,-12.6794,786.9792],[36.1881,-12.6778,756.1661],[36.1938,-12.6825,781.5226],[36.2066,-12.6815,753.243],[36.225,-12.6834,713.6218],[36.243,-12.6884,706.3974],[36.2626,-12.7017,669.3683],[36.2758,-12.7024,683.9423],[36.2827,-12.6957,673.2681],[36.3193,-12.6718,646.1074],[36.3268,-12.6645,652.3935],[36.359,-12.656,637.1306]]]]}}