{"type": "Feature","bbox": [38.6755,-13.4911,39.3996,-12.9215],"geometry": {"type": "MultiPolygon","coordinates": [[[[39.3905,-13.1646,383.9087],[39.3584,-13.166,409.0071],[39.3217,-13.1601,428.6013],[39.2891,-13.1657,448.0879],[39.2584,-13.1599,449.6347],[39.2379,-13.126,442.9857],[39.2086,-13.1177,450.4765],[39.2002,-13.0769,473.7455],[39.2012,-13.0684,480.5553],[39.212,-13.0407,480.6137],[39.2217,-13.0099,477.2226],[39.2291,-12.9789,433.993],[39.2209,-12.9513,404.3059],[39.2148,-12.9215,389.1762],[39.2117,-12.9275,394.6659],[39.1965,-12.9275,378.7462],[39.1812,-12.9304,395.2554],[39.1463,-12.9304,407.0653],[39.1384,-12.9483,401.517],[39.117,-12.9602,415.0072],[39.0895,-12.9692,401.3121],[39.0742,-12.9713,426.0983],[39.0653,-12.9763,423.1187],[39.0559,-12.9901,408.3265],[39.0437,-13.002,420.499],[39.0376,-13.0169,407.8046],[39.0108,-13.0315,414.166],[38.9734,-13.0795,424.8018],[38.9612,-13.0915,438.0376],[38.9383,-13.1288,449.4367],[38.9267,-13.1388,460.0196],[38.9092,-13.1452,437.2092],[38.9001,-13.169,452.5312],[38.9001,-13.1816,562.9091],[38.8909,-13.1869,592.123],[38.8726,-13.1869,463.7325],[38.8624,-13.1969,466.39],[38.842,-13.2466,471.8964],[38.8211,-13.2644,470.4084],[38.8258,-13.2758,473.2677],[38.8241,-13.2831,475.9917],[38.8083,-13.3079,495.8388],[38.7993,-13.3154,493.404],[38.7717,-13.3539,503.2604],[38.7643,-13.3588,507.4083],[38.7538,-13.3712,509.4574],[38.7327,-13.3911,521.7655],[38.7058,-13.4081,535.3914],[38.6951,-13.4197,543.5132],[38.6877,-13.4237,549.8279],[38.6755,-13.4354,560.892],[38.6761,-13.4437,578.6509],[38.6831,-13.4673,547.1038],[38.6954,-13.4792,514.5715],[38.7015,-13.4911,515.8383],[38.7069,-13.4911,504.1535],[38.7298,-13.4755,508.9002],[38.7499,-13.4537,570.4645],[38.7996,-13.4204,518.0112],[38.8674,-13.381,508.8724],[38.8823,-13.376,498.0294],[38.9231,-13.3821,459.6224],[38.9387,-13.3829,454.075],[38.9496,-13.3804,454.6971],[38.9604,-13.3801,448.0959],[38.9676,-13.386,446.4469],[38.9763,-13.3883,446.9863],[38.9962,-13.3894,441.4203],[39.0148,-13.374,439.4796],[39.0204,-13.374,434.1981],[39.0409,-13.3613,431.6684],[39.0567,-13.3628,427.0822],[39.0633,-13.36,421.6982],[39.0709,-13.3541,423.4662],[39.0835,-13.3566,424.8315],[39.098,-13.3559,419.8825],[39.1302,-13.3474,418.3176],[39.1505,-13.3273,405.6165],[39.1576,-13.3224,410.2628],[39.1686,-13.3215,400.0515],[39.1724,-13.3127,406.1378],[39.186,-13.3047,403.9268],[39.1861,-13.3032,403.6837],[39.1995,-13.2913,397.5048],[39.2192,-13.2786,390.5469],[39.2464,-13.2559,392.7775],[39.261,-13.2475,397.6118],[39.2691,-13.2472,384.1915],[39.2758,-13.2405,377.7404],[39.2862,-13.2361,393.497],[39.2892,-13.2457,377.5244],[39.2922,-13.2471,380.8706],[39.3095,-13.2496,366.9008],[39.3279,-13.2496,364.8996],[39.3683,-13.2403,363.9899],[39.3757,-13.226,376.2367],[39.3835,-13.2285,352.4874],[39.3896,-13.2073,340.2596],[39.3996,-13.1988,353.7623],[39.3962,-13.1638,376.1521],[39.3905,-13.1646,383.9087]],
[[39.0663,-13.123,505.782],[39.0663,-13.1922,476.4694],[39.0514,-13.1922,480.2648],[39.0589,-13.2053,481.9727],[39.0215,-13.2053,507.5599],[38.9934,-13.2035,516.5424],[38.9897,-13.1885,515.3041],[38.9822,-13.1922,529.1105],[38.9785,-13.1305,486.2371],[38.9803,-13.1324,495.9576],[38.9897,-13.1343,505.3367],[38.986,-13.1174,488.5534],[39.0663,-13.123,505.782]]]]}
,"properties": {"GID_3": "MOZ.1.8.3_1","GID_0": "MOZ","country": "Mozambique","GID_1": "MOZ.1_1","province": "CaboDelgado","NL_NAME_1": "NA","GID_2": "MOZ.1.8_1","county": "Montepuez","NL_NAME_2": "NA","city": "MontepuezCidade(Sede)","VARNAME_3": "NA","NL_NAME_3": "NA","TYPE_3": "Localidad","ENGTYPE_3": "Locality","CC_3": "NA","HASC_3": "NA","name": "Montepuez_Cidade(Sede).city","area_km2": 1725.925,"hist_schema_id": "Elevation0-9000","hist_area_km2": {"325": 0.021,"350": 5.057,"375": 29.065,"400": 93.016,"425": 179.261,"450": 288.722,"475": 352.776,"500": 341.03,"525": 296.645,"550": 115.689,"575": 14.032,"600": 4.025,"625": 2.374,"650": 1.115,"675": 0.908,"700": 0.475,"725": 0.558,"750": 0.516,"775": 0.268,"800": 0.186,"825": 0.124,"850": 0.062}}}