{"type":"Feature","properties":{"GID_3":"MOZ.7.15.3_1","GID_0":"MOZ","country":"Mozambique","GID_1":"MOZ.7_1","province":"Nampula","NL_NAME_1":"NA","GID_2":"MOZ.7.15_1","county":"NacalaVelha","NL_NAME_2":"NA","city":"Nacala-Velha","VARNAME_3":"NA","NL_NAME_3":"NA","TYPE_3":"Localidad","ENGTYPE_3":"Locality","CC_3":"NA","HASC_3":"NA","name":"Nacala-Velha.city"},
"geometry":{"type": "MultiPolygon","coordinates": [[[[40.6204,-14.5976,0.0],[40.6229,-14.5965,0.4897],[40.6232,-14.5954,0.0],[40.6215,-14.5957,0.3723],[40.6204,-14.5976,0.0]]],
[[[40.4907,-14.463,53.146],[40.4884,-14.4664,53.4175],[40.4858,-14.481,71.894],[40.4796,-14.5002,101.6143],[40.4577,-14.5372,109.7108],[40.433,-14.5492,134.314],[40.4185,-14.5519,105.4428],[40.4302,-14.5711,144.3383],[40.4268,-14.585,180.7856],[40.4176,-14.5909,149.7666],[40.4083,-14.6028,176.7965],[40.396,-14.6028,158.0833],[40.3929,-14.6088,150.8644],[40.3929,-14.6177,162.0631],[40.3805,-14.6357,209.2501],[40.3604,-14.6511,215.7655],[40.3528,-14.6714,177.5557],[40.3651,-14.6804,143.7889],[40.3682,-14.6923,135.4385],[40.3749,-14.6923,132.6046],[40.3805,-14.7072,118.3659],[40.3898,-14.7132,120.06],[40.396,-14.7222,108.0357],[40.4207,-14.74,88.1697],[40.4649,-14.7443,71.275],[40.4699,-14.7459,79.6916],[40.4724,-14.75,74.6454],[40.4708,-14.7576,63.8689],[40.4885,-14.7573,65.0023],[40.5186,-14.7636,66.2625],[40.5334,-14.7698,65.744],[40.5393,-14.744,104.1078],[40.5506,-14.7275,80.5817],[40.5529,-14.7115,84.5972],[40.5613,-14.7087,110.723],[40.6328,-14.7002,115.1047],[40.6512,-14.6827,70.402],[40.6387,-14.6603,40.3141],[40.6258,-14.6573,42.2132],[40.6202,-14.6508,24.521],[40.6197,-14.644,17.7649],[40.6126,-14.6296,7.094],[40.6133,-14.6184,1.5],[40.6188,-14.6026,1.8086],[40.6179,-14.5962,4.5052],[40.6215,-14.5935,0.9232],[40.6257,-14.5932,0.0],[40.6276,-14.5899,0.0],[40.626,-14.5835,1.4315],[40.6274,-14.5804,0.0],[40.6251,-14.5776,0.8032],[40.6304,-14.5665,0.0],[40.6285,-14.564,0.7506],[40.6288,-14.561,0.0],[40.626,-14.5587,7.7686],[40.6265,-14.5518,6.4165],[40.6326,-14.5479,5.9999],[40.6329,-14.5393,11.4123],[40.646,-14.526,0.0],[40.6449,-14.524,1.0604],[40.6379,-14.5207,0.0],[40.6299,-14.5229,0.0],[40.621,-14.5215,0.617],[40.6204,-14.5193,2.0166],[40.6312,-14.5107,0.0],[40.6321,-14.5071,1.0457],[40.6307,-14.501,2.3115],[40.6326,-14.4971,4.7482],[40.6443,-14.496,2.2086],[40.6471,-14.4921,2.7415],[40.6529,-14.4904,2.3014],[40.656,-14.4876,0.0],[40.6568,-14.4835,0.0],[40.6601,-14.4801,0.0],[40.659,-14.4768,0.5278],[40.6579,-14.4771,0.0],[40.6557,-14.4821,1.3986],[40.6501,-14.4824,0.8256],[40.6468,-14.489,1.4473],[40.6399,-14.4926,1.9299],[40.6363,-14.4918,1.7563],[40.6296,-14.4876,0.0],[40.6221,-14.4743,3.7236],[40.6246,-14.4668,1.9771],[40.6237,-14.4624,3.6046],[40.6312,-14.4593,4.2046],[40.6346,-14.4618,0.0],[40.6449,-14.4643,5.8375],[40.6471,-14.4671,0.0],[40.6524,-14.4671,3.0466],[40.6568,-14.4712,2.97],[40.6682,-14.4696,0.8693],[40.6568,-14.4618,4.3926],[40.649,-14.4543,5.3458],[40.6426,-14.441,6.7379],[40.6379,-14.4232,0.9901],[40.6385,-14.4063,2.9166],[40.6426,-14.3971,6.2243],[40.6485,-14.391,0.8006],[40.6493,-14.384,0.5873],[40.6471,-14.3837,0.9105],[40.6465,-14.386,3.0745],[40.6437,-14.3865,4.3807],[40.6393,-14.3843,1.9312],[40.6404,-14.3732,0.8151],[40.5851,-14.3716,16.4605],[40.5732,-14.3801,18.6528],[40.5531,-14.4073,27.1914],[40.5398,-14.4191,35.0042],[40.5317,-14.4213,36.894],[40.517,-14.4283,39.552],[40.4907,-14.463,53.146]]]]}}