{"type":"Feature","properties":{"GID_2":"MOZ.11.10_1","GID_0":"MOZ","country":"Mozambique","GID_1":"MOZ.11_1","province":"Zambezia","NL_NAME_1":"NA","county":"Mocuba","VARNAME_2":"NA","NL_NAME_2":"NA","TYPE_2":"Distrito","ENGTYPE_2":"District","CC_2":"NA","HASC_2":"MZ.ZA.MB","name":"Mocuba.county"},
"geometry":{"type": "MultiPolygon","coordinates": [[[[36.8487,-16.7041,148.1141],[36.8303,-16.6875,149.5395],[36.7993,-16.6899,150.5121],[36.7613,-16.6784,161.8312],[36.7576,-16.6705,148.6392],[36.7562,-16.6618,158.3102],[36.7487,-16.6542,153.9014],[36.7383,-16.652,160.4087],[36.7312,-16.6545,160.2661],[36.7212,-16.6547,163.7434],[36.706,-16.6436,153.9933],[36.7027,-16.6353,158.9491],[36.6974,-16.6326,167.4665],[36.6829,-16.6321,169.7338],[36.676,-16.6255,173.552],[36.6752,-16.6234,171.4488],[36.6773,-16.6204,178.2817],[36.667,-16.6143,178.1405],[36.6541,-16.611,167.8662],[36.6344,-16.6011,170.6951],[36.6141,-16.5777,190.24],[36.6052,-16.5724,202.9586],[36.5811,-16.5665,210.655],[36.5685,-16.56,206.4267],[36.5599,-16.5683,214.7994],[36.5522,-16.5699,226.4018],[36.5457,-16.5648,212.9815],[36.5395,-16.563,226.8623],[36.505,-16.5621,237.4897],[36.5027,-16.5503,235.7198],[36.4868,-16.557,238.6745],[36.4827,-16.557,245.3947],[36.4422,-16.549,244.8453],[36.4361,-16.5459,261.8843],[36.43,-16.5396,251.8695],[36.4148,-16.5282,254.4718],[36.4021,-16.5232,264.0443],[36.3971,-16.5265,252.596],[36.3934,-16.5234,261.9659],[36.391,-16.5145,265.9739],[36.3837,-16.517,274.191],[36.3717,-16.5054,271.3009],[36.3556,-16.5037,272.8533],[36.3512,-16.4885,290.9954],[36.3349,-16.4837,284.9936],[36.3309,-16.4783,288.9948],[36.3206,-16.4823,296.0994],[36.3109,-16.4913,289.7374],[36.3039,-16.4897,295.5755],[36.279,-16.4975,303.813],[36.2596,-16.4939,322.4056],[36.2496,-16.4976,321.1953],[36.2364,-16.4975,342.3547],[36.1801,-16.5142,357.304],[36.1722,-16.5206,368.3573],[36.1605,-16.5236,378.0425],[36.1547,-16.5293,371.9646],[36.1362,-16.5551,431.4883],[36.134,-16.5617,451.8926],[36.1275,-16.5677,523.8228],[36.1388,-16.5732,493.6749],[36.1669,-16.5709,476.4182],[36.1854,-16.5724,486.2579],[36.1971,-16.5712,462.7806],[36.2275,-16.5858,418.3976],[36.2334,-16.5888,422.5584],[36.2498,-16.6072,406.1392],[36.2714,-16.6268,397.7104],[36.2788,-16.6411,391.5776],[36.283,-16.6518,376.1478],[36.2822,-16.6563,378.0821],[36.2662,-16.6759,369.7004],[36.2602,-16.6798,365.3156],[36.2579,-16.7017,359.5656],[36.2596,-16.7062,357.1529],[36.2553,-16.7261,342.2668],[36.2582,-16.7302,337.1715],[36.2553,-16.7362,350.0056],[36.255,-16.7446,335.2821],[36.2565,-16.7461,339.5457],[36.2505,-16.7464,341.9173],[36.2529,-16.7493,335.1299],[36.2481,-16.755,343.0127],[36.2444,-16.7655,353.5964],[36.2462,-16.7701,324.1575],[36.2654,-16.778,316.7885],[36.2695,-16.7904,305.0961],[36.2742,-16.7949,313.9763],[36.2793,-16.8176,299.7166],[36.2663,-16.827,298.4822],[36.2661,-16.8311,279.8018],[36.2859,-16.8636,272.0793],[36.2843,-16.8728,263.6055],[36.2865,-16.8881,261.1219],[36.2833,-16.9087,238.4632],[36.2936,-16.914,244.9148],[36.3005,-16.9247,230.584],[36.306,-16.9233,241.5941],[36.3146,-16.9314,241.9952],[36.3168,-16.9481,228.5331],[36.3289,-16.967,234.2125],[36.335,-16.9988,205.5558],[36.3409,-17.0055,198.1245],[36.3457,-17.0044,203.0065],[36.3588,-17.0108,193.959],[36.3618,-17.0327,190.7126],[36.3876,-17.0586,172.2419],[36.3935,-17.0839,158.5099],[36.4127,-17.1122,139.9846],[36.4095,-17.1229,139.8801],[36.4341,-17.1721,108.6299],[36.4337,-17.1944,118.0823],[36.4507,-17.2028,105.5043],[36.4631,-17.1695,179.3849],[36.5439,-17.1789,150.3616],[36.5544,-17.1942,140.939],[36.5758,-17.2122,122.5442],[36.5866,-17.2233,124.8759],[36.6195,-17.2368,87.0172],[36.6216,-17.2394,91.8166],[36.6198,-17.2495,71.2772],[36.6051,-17.2777,64.3815],[36.6045,-17.2852,80.7681],[36.6088,-17.298,57.9438],[36.6025,-17.3074,58.7199],[36.5978,-17.319,68.2516],[36.6031,-17.3274,75.7905],[36.6853,-17.3718,72.1109],[36.7433,-17.3699,54.8935],[36.7509,-17.3748,59.9487],[36.7602,-17.3849,58.0494],[36.7757,-17.3969,49.3253],[36.7791,-17.3987,44.8954],[36.7842,-17.3987,44.3408],[36.7943,-17.4039,43.4616],[36.8231,-17.3709,35.0878],[36.8361,-17.3613,35.4759],[36.8325,-17.3572,53.1514],[36.8293,-17.3455,40.1974],[36.8298,-17.3389,48.783],[36.8335,-17.3325,47.9532],[36.8385,-17.3297,52.3917],[36.8309,-17.3017,60.5016],[36.9238,-17.32,56.8567],[36.9287,-17.3151,53.5995],[36.9329,-17.3032,60.9083],[36.9381,-17.2714,76.41],[36.9348,-17.2557,100.7286],[36.9301,-17.2472,89.9058],[36.9278,-17.235,101.5401],[36.9597,-17.1932,103.6681],[36.9641,-17.1985,102.2173],[36.9696,-17.1984,103.9499],[36.9855,-17.193,129.2751],[36.9923,-17.1958,126.8162],[37.0005,-17.2075,107.0081],[37.0124,-17.1901,73.5851],[37.018,-17.1852,63.0181],[37.0239,-17.186,64.2087],[37.0349,-17.189,45.9647],[37.0492,-17.1965,45.2982],[37.055,-17.2186,34.6281],[37.0682,-17.2161,32.2823],[37.0675,-17.1945,42.7951],[37.081,-17.1774,65.2828],[37.0841,-17.1595,92.3374],[37.0966,-17.1535,100.5305],[37.1129,-17.1495,90.5701],[37.1253,-17.1273,95.4619],[37.1429,-17.111,83.9419],[37.1538,-17.09,94.7856],[37.156,-17.0807,106.8539],[37.1622,-17.076,107.2759],[37.1737,-17.0611,118.4541],[37.2007,-17.048,96.9362],[37.2079,-17.046,98.155],[37.2262,-17.0492,83.4851],[37.2431,-17.0263,69.4667],[37.2563,-17.0263,68.1813],[37.2665,-17.0333,66.3878],[37.2774,-17.0355,71.1519],[37.2855,-17.0221,79.3397],[37.2892,-16.9968,92.9538],[37.2959,-16.9751,146.7294],[37.3207,-16.9696,113.0468],[37.3817,-16.9612,75.6953],[37.3865,-16.9614,76.3596],[37.394,-16.9706,63.8219],[37.3955,-16.9777,57.0103],[37.4009,-16.969,78.9214],[37.4148,-16.9558,114.3369],[37.4209,-16.9549,118.2221],[37.4296,-16.9506,110.0997],[37.4603,-16.9241,90.5827],[37.4557,-16.9208,88.6332],[37.4555,-16.9087,86.5952],[37.4524,-16.9045,89.1093],[37.4449,-16.9027,86.6701],[37.4451,-16.899,88.4058],[37.4601,-16.8978,92.0947],[37.4568,-16.8938,85.7901],[37.4676,-16.8815,93.0807],[37.4712,-16.8732,93.0727],[37.4777,-16.8696,92.5195],[37.4761,-16.8589,102.4479],[37.4821,-16.8481,99.8389],[37.4826,-16.8437,105.4255],[37.4877,-16.8466,105.1132],[37.491,-16.851,98.9746],[37.4963,-16.8442,100.3137],[37.4957,-16.8379,111.8406],[37.4886,-16.8339,113.6866],[37.4836,-16.8255,107.5041],[37.4923,-16.8245,111.6762],[37.4968,-16.8169,109.6228],[37.4915,-16.8057,110.6575],[37.4913,-16.8021,103.9991],[37.4954,-16.7916,115.7566],[37.5062,-16.7911,110.3371],[37.5103,-16.7841,118.1422],[37.5085,-16.7763,111.9202],[37.5206,-16.7648,116.4112],[37.5154,-16.7337,131.7716],[37.5009,-16.7199,140.8249],[37.5047,-16.7066,135.8365],[37.502,-16.6811,140.0302],[37.4985,-16.672,136.4414],[37.4841,-16.6432,152.6755],[37.4837,-16.6362,161.9432],[37.4754,-16.6258,169.5564],[37.4643,-16.62,167.6043],[37.4669,-16.6069,172.128],[37.4929,-16.591,201.2508],[37.471,-16.5744,202.0419],[37.4671,-16.5616,216.9715],[37.4659,-16.5497,219.7976],[37.4663,-16.5285,244.3526],[37.4684,-16.5182,238.634],[37.4215,-16.4861,298.5154],[37.3997,-16.4796,319.3074],[37.3901,-16.4688,358.6566],[37.3782,-16.4358,407.6432],[37.3296,-16.4228,342.264],[37.3155,-16.4256,362.4276],[37.3149,-16.412,332.4983],[37.3075,-16.4081,356.3748],[37.3004,-16.4012,358.1528],[37.2872,-16.3732,380.1257],[37.297,-16.362,406.8752],[37.2971,-16.3535,429.1973],[37.2903,-16.3405,398.0765],[37.2886,-16.3255,373.781],[37.2771,-16.3147,363.2134],[37.2658,-16.3099,346.3345],[37.2476,-16.2983,332.1657],[37.2313,-16.3154,322.401],[37.2205,-16.3176,324.2051],[37.2135,-16.3316,287.158],[37.1964,-16.3317,302.7437],[37.192,-16.3387,280.809],[37.1875,-16.3362,302.6656],[37.1798,-16.3375,282.8254],[37.1439,-16.3534,259.0708],[37.1361,-16.3602,253.2173],[37.132,-16.3582,252.2166],[37.1224,-16.3932,238.3688],[37.1182,-16.4019,255.2298],[37.1116,-16.4122,233.1694],[37.0963,-16.427,213.75],[37.0938,-16.438,210.463],[37.0938,-16.447,208.5091],[37.0991,-16.4571,224.1781],[37.1338,-16.483,214.8081],[37.1463,-16.4847,201.25],[37.1512,-16.5029,204.0623],[37.1399,-16.5146,193.1133],[37.1371,-16.5305,183.1824],[37.123,-16.5525,162.8413],[37.1207,-16.5583,162.9384],[37.1081,-16.5658,167.7534],[37.0891,-16.5729,162.8387],[37.0718,-16.5866,162.5333],[37.0556,-16.6064,160.6195],[37.0406,-16.621,154.3097],[37.0266,-16.6245,153.6148],[37.0043,-16.6481,137.7048],[36.9972,-16.6595,135.0],[36.993,-16.68,136.7885],[36.9965,-16.6919,134.9219],[36.9995,-16.6968,142.6034],[37.013,-16.7097,136.7438],[37.0147,-16.7183,132.3419],[37.0156,-16.7487,121.3059],[37.0104,-16.7658,125.5567],[37.0077,-16.7698,116.3569],[36.9941,-16.7774,115.1067],[36.9914,-16.7923,110.2246],[36.9789,-16.809,108.4908],[36.9787,-16.8176,105.7767],[36.981,-16.8223,114.1234],[36.9792,-16.8276,107.6935],[36.9712,-16.8266,116.694],[36.9626,-16.818,107.1134],[36.9607,-16.8133,108.2331],[36.9614,-16.7986,122.2695],[36.9577,-16.7881,113.1314],[36.9534,-16.7811,123.2867],[36.9412,-16.7694,118.8593],[36.9157,-16.7642,118.4511],[36.9234,-16.7475,121.715],[36.9257,-16.7354,129.1702],[36.9256,-16.7311,124.6327],[36.9194,-16.7231,124.3348],[36.8996,-16.7071,132.0138],[36.8875,-16.7005,143.484],[36.8487,-16.7041,148.1141]]]]}}