{"type":"Feature","properties":{"GID_3":"MOZ.7.5.4_1","GID_0":"MOZ","country":"Mozambique","GID_1":"MOZ.7_1","province":"Nampula","NL_NAME_1":"NA","GID_2":"MOZ.7.5_1","county":"Meconta","NL_NAME_2":"NA","city":"Namialo","VARNAME_3":"NA","NL_NAME_3":"NA","TYPE_3":"Localidad","ENGTYPE_3":"Locality","CC_3":"NA","HASC_3":"NA","name":"Namialo.city"},
"geometry":{"type": "MultiPolygon","coordinates": [[[[39.9615,-15.0508,213.5181],[39.9779,-15.0469,194.206],[39.9899,-15.0465,175.8973],[40.0001,-15.041,169.0428],[40.0096,-15.0407,155.1157],[40.0253,-15.0345,144.0509],[40.0485,-15.0209,117.8522],[40.0553,-15.0185,119.9191],[40.0508,-15.0108,125.654],[40.0433,-15.0079,123.7156],[40.031,-15.0069,129.1504],[40.0268,-15.0023,132.6991],[40.0299,-14.9988,140.4116],[40.0299,-14.9858,150.9303],[40.0367,-14.9616,153.3925],[40.0368,-14.9421,148.305],[40.0384,-14.9326,158.4787],[40.0473,-14.9036,182.1476],[40.0531,-14.8949,175.7676],[40.0672,-14.8843,156.9578],[40.0687,-14.8766,153.8253],[40.0666,-14.8686,144.5201],[40.0591,-14.8532,133.049],[40.0488,-14.8542,136.4564],[40.0429,-14.8571,132.6159],[40.018,-14.8635,145.1398],[39.998,-14.8563,155.358],[39.9857,-14.8623,165.8346],[39.9685,-14.8662,161.6082],[39.9673,-14.867,159.6651],[39.9764,-14.8802,167.4762],[39.9695,-14.893,162.2876],[39.9649,-14.889,165.2772],[39.9683,-14.8985,163.9947],[39.9447,-14.9068,161.8441],[39.9283,-14.9064,164.793],[39.9102,-14.8983,166.7021],[39.8881,-14.8956,180.4423],[39.8811,-14.8932,170.9951],[39.8762,-14.8895,187.5916],[39.8728,-14.8839,183.091],[39.8706,-14.8714,178.2826],[39.8675,-14.8661,187.1901],[39.858,-14.8675,181.0964],[39.8502,-14.8732,185.6912],[39.8398,-14.8771,188.9812],[39.8338,-14.8823,196.8563],[39.8278,-14.884,205.5676],[39.821,-14.8829,193.7013],[39.8128,-14.8865,193.9828],[39.8007,-14.8992,211.1741],[39.7874,-14.8978,206.7588],[39.7808,-14.9486,257.8144],[39.7808,-14.9635,274.1217],[39.7861,-14.9661,290.3763],[39.8229,-14.9549,258.8842],[39.8654,-14.9566,245.4902],[39.8881,-14.9629,228.0316],[39.923,-14.9762,206.845],[39.9432,-14.9984,164.4537],[39.9465,-15.0086,157.8424],[39.9491,-15.0057,156.7202],[39.9586,-15.0145,153.3095],[39.9492,-15.0195,153.1073],[39.958,-15.039,201.2372],[39.9615,-15.0508,213.5181]]]]}}