{"type":"Feature","properties":{"GID_3":"MOZ.2.3.1_1","GID_0":"MOZ","country":"Mozambique","GID_1":"MOZ.2_1","province":"Gaza","NL_NAME_1":"NA","GID_2":"MOZ.2.3_1","county":"Chicualacuala","NL_NAME_2":"NA","city":"Chicualacuala(E.M.Sede)","VARNAME_3":"NA","NL_NAME_3":"NA","TYPE_3":"Localidad","ENGTYPE_3":"Locality","CC_3":"NA","HASC_3":"NA","name":"Chicualacuala(E.M.Sede).city"},
"geometry":{"type": "MultiPolygon","coordinates": [[[[32.377,-22.1732,199.1616],[32.34,-22.1675,206.8046],[32.3326,-22.155,207.3282],[32.3208,-22.1411,211.6197],[32.3098,-22.1343,214.7944],[32.3027,-22.1176,216.1888],[32.3096,-22.1021,221.7657],[32.3017,-22.0934,221.4839],[32.2859,-22.0889,225.0157],[32.2711,-22.0796,226.7548],[32.2544,-22.0795,229.6078],[32.2498,-22.0642,233.1125],[32.2412,-22.0527,233.0562],[32.23,-22.0416,236.7223],[32.2216,-22.0218,239.6609],[32.2211,-22.0123,240.0575],[32.2018,-21.9985,247.0894],[32.1779,-21.9777,255.5179],[32.1458,-21.9671,261.6716],[32.1337,-21.96,259.8385],[32.1247,-21.945,259.6555],[32.1097,-21.9298,270.6954],[32.1082,-21.9356,273.8327],[32.0942,-21.9379,282.9218],[32.0822,-21.9425,302.1076],[32.0757,-21.9516,285.1313],[31.9572,-21.8935,352.3591],[31.8673,-21.8807,383.101],[31.7578,-21.9939,483.2856],[31.7455,-22.0039,487.2104],[31.6816,-22.0697,455.5742],[31.6805,-22.0687,456.0549],[31.6113,-22.1408,321.9019],[31.5903,-22.1595,311.8247],[31.5374,-22.2148,247.7038],[31.5287,-22.2211,256.6233],[31.504,-22.2515,247.647],[31.4977,-22.2555,247.7252],[31.4867,-22.2666,231.8869],[31.4815,-22.2695,232.6514],[31.4699,-22.2836,214.2703],[31.3815,-22.3718,295.5596],[31.369,-22.3808,300.7987],[31.4203,-22.402,320.2365],[31.422,-22.4407,182.3894],[31.4244,-22.4454,186.8617],[31.4716,-22.4615,182.7056],[31.4877,-22.4643,181.9749],[31.5252,-22.4632,181.0294],[31.5448,-22.4604,173.8856],[31.5609,-22.4613,179.5822],[31.5769,-22.469,172.9768],[31.5849,-22.4813,173.4622],[31.5901,-22.4973,166.679],[31.6082,-22.525,168.3058],[31.6188,-22.5341,169.3168],[31.6418,-22.5425,169.3633],[31.6529,-22.5507,170.7812],[31.743,-22.4783,214.2854],[31.7912,-22.4722,316.8673],[31.8111,-22.473,352.7396],[31.8717,-22.4368,329.2596],[31.9601,-22.4356,276.9388],[32.0012,-22.4297,265.9869],[32.2578,-22.426,182.9281],[32.377,-22.1732,199.1616]]]]}}