{"type":"Feature","properties":{"GID_3":"MOZ.2.10.2_1","GID_0":"MOZ","country":"Mozambique","GID_1":"MOZ.2_1","province":"Gaza","NL_NAME_1":"NA","GID_2":"MOZ.2.10_1","county":"Massingir","NL_NAME_2":"NA","city":"Mavodze","VARNAME_3":"NA","NL_NAME_3":"NA","TYPE_3":"Localidad","ENGTYPE_3":"Locality","CC_3":"NA","HASC_3":"NA","name":"Mavodze.city"},
"geometry":{"type": "MultiPolygon","coordinates": [[[[31.5616,-23.2216,259.3221],[31.5611,-23.2288,236.7232],[31.5592,-23.2312,241.3398],[31.5559,-23.2691,304.9494],[31.5507,-23.4103,367.387],[31.561,-23.482,422.4361],[31.6658,-23.5914,393.3637],[31.6905,-23.6294,386.5903],[31.6974,-23.7219,419.0501],[31.7692,-23.8878,381.1542],[31.8782,-23.9527,233.5414],[31.9037,-23.9449,137.3085],[31.9279,-23.9435,125.574],[31.9413,-23.9402,117.9847],[31.9564,-23.933,116.0],[31.97,-23.9199,116.0],[31.9861,-23.8928,116.0],[32.0048,-23.8817,116.0],[32.0268,-23.8803,116.0],[32.0429,-23.8764,116.0],[32.0892,-23.8588,116.0],[32.1077,-23.8577,116.0],[32.1225,-23.8609,116.0],[32.1508,-23.873,112.2329],[32.1603,-23.8748,86.0631],[32.1725,-23.8725,91.3667],[32.1985,-23.8713,78.2731],[32.2116,-23.8738,80.4329],[32.2361,-23.8736,84.9685],[32.2466,-23.8783,86.3761],[32.2585,-23.8783,87.5055],[32.2748,-23.8882,84.2253],[32.2912,-23.9026,79.2939],[32.2866,-23.9163,80.4747],[32.2733,-23.9347,77.116],[32.273,-23.9443,75.1881],[32.2767,-23.9554,77.2815],[32.2945,-23.9594,75.448],[32.3136,-23.9562,74.8194],[32.3271,-23.9496,75.0726],[32.3475,-23.932,117.4732],[32.3684,-23.9194,99.5091],[32.4214,-23.8589,138.5008],[32.3993,-23.7896,133.784],[32.3522,-23.7317,153.0896],[32.3307,-23.6959,160.52],[32.3029,-23.6578,165.958],[32.2893,-23.6436,172.3252],[32.2754,-23.637,173.0753],[32.2704,-23.6303,174.1493],[32.2599,-23.6128,173.9144],[32.2507,-23.5924,175.4049],[32.2466,-23.5726,177.2855],[31.9903,-23.5771,177.2607],[31.9814,-23.5736,185.6347],[31.9758,-23.5685,195.2792],[31.958,-23.5671,185.429],[31.9379,-23.5586,163.2607],[31.919,-23.5396,155.5404],[31.9181,-23.524,145.1924],[31.9109,-23.518,158.8233],[31.9103,-23.5076,149.4735],[31.8983,-23.4681,158.7365],[31.883,-23.476,163.5288],[31.8654,-23.4823,167.1544],[31.856,-23.4793,164.1912],[31.8515,-23.4651,170.9325],[31.8168,-23.4537,173.0016],[31.8076,-23.452,180.9536],[31.7984,-23.4383,169.2346],[31.7901,-23.4297,175.6271],[31.7769,-23.4301,177.6031],[31.7544,-23.4258,197.1552],[31.7378,-23.4301,187.0579],[31.7259,-23.4282,213.7603],[31.7153,-23.4206,201.3512],[31.6815,-23.4046,192.7543],[31.666,-23.4014,206.8057],[31.6537,-23.3705,219.5562],[31.6333,-23.335,244.8447],[31.6278,-23.3185,216.2039],[31.6149,-23.3006,267.4939],[31.5996,-23.23,233.6621],[31.5718,-23.226,262.4503],[31.5616,-23.2216,259.3221]]]]}}