{"type":"Feature","properties":{"GID_3":"MOZ.4.8.2_1","GID_0":"MOZ","country":"Mozambique","GID_1":"MOZ.4_1","province":"Manica","NL_NAME_1":"NA","GID_2":"MOZ.4.8_1","county":"Sussundenga","NL_NAME_2":"NA","city":"Muhoa","VARNAME_3":"NA","NL_NAME_3":"NA","TYPE_3":"Localidad","ENGTYPE_3":"Locality","CC_3":"NA","HASC_3":"NA","name":"Muhoa.city"},
"geometry":{"type": "MultiPolygon","coordinates": [[[[33.2929,-19.2693,549.21],[33.2838,-19.2513,562.8383],[33.2755,-19.2488,556.5803],[33.242,-19.2482,554.7433],[33.2266,-19.2432,578.4619],[33.2201,-19.229,581.5369],[33.2071,-19.2283,580.4955],[33.2084,-19.2166,558.4703],[33.2061,-19.2113,567.2329],[33.1638,-19.1934,564.4353],[33.1303,-19.139,610.0],[33.1082,-19.1199,610.0],[33.0942,-19.1129,610.0],[33.0863,-19.1098,610.0],[33.0446,-19.1405,610.0],[33.0382,-19.1438,610.0],[33.0319,-19.1562,610.0],[33.0242,-19.1864,618.0099],[33.0149,-19.2066,639.5977],[33.0121,-19.2203,638.1022],[33.01,-19.2505,664.6696],[33.0129,-19.2663,673.9256],[33.0179,-19.278199999999998,720.025],[33.0196,-19.3071,682.311],[33.0175,-19.3303,745.967],[33.0224,-19.3766,750.3206],[33.0285,-19.3918,726.7276],[33.0274,-19.4168,734.7268],[33.0316,-19.4291,752.6788],[33.0607,-19.4779,763.336],[33.0593,-19.5155,715.428],[33.057,-19.5303,680.4411],[33.0714,-19.532,684.2278],[33.0853,-19.5299,674.5502],[33.0915,-19.5416,655.5052],[33.116,-19.5492,641.3057],[33.1209,-19.5657,594.1115],[33.1386,-19.5814,512.9693],[33.1515,-19.5864,454.0818],[33.1606,-19.5938,475.3729],[33.189,-19.6049,392.9844],[33.2076,-19.6044,440.0228],[33.2179,-19.5917,413.4091],[33.2195,-19.5865,453.4863],[33.2179,-19.5624,639.1481],[33.2192,-19.5511,728.8245],[33.215,-19.5382,742.1317],[33.2145,-19.5316,713.9931],[33.2195,-19.525,685.4969],[33.2225,-19.5031,595.8289],[33.2089,-19.4581,560.4921],[33.1946,-19.4276,579.7435],[33.2073,-19.3721,643.095],[33.2406,-19.3071,593.8767],[33.2566,-19.292,578.5598],[33.2795,-19.2739,558.8073],[33.2822,-19.2692,559.6584],[33.2929,-19.2693,549.21]]]]}}