{"type":"Feature","properties":{"GID_3":"MOZ.3.7.3_1","GID_0":"MOZ","country":"Mozambique","GID_1":"MOZ.3_1","province":"Inhambane","NL_NAME_1":"NA","GID_2":"MOZ.3.7_1","county":"Mabote","NL_NAME_2":"NA","city":"Zinave","VARNAME_3":"NA","NL_NAME_3":"NA","TYPE_3":"Localidad","ENGTYPE_3":"Locality","CC_3":"NA","HASC_3":"NA","name":"Zinave.city"},
"geometry":{"type": "MultiPolygon","coordinates": [[[[33.1644,-21.7033,140.0448],[33.1934,-21.7123,136.274],[33.2127,-21.7123,136.4051],[33.2321,-21.7213,136.2277],[33.2611,-21.7303,134.899],[33.3094,-21.7302,133.143],[33.3191,-21.7212,131.0309],[33.3577,-21.694,127.8346],[33.4545,-21.7389,133.956],[33.4642,-21.7479,131.7782],[33.5221,-21.7207,140.6277],[33.5705,-21.7205,140.1515],[33.5994,-21.7023,140.4935],[33.7734,-21.6926,164.9731],[33.7734,-21.7106,175.642],[33.7832,-21.7287,180.4321],[33.793,-21.7557,184.1439],[33.7835,-21.7738,180.9146],[33.6386,-21.8196,158.6756],[33.6483,-21.8377,167.2583],[33.6198,-21.9462,168.9669],[33.6393,-21.9823,178.9666],[33.7652,-21.9817,177.8854],[33.775,-21.9907,187.1234],[33.785,-22.0071,185.3215],[33.7945,-22.0154,190.1545],[33.7977,-22.0215,192.2165],[34.0005,-22.0222,169.6528],[34.0104,-22.0054,184.2726],[34.0125,-21.9757,173.7116],[34.0069,-21.959,184.0391],[33.9995,-21.9495,197.9754],[33.9911,-21.9444,199.2253],[33.9693,-21.9403,177.4374],[33.9544,-21.9343,151.4979],[33.9441,-21.9326,144.0469],[33.9192,-21.9204,151.0631],[33.9083,-21.9049,164.9463],[33.9193,-21.8966,169.0621],[33.9325,-21.8681,181.53],[33.9377,-21.8373,195.9077],[33.9364,-21.832,198.5494],[33.9324,-21.8268,201.6879],[33.9358,-21.8127,184.7133],[33.944,-21.793,201.9211],[33.954,-21.7755,198.4881],[33.9681,-21.7677,187.8262],[33.975,-21.7583,192.2643],[33.9883,-21.7508,186.9406],[33.9982,-21.7474,188.2271],[34.0066,-21.7539,198.9303],[34.0523,-21.7378,198.8042],[34.0666,-21.7303,198.0946],[34.0748,-21.7221,193.9912],[34.094,-21.7387,204.2769],[34.0977,-21.7765,185.6048],[34.0959,-21.7997,185.3191],[34.1569,-21.9146,161.4395],[34.1665,-21.9148,159.328],[34.1749,-21.9109,146.5581],[34.1829,-21.911,145.3495],[34.2115,-21.9298,164.6426],[34.1956,-21.8762,139.1651],[34.1849,-21.7477,128.3827],[34.2057,-21.6993,124.2762],[34.2034,-21.6737,121.5083],[34.2151,-21.6415,119.3861],[34.2064,-21.6284,111.8043],[34.219,-21.5737,108.9956],[34.2239,-21.5448,104.3071],[34.2263,-21.5186,91.7797],[34.2208,-21.4913,91.0872],[34.2118,-21.4658,82.3192],[34.2226,-21.4426,79.7007],[34.2225,-21.4131,83.8308],[34.2261,-21.4021,67.9577],[34.2254,-21.3945,69.4832],[34.2462,-21.3729,60.4617],[34.2146,-21.3782,97.6195],[34.2,-21.3674,118.4766],[34.1605,-21.3647,112.353],[34.1527,-21.3594,110.0984],[34.1365,-21.3399,59.0817],[34.1264,-21.351,75.623],[34.1143,-21.3704,79.5525],[34.0876,-21.399,110.4872],[34.0714,-21.4039,125.0342],[34.0657,-21.4019,129.3342],[34.0607,-21.4053,130.076],[34.037,-21.4065,126.9523],[34.0295,-21.3994,128.6751],[34.0211,-21.3649,85.8615],[34.0217,-21.3515,80.5438],[34.0199,-21.3376,70.991],[34.022,-21.3278,64.9817],[34.028,-21.3185,58.1488],[34.0388,-21.3068,48.1552],[34.0063,-21.3111,44.3097],[33.993,-21.3029,50.7913],[33.9545,-21.3122,47.9234],[33.9258,-21.3485,50.4013],[33.926,-21.3666,51.8275],[33.9069,-21.4028,53.9522],[33.8973,-21.4119,58.1722],[33.8491,-21.4121,66.2839],[33.82,-21.3852,57.5244],[33.7622,-21.4035,62.5461],[33.7237,-21.4218,62.388],[33.6753,-21.3949,64.0164],[33.656,-21.3859,64.0906],[33.6367,-21.386,70.2312],[33.6078,-21.3951,70.8382],[33.5788,-21.3862,74.279],[33.5691,-21.3772,77.7991],[33.5498,-21.3773,69.7901],[33.492,-21.3955,72.9141],[33.4728,-21.4227,76.565],[33.415,-21.459,77.7103],[33.3957,-21.468,79.7514],[33.3668,-21.4771,84.126],[33.3475,-21.4772,86.4764],[33.3282,-21.4863,85.3839],[33.3089,-21.4863,89.636],[33.2704,-21.5225,99.1148],[33.2704,-21.5315,95.3511],[33.2607,-21.5225,105.0765],[33.2511,-21.5316,104.2223],[33.2414,-21.5316,104.0411],[33.2318,-21.5406,108.2587],[33.2318,-21.5497,109.8016],[33.2415,-21.5587,114.7553],[33.2415,-21.5677,115.4997],[33.2318,-21.5768,121.3545],[33.2125,-21.5768,127.7932],[33.2029,-21.5858,129.8318],[33.2029,-21.6129,141.9066],[33.1932,-21.613,144.0056],[33.1836,-21.622,143.1228],[33.1644,-21.7033,140.0448]]]]}}