{"type": "Feature","bbox": [35.8374,-18.8626,36.8351,-18.0326],"geometry": {"type": "MultiPolygon","coordinates": [[[[36.3865,-18.7229,5.0756],[36.3871,-18.7204,2.8213],[36.3849,-18.7207,1.4712],[36.384,-18.7249,1.2771],[36.3851,-18.7254,1.2771],[36.3865,-18.7229,5.0756]]],
[[[36.3924,-18.7174,0.0],[36.3913,-18.7171,0.7642],[36.3913,-18.719,0.2927],[36.3929,-18.7196,0.0],[36.3932,-18.7185,0.0],[36.3924,-18.7174,0.0]]],
[[[36.3849,-18.6893,0.0],[36.3829,-18.689,0.0],[36.3815,-18.694,0.0],[36.3851,-18.6926,0.0],[36.3849,-18.6893,0.0]]],
[[[36.4618,-18.5587,0.0],[36.4679,-18.5576,1.9147],[36.4871,-18.5687,0.0],[36.491,-18.5599,4.418],[36.4857,-18.556,8.0736],[36.4896,-18.5565,5.2582],[36.4918,-18.5618,3.0324],[36.489,-18.5699,0.0],[36.496,-18.571,2.3233],[36.5004,-18.5571,3.6962],[36.5082,-18.5432,0.0],[36.5085,-18.5401,1.445],[36.5046,-18.5371,4.9235],[36.499,-18.5371,7.1664],[36.4951,-18.5351,8.3886],[36.4946,-18.5312,9.4008],[36.4974,-18.5263,0.0],[36.501,-18.5235,0.0],[36.5032,-18.5182,7.1185],[36.511,-18.5168,0.0],[36.5137,-18.5137,0.0],[36.5121,-18.5101,7.2877],[36.5068,-18.5082,5.951],[36.5082,-18.5043,0.5],[36.5107,-18.5037,2.1208],[36.5137,-18.5054,5.8782],[36.5187,-18.5126,3.239],[36.5168,-18.5168,6.5976],[36.5104,-18.5182,1.7263],[36.506,-18.5237,6.4023],[36.5085,-18.5293,0.0],[36.5113,-18.531,0.0],[36.514,-18.5293,0.0],[36.5249,-18.5293,0.0],[36.5379,-18.511,2.7735],[36.5357,-18.5018,0.0],[36.5376,-18.4935,0.0],[36.536,-18.4924,2.0255],[36.5363,-18.4887,0.0],[36.5321,-18.476,8.7102],[36.5396,-18.4896,0.0],[36.5412,-18.496,3.1404],[36.5435,-18.4982,1.3171],[36.5471,-18.4976,2.3328],[36.624,-18.4199,0.0],[36.621,-18.4112,3.5599],[36.616,-18.4054,2.5019],[36.6204,-18.4074,1.6073],[36.6237,-18.4146,0.0],[36.629,-18.4154,0.0],[36.6318,-18.414,0.0],[36.6554,-18.3924,2.0391],[36.6554,-18.3901,0.7341],[36.6521,-18.3865,2.084],[36.6521,-18.379,0.8605],[36.6496,-18.3796,5.6964],[36.6499,-18.3785,2.4539],[36.6529,-18.3785,0.8605],[36.654,-18.3865,0.0],[36.6563,-18.3843,1.2916],[36.6615,-18.3857,1.7508],[36.664,-18.3849,0.0],[36.6832,-18.3687,0.0],[36.6829,-18.3651,0.0],[36.6871,-18.3646,0.0],[36.6924,-18.361,0.0],[36.7265,-18.3243,1.375],[36.7613,-18.2901,0.0],[36.7613,-18.2887,0.0],[36.756,-18.2882,4.0345],[36.7526,-18.2851,1.6034],[36.7607,-18.2876,0.0],[36.7604,-18.2865,1.1554],[36.7751,-18.2765,0.0],[36.7993,-18.2496,0.511],[36.8096,-18.2407,0.0],[36.8096,-18.239,0.7221],[36.829,-18.2176,0.0],[36.8329,-18.2115,0.0],[36.8332,-18.2071,1.4455],[36.8199,-18.2062,0.0],[36.8154,-18.2096,2.929],[36.8124,-18.2099,3.272],[36.8074,-18.2185,2.681],[36.7965,-18.2313,4.1665],[36.7793,-18.2351,3.4391],[36.7718,-18.2401,2.5127],[36.7682,-18.2403,0.0],[36.7606,-18.2447,0.0],[36.7588,-18.2416,12.3446],[36.7529,-18.2435,12.2837],[36.7482,-18.2415,0.0],[36.7291,-18.2147,0.0],[36.7199,-18.199,8.2454],[36.7145,-18.171,0.0],[36.7068,-18.1607,3.1369],[36.6969,-18.1572,3.8326],[36.6805,-18.1563,0.0],[36.6692,-18.1599,9.8962],[36.664,-18.1759,2.2125],[36.6562,-18.1854,0.0],[36.6465,-18.1922,4.2704],[36.6412,-18.2134,0.0],[36.6375,-18.1717,1.991],[36.6293,-18.157,2.3843],[36.6381,-18.1233,3.2827],[36.6147,-18.0993,9.0224],[36.5799,-18.1084,2.6058],[36.5609,-18.0997,1.7242],[36.5371,-18.0976,1.6308],[36.5463,-18.074,1.7908],[36.5386,-18.0695,2.8367],[36.5302,-18.0497,2.9868],[36.5002,-18.0531,3.074],[36.4762,-18.0521,3.3743],[36.4553,-18.0353,4.4142],[36.4481,-18.0326,4.5559],[36.4432,-18.0382,6.4072],[36.4129,-18.0496,5.6339],[36.4086,-18.0644,4.0702],[36.3908,-18.0729,3.9539],[36.3766,-18.0712,3.8786],[36.3679,-18.0748,4.4401],[36.3536,-18.1028,5.1278],[36.3411,-18.1017,4.3703],[36.3275,-18.0959,4.7724],[36.3185,-18.099,5.0678],[36.3035,-18.0861,6.2216],[36.3022,-18.117,5.4084],[36.3111,-18.1233,4.573],[36.3181,-18.1393,4.7368],[36.3074,-18.1468,5.3016],[36.2823,-18.1431,5.8523],[36.2781,-18.1525,6.2188],[36.2385,-18.1922,5.4731],[36.234,-18.1922,6.1534],[36.2349,-18.1947,6.7436],[36.2034,-18.2262,7.5436],[36.1856,-18.222,8.4626],[36.1718,-18.222,7.3579],[36.1485,-18.2077,6.7881],[36.1387,-18.1996,6.4454],[36.1189,-18.1728,7.676],[36.1102,-18.1664,5.8038],[36.0807,-18.1621,9.383],[36.053,-18.1538,11.4902],[36.0401,-18.1549,10.5527],[36.023,-18.1506,10.8629],[36.012,-18.1365,11.5239],[35.9945,-18.1036,10.9392],[35.984,-18.109,12.3271],[35.9774,-18.11,12.0681],[35.9676,-18.1214,11.5288],[35.959,-18.1181,12.2112],[35.9579,-18.1144,14.3661],[35.9547,-18.111,13.511],[35.9436,-18.1093,12.641],[35.9327,-18.1053,13.3132],[35.9201,-18.1029,13.0948],[35.8899,-18.1064,13.2513],[35.8874,-18.1023,13.4902],[35.8726,-18.1032,13.4057],[35.8655,-18.1058,15.9153],[35.8374,-18.1225,11.0],[35.8414,-18.151,11.0],[35.8611,-18.174,12.5368],[35.8873,-18.2254,8.0],[35.8928,-18.2469,7.5],[35.903,-18.2616,10.4733],[35.909,-18.2658,6.5],[35.933,-18.2658,9.3079],[35.9494,-18.269,6.0],[35.9698,-18.2907,5.5],[35.9853,-18.3001,5.5],[35.9976,-18.3068,5.5],[36.0138,-18.3054,7.6863],[36.0259,-18.3248,7.1641],[36.0259,-18.3336,7.3763],[36.0326,-18.3394,5.0],[36.0585,-18.3423,6.5395],[36.0743,-18.355,5.6266],[36.0813,-18.3684,4.8013],[36.1187,-18.4643,3.4339],[36.1279,-18.4834,2.0],[36.1406,-18.5288,4.3327],[36.1425,-18.5458,5.4945],[36.1393,-18.566,4.5665],[36.1392,-18.5814,6.0705],[36.1458,-18.5928,6.7603],[36.1331,-18.5915,3.5373],[36.1272,-18.6086,4.4732],[36.1036,-18.6231,2.054],[36.1117,-18.6521,4.7125],[36.1074,-18.6656,3.3634],[36.1073,-18.6795,2.8327],[36.1478,-18.7139,1.9317],[36.1491,-18.7202,4.2356],[36.2551,-18.8123,2.8303],[36.2543,-18.8099,4.7774],[36.2632,-18.8046,1.1575],[36.2738,-18.8163,0.0],[36.2851,-18.8224,0.0],[36.291,-18.8285,0.0],[36.2982,-18.8326,1.4135],[36.301,-18.8371,0.0],[36.3007,-18.844,0.0],[36.3063,-18.8557,1.0755],[36.3093,-18.8585,0.0],[36.3079,-18.8626,0.0],[36.3151,-18.8604,0.0],[36.3251,-18.8521,0.0],[36.3726,-18.8065,0.0],[36.3749,-18.8015,0.0],[36.3735,-18.7965,0.0],[36.3718,-18.7949,0.0],[36.3688,-18.7957,0.0],[36.3654,-18.7924,5.1964],[36.3662,-18.7882,0.0],[36.3699,-18.7846,0.0],[36.3771,-18.7821,0.0],[36.381,-18.7835,0.0],[36.3835,-18.7879,0.0],[36.3865,-18.7868,0.0],[36.3876,-18.7879,0.0],[36.3893,-18.784,0.0],[36.3901,-18.779,2.0583],[36.3857,-18.7571,0.0],[36.389,-18.7393,0.0],[36.3935,-18.729,0.0],[36.3937,-18.7218,0.0],[36.3907,-18.7226,0.0],[36.3896,-18.7301,0.0],[36.3854,-18.7274,1.3893],[36.3821,-18.7282,7.8387],[36.3757,-18.7365,0.0],[36.374,-18.7435,8.2615],[36.3726,-18.7343,0.0],[36.3704,-18.7343,0.0],[36.3654,-18.7296,9.3644],[36.3715,-18.7185,2.9982],[36.3735,-18.7065,2.3523],[36.3801,-18.6985,0.0],[36.3807,-18.6826,3.8084],[36.3849,-18.6679,2.0971],[36.3863,-18.6668,3.5059],[36.3818,-18.6815,3.8084],[36.3835,-18.686,7.4585],[36.3863,-18.6849,7.1684],[36.3896,-18.6929,0.0],[36.414,-18.6854,0.0],[36.4201,-18.6796,0.0],[36.4182,-18.6671,1.5772],[36.4276,-18.6451,1.2875],[36.4254,-18.6426,0.6577],[36.4226,-18.6451,0.0],[36.4246,-18.6468,2.9762],[36.4235,-18.6532,0.2929],[36.4174,-18.6537,2.0475],[36.4179,-18.6524,0.6312],[36.4235,-18.6518,0.734],[36.4221,-18.6476,2.4292],[36.4165,-18.6507,2.1641],[36.414,-18.6482,2.9089],[36.4115,-18.6499,4.2196],[36.4118,-18.6479,5.1344],[36.4188,-18.646,0.5428],[36.4207,-18.6424,1.7189],[36.4229,-18.6429,2.9996],[36.4265,-18.6387,2.5882],[36.434,-18.6368,0.0],[36.4351,-18.6357,0.0],[36.4343,-18.6315,0.4243],[36.4304,-18.6332,1.8683],[36.4293,-18.6324,3.8232],[36.4324,-18.631,2.4832],[36.4346,-18.6251,2.4411],[36.4449,-18.624,0.0],[36.4488,-18.6212,2.5824],[36.4512,-18.6154,3.078],[36.4576,-18.6101,2.7576],[36.464,-18.6115,2.9575],[36.4762,-18.6068,2.5526],[36.4793,-18.6035,0.0],[36.4813,-18.604,0.0],[36.4837,-18.6021,0.0],[36.484,-18.5985,0.5132],[36.4785,-18.5982,6.355],[36.4754,-18.596,4.8422],[36.4732,-18.591,2.3411],[36.4693,-18.5912,3.2007],[36.4707,-18.5807,0.0],[36.4688,-18.5779,0.0],[36.4596,-18.5729,0.0],[36.4504,-18.5757,6.8655],[36.4521,-18.5732,7.2657],[36.4499,-18.5721,0.0],[36.4304,-18.5696,3.8679],[36.4301,-18.5626,2.3599],[36.4524,-18.5621,0.0],[36.4557,-18.559,3.3429],[36.4618,-18.5587,0.0]]],
[[[36.5171,-18.511,1.2091],[36.5157,-18.5107,1.2091],[36.5151,-18.5149,0.0],[36.5176,-18.5138,2.0391],[36.5171,-18.511,1.2091]]],
[[[36.7879,-18.2307,1.0089],[36.7821,-18.2301,2.1239],[36.7801,-18.2335,0.628],[36.786,-18.2335,1.6754],[36.7893,-18.2318,2.7023],[36.7879,-18.2307,1.0089]]],
[[[36.8001,-18.2215,0.0],[36.7999,-18.2199,0.0],[36.7957,-18.2201,1.5059],[36.7854,-18.2237,1.4252],[36.7818,-18.2293,0.0],[36.7924,-18.2301,1.455],[36.7993,-18.2249,0.0],[36.8001,-18.2215,0.0]]],
[[[36.8351,-18.2035,0.0],[36.8343,-18.2024,0.0],[36.8329,-18.2035,0.5686],[36.8321,-18.2062,0.3302],[36.8349,-18.2065,0.0],[36.8351,-18.2035,0.0]]]]}
,"properties": {"GID_2": "MOZ.11.2_1","GID_0": "MOZ","country": "Mozambique","GID_1": "MOZ.11_1","province": "Zambezia","NL_NAME_1": "NA","county": "Chinde","VARNAME_2": "NA","NL_NAME_2": "NA","TYPE_2": "Distrito","ENGTYPE_2": "District","CC_2": "NA","HASC_2": "MZ.ZA.CH","name": "Chinde.county","area_km2": 4130.344,"hist_schema_id": "Elevation0-9000","hist_area_km2": {"0": 3980.885,"25": 149.459}}}