{"type":"Feature","properties":{"GID_3":"MOZ.9.7.1_1","GID_0":"MOZ","country":"Mozambique","GID_1":"MOZ.9_1","province":"Sofala","NL_NAME_1":"NA","GID_2":"MOZ.9.7_1","county":"Gorongosa","NL_NAME_2":"NA","city":"Gororngosa-Sede","VARNAME_3":"NA","NL_NAME_3":"NA","TYPE_3":"Localidad","ENGTYPE_3":"Locality","CC_3":"NA","HASC_3":"NA","name":"Gororngosa-Sede.city"},
"geometry":{"type": "MultiPolygon","coordinates": [[[[34.0543,-18.9467,150.2984],[34.0731,-18.9574,96.0235],[34.0793,-18.9649,69.1327],[34.0891,-18.9921,90.4559],[34.0962,-18.9986,58.6985],[34.1526,-19.0138,61.0027],[34.2085,-19.0482,47.9313],[34.2514,-19.0722,42.266],[34.2648,-19.0634,40.2601],[34.2825,-19.0232,38.9252],[34.2961,-19.0135,37.191],[34.3031,-19.0055,39.3072],[34.3233,-19.0029,36.1101],[34.3313,-18.9985,36.214],[34.3368,-18.9911,44.8916],[34.3568,-18.9946,32.2436],[34.361,-18.9978,35.3001],[34.3667,-18.9974,42.2665],[34.3711,-18.9952,41.6992],[34.3745,-18.998,36.7898],[34.3798,-19.0142,33.9444],[34.3935,-19.0371,29.1806],[34.4078,-19.0562,29.277],[34.4738,-19.0822,26.663],[34.4771,-19.0946,23.7839],[34.4845,-19.0935,24.3683],[34.4929,-19.101,22.2166],[34.5002,-19.114,20.7047],[34.5276,-19.1362,20.5134],[34.5308,-19.1459,17.3594],[34.5282,-19.1596,16.7706],[34.53,-19.1624,16.0899],[34.534,-19.1637,14.5101],[34.5338,-19.1533,16.5561],[34.5549,-19.1289,19.8126],[34.557,-19.1133,16.9797],[34.5481,-19.0987,18.7077],[34.5541,-19.0933,21.3764],[34.5473,-19.0841,21.6465],[34.5561,-19.0761,18.83],[34.5498,-19.0615,21.2192],[34.554,-19.0498,22.5285],[34.5517,-19.0368,19.8729],[34.5595,-19.0279,19.7829],[34.5552,-19.0167,22.9447],[34.5602,-19.0093,20.3808],[34.5665,-18.9931,22.0897],[34.5678,-18.9851,19.4092],[34.5662,-18.9818,22.5609],[34.5567,-18.9754,22.23],[34.5416,-18.9468,23.1982],[34.5464,-18.938,23.9553],[34.545,-18.9124,18.7844],[34.5152,-18.903,18.0],[34.5086,-18.8985,18.0],[34.5011,-18.8868,18.0],[34.4949,-18.8812,18.0],[34.4767,-18.8766,18.0],[34.47,-18.8707,18.0],[34.4694,-18.8645,18.0],[34.4785,-18.8405,18.5749],[34.4908,-18.8368,20.0027],[34.5026,-18.8242,20.6601],[34.5155,-18.8197,22.4574],[34.5249,-18.8197,21.3907],[34.537,-18.8094,21.7174],[34.5434,-18.7873,22.9142],[34.5796,-18.7679,24.4797],[34.5937,-18.7588,24.6635],[34.6015,-18.7504,25.4056],[34.6018,-18.7297,27.0458],[34.6055,-18.7198,28.3151],[34.603,-18.708,28.2597],[34.61,-18.6988,28.7522],[34.6208,-18.6906,29.9003],[34.6212,-18.6804,30.9572],[34.6185,-18.6691,31.1992],[34.6248,-18.6645,31.59],[34.6348,-18.6535,32.6887],[34.6349,-18.6475,33.0223],[34.6324,-18.6385,32.1867],[34.6339,-18.6316,33.0977],[34.6409,-18.6266,33.4318],[34.6431,-18.6147,35.3634],[34.6391,-18.6012,38.0763],[34.6499,-18.5351,38.9734],[34.6462,-18.5121,42.8914],[34.6471,-18.5002,46.6338],[34.6511,-18.4911,45.996],[34.6367,-18.4937,46.1702],[34.617,-18.5029,46.671],[34.5785,-18.5003,51.5543],[34.5529,-18.5127,53.5854],[34.5079,-18.5242,62.9537],[34.4411,-18.5713,61.9536],[34.4243,-18.577,66.1499],[34.3699,-18.5837,73.5194],[34.349,-18.6016,71.5585],[34.316,-18.6003,95.9314],[34.2915,-18.5854,129.9391],[34.2759,-18.5983,197.6719],[34.266,-18.602,236.601],[34.2562,-18.602,272.6108],[34.2429,-18.6176,291.5477],[34.2152,-18.6279,330.1896],[34.2042,-18.6292,289.1405],[34.1976,-18.6179,299.3036],[34.1876,-18.6057,324.7607],[34.1729,-18.6027,334.2532],[34.1659,-18.5891,362.0378],[34.156,-18.5777,323.225],[34.1528,-18.5634,329.9055],[34.1518,-18.5494,322.8105],[34.1731,-18.5221,297.9561],[34.1725,-18.5163,292.3823],[34.1544,-18.4949,1256.4513],[34.1529,-18.4824,1096.2571],[34.0726,-18.3833,1512.9481],[34.0721,-18.4086,1402.9551],[34.0763,-18.4363,1381.8651],[34.0829,-18.4599,957.7728],[34.0808,-18.4783,805.358],[34.0621,-18.5125,573.3321],[34.0541,-18.5366,490.0881],[34.0616,-18.5444,477.8896],[34.069,-18.5783,420.3976],[34.069,-18.5944,413.8141],[34.0646,-18.6178,393.4089],[34.0653,-18.6282,377.8906],[34.0591,-18.6435,358.98],[34.0694,-18.656,363.9104],[34.0689,-18.6647,356.1418],[34.0592,-18.6715,285.0422],[34.046,-18.7063,263.8049],[34.0427,-18.7196,227.6846],[34.0612,-18.7515,249.1812],[34.0605,-18.7632,224.3959],[34.0665,-18.7873,191.3682],[34.0589,-18.7965,185.4426],[34.0509,-18.8126,178.577],[34.0549,-18.8232,208.9256],[34.0642,-18.8326,162.5741],[34.0658,-18.8433,173.6359],[34.0595,-18.8587,152.9683],[34.0606,-18.8694,179.509],[34.0533,-18.8782,150.2485],[34.0443,-18.8942,221.2405],[34.0431,-18.9037,119.5141],[34.0384,-18.9121,120.5174],[34.0391,-18.9211,213.2628],[34.0543,-18.9467,150.2984]]]]}}