{"type":"Feature","properties":{"GID_3":"MOZ.8.10.1_1","GID_0":"MOZ","country":"Mozambique","GID_1":"MOZ.8_1","province":"Nassa","NL_NAME_1":"NA","GID_2":"MOZ.8.10_1","county":"Mecula","NL_NAME_2":"NA","city":"Matondovela","VARNAME_3":"NA","NL_NAME_3":"NA","TYPE_3":"Localidad","ENGTYPE_3":"Locality","CC_3":"NA","HASC_3":"NA","name":"Matondovela.city"},
"geometry":{"type": "MultiPolygon","coordinates": [[[[37.2772,-12.4848,331.9634],[37.2727,-12.4748,341.0285],[37.2758,-12.4636,341.9617],[37.2741,-12.4594,345.6663],[37.2747,-12.4524,346.4434],[37.2797,-12.4389,359.6373],[37.2666,-12.431,352.938],[37.2644,-12.4269,357.0016],[37.2612,-12.41,375.191],[37.267,-12.3916,373.6362],[37.2666,-12.371,418.8504],[37.2916,-12.3584,433.2126],[37.2951,-12.3526,443.9762],[37.2999,-12.3495,463.3033],[37.3062,-12.3472,455.6221],[37.3108,-12.3479,454.9601],[37.326,-12.3376,474.3088],[37.3353,-12.3349,532.6761],[37.3378,-12.3302,486.5295],[37.3707,-12.3074,462.826],[37.4419,-12.2516,431.5022],[37.4775,-12.2271,415.8307],[37.4854,-12.2313,399.6979],[37.5216,-12.1864,452.9964],[37.5268,-12.159,474.7146],[37.5194,-12.1556,471.7937],[37.5139,-12.1505,483.7302],[37.5335,-12.1367,449.9013],[37.544,-12.1182,442.6226],[37.5525,-12.1107,434.9396],[37.5703,-12.0745,417.1318],[37.5762,-12.0551,415.5717],[37.5781,-12.0414,418.9203],[37.5757,-12.0312,412.1641],[37.5763,-11.9999,397.777],[37.5809,-11.9806,398.8972],[37.5862,-11.97,389.2588],[37.5909,-11.9493,386.1641],[37.582,-11.9312,377.6681],[37.5808,-11.9113,377.528],[37.5844,-11.9016,372.6282],[37.5975,-11.8876,370.017],[37.5978,-11.8788,368.0418],[37.596,-11.8681,365.7149],[37.5909,-11.8548,366.8106],[37.5903,-11.841,367.2852],[37.594,-11.8348,367.278],[37.6023,-11.8281,359.3733],[37.6078,-11.8084,358.9047],[37.602,-11.7832,348.664],[37.5909,-11.7711,351.6013],[37.5807,-11.757,344.7981],[37.5839,-11.7444,346.4743],[37.5897,-11.739,342.0247],[37.5866,-11.7236,346.7196],[37.5732,-11.7148,341.046],[37.572,-11.7009,338.6042],[37.5762,-11.6866,333.7769],[37.5851,-11.6718,331.3644],[37.5798,-11.6504,327.9079],[37.5813,-11.6497,327.9079],[37.5777,-11.6221,327.091],[37.5499,-11.6177,327.9579],[37.5345,-11.6107,322.9001],[37.5151,-11.6138,326.6117],[37.5006,-11.6118,329.0],[37.4964,-11.6134,334.3146],[37.4853,-11.6236,337.8469],[37.4771,-11.6248,333.4195],[37.4498,-11.6343,339.6076],[37.4389,-11.6412,334.0],[37.4307,-11.6489,340.6763],[37.423,-11.6657,336.7054],[37.4194,-11.68,336.8999],[37.4144,-11.6825,336.0],[37.3842,-11.6882,343.8518],[37.3773,-11.6863,337.9889],[37.3656,-11.6791,345.7572],[37.3586,-11.6769,346.3073],[37.338,-11.6752,344.25],[37.3317,-11.6723,354.2816],[37.3242,-11.6645,355.7155],[37.3182,-11.6632,348.5],[37.3169,-11.6582,350.3957],[37.2993,-11.6397,351.5],[37.2816,-11.6336,359.1142],[37.2724,-11.6326,360.2836],[37.2623,-11.6341,365.7691],[37.2292,-11.6511,357.2721],[37.2213,-11.6517,365.7647],[37.1988,-11.6469,369.5903],[37.1568,-11.6322,362.0],[37.1486,-11.6312,362.5],[37.1368,-11.633,363.0],[37.1176,-11.6285,364.0],[37.1131,-11.6257,364.6798],[37.0913,-11.6262,365.5],[37.0789,-11.6233,366.0],[37.0698,-11.612,366.0],[37.0536,-11.5995,368.5931],[37.0411,-11.5803,404.7229],[37.0332,-11.573,410.6495],[37.0251,-11.5692,416.1081],[37.0168,-11.5719,401.9154],[37.0115,-11.5805,374.6226],[37.0093,-11.5991,412.6667],[37.007,-11.6026,421.3073],[36.9848,-11.6004,407.7271],[36.9615,-11.6047,388.2299],[36.9448,-11.6026,382.3627],[36.9238,-11.6039,374.2817],[36.9242,-11.6159,378.7397],[36.9177,-11.6256,386.6462],[36.9037,-11.6327,385.0139],[36.8994,-11.6383,389.5804],[36.8835,-11.68,402.161],[36.88,-11.6957,409.8327],[36.8524,-11.7298,417.8762],[36.8434,-11.7388,412.1011],[36.8412,-11.7498,416.9633],[36.8418,-11.7639,417.7311],[36.8387,-11.7738,424.9955],[36.8444,-11.7946,427.683],[36.8292,-11.8376,434.4108],[36.8212,-11.8559,438.7108],[36.8142,-11.881,451.9885],[36.7971,-11.8925,458.9992],[36.7924,-11.9021,466.2702],[36.7885,-11.9269,457.4432],[36.7681,-11.9541,484.9071],[36.7577,-11.9722,478.4102],[36.7492,-11.9777,485.2642],[36.7423,-11.9855,476.2856],[36.7396,-11.9912,479.4591],[36.7269,-11.9997,489.0054],[36.722,-12.0126,491.7733],[36.7221,-12.0257,490.8627],[36.7312,-12.0474,508.5187],[36.728,-12.0587,525.8587],[36.6951,-12.0834,528.1516],[36.6917,-12.0961,544.2798],[36.6842,-12.1101,545.5066],[36.667,-12.1329,554.7241],[36.6565,-12.1507,571.3022],[36.6516,-12.1643,576.8805],[36.6285,-12.1852,609.7468],[36.6147,-12.2025,629.0954],[36.6048,-12.2113,642.1803],[36.5945,-12.2168,650.9635],[36.5895,-12.2344,684.7911],[36.5981,-12.2553,782.882],[36.6236,-12.275,638.5883],[36.6346,-12.2816,663.0456],[36.6512,-12.3013,688.8409],[36.6781,-12.329,611.7894],[36.7638,-12.4098,633.8989],[36.8263,-12.4708,630.0685],[36.8476,-12.4945,534.3959],[36.9,-12.5829,476.0198],[36.9275,-12.6412,425.3185],[36.9342,-12.6521,418.1237],[36.9468,-12.6667,408.894],[36.9475,-12.671,404.9426],[36.9673,-12.6559,397.68],[36.9738,-12.6552,406.0865],[36.9894,-12.6606,397.405],[37.0008,-12.6584,394.5438],[37.031,-12.662,395.7947],[37.0484,-12.6463,392.1078],[37.0584,-12.6458,400.6434],[37.0703,-12.6426,396.8731],[37.0905,-12.6264,391.2575],[37.1011,-12.6288,379.5473],[37.1195,-12.6473,388.0689],[37.1297,-12.6517,380.6872],[37.1404,-12.6543,371.7572],[37.153,-12.653,378.4985],[37.1612,-12.648,373.3932],[37.1662,-12.6469,383.001],[37.2081,-12.6033,343.839],[37.2144,-12.5872,338.8788],[37.2122,-12.544,325.9997],[37.2236,-12.5246,321.881],[37.242,-12.5126,355.8191],[37.2542,-12.4947,317.375],[37.2772,-12.4848,331.9634]]]]}}