{"type": "Feature","bbox": [37.0675,-17.6626,37.581,-17.0263],"geometry": {"type": "MultiPolygon","coordinates": [[[[37.3649,-17.6626,2.9327],[37.3649,-17.6624,2.9327],[37.3646,-17.6626,2.9327],[37.3649,-17.6626,2.9327]]],
[[[37.3654,-17.6617,2.9327],[37.3652,-17.662,2.9327],[37.3651,-17.6621,2.9327],[37.3654,-17.6621,2.9327],[37.3654,-17.6617,2.9327]]],
[[[37.3659,-17.6612,4.4557],[37.3662,-17.6612,4.4557],[37.3662,-17.6609,4.4557],[37.3659,-17.6612,4.4557]]],
[[[37.3229,-17.2177,91.519],[37.3152,-17.2012,120.2181],[37.3026,-17.1858,127.0059],[37.2881,-17.178,135.4667],[37.2791,-17.1875,133.6784],[37.2594,-17.1894,116.8605],[37.265,-17.1664,138.2771],[37.2457,-17.146,106.8391],[37.2382,-17.1303,111.2207],[37.2402,-17.1088,100.1504],[37.2513,-17.0982,91.7529],[37.2562,-17.0912,91.119],[37.2718,-17.0581,69.5546],[37.2774,-17.0355,71.1519],[37.2665,-17.0333,66.3878],[37.2563,-17.0263,68.1813],[37.2431,-17.0263,69.4667],[37.2262,-17.0492,83.4851],[37.2079,-17.046,98.155],[37.2007,-17.048,96.9362],[37.1737,-17.0611,118.4541],[37.1622,-17.076,107.2759],[37.156,-17.0807,106.8539],[37.1538,-17.09,94.7856],[37.1429,-17.111,83.9419],[37.1253,-17.1273,95.4619],[37.1129,-17.1495,90.5701],[37.0966,-17.1535,100.5305],[37.0841,-17.1595,92.3374],[37.081,-17.1774,65.2828],[37.0675,-17.1945,42.7951],[37.0681,-17.2161,32.2823],[37.0732,-17.2362,25.686],[37.0827,-17.2627,25.3338],[37.1218,-17.3245,22.7179],[37.129,-17.3289,20.9569],[37.1778,-17.3491,20.3602],[37.2242,-17.3973,17.5757],[37.238,-17.4304,13.2695],[37.2556,-17.4435,12.9209],[37.2769,-17.4513,13.384],[37.3044,-17.491,10.8846],[37.3059,-17.5062,5.5],[37.2988,-17.5114,9.919],[37.307,-17.525,7.6786],[37.3358,-17.5376,9.2959],[37.3334,-17.5654,7.396],[37.3377,-17.5689,4.1915],[37.3439,-17.5634,3.8316],[37.3726,-17.5989,4.2242],[37.3583,-17.5977,3.5242],[37.3626,-17.6335,5.6072],[37.3658,-17.6463,5.3421],[37.3635,-17.6525,12.0319],[37.3677,-17.6591,6.5315],[37.3665,-17.661,4.4557],[37.4196,-17.6301,0.0],[37.4254,-17.6238,0.0],[37.4329,-17.6204,0.0],[37.4382,-17.6207,0.0],[37.4679,-17.6032,6.4561],[37.5285,-17.5738,4.7425],[37.5326,-17.5729,1.4414],[37.561,-17.5582,1.8733],[37.5615,-17.5565,3.8485],[37.5715,-17.5526,2.9267],[37.5801,-17.5446,0.7032],[37.581,-17.5364,0.0],[37.5666,-17.5308,0.0],[37.552,-17.531,0.0],[37.5364,-17.5452,6.9996],[37.5257,-17.5472,6.3385],[37.515,-17.5431,11.0093],[37.5156,-17.5492,10.3089],[37.4942,-17.5469,4.8382],[37.4866,-17.5405,5.8718],[37.4838,-17.5353,4.6863],[37.4869,-17.5233,4.0805],[37.4773,-17.5145,3.3499],[37.4209,-17.5145,11.3043],[37.4108,-17.4963,3.5843],[37.3932,-17.4935,5.7126],[37.3776,-17.4845,7.689],[37.3932,-17.4756,11.8744],[37.3995,-17.4696,9.5328],[37.3875,-17.4492,11.9266],[37.3869,-17.4435,19.5933],[37.3846,-17.4405,12.2803],[37.3675,-17.4292,2.9917],[37.3558,-17.4189,24.0969],[37.3527,-17.407,30.0112],[37.3401,-17.3951,37.6335],[37.337,-17.3802,46.2883],[37.3245,-17.3682,58.5196],[37.3185,-17.3546,39.1579],[37.318,-17.3389,25.2206],[37.3207,-17.3327,35.9855],[37.33,-17.3285,26.2611],[37.3278,-17.3212,36.6849],[37.3277,-17.3026,56.6853],[37.315,-17.2902,71.6693],[37.3122,-17.2793,73.9448],[37.3218,-17.2788,64.3754],[37.3277,-17.2608,65.5799],[37.3277,-17.246,57.7923],[37.3229,-17.2177,91.519]]]]}
,"properties": {"GID_3": "MOZ.11.8.4_1","GID_0": "MOZ","country": "Mozambique","GID_1": "MOZ.11_1","province": "Zambezia","NL_NAME_1": "NA","GID_2": "MOZ.11.8_1","county": "MaganjadaCosta","NL_NAME_2": "NA","city": "Nante(BaixoLicungo)","VARNAME_3": "NA","NL_NAME_3": "NA","TYPE_3": "Localidad","ENGTYPE_3": "Locality","CC_3": "NA","HASC_3": "NA","name": "Nante(Baixo_Licungo).city","area_km2": 1099.9728,"hist_schema_id": "Elevation0-9000","hist_area_km2": {"0": 310.8515,"25": 167.6999,"50": 133.2002,"75": 168.6954,"100": 176.6096,"125": 121.5858,"150": 21.3302}}}