{"type":"Feature","properties":{"GID_2":"MOZ.11.14_1","GID_0":"MOZ","country":"Mozambique","GID_1":"MOZ.11_1","province":"Zambezia","NL_NAME_1":"NA","county":"Namarroi","VARNAME_2":"Namaroi","NL_NAME_2":"NA","TYPE_2":"Distrito","ENGTYPE_2":"District","CC_2":"NA","HASC_2":"MZ.ZA.NR","name":"Namarroi.county"},
"geometry":{"type": "MultiPolygon","coordinates": [[[[36.9283,-15.786,522.5084],[36.9265,-15.7851,528.752],[36.9333,-15.7331,519.5543],[36.9432,-15.7102,551.0521],[36.9417,-15.6777,548.3764],[36.9274,-15.6444,608.0031],[36.9466,-15.6264,585.7293],[36.9412,-15.6242,589.4543],[36.938,-15.6102,589.6661],[36.9319,-15.6083,599.7633],[36.9275,-15.6046,595.1085],[36.9188,-15.604,602.2903],[36.9102,-15.5954,605.1652],[36.9109,-15.5859,607.9921],[36.915,-15.5823,604.299],[36.8955,-15.5836,646.3689],[36.8587,-15.5927,674.1086],[36.8061,-15.587,1224.4249],[36.7929,-15.5308,798.0281],[36.7451,-15.4894,1118.0872],[36.7098,-15.4813,691.838],[36.6963,-15.5001,687.5357],[36.6748,-15.5212,664.6512],[36.6748,-15.5273,650.9589],[36.6685,-15.5329,661.6075],[36.6679,-15.5413,643.2002],[36.6714,-15.5456,637.7092],[36.6742,-15.5653,624.4309],[36.6716,-15.5664,637.3104],[36.6679,-15.5864,623.8771],[36.6659,-15.5878,623.8771],[36.6578,-15.5826,642.6787],[36.6162,-15.5713,662.0329],[36.6042,-15.5504,679.0537],[36.6013,-15.5394,690.2354],[36.596,-15.5344,701.0313],[36.5671,-15.5372,738.5158],[36.5629,-15.5339,755.5651],[36.5622,-15.5221,967.6925],[36.5553,-15.5171,796.1351],[36.5397,-15.51,856.4728],[36.5349,-15.5244,927.3801],[36.5444,-15.5506,792.7192],[36.5486,-15.5687,751.0729],[36.5598,-15.5929,695.8688],[36.5584,-15.6,688.082],[36.5626,-15.6074,689.3947],[36.5823,-15.6158,672.3945],[36.5933,-15.6232,650.2836],[36.5984,-15.6245,664.3932],[36.5969,-15.6313,643.9172],[36.5908,-15.6339,651.8009],[36.5853,-15.6386,659.4193],[36.5784,-15.6409,675.6116],[36.542,-15.6966,642.9626],[36.5145,-15.7268,691.9684],[36.5114,-15.7357,670.5656],[36.5114,-15.7655,655.4115],[36.5168,-15.7841,643.752],[36.5144,-15.809,632.7678],[36.5147,-15.8145,638.0702],[36.5189,-15.8275,628.2657],[36.4877,-15.8289,640.928],[36.4847,-15.8334,650.0963],[36.4854,-15.8525,623.9858],[36.4913,-15.8589,629.1475],[36.5013,-15.8808,619.446],[36.5072,-15.881,626.7693],[36.5179,-15.8853,610.8479],[36.5177,-15.894,607.0963],[36.5217,-15.8967,616.4364],[36.5368,-15.8985,602.7719],[36.5396,-15.901,608.4709],[36.5403,-15.9145,590.5912],[36.5533,-15.9513,563.6292],[36.5675,-15.9789,552.7552],[36.5719,-15.9941,539.6733],[36.5855,-15.9897,563.1247],[36.5894,-15.993,540.8702],[36.5881,-16.0017,536.3586],[36.5926,-16.0039,542.9922],[36.598,-16.0033,540.3385],[36.6064,-16.0082,531.1902],[36.6169,-16.0049,538.7994],[36.6218,-16.0073,528.5263],[36.6282,-16.0139,530.4781],[36.6538,-16.0186,524.8206],[36.6638,-16.0188,525.5483],[36.6744,-16.0098,516.7192],[36.6869,-16.0077,512.5682],[36.6984,-15.9998,517.6278],[36.7017,-15.999,509.8584],[36.7093,-16.0051,530.2411],[36.7183,-15.9979,534.7222],[36.7293,-15.9971,515.6158],[36.7379,-16.004,501.1168],[36.7396,-16.0073,495.1702],[36.738,-16.0191,474.9586],[36.7457,-16.0205,474.4071],[36.7703,-16.0187,472.5346],[36.7735,-16.0222,468.6076],[36.7735,-16.0354,466.8507],[36.7804,-16.064,446.8295],[36.7898,-16.0634,458.1229],[36.7967,-16.0651,438.6992],[36.801,-16.0811,419.7469],[36.8075,-16.0826,410.1077],[36.8083,-16.0947,395.2135],[36.82,-16.1259,389.7827],[36.8391,-16.1297,388.1392],[36.8523,-16.1255,379.9589],[36.8622,-16.1291,383.7827],[36.8647,-16.1409,370.8629],[36.871,-16.144,363.7849],[36.8822,-16.1417,355.6787],[36.8972,-16.1337,365.2926],[36.9086,-16.1315,350.9636],[36.918,-16.1332,349.636],[36.9274,-16.1401,346.7958],[36.9333,-16.1358,363.084],[36.956,-16.1363,342.3452],[36.9597,-16.1416,353.5536],[36.9587,-16.1543,342.4408],[36.9674,-16.1602,334.8639],[36.9824,-16.1575,340.0528],[37.0025,-16.1669,327.6628],[37.0067,-16.1714,339.5872],[37.0118,-16.1829,331.3001],[37.0157,-16.188,328.8818],[37.0152,-16.1956,336.911],[37.019,-16.1997,332.8558],[37.0273,-16.1982,322.929],[37.0345,-16.1995,332.993],[37.0409,-16.2187,322.4739],[37.045,-16.22,326.9077],[37.065,-16.2157,317.3911],[37.0722,-16.2199,304.9583],[37.0732,-16.229,292.3421],[37.0788,-16.2451,282.0676],[37.0788,-16.2541,278.2192],[37.1088,-16.2112,306.3559],[37.1143,-16.2085,305.2243],[37.1193,-16.203,306.3683],[37.1283,-16.189,319.0742],[37.1262,-16.1768,329.3003],[37.1135,-16.1562,334.7557],[37.1045,-16.1337,344.9115],[37.1009,-16.1199,364.3613],[37.1082,-16.0956,379.9617],[37.1125,-16.0553,387.3472],[37.1097,-16.0346,406.1606],[37.0979,-16.0226,426.168],[37.0974,-16.012,440.241],[37.1037,-15.9992,400.3899],[37.1042,-15.9805,418.7669],[37.1097,-15.9671,415.5295],[37.0814,-15.9184,509.7818],[37.0534,-15.8937,465.9612],[37.0362,-15.8407,504.4086],[36.9283,-15.786,522.5084]]]]}}