{"type":"Feature","properties":{"GID_3":"MOZ.9.5.2_1","GID_0":"MOZ","country":"Mozambique","GID_1":"MOZ.9_1","province":"Sofala","NL_NAME_1":"NA","GID_2":"MOZ.9.5_1","county":"Chibabava","NL_NAME_2":"NA","city":"Gonda(Gooda)","VARNAME_3":"NA","NL_NAME_3":"NA","TYPE_3":"Localidad","ENGTYPE_3":"Locality","CC_3":"NA","HASC_3":"NA","name":"Gonda(Gooda).city"},
"geometry":{"type": "MultiPolygon","coordinates": [[[[33.4667,-20.1845,160.3372],[33.4807,-20.1638,174.6694],[33.534,-20.1439,190.8455],[33.5409,-20.1614,183.9068],[33.5604,-20.1808,197.391],[33.6055,-20.152,203.3102],[33.6127,-20.1628,189.9999],[33.6253,-20.1667,173.7645],[33.6353,-20.176,159.1028],[33.6445,-20.179,142.7899],[33.6579,-20.1869,119.4287],[33.6674,-20.1885,117.4616],[33.6946,-20.1876,89.0271],[33.6966,-20.1935,84.4522],[33.7024,-20.1868,81.7132],[33.7035,-20.1946,90.5091],[33.7075,-20.1998,91.8711],[33.7164,-20.1999,94.7548],[33.7254,-20.2028,105.127],[33.733,-20.2108,106.3717],[33.7408,-20.2232,117.4495],[33.7503,-20.2244,122.1978],[33.7716,-20.231,140.0664],[33.7763,-20.2333,144.4559],[33.7795,-20.2387,150.5734],[33.7915,-20.2471,168.5767],[33.8058,-20.2543,204.6822],[33.8209,-20.2581,214.3354],[33.8417,-20.2581,215.5407],[33.8507,-20.2596,235.4864],[33.8657,-20.2578,267.6871],[33.8717,-20.2554,280.8211],[33.8835,-20.2455,284.0805],[33.8852,-20.2424,282.5527],[34.0067,-20.2087,232.505],[33.943,-20.1249,239.99],[33.9355,-20.1126,230.1608],[33.9358,-20.104,216.327],[33.9468,-20.0861,189.8387],[33.9646,-20.0685,172.1287],[33.9766,-20.0601,169.2516],[33.9859,-20.0451,154.2277],[33.9977,-20.0325,146.3609],[33.9993,-20.0236,131.116],[34.006,-20.0062,121.128],[34.0115,-20.0,119.9093],[34.0169,-19.9978,104.8378],[34.0236,-19.9622,94.6857],[34.0445,-19.9407,35.3044],[34.0434,-19.9323,31.5183],[34.0592,-19.8788,28.1518],[34.0659,-19.8683,26.5043],[34.0595,-19.8603,28.8974],[34.0463,-19.8272,26.1355],[34.0422,-19.8216,26.5908],[34.0389,-19.8202,25.3025],[34.0329,-19.8195,31.4232],[34.0262,-19.8226,32.6253],[33.9995,-19.8157,37.5675],[33.9844,-19.8298,34.3184],[33.9729,-19.832,31.7253],[33.9648,-19.8219,36.298],[33.962,-19.8075,40.2187],[33.9544,-19.7987,36.2165],[33.938,-19.7955,45.3176],[33.9199,-19.7891,45.5797],[33.9084,-19.7686,54.8273],[33.8925,-19.7629,55.8657],[33.8679,-19.777,55.3904],[33.8594,-19.776,60.5292],[33.8518,-19.7707,64.7366],[33.8481,-19.77,50.9546],[33.827,-19.8123,119.1167],[33.8286,-19.9265,39.4294],[33.7857,-19.9511,52.8645],[33.7721,-19.9699,47.652],[33.7609,-19.9889,62.2582],[33.7324,-19.9877,68.2814],[33.6847,-19.9471,121.5176],[33.6647,-19.9328,131.3928],[33.631,-19.9448,129.3191],[33.6123,-19.9363,131.6436],[33.6009,-19.9188,135.5604],[33.5982,-19.9362,126.4115],[33.5546,-19.9594,131.3022],[33.5372,-19.9827,137.4321],[33.5301,-19.9883,138.0642],[33.5179,-19.9852,140.8869],[33.5103,-19.9886,138.7684],[33.5038,-20.0087,141.6817],[33.4854,-19.9937,140.7597],[33.4796,-19.9984,142.9624],[33.4768,-20.0038,144.8898],[33.4694,-20.0339,148.1714],[33.4568,-20.0502,155.4819],[33.4486,-20.0517,150.2146],[33.4378,-20.0499,150.1749],[33.4263,-20.0545,150.6843],[33.4187,-20.0614,154.6752],[33.4155,-20.0698,160.1034],[33.4096,-20.0735,158.7463],[33.3992,-20.0755,155.9086],[33.391,-20.0795,156.3403],[33.3891,-20.0892,157.3919],[33.4055,-20.1144,167.728],[33.4543,-20.1604,177.4704],[33.4594,-20.1673,171.4811],[33.4631,-20.1801,160.4482],[33.4667,-20.1845,160.3372]]]]}}