{"type":"Feature","properties":{"GID_2":"MOZ.11.9_1","GID_0":"MOZ","country":"Mozambique","GID_1":"MOZ.11_1","province":"Zambezia","NL_NAME_1":"NA","county":"Milange","VARNAME_2":"NA","NL_NAME_2":"NA","TYPE_2":"Distrito","ENGTYPE_2":"District","CC_2":"NA","HASC_2":"MZ.ZA.ML","name":"Milange.county"},
"geometry":{"type": "MultiPolygon","coordinates": [[[[35.9216,-16.5201,342.8949],[35.9266,-16.5177,348.1356],[35.9333,-16.5216,344.1269],[35.9426,-16.534,338.3737],[35.9523,-16.5546,348.3649],[35.9536,-16.563,350.3582],[35.9472,-16.5721,339.3442],[35.9518,-16.5823,346.3727],[35.9555,-16.6008,359.4054],[35.9555,-16.6226,349.5704],[35.9601,-16.6343,353.8214],[35.9645,-16.6404,346.407],[35.9645,-16.6439,331.3868],[35.9749,-16.6514,326.1624],[35.9818,-16.6469,332.5343],[35.9912,-16.6328,334.5317],[35.9994,-16.6257,337.0768],[36.022,-16.6159,346.6959],[36.0612,-16.5936,378.9773],[36.0741,-16.5913,386.0652],[36.1302,-16.5665,498.5045],[36.1497,-16.5348,380.134],[36.1605,-16.5236,378.0425],[36.1722,-16.5206,368.3573],[36.1801,-16.5142,357.304],[36.2364,-16.4975,342.3547],[36.2496,-16.4976,321.1953],[36.2596,-16.4939,322.4056],[36.279,-16.4975,303.813],[36.3039,-16.4897,295.5755],[36.3109,-16.4913,289.7374],[36.3206,-16.4823,296.0994],[36.3309,-16.4783,288.9948],[36.3309,-16.4704,303.478],[36.3023,-16.463,335.3716],[36.2789,-16.4597,361.2396],[36.2676,-16.4559,383.0464],[36.2541,-16.4426,362.908],[36.2576,-16.418,323.4598],[36.2667,-16.4089,293.6777],[36.2755,-16.404,309.1065],[36.2837,-16.4016,291.2823],[36.2903,-16.3921,297.3727],[36.2909,-16.3837,343.4571],[36.2963,-16.3791,359.8625],[36.3007,-16.3794,342.4098],[36.3049,-16.3767,319.2874],[36.3038,-16.3761,327.6988],[36.3218,-16.3695,329.3876],[36.3318,-16.3687,356.3125],[36.3158,-16.3531,307.6084],[36.2404,-16.2895,355.7747],[36.2268,-16.2652,361.2244],[36.2225,-16.2463,390.1824],[36.2131,-16.2389,373.773],[36.2088,-16.2266,373.9131],[36.2064,-16.2098,371.8442],[36.1949,-16.2004,372.8034],[36.1966,-16.1948,368.8813],[36.1901,-16.1786,388.0344],[36.1965,-16.1651,408.6589],[36.2126,-16.1579,394.6058],[36.1511,-16.0968,415.6442],[36.1463,-16.0866,421.4364],[36.1591,-16.0762,435.6681],[36.1696,-16.0716,429.6055],[36.1771,-16.0584,455.334],[36.1928,-16.0492,458.1391],[36.2018,-16.0486,457.6743],[36.2284,-16.0371,481.3133],[36.2324,-16.0263,486.2835],[36.2444,-16.0124,507.6334],[36.2413,-15.9981,487.9301],[36.2475,-15.9713,533.3913],[36.2475,-15.9534,556.6906],[36.2506,-15.9445,534.9527],[36.2599,-15.9385,532.2181],[36.2724,-15.9117,653.5815],[36.2941,-15.8878,594.408],[36.3133,-15.8598,611.6544],[36.3328,-15.8418,657.9777],[36.3412,-15.8244,649.8812],[36.3562,-15.8311,655.5587],[36.4027,-15.861,646.9303],[36.4068,-15.8687,639.2722],[36.4132,-15.8723,639.2555],[36.4401,-15.8715,625.764],[36.4794,-15.888,633.1292],[36.4972,-15.886,620.3713],[36.5026,-15.8836,614.4977],[36.4913,-15.8589,629.1475],[36.4854,-15.8525,623.9858],[36.4847,-15.8334,650.0963],[36.4877,-15.8289,640.928],[36.5189,-15.8275,628.2657],[36.5147,-15.8145,638.0702],[36.5144,-15.809,632.7678],[36.5168,-15.7841,643.752],[36.5114,-15.7655,655.4115],[36.5114,-15.7357,670.5656],[36.5145,-15.7268,691.9684],[36.542,-15.6966,642.9626],[36.5784,-15.6409,675.6116],[36.5853,-15.6386,659.4193],[36.5908,-15.6339,651.8009],[36.5969,-15.6313,643.9172],[36.5984,-15.6245,664.3932],[36.5933,-15.6232,650.2836],[36.5823,-15.6158,672.3945],[36.5626,-15.6074,689.3947],[36.5584,-15.6,688.082],[36.5598,-15.5929,695.8688],[36.5486,-15.5687,751.0729],[36.5444,-15.5506,792.7192],[36.5349,-15.5244,927.3801],[36.5397,-15.51,856.4728],[36.5527,-15.4949,920.9617],[36.522,-15.4047,779.6276],[36.5145,-15.4017,774.0329],[36.5041,-15.3941,759.7288],[36.4832,-15.3889,738.9393],[36.474,-15.3767,730.3036],[36.4675,-15.3461,708.0093],[36.4625,-15.3333,691.6835],[36.4653,-15.3177,665.6514],[36.4634,-15.3013,651.8713],[36.4672,-15.2926,661.394],[36.4727,-15.2944,639.79],[36.4824,-15.2764,636.9292],[36.4808,-15.2659,678.5034],[36.4691,-15.2581,629.4028],[36.4567,-15.2675,636.28],[36.448,-15.269,637.4448],[36.4399,-15.2685,634.5641],[36.3585,-15.2893,648.7927],[36.347,-15.3113,655.1892],[36.3359,-15.3208,659.8463],[36.3221,-15.3388,669.6652],[36.3146,-15.3526,669.309],[36.2841,-15.3875,686.4537],[36.2676,-15.3998,695.4833],[36.2698,-15.4298,721.7726],[36.2875,-15.4486,815.4332],[36.2851,-15.4621,1024.894],[36.2827,-15.4663,1012.7494],[36.2363,-15.4684,779.1602],[36.1863,-15.4503,703.1409],[36.1781,-15.45,700.3949],[36.1399,-15.4347,690.0157],[36.1244,-15.4263,684.1463],[36.1133,-15.4283,674.1846],[36.0846,-15.4457,704.7186],[35.8506,-15.4441,625.0656],[35.8379,-15.5876,643.1935],[35.8356,-15.6329,634.6852],[35.8317,-15.6749,664.4623],[35.828,-15.6969,1353.9816],[35.8133,-15.9322,690.0161],[35.8114,-15.9294,685.6375],[35.804,-15.9459,684.0693],[35.8026,-15.976,680.3973],[35.804,-15.9808,674.3875],[35.8059,-15.9817,674.0893],[35.8063,-15.9901,671.1762],[35.8108,-15.9941,671.2879],[35.8165,-15.9946,669.1942],[35.8189,-16.0059,667.3445],[35.8178,-16.0075,668.2228],[35.8196,-16.0144,665.5729],[35.8186,-16.0242,663.6095],[35.8144,-16.0307,661.8466],[35.7787,-16.0499,676.2927],[35.7684,-16.0584,645.2855],[35.7667,-16.0665,635.9363],[35.7599,-16.072,639.8195],[35.7448,-16.0733,641.4075],[35.7376,-16.0766,630.0617],[35.7327,-16.0817,635.4826],[35.7206,-16.0864,632.3423],[35.7186,-16.0904,636.4467],[35.7112,-16.091,630.1066],[35.7092,-16.0995,634.7622],[35.7071,-16.1004,628.1763],[35.6964,-16.0988,624.3896],[35.691,-16.1013,619.3801],[35.6857,-16.1002,621.0389],[35.6841,-16.1036,616.2074],[35.6822,-16.104,613.3112],[35.6804,-16.1021,615.1044],[35.6837,-16.0987,617.3082],[35.6775,-16.0945,632.8911],[35.6771,-16.0972,615.1171],[35.6746,-16.0986,615.6288],[35.6724,-16.0938,621.6205],[35.6596,-16.1015,606.8577],[35.6296,-16.1131,595.3541],[35.6249,-16.1211,596.5115],[35.6206,-16.1207,603.7184],[35.6185,-16.1247,594.2646],[35.6059,-16.1243,600.1852],[35.6031,-16.1267,589.1566],[35.5955,-16.128,595.9512],[35.5925,-16.1323,589.9043],[35.5839,-16.1296,584.5003],[35.5791,-16.1234,585.7802],[35.5751,-16.126,586.4496],[35.5693,-16.1252,585.2377],[35.5709,-16.1302,581.4834],[35.5697,-16.1324,582.8276],[35.5643,-16.1287,585.2849],[35.5589,-16.1204,580.5464],[35.5571,-16.1202,585.4252],[35.555,-16.1221,584.3213],[35.5559,-16.1247,578.7468],[35.5525,-16.1325,582.9233],[35.5434,-16.1357,578.9518],[35.5439,-16.1394,577.4706],[35.542,-16.1442,578.5269],[35.5459,-16.1526,579.2933],[35.5408,-16.1609,615.4922],[35.5291,-16.1615,575.3003],[35.5254,-16.1668,573.08],[35.5187,-16.1656,574.0193],[35.5196,-16.159,573.5452],[35.5182,-16.1563,581.0532],[35.513,-16.1537,577.4078],[35.5059,-16.1552,574.8805],[35.5026,-16.1534,579.3278],[35.4986,-16.145,568.3542],[35.4918,-16.141,566.0096],[35.4886,-16.1419,566.8137],[35.4859,-16.1369,564.6294],[35.4877,-16.131,558.6818],[35.4854,-16.1266,551.2606],[35.4862,-16.1208,553.5344],[35.4851,-16.1196,553.5344],[35.4793,-16.1181,556.1758],[35.4732,-16.1209,550.8162],[35.4653,-16.1206,551.9469],[35.4514,-16.1158,541.0126],[35.4485,-16.1133,546.9819],[35.4297,-16.1119,546.1621],[35.4272,-16.1158,537.2527],[35.4212,-16.1175,552.6923],[35.4201,-16.1194,541.7505],[35.4142,-16.12,539.2208],[35.4053,-16.1238,531.7082],[35.4018,-16.1288,523.9258],[35.4022,-16.1329,519.7432],[35.3877,-16.1519,513.9729],[35.3837,-16.1544,517.0308],[35.3742,-16.1549,495.5734],[35.3496,-16.1771,442.9333],[35.3475,-16.1841,439.5925],[35.3446,-16.1855,438.4068],[35.3429,-16.1888,429.3755],[35.3399,-16.1905,423.6627],[35.3352,-16.1901,409.0167],[35.3316,-16.1955,395.7317],[35.3234,-16.1989,407.0307],[35.3202,-16.2035,381.7679],[35.3117,-16.2088,407.2794],[35.3084,-16.2125,390.5009],[35.3065,-16.2241,373.9063],[35.2967,-16.2297,364.692],[35.2938,-16.2362,350.9794],[35.2932,-16.2509,353.066],[35.2979,-16.265,325.4987],[35.2938,-16.2759,322.626],[35.2949,-16.2832,327.2489],[35.292,-16.2859,325.6413],[35.2779,-16.321,227.8269],[35.2871,-16.3397,313.5287],[35.2957,-16.3446,215.0226],[35.2976,-16.3492,205.375],[35.2956,-16.3571,175.1547],[35.313,-16.3564,199.9091],[35.3249,-16.3527,247.7412],[35.3339,-16.3593,288.8081],[35.4171,-16.4526,429.3877],[35.4847,-16.5467,220.7701],[35.4895,-16.5457,234.279],[35.4948,-16.5369,255.6452],[35.5244,-16.5067,292.9384],[35.5667,-16.539,598.3549],[35.5719,-16.5466,504.6871],[35.5892,-16.5893,365.7914],[35.6105,-16.6275,198.1335],[35.6052,-16.6504,171.0331],[35.6121,-16.6503,178.9726],[35.6322,-16.6364,211.3373],[35.639,-16.6222,222.8927],[35.6485,-16.6157,223.3698],[35.6606,-16.5914,258.1219],[35.66,-16.5764,326.0221],[35.8098,-16.5529,376.4647],[35.8191,-16.5438,369.7466],[35.8297,-16.5383,364.7974],[35.8334,-16.5332,362.9612],[35.8346,-16.5314,363.3019],[35.8301,-16.5242,367.38],[35.8532,-16.4922,377.4742],[35.8779,-16.5316,351.3135],[35.9216,-16.5201,342.8949]]]]}}