{"type":"Feature","properties":{"GID_3":"MOZ.3.10.2_1","GID_0":"MOZ","country":"Mozambique","GID_1":"MOZ.3_1","province":"Inhambane","NL_NAME_1":"NA","GID_2":"MOZ.3.10_1","county":"Panda","NL_NAME_2":"NA","city":"Panda","VARNAME_3":"NA","NL_NAME_3":"NA","TYPE_3":"Localidad","ENGTYPE_3":"Locality","CC_3":"NA","HASC_3":"NA","name":"Panda.city"},
"geometry":{"type": "MultiPolygon","coordinates": [[[[34.9615,-24.1282,80.9062],[34.9451,-24.1287,85.9818],[34.9252,-24.1389,78.3765],[34.8958,-24.1478,99.1286],[34.8747,-24.1577,107.9005],[34.8496,-24.1487,85.6715],[34.8247,-24.1277,82.698],[34.8041,-24.1218,70.7077],[34.7949,-24.1152,76.3966],[34.7918,-24.1155,78.6301],[34.776,-24.1005,95.2126],[34.7662,-24.094,144.3519],[34.7573,-24.0914,143.5362],[34.7516,-24.0808,155.4526],[34.7286,-24.0606,154.5289],[34.7061,-24.0436,78.0825],[34.6989,-24.0289,85.3772],[34.6975,-24.0227,118.3725],[34.7015,-23.9979,129.8528],[34.7012,-23.9813,105.221],[34.6987,-23.9665,104.0801],[34.7018,-23.9544,123.0617],[34.6969,-23.945,129.0164],[34.6839,-23.9336,126.8123],[34.6722,-23.9329,125.5318],[34.6574,-23.9359,130.6543],[34.6343,-23.9313,130.0961],[34.6167,-23.9247,132.4921],[34.5941,-23.9196,116.6655],[34.5821,-23.9113,118.5628],[34.5673,-23.8981,115.8446],[34.5466,-23.8903,104.2014],[34.4793,-23.8755,92.1423],[34.4564,-23.8731,79.4763],[34.4483,-23.8703,70.5882],[34.4303,-23.8679,68.4095],[34.4082,-23.8847,49.7519],[34.3762,-23.879,55.7209],[34.3648,-23.8713,58.0013],[34.3531,-23.8543,81.0232],[34.3371,-23.8382,93.7955],[34.3119,-23.8783,96.7619],[34.3351,-23.9715,53.4158],[34.3279,-23.9907,61.1418],[34.3266,-23.9995,59.8827],[34.2344,-24.1259,73.9751],[34.2259,-24.1314,71.3094],[34.2224,-24.1527,72.169],[34.2446,-24.292,66.0344],[34.2704,-24.3459,22.1051],[34.291,-24.339,23.3925],[34.308,-24.3379,22.9405],[34.314,-24.3354,22.8186],[34.358,-24.2981,45.6413],[34.4235,-24.2617,49.4802],[34.4901,-24.3388,37.0121],[34.4997,-24.3382,38.7006],[34.5131,-24.3315,41.2479],[34.5298,-24.3273,35.2179],[34.5381,-24.3308,33.5219],[34.5522,-24.3287,35.956],[34.5688,-24.3301,35.2762],[34.5966,-24.3225,42.0344],[34.6514,-24.3,38.6095],[34.6648,-24.297,39.7042],[34.6704,-24.289,43.3357],[34.6832,-24.2793,43.3078],[34.7125,-24.2624,44.0385],[34.724,-24.2383,44.2148],[34.7405,-24.2359,44.5022],[34.7434,-24.2405,46.5656],[34.7535,-24.2467,45.2398],[34.7756,-24.2474,43.7366],[34.7971,-24.2461,48.0032],[34.8065,-24.2411,43.9261],[34.8272,-24.2344,47.7125],[34.8398,-24.2366,48.9425],[34.8523,-24.2417,50.7711],[34.8626,-24.2371,49.2087],[34.8803,-24.2111,51.25],[34.9069,-24.2026,52.2922],[34.9374,-24.2076,53.5191],[34.9615,-24.1282,80.9062]]]]}}