{"type":"Feature","properties":{"GID_3":"MOZ.2.1.2_1","GID_0":"MOZ","country":"Mozambique","GID_1":"MOZ.2_1","province":"Gaza","NL_NAME_1":"NA","GID_2":"MOZ.2.1_1","county":"Bilene","NL_NAME_2":"NA","city":"Chissano","VARNAME_3":"NA","NL_NAME_3":"NA","TYPE_3":"Localidad","ENGTYPE_3":"Locality","CC_3":"NA","HASC_3":"NA","name":"Chissano.city"},
"geometry":{"type": "MultiPolygon","coordinates": [[[[33.1775,-25.0325,68.7842],[33.1987,-25.0421,52.6641],[33.2202,-25.0485,57.0297],[33.2481,-25.0541,34.0516],[33.3081,-25.0614,4.9892],[33.3186,-25.0704,26.9145],[33.3218,-25.0712,22.4287],[33.3223,-25.0839,20.3457],[33.3311,-25.0908,26.922],[33.328,-25.076,12.0674],[33.3484,-25.0655,1.5318],[33.3497,-25.0632,0.5],[33.35,-25.0477,0.5],[33.3526,-25.041,0.5],[33.3763,-25.025,14.9687],[33.3741,-25.0125,14.546],[33.3748,-25.0042,7.175],[33.3715,-24.9892,6.1182],[33.3723,-24.9717,13.6299],[33.3673,-24.9609,13.0686],[33.3642,-24.9399,42.8552],[33.371,-24.9332,54.74],[33.4223,-24.9258,48.2694],[33.4459,-24.9195,44.8834],[33.4589,-24.9125,34.7584],[33.4535,-24.8994,16.0173],[33.4528,-24.8759,12.7681],[33.4592,-24.8522,7.2385],[33.4577,-24.8454,7.6092],[33.4543,-24.8424,7.819],[33.4646,-24.8248,10.1816],[33.4436,-24.8159,10.8543],[33.438,-24.8203,8.9707],[33.401,-24.7936,10.4211],[33.3913,-24.789,12.0054],[33.3691,-24.7849,11.7328],[33.3658,-24.8114,19.8279],[33.3597,-24.8314,46.3115],[33.3087,-24.8695,89.2148],[33.2883,-24.8887,75.5916],[33.2615,-24.9025,76.8186],[33.1702,-24.9102,71.8133],[33.1378,-24.9844,91.3175],[33.1456,-24.9812,89.4304],[33.1526,-24.9844,77.8376],[33.1597,-25.0001,79.4577],[33.1638,-25.0004,73.9104],[33.1773,-25.01,62.3868],[33.1775,-25.0325,68.7842]]]]}}