{"type": "Feature","bbox": [38.2123,-13.3108,38.689,-12.9148],"geometry": {"type": "MultiPolygon","coordinates": [[[[38.689,-13.1439,480.2014],[38.6586,-13.124,494.8972],[38.5738,-13.0248,890.9508],[38.5779,-13.0162,641.269],[38.5878,-13.0068,453.8325],[38.5847,-13.002,446.4937],[38.5864,-12.9982,437.3769],[38.5859,-12.9956,426.053],[38.5915,-12.9876,418.4531],[38.5914,-12.9832,414.5647],[38.5989,-12.9692,401.1618],[38.6005,-12.9595,388.2473],[38.5967,-12.9504,385.0487],[38.5877,-12.9416,378.211],[38.5795,-12.9395,375.0006],[38.5589,-12.9176,373.354],[38.554,-12.9148,360.1821],[38.5475,-12.917,362.9679],[38.5352,-12.9285,367.5828],[38.5322,-12.9379,367.8856],[38.5247,-12.9445,370.7712],[38.5153,-12.9458,376.7187],[38.5047,-12.9437,377.0672],[38.4913,-12.9667,380.9443],[38.4782,-12.9729,372.63],[38.4631,-12.9745,381.244],[38.4518,-12.9727,381.1505],[38.44,-12.9655,387.1827],[38.4284,-12.9625,385.0586],[38.4217,-12.9629,384.9518],[38.4105,-12.9711,384.1209],[38.4054,-12.9817,386.0953],[38.3987,-12.9853,386.1689],[38.383,-12.9919,384.4754],[38.3689,-12.9909,385.9487],[38.3535,-12.993,395.9758],[38.3503,-12.9972,389.3133],[38.3508,-13.003,395.2749],[38.3472,-13.0052,397.3413],[38.3215,-13.0081,405.9452],[38.318,-13.0102,397.4905],[38.3151,-13.0227,401.5709],[38.3003,-13.0401,406.0102],[38.2947,-13.0418,406.8242],[38.2864,-13.0481,407.0424],[38.2868,-13.0593,410.7116],[38.2828,-13.0692,412.7969],[38.2744,-13.074,423.6262],[38.2624,-13.0687,417.3086],[38.2582,-13.0786,438.4679],[38.2577,-13.0897,422.2672],[38.2546,-13.0952,425.6656],[38.2362,-13.0975,424.748],[38.2274,-13.0923,429.5811],[38.2201,-13.1019,414.8884],[38.2156,-13.1124,416.6418],[38.2123,-13.1132,423.1614],[38.2169,-13.1276,427.8154],[38.2153,-13.1336,429.2211],[38.2183,-13.1449,430.8487],[38.2312,-13.1541,448.6301],[38.2363,-13.1596,457.557],[38.2507,-13.163,447.3309],[38.2572,-13.1669,452.366],[38.2627,-13.1757,455.4468],[38.265,-13.2145,469.6321],[38.2697,-13.2203,482.5455],[38.2811,-13.249,488.1693],[38.2874,-13.2567,499.5653],[38.2974,-13.2577,514.0596],[38.3135,-13.264099999999999,558.4518],[38.3238,-13.2733,577.3463],[38.37,-13.2989,564.4684],[38.4021,-13.3065,536.9487],[38.4194,-13.3071,532.1112],[38.4354,-13.3108,525.0403],[38.4874,-13.2662,517.6674],[38.5244,-13.2529,508.438],[38.5356,-13.2538,506.5226],[38.5433,-13.2568,506.818],[38.5553,-13.2538,501.8932],[38.5636,-13.248,500.2871],[38.5766,-13.2313,498.5],[38.5837,-13.225,498.5],[38.593,-13.2193,498.5],[38.627,-13.1914,490.6523],[38.6469,-13.1774,489.805],[38.6539,-13.1739,487.0056],[38.6638,-13.1717,487.9624],[38.6716,-13.1668,484.5612],[38.6778,-13.1566,485.5283],[38.6868,-13.1492,483.832],[38.689,-13.1439,480.2014]]]]}
,"properties": {"GID_3": "MOZ.1.2.4_1","GID_0": "MOZ","country": "Mozambique","GID_1": "MOZ.1_1","province": "CaboDelgado","NL_NAME_1": "NA","GID_2": "MOZ.1.2_1","county": "Balama","NL_NAME_2": "NA","city": "Mavala","VARNAME_3": "NA","NL_NAME_3": "NA","TYPE_3": "Localidad","ENGTYPE_3": "Locality","CC_3": "NA","HASC_3": "NA","name": "Mavala.city","area_km2": 1287.8315,"hist_schema_id": "Elevation0-9000","hist_area_km2": {"350": 0.5166,"375": 38.2044,"400": 118.1258,"425": 181.862,"450": 195.1708,"475": 193.492,"500": 175.6495,"525": 186.2929,"550": 123.797,"575": 47.7374,"600": 10.7126,"625": 3.8607,"650": 3.035,"675": 2.3331,"700": 1.6106,"725": 1.652,"750": 1.3216,"775": 0.8053,"800": 0.5782,"825": 0.475,"850": 0.1652,"875": 0.1239,"900": 0.1033,"925": 0.1239,"950": 0.0826}}}