{"type":"Feature","properties":{"GID_3":"MOZ.2.9.1_1","GID_0":"MOZ","country":"Mozambique","GID_1":"MOZ.2_1","province":"Gaza","NL_NAME_1":"NA","GID_2":"MOZ.2.9_1","county":"Massangena","NL_NAME_2":"NA","city":"Massangena","VARNAME_3":"NA","NL_NAME_3":"NA","TYPE_3":"Localidad","ENGTYPE_3":"Locality","CC_3":"NA","HASC_3":"NA","name":"Massangena.city"},
"geometry":{"type": "MultiPolygon","coordinates": [[[[33.2906,-21.9742,118.9993],[33.2809,-21.9652,122.6877],[33.2518,-21.9472,124.228],[33.1548,-21.8208,128.817],[33.1934,-21.7575,133.7836],[33.1644,-21.7033,140.0448],[33.1836,-21.622,143.1228],[33.1932,-21.613,144.0056],[33.2029,-21.6129,141.9066],[33.2029,-21.5858,129.8318],[33.2125,-21.5768,127.7932],[33.2318,-21.5768,121.3545],[33.2415,-21.5677,115.4997],[33.2415,-21.5587,114.7553],[33.2318,-21.5497,109.8016],[33.2318,-21.5406,108.2587],[33.2414,-21.5316,104.0411],[33.2511,-21.5316,104.2223],[33.2607,-21.5225,105.0765],[33.2704,-21.5315,95.3511],[33.2704,-21.5225,99.1148],[33.3089,-21.4863,89.636],[33.28,-21.4954,93.7831],[33.2703,-21.4954,88.665],[33.2317,-21.4774,91.6424],[33.1931,-21.4865,93.8828],[33.1641,-21.5046,94.9094],[33.1062,-21.5317,101.4008],[33.0676,-21.5679,110.7991],[33.0676,-21.586,103.3226],[33.0483,-21.586,104.212],[33.029,-21.5769,105.5291],[33.0193,-21.5679,108.7176],[33.0,-21.5679,108.4309],[32.9843,-21.5705,104.0],[32.97,-21.5678,110.3104],[32.9616,-21.5627,109.6974],[32.9571,-21.5555,107.0622],[32.9625,-21.5274,112.9155],[32.9605,-21.5197,113.4367],[32.9507,-21.5051,115.4941],[32.9401,-21.4967,114.1639],[32.9029,-21.5,132.0882],[32.8984,-21.5077,142.0169],[32.8988,-21.5676,185.7803],[32.9026,-21.5732,184.648],[32.9208,-21.5847,181.9141],[32.9312,-21.5848,173.0615],[32.8019,-21.7555,183.1003],[32.8053,-21.9661,145.7171],[32.8203,-21.9663,141.7043],[32.8627,-21.9789,136.9376],[32.9325,-21.9646,128.9787],[33.0071,-21.9756,121.9444],[33.2824,-21.9792,120.4277],[33.2906,-21.9742,118.9993]]]]}}