{"type":"Feature","properties":{"GID_2":"MOZ.7.10_1","GID_0":"MOZ","country":"Mozambique","GID_1":"MOZ.7_1","province":"Nampula","NL_NAME_1":"NA","county":"Monapo","VARNAME_2":"NA","NL_NAME_2":"NA","TYPE_2":"Distrito","ENGTYPE_2":"District","CC_2":"NA","HASC_2":"MZ.NM.MN","name":"Monapo.county"},
"geometry":{"type": "MultiPolygon","coordinates": [[[[39.9027,-15.1757,145.4456],[39.9085,-15.1945,137.6025],[39.9201,-15.1804,161.5154],[39.9382,-15.1673,193.9856],[39.9516,-15.1646,187.8924],[39.9647,-15.1677,171.8276],[39.9706,-15.1655,167.4907],[39.9838,-15.1656,167.4269],[40.0,-15.1713,151.154],[40.009,-15.1853,143.5928],[40.0173,-15.1912,139.9023],[40.0256,-15.1932,135.6602],[40.03,-15.1965,138.9489],[40.035,-15.2067,131.3288],[40.0442,-15.2125,138.7181],[40.0531,-15.213,130.1695],[40.0752,-15.2197,113.2439],[40.108,-15.2204,103.8222],[40.1097,-15.2163,109.391],[40.1092,-15.1919,133.9536],[40.1129,-15.1839,144.4648],[40.1285,-15.171,155.5838],[40.1324,-15.1566,163.775],[40.1883,-15.1076,103.1385],[40.1954,-15.0997,98.0214],[40.2216,-15.0945,92.4484],[40.2314,-15.0945,99.3336],[40.2377,-15.0916,95.9338],[40.257,-15.0774,79.3697],[40.268,-15.0619,74.7908],[40.2792,-15.0576,75.3207],[40.2983,-15.0652,65.7577],[40.3063,-15.0715,63.0614],[40.3178,-15.0755,60.9335],[40.3302,-15.0736,57.0982],[40.3682,-15.04,42.6453],[40.3899,-15.0346,39.3284],[40.3975,-15.0377,34.815],[40.4234,-15.0346,33.4622],[40.4407,-15.029,26.5771],[40.4424,-15.0267,27.4511],[40.4392,-15.0234,29.2021],[40.4176,-15.0174,30.1154],[40.3991,-15.0144,32.1043],[40.3867,-15.0025,28.9084],[40.3847,-14.9948,49.1398],[40.3783,-14.992,53.4762],[40.3713,-14.9935,37.8718],[40.362,-15.0025,38.0057],[40.3565,-15.0007,40.5805],[40.3506,-14.9898,33.2286],[40.3408,-14.965,36.1874],[40.3403,-14.9346,58.0412],[40.3566,-14.9157,105.075],[40.3613,-14.9056,108.8963],[40.3713,-14.8742,123.3016],[40.3713,-14.8427,139.6305],[40.3675,-14.8084,154.9462],[40.3866,-14.806,129.1792],[40.4361,-14.7669,101.4018],[40.4641,-14.7577,90.9315],[40.4708,-14.7576,63.8689],[40.4724,-14.75,74.6454],[40.4699,-14.7459,79.6916],[40.4649,-14.7443,71.275],[40.4207,-14.74,88.1697],[40.396,-14.7222,108.0357],[40.3898,-14.7132,120.06],[40.3805,-14.7072,118.3659],[40.3749,-14.6923,132.6046],[40.3682,-14.6923,135.4385],[40.3651,-14.6804,143.7889],[40.3528,-14.6714,177.5557],[40.3604,-14.6511,215.7655],[40.3466,-14.6297,157.7909],[40.3404,-14.6267,167.0988],[40.3312,-14.6267,170.8486],[40.311,-14.6083,196.7095],[40.3184,-14.5963,191.7708],[40.3511,-14.5628,149.0914],[40.3129,-14.5338,224.1964],[40.3262,-14.5047,221.4367],[40.3065,-14.5044,190.1572],[40.3045,-14.5025,186.0908],[40.2953,-14.48,170.8632],[40.3087,-14.4497,131.4196],[40.3122,-14.4318,124.365],[40.3219,-14.4239,117.5597],[40.3158,-14.409,109.3471],[40.3237,-14.3937,101.6692],[40.2706,-14.3888,118.3048],[40.2686,-14.3905,120.4874],[40.2596,-14.3918,127.2414],[40.2199,-14.3889,140.9057],[40.2129,-14.3922,143.9667],[40.1933,-14.4038,148.1519],[40.1899,-14.4076,144.5143],[40.1856,-14.417,159.1402],[40.1769,-14.4269,159.5841],[40.1368,-14.4478,188.1401],[40.1245,-14.4627,188.9815],[40.1091,-14.4686,190.2072],[40.0875,-14.4835,214.0761],[40.0751,-14.4895,221.142],[40.0539,-14.5315,246.6984],[40.0536,-14.5363,260.9905],[40.0536,-14.5342,248.3923],[40.0491,-14.5342,246.6755],[40.0279,-14.5487,259.2485],[40.0042,-14.5462,286.9712],[39.9814,-14.5554,292.9471],[39.9681,-14.5578,292.9497],[39.9506,-14.5669,308.1096],[39.9104,-14.5757,323.737],[39.8981,-14.5732,342.4489],[39.8855,-14.5593,305.7905],[39.8805,-14.5492,312.3304],[39.8531,-14.5492,321.7732],[39.8407,-14.5641,337.5465],[39.8309,-14.5681,337.0462],[39.8253,-14.5877,353.6794],[39.8222,-14.6058,348.958],[39.8222,-14.6267,336.6703],[39.8253,-14.6386,310.6953],[39.8253,-14.6469,306.5636],[39.8239,-14.6522,298.9146],[39.8098,-14.6685,266.4232],[39.8058,-14.6781,258.9333],[39.8057,-14.6886,255.2259],[39.8315,-14.749,242.9756],[39.8405,-14.7624,227.6009],[39.8443,-14.7807,226.1349],[39.8528,-14.7909,215.7292],[39.8638,-14.7962,215.5485],[39.8746,-14.8056,214.5],[39.8983,-14.8143,214.5],[39.9171,-14.8121,195.6401],[39.9151,-14.8179,196.0739],[39.924,-14.8265,195.2245],[39.9425,-14.8235,188.8873],[39.9641,-14.8265,169.0799],[39.9579,-14.8444,175.4016],[39.9579,-14.8832,168.2906],[39.9695,-14.893,162.2876],[39.9764,-14.8802,167.4762],[39.9673,-14.867,159.6651],[39.9857,-14.8623,165.8346],[39.998,-14.8563,155.358],[40.018,-14.8635,145.1398],[40.0429,-14.8571,132.6159],[40.0488,-14.8542,136.4564],[40.0591,-14.8532,133.049],[40.0637,-14.8613,142.4835],[40.0687,-14.8766,153.8253],[40.0672,-14.8843,156.9578],[40.0531,-14.8949,175.7676],[40.0473,-14.9036,182.1476],[40.0441,-14.9133,164.062],[40.0368,-14.9421,148.305],[40.0367,-14.9616,153.3925],[40.0299,-14.9858,150.9303],[40.0299,-14.9988,140.4116],[40.0268,-15.0023,132.6991],[40.031,-15.0069,129.1504],[40.0433,-15.0079,123.7156],[40.0508,-15.0108,125.654],[40.0553,-15.0185,119.9191],[40.0485,-15.0209,117.8522],[40.0253,-15.0345,144.0509],[40.0096,-15.0407,155.1157],[40.0001,-15.041,169.0428],[39.9899,-15.0465,175.8973],[39.9779,-15.0469,194.206],[39.9615,-15.0508,213.5181],[39.9616,-15.0616,212.9483],[39.9407,-15.0619,227.3155],[39.9324,-15.0644,217.9887],[39.8833,-15.1087,247.1404],[39.888,-15.1194,216.1696],[39.8966,-15.133,190.3616],[39.8889,-15.1505,182.7013],[39.9027,-15.1757,145.4456]]]]}}