{"type":"Feature","properties":{"GID_3":"MOZ.6.2.4_1","GID_0":"MOZ","country":"Mozambique","GID_1":"MOZ.6_1","province":"Maputo","NL_NAME_1":"NA","GID_2":"MOZ.6.2_1","county":"Magude","NL_NAME_2":"NA","city":"Motaze","VARNAME_3":"NA","NL_NAME_3":"NA","TYPE_3":"Localidad","ENGTYPE_3":"Locality","CC_3":"NA","HASC_3":"NA","name":"Motaze.city"},
"geometry":{"type": "MultiPolygon","coordinates": [[[[32.9508,-24.764,23.1754],[32.8879,-24.7613,28.7676],[32.8788,-24.7672,25.5762],[32.8722,-24.7756,26.325],[32.8673,-24.7711,21.7997],[32.8683,-24.7641,22.5321],[32.8737,-24.7515,24.0104],[32.8728,-24.7494,23.8509],[32.8663,-24.7471,23.7841],[32.8615,-24.7434,24.7002],[32.8612,-24.7415,25.4187],[32.8367,-24.7228,25.2072],[32.8394,-24.6963,27.7921],[32.8382,-24.6837,26.3892],[32.834,-24.6745,27.5855],[32.8316,-24.6701,28.2342],[32.8185,-24.6607,31.4735],[32.7986,-24.6294,33.1843],[32.7828,-24.6101,33.2884],[32.7642,-24.575,38.0922],[32.7633,-24.5638,38.1559],[32.7507,-24.5541,38.0801],[32.7463,-24.5444,41.0704],[32.7467,-24.5409,42.5932],[32.7394,-24.5368,42.3407],[32.734,-24.541,39.7537],[32.689,-24.5578,48.41],[32.6593,-24.566,53.9777],[32.6083,-24.5722,68.7089],[32.5991,-24.5763,73.4268],[32.5899,-24.5775,76.005],[32.5491,-24.5775,80.1729],[32.5303,-24.5802,87.945],[32.5142,-24.5905,91.2016],[32.4883,-24.604,89.091],[32.4849,-24.6112,93.6116],[32.487,-24.6235,90.2691],[32.4881,-24.6591,85.4855],[32.4903,-24.6775,77.6268],[32.4852,-24.6959,79.1225],[32.493,-24.6991,77.1298],[32.4903,-24.7155,81.8396],[32.4978,-24.7208,80.707],[32.5095,-24.7215,65.9254],[32.5375,-24.7184,85.1384],[32.5683,-24.7225,78.4969],[32.5886,-24.7274,71.3927],[32.5987,-24.7308,69.3309],[32.6155,-24.7399,65.4634],[32.633,-24.7531,61.1793],[32.647,-24.7563,53.1649],[32.6564,-24.7627,56.833],[32.671,-24.8239,46.7864],[32.676,-24.8391,46.324],[32.6791,-24.8578,45.517],[32.6912,-24.8603,49.1896],[32.7185,-24.8612,44.3138],[32.7459,-24.8586,33.0862],[32.7508,-24.8593,33.4052],[32.7561,-24.8776,33.5598],[32.769,-24.8929,31.7777],[32.7953,-24.8982,24.3288],[32.8037,-24.8972,18.4629],[32.8057,-24.8882,21.7767],[32.8225,-24.8758,19.9421],[32.8283,-24.867,20.726],[32.8307,-24.8593,21.0501],[32.8278,-24.8506,21.9288],[32.8198,-24.8426,24.8943],[32.8117,-24.838,24.1002],[32.8163,-24.832,26.9962],[32.8259,-24.8361,24.6215],[32.8403,-24.8469,24.4802],[32.8493,-24.8454,22.6806],[32.863,-24.8235,20.8038],[32.8694,-24.8286,19.6334],[32.8723,-24.8378,18.2212],[32.8752,-24.842,18.7718],[32.8902,-24.8559,18.0683],[32.8979,-24.8584,17.9346],[32.9092,-24.8517,21.6068],[32.9508,-24.764,23.1754]]]]}}