{"type":"Feature","properties":{"GID_3":"MOZ.4.1.1_1","GID_0":"MOZ","country":"Mozambique","GID_1":"MOZ.4_1","province":"Manica","NL_NAME_1":"NA","GID_2":"MOZ.4.1_1","county":"Barue","NL_NAME_2":"NA","city":"Cantadica","VARNAME_3":"NA","NL_NAME_3":"NA","TYPE_3":"Localidad","ENGTYPE_3":"Locality","CC_3":"NA","HASC_3":"NA","name":"Cantadica.city"},
"geometry":{"type": "MultiPolygon","coordinates": [[[[33.123,-18.4124,534.3652],[33.1378,-18.452,530.9691],[33.1762,-18.505,503.7844],[33.2264,-18.4949,498.9726],[33.2586,-18.5275,490.4062],[33.2644,-18.5439,483.0651],[33.2837,-18.5547,480.9746],[33.3002,-18.5524,480.1406],[33.3069,-18.5398,475.0121],[33.3638,-18.5722,450.7651],[33.3713,-18.5896,458.9918],[33.3817,-18.5999,458.5115],[33.4013,-18.6492,444.0258],[33.4146,-18.6604,422.4231],[33.4375,-18.6675,399.7153],[33.4878,-18.6632,397.8969],[33.5506,-18.6722,389.5257],[33.5513,-18.6584,379.5983],[33.5499,-18.6527,391.1699],[33.5438,-18.6497,382.0514],[33.5427,-18.6442,398.3163],[33.5458,-18.6231,403.6884],[33.548,-18.6175,404.4038],[33.5446,-18.5944,425.5976],[33.5462,-18.5729,433.1789],[33.541,-18.5672,432.9239],[33.5404,-18.5428,420.3313],[33.5324,-18.5368,445.4326],[33.532,-18.5306,445.0381],[33.5326,-18.516,456.7838],[33.5445,-18.5007,457.6398],[33.5416,-18.4861,448.7503],[33.5373,-18.4834,441.798],[33.5417,-18.4776,449.9198],[33.5385,-18.4659,454.4279],[33.5297,-18.457,460.3109],[33.5076,-18.4014,467.0458],[33.5132,-18.3944,459.6617],[33.4995,-18.3859,461.0847],[33.4902,-18.3721,460.9166],[33.4877,-18.3578,469.7755],[33.4767,-18.3338,470.2322],[33.4716,-18.3055,472.1913],[33.458,-18.2647,493.7632],[33.4684,-18.21,497.9717],[33.4353,-18.1539,515.8233],[33.4363,-18.1402,522.5551],[33.4341,-18.1172,526.6605],[33.4294,-18.1074,538.7117],[33.4309,-18.0848,540.8622],[33.4295,-18.0672,554.7789],[33.4203,-18.0552,564.0464],[33.4144,-18.0417,575.0957],[33.4174,-18.0311,586.6116],[33.417,-18.0147,598.4659],[33.3764,-17.9302,598.143],[33.3797,-17.8975,627.2446],[33.2998,-17.8496,600.6979],[33.2369,-17.8318,601.7532],[33.1759,-17.8175,630.2083],[33.1399,-17.8404,632.2715],[33.1313,-17.8394,635.7155],[33.1235,-17.8333,650.948],[33.1208,-17.8241,679.295],[33.113,-17.8153,799.9725],[33.0968,-17.8272,1200.0854],[33.0937,-17.8412,1333.1678],[33.0952,-17.8596,1335.3745],[33.1035,-17.8878,1208.123],[33.1218,-17.9393,1383.4934],[33.1234,-17.9802,1373.6467],[33.1446,-18.0513,1044.8928],[33.154,-18.0682,744.2556],[33.1635,-18.0739,660.7004],[33.1707,-18.0821,638.8456],[33.1727,-18.1197,775.932],[33.1711,-18.1493,612.4484],[33.1735,-18.1798,592.3866],[33.1876,-18.2134,575.9163],[33.2071,-18.23,569.8533],[33.2058,-18.2422,595.6686],[33.187,-18.2512,580.5162],[33.1714,-18.2691,621.5361],[33.1655,-18.2805,639.764],[33.1663,-18.293,733.1909],[33.1871,-18.3064,586.4912],[33.1908,-18.3428,586.4144],[33.1835,-18.3626,603.2063],[33.1642,-18.3834,548.5953],[33.123,-18.4124,534.3652]]]]}}