{"type": "Feature","bbox": [32.3219,-26.7336,32.9299,-26.1829],"geometry": {"type": "MultiPolygon","coordinates": [[[[32.3667,-26.2741,4.114],[32.3742,-26.2819,3.4158],[32.3746,-26.2889,3.4624],[32.3783,-26.2933,7.6662],[32.3694,-26.2999,4.3614],[32.3746,-26.3039,5.6257],[32.3807,-26.3061,16.434],[32.3959,-26.3051,18.4995],[32.3969,-26.3164,9.879],[32.401,-26.3272,11.012],[32.3892,-26.3321,7.9356],[32.3821,-26.3408,13.4663],[32.3766,-26.351,13.5199],[32.3795,-26.3571,10.9008],[32.3884,-26.3624,19.3398],[32.3816,-26.413,20.2369],[32.369,-26.4093,28.1869],[32.3633,-26.4171,22.7086],[32.3593,-26.4314,21.2084],[32.3547,-26.4352,25.0146],[32.3464,-26.4376,25.901],[32.3454,-26.4457,23.5966],[32.3466,-26.4512,25.1409],[32.3454,-26.4534,26.0436],[32.3479,-26.4568,25.6701],[32.3454,-26.4711,27.9128],[32.3491,-26.4734,27.8005],[32.3527,-26.4813,26.1289],[32.3481,-26.4886,27.6011],[32.344,-26.4902,28.8163],[32.3417,-26.4944,30.3104],[32.3337,-26.4963,33.3954],[32.3319,-26.4928,32.8618],[32.3301,-26.4924,32.576],[32.3219,-26.4988,34.9306],[32.3995,-26.5654,51.9106],[32.5083,-26.7119,151.0957],[32.5081,-26.7336,23.8483],[32.5263,-26.7271,21.7868],[32.531,-26.7237,15.6811],[32.5384,-26.7259,11.4292],[32.5409,-26.7215,11.328],[32.552,-26.7126,10.0806],[32.561,-26.7012,10.2327],[32.5641,-26.695,15.6865],[32.5625,-26.6861,9.2593],[32.5629,-26.6711,9.3062],[32.5616,-26.6633,9.0993],[32.5545,-26.6569,9.6128],[32.5542,-26.6498,7.2848],[32.5596,-26.6462,7.7578],[32.5842,-26.6495,64.921],[32.775,-26.6927,50.9149],[32.8459,-26.6973,24.2363],[32.9007,-26.7055,0.0],[32.9007,-26.6863,0.0],[32.8949,-26.676,0.0],[32.8935,-26.6568,0.0],[32.8954,-26.6382,2.9778],[32.9063,-26.5912,12.2257],[32.9063,-26.5763,22.5084],[32.9101,-26.5518,24.2159],[32.9196,-26.5199,0.0],[32.9151,-26.5124,0.0],[32.9176,-26.4879,20.961],[32.9299,-26.4543,0.0],[32.9232,-26.4463,2.0469],[32.921,-26.4379,0.0],[32.921,-26.4263,0.0],[32.9243,-26.4068,5.3862],[32.9226,-26.3976,14.6922],[32.9264,-26.377,57.7096],[32.9121,-26.3625,20.0317],[32.9118,-26.3491,17.947],[32.9072,-26.3394,44.9144],[32.8774,-26.326,12.1647],[32.8638,-26.3017,44.6724],[32.8638,-26.2908,31.0989],[32.8543,-26.2812,0.0],[32.8465,-26.2876,0.8541],[32.8318,-26.2893,1.9454],[32.8293,-26.2865,6.9445],[32.8118,-26.2776,2.2709],[32.8049,-26.2696,6.0054],[32.796,-26.2443,0.0],[32.7771,-26.2332,2.606],[32.7571,-26.214,0.1863],[32.7382,-26.1999,1.5703],[32.7212,-26.1829,0.2507],[32.7051,-26.1865,2.4251],[32.6921,-26.1929,1.0368],[32.6829,-26.1882,0.0],[32.6815,-26.2111,0.0],[32.6882,-26.2494,0.0],[32.6924,-26.2587,0.0],[32.6485,-26.263,9.2907],[32.6358,-26.262,25.5482],[32.6081,-26.254,42.4591],[32.5721,-26.2479,53.8964],[32.5642,-26.2419,53.4761],[32.5609,-26.242,54.1595],[32.5486,-26.2481,50.8012],[32.5224,-26.2828,54.3453],[32.5001,-26.306,48.7277],[32.4821,-26.3217,36.285],[32.4651,-26.3246,46.2069],[32.4505,-26.3246,48.0357],[32.4422,-26.3194,45.4996],[32.4376,-26.3142,43.2379],[32.4221,-26.3039,19.2146],[32.4196,-26.2884,37.4599],[32.4221,-26.2779,38.4085],[32.4015,-26.2646,25.4091],[32.3963,-26.2626,23.8383],[32.3819,-26.2705,9.4657],[32.3739,-26.2705,5.2123],[32.3667,-26.2741,4.114]]]]}
,"properties": {"GID_3": "MOZ.6.5.4_1","GID_0": "MOZ","country": "Mozambique","GID_1": "MOZ.6_1","province": "Maputo","NL_NAME_1": "NA","GID_2": "MOZ.6.5_1","county": "Matutuíne","NL_NAME_2": "NA","city": "Missevene(BelaVista)","VARNAME_3": "NA","NL_NAME_3": "NA","TYPE_3": "Localidad","ENGTYPE_3": "Locality","CC_3": "NA","HASC_3": "NA","name": "Missevene(Bela_Vista).city","area_km2": 2416.605,"hist_schema_id": "Elevation0-9000","hist_area_km2": {"0": 640.666,"25": 647.51,"50": 714.394,"75": 380.567,"100": 19.24,"125": 8.677,"150": 4.129,"175": 1.421}}}