{"type": "Feature","bbox": [32.3667,-21.586,34.1082,-20.2905],"geometry": {"type": "MultiPolygon","coordinates": [[[[33.28,-21.4954,93.7831],[33.3089,-21.4863,89.636],[33.3282,-21.4863,85.3839],[33.3475,-21.4772,86.4764],[33.3668,-21.4771,84.126],[33.3957,-21.468,79.7514],[33.415,-21.459,77.7103],[33.4728,-21.4227,76.565],[33.492,-21.3955,72.9141],[33.5498,-21.3773,69.7901],[33.5691,-21.3772,77.7991],[33.5788,-21.3862,74.279],[33.6078,-21.3951,70.8382],[33.6367,-21.386,70.2312],[33.656,-21.3859,64.0906],[33.6753,-21.3949,64.0164],[33.7237,-21.4218,62.388],[33.7622,-21.4035,62.5461],[33.82,-21.3852,57.5244],[33.8491,-21.4121,66.2839],[33.8973,-21.4119,58.1722],[33.9069,-21.4028,53.9522],[33.926,-21.3666,51.8275],[33.9258,-21.3485,50.4013],[33.9545,-21.3122,47.9234],[33.993,-21.3029,50.7913],[34.0063,-21.3111,44.3097],[34.0052,-21.2686,88.9683],[34.0123,-21.2436,121.4048],[34.0319,-21.2234,113.1516],[34.0399,-21.1666,103.6084],[34.0936,-21.1299,92.7208],[34.1082,-21.0751,83.1916],[33.9947,-21.0066,72.8706],[33.8967,-21.0021,85.454],[33.9106,-20.8048,72.1318],[33.8675,-20.7608,97.0656],[33.8549,-20.7511,102.969],[33.8463,-20.7381,108.9448],[33.8329,-20.7377,113.144],[33.8197,-20.7397,117.4162],[33.7967,-20.7288,126.0711],[33.7802,-20.7276,131.3302],[33.7529,-20.7194,141.6902],[33.7297,-20.7087,160.1652],[33.7241,-20.7024,170.1387],[33.7178,-20.6446,198.1054],[33.6824,-20.6272,219.1397],[33.6674,-20.6178,232.1126],[33.6577,-20.6043,236.0433],[33.647,-20.5969,241.3049],[33.6487,-20.5819,261.4808],[33.6552,-20.5543,268.4812],[33.6612,-20.5402,259.7737],[33.661,-20.5285,250.5706],[33.6453,-20.5375,264.8774],[33.634,-20.5389,266.6163],[33.6199,-20.5366,269.9075],[33.6087,-20.5417,270.7093],[33.4768,-20.4171,195.7546],[33.4934,-20.3554,165.0304],[33.4958,-20.3532,163.5327],[33.4961,-20.3477,160.1831],[33.4932,-20.3411,161.4745],[33.476,-20.3181,128.7567],[33.4742,-20.3081,124.4008],[33.4784,-20.2931,119.053],[33.4753,-20.2917,120.2141],[33.4675,-20.2931,114.7368],[33.4559,-20.2905,129.8128],[33.4477,-20.293,127.1871],[33.4319,-20.3086,128.9948],[33.4232,-20.3147,127.0875],[33.3944,-20.3175,131.7995],[33.3907,-20.3278,136.3408],[33.384,-20.3365,134.0318],[33.3808,-20.3377,127.1839],[33.3572,-20.3388,132.0244],[33.3352,-20.3255,138.2912],[33.3225,-20.3245,137.8904],[33.313,-20.3284,145.1046],[33.299,-20.3204,138.9918],[33.2859,-20.3169,132.7567],[33.277,-20.3214,143.0155],[33.2651,-20.3471,140.8464],[33.2571,-20.3571,148.582],[33.2593,-20.3687,154.188],[33.2647,-20.3758,147.9501],[33.258,-20.3902,153.9467],[33.2498,-20.3999,145.8575],[33.2351,-20.4013,149.7571],[33.2314,-20.4038,141.1652],[33.2295,-20.412,162.8323],[33.2238,-20.4235,156.9806],[33.1904,-20.4574,161.2338],[33.1806,-20.4821,162.3352],[33.1696,-20.4941,153.1192],[33.1584,-20.5036,170.3423],[33.1435,-20.5044,187.202],[33.1355,-20.5068,162.4532],[33.1216,-20.5413,184.9788],[33.1194,-20.555,173.2475],[33.1073,-20.5685,178.5089],[33.0986,-20.5737,173.0412],[33.1001,-20.5792,205.4588],[33.1127,-20.5946,203.0755],[33.1146,-20.6063,200.9523],[33.126,-20.6167,217.5066],[33.1314,-20.6282,223.5942],[33.1373,-20.6544,231.0563],[33.1416,-20.6513,236.0851],[33.1503,-20.6513,241.6122],[33.154,-20.6609,241.6372],[33.1546,-20.6745,246.9698],[33.1603,-20.6868,249.4322],[33.1603,-20.6971,259.8248],[33.1641,-20.708,261.6444],[33.1679,-20.7149,266.9937],[33.1779,-20.7253,272.6155],[33.1879,-20.7403,290.3727],[33.2009,-20.7538,289.7319],[33.2285,-20.7984,325.8169],[33.2349,-20.8096,338.9772],[33.2367,-20.8187,348.2712],[33.2341,-20.8241,348.3027],[33.2257,-20.8277,357.6664],[33.2128,-20.8287,384.7755],[33.1978,-20.8276,389.0966],[33.1768,-20.8185,347.4001],[33.1633,-20.8151,333.6613],[33.111,-20.8178,294.1815],[33.0875,-20.8554,346.9225],[33.0779,-20.8518,344.597],[33.0684,-20.8459,326.7676],[32.9991,-20.875,337.8288],[32.9153,-20.8927,384.758],[32.8494,-20.8825,379.5967],[32.8467,-20.8781,368.3982],[32.8346,-20.8673,357.1357],[32.8239,-20.8633,353.8169],[32.8168,-20.8575,344.3644],[32.8102,-20.8482,334.8829],[32.8009,-20.8395,326.2465],[32.7939,-20.8405,325.2352],[32.7758,-20.8645,358.2647],[32.7718,-20.8732,377.5423],[32.6686,-20.8872,379.3365],[32.6017,-20.9158,444.5204],[32.517,-20.9102,401.7999],[32.5168,-20.9144,400.0584],[32.4946,-20.9652,405.4482],[32.4811,-20.9926,403.7767],[32.4684,-21.0118,376.0473],[32.4498,-21.0371,325.1582],[32.4394,-21.0462,297.7686],[32.402,-21.0872,324.6978],[32.3879,-21.0985,315.1089],[32.3807,-21.1086,293.0871],[32.3762,-21.1218,284.8862],[32.3667,-21.1367,271.6255],[32.3701,-21.1422,286.555],[32.3854,-21.1545,247.1935],[32.4,-21.1632,241.905],[32.4058,-21.1699,216.0964],[32.4063,-21.1759,220.9543],[32.3958,-21.1889,221.4425],[32.3951,-21.1928,202.7282],[32.3993,-21.2066,191.1127],[32.4222,-21.227,176.5086],[32.4267,-21.2355,174.7262],[32.4312,-21.2507,169.8434],[32.4577,-21.2824,157.3067],[32.476,-21.3113,156.5803],[32.4799,-21.321,153.6986],[32.48,-21.326,155.2502],[32.5019,-21.3484,150.4512],[32.5138,-21.3648,149.7927],[32.5232,-21.3738,152.3069],[32.5442,-21.3826,146.8167],[32.62,-21.3904,143.1853],[32.6609,-21.398,134.5],[32.6914,-21.4124,132.7702],[32.7307,-21.4372,132.5923],[32.7552,-21.4477,129.8903],[32.769,-21.4603,126.4669],[32.7805,-21.4753,125.3458],[32.8498,-21.5066,121.0948],[32.8722,-21.5004,115.75],[32.8904,-21.4869,118.6157],[32.9116,-21.484,112.5],[32.932,-21.4902,116.0686],[32.9507,-21.5051,115.4941],[32.9605,-21.5197,113.4367],[32.9625,-21.5274,112.9155],[32.9571,-21.5555,107.0622],[32.9616,-21.5627,109.6974],[32.97,-21.5678,110.3104],[32.9843,-21.5705,104.0],[33.0,-21.5679,108.4309],[33.0193,-21.5679,108.7176],[33.029,-21.5769,105.5291],[33.0483,-21.586,104.212],[33.0676,-21.586,103.3226],[33.0676,-21.5679,110.7991],[33.1062,-21.5317,101.4008],[33.1641,-21.5046,94.9094],[33.1931,-21.4865,93.8828],[33.2317,-21.4774,91.6424],[33.2703,-21.4954,88.665],[33.28,-21.4954,93.7831]]]]}
,"properties": {"GID_2": "MOZ.4.4_1","GID_0": "MOZ","country": "Mozambique","GID_1": "MOZ.4_1","province": "Manica","NL_NAME_1": "NA","county": "Machaze","VARNAME_2": "NA","NL_NAME_2": "NA","TYPE_2": "Distrito","ENGTYPE_2": "District","CC_2": "NA","HASC_2": "MZ.MN.MZ","name": "Machaze.county","area_km2": 13299.7,"hist_schema_id": "Elevation0-9000","hist_area_km2": {"50": 52.77,"75": 540.09,"100": 1331.95,"125": 1073.59,"150": 1153.36,"175": 1350.46,"200": 1463.98,"225": 1484.12,"250": 1327.71,"275": 1095.23,"300": 858.56,"325": 647.54,"350": 448.44,"375": 278.22,"400": 151.63,"425": 38.74,"450": 3.17,"475": 0.14}}}