{"type": "Feature","bbox": [33.3677,-16.6154,34.1985,-15.6785],"geometry": {"type": "MultiPolygon","coordinates": [[[[33.9619,-16.5777,102.1668],[33.9675,-16.5746,100.0],[33.9897,-16.5735,100.0],[33.9959,-16.5784,100.0],[33.9954,-16.6014,100.0],[33.9982,-16.6064,100.0],[34.0082,-16.6138,104.969],[34.0182,-16.6154,113.9414],[34.0362,-16.6144,104.7133],[34.0681,-16.6048,97.0],[34.0706,-16.6056,97.0],[34.0693,-16.6047,97.0],[34.0776,-16.6015,101.7748],[34.0827,-16.5958,98.4956],[34.0852,-16.5902,99.8619],[34.086,-16.5806,103.0556],[34.0843,-16.5613,123.3181],[34.0768,-16.5468,145.8281],[34.0743,-16.5372,169.8499],[34.086,-16.5139,188.886],[34.1028,-16.4986,239.1842],[34.1723,-16.4979,209.0496],[34.1857,-16.428,218.5495],[34.1833,-16.3949,221.1852],[34.1879,-16.384,231.1148],[34.1985,-16.3707,232.2563],[34.1954,-16.3638,233.7829],[34.19,-16.3607,231.7394],[34.1882,-16.3487,237.9216],[34.1829,-16.3418,244.4927],[34.1781,-16.3386,243.3875],[34.1707,-16.327,250.8318],[34.1683,-16.2918,263.5646],[34.1597,-16.2684,279.0914],[34.1489,-16.2586,285.4088],[34.1341,-16.2494,302.8959],[34.1242,-16.2471,307.6125],[34.1122,-16.2033,346.589],[34.1011,-16.1952,540.9026],[34.017,-16.1115,330.8311],[34.0209,-16.1073,337.194],[34.0267,-16.0847,359.6263],[34.0268,-16.079,363.0072],[34.0202,-16.0624,379.5591],[34.0171,-16.0558,383.1629],[34.0116,-16.0518,394.2532],[34.0187,-16.0442,383.9716],[34.0199,-16.0394,393.6056],[34.0215,-16.0235,407.9174],[34.0208,-15.993,400.3481],[34.0236,-15.9676,429.1839],[34.0092,-15.9593,423.7784],[34.0045,-15.9585,423.8409],[34.0,-15.9633,423.9547],[33.9832,-15.955,429.386],[33.9561,-15.9307,384.3535],[33.9494,-15.9194,362.9675],[33.9486,-15.8847,296.672],[33.9502,-15.8784,289.9817],[33.9468,-15.8692,279.7383],[33.9393,-15.8586,272.0327],[33.9411,-15.8561,272.2393],[33.9378,-15.8553,271.2622],[33.9298,-15.8491,283.7652],[33.926,-15.8558,258.0387],[33.921,-15.8535,269.9025],[33.9161,-15.8568,270.4905],[33.913,-15.862,270.2563],[33.8989,-15.8669,271.5899],[33.8926,-15.8671,257.8925],[33.8856,-15.8621,258.5645],[33.8668,-15.8658,246.8582],[33.8591,-15.8621,256.8649],[33.8513,-15.8722,253.9942],[33.841,-15.8665,244.3227],[33.8348,-15.8674,248.8018],[33.8119,-15.8658,246.0776],[33.8044,-15.8689,246.9879],[33.7955,-15.8694,234.6968],[33.7915,-15.8634,242.0777],[33.7829,-15.857,248.1576],[33.7827,-15.8515,238.6763],[33.7927,-15.8457,246.3659],[33.7922,-15.8418,248.2752],[33.7842,-15.8301,260.5413],[33.772,-15.8041,245.5537],[33.7668,-15.7964,250.0363],[33.7521,-15.7891,282.797],[33.7487,-15.7774,270.0947],[33.7492,-15.7684,282.7187],[33.7553,-15.751,287.9562],[33.7348,-15.7429,292.0289],[33.7251,-15.7426,300.522],[33.7229,-15.7308,304.302],[33.6991,-15.7179,315.319],[33.6881,-15.7128,313.6558],[33.6786,-15.7121,318.4437],[33.6744,-15.7095,320.6861],[33.6684,-15.71,327.9878],[33.66,-15.7043,329.7274],[33.6539,-15.7031,337.8405],[33.6521,-15.6988,341.271],[33.6447,-15.6952,344.4762],[33.6106,-15.6916,367.6877],[33.5701,-15.6785,443.5272],[33.5574,-15.6825,513.2072],[33.5388,-15.7043,698.1756],[33.5242,-15.6943,415.8347],[33.5135,-15.6925,402.0114],[33.5058,-15.6892,382.7755],[33.4982,-15.6912,386.1698],[33.4927,-15.6954,367.334],[33.4866,-15.6928,358.4859],[33.4795,-15.6964,349.0391],[33.475,-15.705,325.3276],[33.4731,-15.716,334.807],[33.468,-15.7213,329.0536],[33.4646,-15.7316,307.4271],[33.4646,-15.7491,374.0048],[33.4583,-15.7611,288.8197],[33.464,-15.7701,374.9684],[33.4823,-15.7803,410.1142],[33.4826,-15.7835,381.101],[33.4741,-15.8029,274.4498],[33.4682,-15.811,216.2743],[33.4579,-15.8086,204.6595],[33.4487,-15.82,214.194],[33.4401,-15.8356,189.1717],[33.4302,-15.8432,189.4377],[33.4234,-15.8507,204.0012],[33.3955,-15.9082,190.1237],[33.3742,-15.9124,144.2894],[33.3677,-15.9435,132.0],[33.3754,-15.9545,132.0],[33.3817,-15.9684,131.5],[33.4063,-15.9853,154.4147],[33.4297,-15.9915,130.0],[33.447,-16.0061,128.625],[33.4578,-16.0191,127.0],[33.4579,-16.0574,125.0],[33.4659,-16.0681,124.0],[33.4973,-16.0956,124.7471],[33.6227,-16.0524,202.2302],[33.6303,-16.0622,186.8573],[33.6378,-16.067,181.5409],[33.645,-16.0847,159.5843],[33.6498,-16.0898,155.2167],[33.651,-16.1125,134.2708],[33.6441,-16.1244,125.8834],[33.6429,-16.1393,125.3047],[33.6455,-16.1436,125.4904],[33.635,-16.1657,125.8983],[33.6222,-16.1781,126.3767],[33.6198,-16.1859,118.5],[33.6297,-16.2109,118.0165],[33.6462,-16.23,117.0],[33.6559,-16.2386,120.2301],[33.6639,-16.2431,116.4685],[33.6732,-16.2574,115.5],[33.693,-16.2762,115.0],[33.7088,-16.2893,117.5965],[33.7146,-16.2913,116.5817],[33.722,-16.3061,114.3602],[33.7253,-16.3209,113.5],[33.7472,-16.3444,112.5],[33.7549,-16.3598,112.0],[33.7706,-16.3789,111.0],[33.7776,-16.383,111.0],[33.7924,-16.3871,121.8275],[33.8047,-16.3958,117.7774],[33.8121,-16.407,109.0],[33.8323,-16.4309,108.0],[33.8486,-16.461,106.5],[33.8669,-16.4776,105.5],[33.8867,-16.4992,104.0],[33.9032,-16.5283,103.0],[33.9213,-16.5453,102.0],[33.9458,-16.5623,100.875],[33.9619,-16.5777,102.1668]]]]}
,"properties": {"GID_3": "MOZ.10.9.2_1","GID_0": "MOZ","country": "Mozambique","GID_1": "MOZ.10_1","province": "Tete","NL_NAME_1": "NA","GID_2": "MOZ.10.9_1","county": "Moatize","NL_NAME_2": "NA","city": "Moatize","VARNAME_3": "NA","NL_NAME_3": "NA","TYPE_3": "Localidad","ENGTYPE_3": "Locality","CC_3": "NA","HASC_3": "NA","name": "Moatize.city","area_km2": 4288.091,"hist_schema_id": "Elevation0-9000","hist_area_km2": {"100": 42.767,"125": 156.941,"150": 238.758,"175": 267.429,"200": 291.372,"225": 325.139,"250": 379.331,"275": 378.302,"300": 363.08,"325": 382.147,"350": 379.483,"375": 311.412,"400": 258.344,"425": 195.003,"450": 121.208,"475": 62.417,"500": 41.942,"525": 26.491,"550": 16.384,"575": 10.535,"600": 7.417,"625": 6.337,"650": 4.952,"675": 4.075,"700": 3.383,"725": 2.813,"750": 2.732,"775": 1.877,"800": 1.551,"825": 1.408,"850": 1.0,"875": 0.592,"900": 0.49,"925": 0.551,"950": 0.327,"975": 0.102}}}