{"type":"Feature","properties":{"GID_2":"MOZ.11.11_1","GID_0":"MOZ","country":"Mozambique","GID_1":"MOZ.11_1","province":"Zambezia","NL_NAME_1":"NA","county":"Mopeia","VARNAME_2":"NA","NL_NAME_2":"NA","TYPE_2":"Distrito","ENGTYPE_2":"District","CC_2":"NA","HASC_2":"MZ.ZA.MP","name":"Mopeia.county"},
"geometry":{"type": "MultiPolygon","coordinates": [[[[35.4605,-17.9017,21.7375],[35.4765,-17.9299,21.804],[35.4911,-17.9487,22.2344],[35.5026,-17.9577,20.1412],[35.5107,-17.9663,20.1525],[35.5209,-17.9837,20.8156],[35.5372,-17.9907,19.8333],[35.556399999999996,-17.9961,18.9786],[35.5599,-18.0041,19.3536],[35.5656,-18.0099,19.4767],[35.5745,-18.0145,18.7025],[35.5838,-18.0181,17.6797],[35.677,-18.0344,15.0],[35.6905,-18.0422,16.7456],[35.7054,-18.0476,14.0],[35.7295,-18.0641,13.5],[35.7553,-18.0748,13.0],[35.7811,-18.0914,14.8738],[35.7941,-18.0977,15.4904],[35.8163,-18.1041,11.5],[35.8275,-18.1102,11.8881],[35.8374,-18.1225,11.0],[35.8655,-18.1058,15.9153],[35.8726,-18.1032,13.4057],[35.8874,-18.1023,13.4902],[35.8899,-18.1064,13.2513],[35.9201,-18.1029,13.0948],[35.9327,-18.1053,13.3132],[35.9436,-18.1093,12.641],[35.9547,-18.111,13.511],[35.9579,-18.1144,14.3661],[35.959,-18.1181,12.2112],[35.9676,-18.1214,11.5288],[35.9774,-18.11,12.0681],[35.984,-18.109,12.3271],[35.9945,-18.1036,10.9392],[36.012,-18.1365,11.5239],[36.023,-18.1506,10.8629],[36.0401,-18.1549,10.5527],[36.053,-18.1538,11.4902],[36.0807,-18.1621,9.383],[36.1102,-18.1664,5.8038],[36.1189,-18.1728,7.676],[36.1387,-18.1996,6.4454],[36.1485,-18.2077,6.7881],[36.1718,-18.222,7.3579],[36.1856,-18.222,8.4626],[36.2034,-18.2262,7.5436],[36.2349,-18.1947,6.7436],[36.234,-18.1922,6.1534],[36.2385,-18.1922,5.4731],[36.2781,-18.1525,6.2188],[36.2823,-18.1431,5.8523],[36.3074,-18.1468,5.3016],[36.3181,-18.1393,4.7368],[36.3111,-18.1233,4.573],[36.3022,-18.117,5.4084],[36.3035,-18.0861,6.2216],[36.3185,-18.099,5.0678],[36.3275,-18.0959,4.7724],[36.3411,-18.1017,4.3703],[36.3536,-18.1028,5.1278],[36.3679,-18.0748,4.4401],[36.3766,-18.0712,3.8786],[36.3908,-18.0729,3.9539],[36.4086,-18.0644,4.0702],[36.4129,-18.0496,5.6339],[36.4432,-18.0382,6.4072],[36.4481,-18.0326,4.5559],[36.4553,-18.0353,4.4142],[36.4762,-18.0521,3.3743],[36.5002,-18.0531,3.074],[36.5302,-18.0497,2.9868],[36.5386,-18.0695,2.8367],[36.5463,-18.074,1.7908],[36.5371,-18.0976,1.6308],[36.5609,-18.0997,1.7242],[36.5799,-18.1084,2.6058],[36.6147,-18.0993,9.0224],[36.6381,-18.1233,3.2827],[36.6293,-18.157,2.3843],[36.6375,-18.1717,1.991],[36.6412,-18.2134,0.0],[36.6465,-18.1922,4.2704],[36.6562,-18.1854,0.0],[36.664,-18.1759,2.2125],[36.6692,-18.1599,9.8962],[36.6565,-18.1641,9.4215],[36.6503,-18.1609,8.4464],[36.6567,-18.1521,7.0189],[36.6661,-18.147,4.2466],[36.6772,-18.1351,8.8874],[36.6873,-18.1313,4.8915],[36.7043,-18.1091,7.7665],[36.7156,-18.1025,5.992],[36.7174,-18.0868,3.5539],[36.6937,-18.0913,3.9914],[36.6908,-18.0831,7.6155],[36.6929,-18.0656,8.3427],[36.682,-18.0677,2.2428],[36.6557,-17.9477,10.4372],[36.6571,-17.7591,3.3413],[36.6439,-17.7578,3.6335],[36.6366,-17.7408,3.498],[36.6363,-17.7202,4.8088],[36.6392,-17.7056,5.98],[36.6364,-17.7005,10.5877],[36.6234,-17.7066,12.4126],[36.6136,-17.7078,7.4629],[36.605,-17.7068,10.1591],[36.5991,-17.696,6.7053],[36.5667,-17.683,13.6681],[36.5582,-17.6747,17.7414],[36.5486,-17.6747,16.7966],[36.513,-17.6563,26.5478],[36.4933,-17.6216,41.3725],[36.4852,-17.614,40.3763],[36.4673,-17.6056,41.2038],[36.4522,-17.5919,59.3254],[36.4426,-17.5859,48.7162],[36.431399999999996,-17.5841,52.4399],[36.4161,-17.5589,58.3833],[36.4012,-17.53,57.5183],[36.3906,-17.5166,63.457],[36.3751,-17.509,75.7577],[36.1051,-17.5021,120.1836],[36.0114,-17.498,109.0257],[35.9898,-17.4989,134.2757],[35.9801,-17.4911,143.1823],[35.9889,-17.5007,139.909],[35.9534,-17.5133,131.4169],[35.9421,-17.5115,118.5161],[35.9184,-17.5025,137.7127],[35.8984,-17.5007,149.6747],[35.7955,-17.509,185.3011],[35.788,-17.5139,174.7332],[35.7891,-17.5238,167.4571],[35.7881,-17.5381,159.9089],[35.7966,-17.566,137.2109],[35.8174,-17.6099,114.2553],[35.8187,-17.6223,112.213],[35.8122,-17.6247,116.1238],[35.821,-17.6388,104.7813],[35.8054,-17.6433,107.7204],[35.6177,-17.652,163.7165],[35.5507,-17.6534,179.5825],[35.5171,-17.6571,252.9267],[35.4882,-17.6408,246.6806],[35.4793,-17.6189,211.666],[35.4691,-17.6081,196.7314],[35.442,-17.5996,173.2695],[35.4101,-17.5986,148.665],[35.3945,-17.6014,137.3281],[35.3837,-17.5969,86.2525],[35.3741,-17.5981,89.8037],[35.3234,-17.597,28.4794],[35.3218,-17.6256,27.4632],[35.3362,-17.669,28.7036],[35.336,-17.6767,27.7249],[35.3297,-17.68,28.1538],[35.3178,-17.6796,27.0],[35.3146,-17.6857,28.8338],[35.318,-17.6914,28.4222],[35.3362,-17.6914,27.8003],[35.3623,-17.7238,26.9048],[35.3675,-17.7333,26.0],[35.3684,-17.74,26.0],[35.3649,-17.7582,25.5],[35.3903,-17.8021,23.5],[35.4198,-17.8361,22.5],[35.4467,-17.8742,24.6753],[35.4605,-17.9017,21.7375]]]]}}