{"type":"Feature","properties":{"GID_3":"MOZ.7.17.4_1","GID_0":"MOZ","country":"Mozambique","GID_1":"MOZ.7_1","province":"Nampula","NL_NAME_1":"NA","GID_2":"MOZ.7.17_1","county":"Nampula","NL_NAME_2":"NA","city":"Namaita","VARNAME_3":"NA","NL_NAME_3":"NA","TYPE_3":"Localidad","ENGTYPE_3":"Locality","CC_3":"NA","HASC_3":"NA","name":"Namaita.city"},
"geometry":{"type": "MultiPolygon","coordinates": [[[[39.1315,-15.3693,248.8823],[39.1276,-15.3616,248.0386],[39.1261,-15.3545,240.867],[39.1269,-15.316,252.3107],[39.1256,-15.2807,240.9429],[39.1277,-15.2543,267.5607],[39.1242,-15.248,254.7273],[39.1179,-15.2418,269.3849],[39.1059,-15.2355,278.7112],[39.1079,-15.2267,262.3575],[39.1186,-15.2014,269.5321],[39.113,-15.1871,294.2941],[39.1153,-15.1717,295.0948],[39.1216,-15.1646,309.9001],[39.1144,-15.1586,313.4009],[39.1271,-15.1506,313.3967],[39.1417,-15.1516,327.8811],[39.1486,-15.1461,327.4267],[39.1602,-15.1304,344.6457],[39.1701,-15.1256,354.331],[39.1694,-15.0834,368.6709],[39.155,-15.0885,355.6317],[39.1429,-15.0882,341.7285],[39.1278,-15.1018,327.397],[39.123,-15.0964,337.1491],[39.1096,-15.0872,399.3586],[39.0904,-15.0635,522.512],[39.0771,-15.0531,407.7736],[39.0698,-15.0512,396.2386],[39.0219,-15.0685,387.8987],[38.9973,-15.0853,426.7137],[38.9882,-15.0875,395.9988],[38.9842,-15.0926,380.5775],[38.9876,-15.1136,366.5276],[38.9885,-15.1376,344.4707],[38.9873,-15.1417,351.9188],[38.9685,-15.1301,351.799],[38.9664,-15.1262,350.0063],[38.9227,-15.128,359.4476],[38.9101,-15.1308,370.7385],[38.8985,-15.1369,377.1147],[38.8807,-15.1408,392.4481],[38.8728,-15.146,407.2856],[38.8451,-15.154,471.6864],[38.8086,-15.1727,530.5603],[38.7857,-15.1822,452.6348],[38.7586,-15.1885,432.2009],[38.7669,-15.2088,406.836],[38.7669,-15.2196,417.3009],[38.7684,-15.2236,407.3163],[38.7844,-15.2309,397.5816],[38.7918,-15.2302,397.9203],[38.801,-15.2325,405.7954],[38.8195,-15.2271,396.652],[38.8255,-15.2289,386.7764],[38.8291,-15.2418,399.6305],[38.8418,-15.2503,392.3272],[38.8478,-15.2519,374.5078],[38.8601,-15.2604,378.5352],[38.8752,-15.2619,362.5614],[38.8829,-15.2719,359.7329],[38.8912,-15.2784,354.1108],[38.9479,-15.2907,341.5818],[38.9694,-15.3149,330.9486],[38.9775,-15.32,325.0761],[38.9898,-15.3316,321.2484],[38.9989,-15.3346,317.7864],[39.0091,-15.3351,323.0795],[39.0034,-15.3494,311.0729],[39.0075,-15.3578,314.6941],[39.0017,-15.3649,311.799],[38.9943,-15.3806,307.2425],[38.9935,-15.3857,304.0489],[38.9947,-15.3904,293.3581],[39.0103,-15.3876,293.31],[39.0186,-15.3883,286.8148],[39.0204,-15.3906,299.0897],[39.0207,-15.3968,284.1816],[39.0235,-15.4001,273.8246],[39.0272,-15.4025,289.4182],[39.041,-15.4063,271.6411],[39.0471,-15.393,279.6121],[39.0626,-15.3776,326.3384],[39.0904,-15.3806,290.2483],[39.0983,-15.38,269.0897],[39.1276,-15.3688,230.7636],[39.1315,-15.3693,248.8823]]]]}}