{"type": "Feature","bbox": [31.1902,-15.111,33.0973,-14.0413],"geometry": {"type": "MultiPolygon","coordinates": [[[[33.0973,-14.0415,1063.515],[33.0931,-14.0413,1066.5977],[33.0006,-14.077,963.7103],[32.9055,-14.1021,908.0581],[32.6923,-14.176,1243.1575],[32.6439,-14.1945,729.9211],[32.5127,-14.2512,868.6151],[32.4697,-14.2675,1164.9701],[32.4242,-14.2786,961.3967],[32.394,-14.283,927.7578],[32.3765,-14.2879,938.7839],[32.286,-14.3042,948.1261],[32.2376,-14.3149,949.3126],[32.1272,-14.3507,929.666],[32.1029,-14.3613,951.9742],[32.0355,-14.3863,962.7769],[31.9955,-14.3968,995.5561],[31.9835,-14.3965,1011.053],[31.9699,-14.4001,1008.0784],[31.9561,-14.401,1023.3749],[31.8833,-14.4391,1003.9882],[31.8611,-14.4491,995.4224],[31.8317,-14.4674,986.3374],[31.8155,-14.4742,1018.4197],[31.8051,-14.477,1016.0731],[31.7767,-14.4767,983.2288],[31.7159,-14.4934,991.4619],[31.6949,-14.495,1030.6499],[31.6661,-14.5033,996.527],[31.6547,-14.5093,1011.5579],[31.6371,-14.5224,1003.9526],[31.5877,-14.5507,993.4435],[31.5419,-14.5803,1039.0597],[31.528199999999998,-14.5871,1034.5781],[31.5064,-14.601,1061.8114],[31.498,-14.6043,1059.7732],[31.4581,-14.614,1050.6104],[31.4256,-14.6186,1012.9872],[31.3762,-14.6289,998.4075],[31.3441,-14.6381,1014.3646],[31.3271,-14.6392,1042.8528],[31.2847,-14.6514,1092.5288],[31.2633,-14.6558,1121.1228],[31.2387,-14.665,1096.0371],[31.1902,-14.6795,1062.5103],[31.2668,-14.6588,1114.184],[31.3252,-14.65,1040.0261],[31.3667,-14.6408,987.8344],[31.3757,-14.6547,970.5328],[31.3737,-14.664,971.4224],[31.3764,-14.6728,966.9135],[31.3764,-14.6887,960.7423],[31.3741,-14.697,963.6746],[31.3627,-14.7074,964.1301],[31.365,-14.7198,960.6843],[31.3629,-14.7254,946.5474],[31.3594,-14.7291,937.7279],[31.3588,-14.7444,938.7892],[31.3503,-14.7499,926.6443],[31.3454,-14.7573,926.9614],[31.3479,-14.7657,925.0331],[31.3559,-14.78,911.3205],[31.3632,-14.7844,907.3353],[31.3785,-14.7891,903.574],[31.3835,-14.7928,909.7257],[31.3848,-14.8009,908.8202],[31.3822,-14.8113,893.2903],[31.3717,-14.8258,897.1367],[31.3693,-14.8416,878.5741],[31.3628,-14.8622,878.3694],[31.3816,-14.8779,867.889],[31.3815,-14.8846,870.3491],[31.3788,-14.8914,860.4911],[31.3824,-14.9033,866.3794],[31.3812,-14.9252,846.3026],[31.3923,-14.9468,842.5231],[31.3924,-14.9542,833.5667],[31.3892,-14.9648,841.5668],[31.3918,-14.9718,837.4823],[31.3999,-14.9805,823.0714],[31.4177,-14.995,820.0778],[31.4208,-14.999,812.8027],[31.4273,-15.0156,811.8163],[31.4411,-15.035,805.3314],[31.4428,-15.045,796.0442],[31.4464,-15.0535,799.3467],[31.4599,-15.079,791.796],[31.4556,-15.0866,791.6611],[31.4535,-15.0954,790.9393],[31.4594,-15.1041,784.5795],[31.4626,-15.1066,793.9139],[31.4735,-15.1068,806.2234],[31.4763,-15.098,810.1298],[31.4908,-15.1056,818.4334],[31.4975,-15.1063,829.0942],[31.5031,-15.1036,833.2949],[31.5148,-15.1019,834.5873],[31.526,-15.0982,850.1752],[31.5316,-15.099,849.7692],[31.5449,-15.0956,865.6342],[31.5518,-15.1078,882.5225],[31.5556,-15.111,890.002],[31.5753,-15.1033,913.4214],[31.5854,-15.0946,942.6979],[31.5904,-15.0867,958.3611],[31.6782,-15.0407,895.4997],[31.6791,-15.033,898.4019],[31.684,-15.0256,904.8022],[31.6839,-15.0217,903.6555],[31.6829,-15.0172,919.8552],[31.6753,-15.0042,912.9076],[31.6861,-14.9771,945.8353],[31.6957,-14.9747,935.2482],[31.7103,-14.9614,960.8737],[31.7241,-14.9413,1001.3882],[31.8142,-14.8853,1082.9033],[31.8291,-14.893,1081.5657],[31.8607,-14.9253,1110.0803],[31.8684,-14.9304,1111.7505],[31.874,-14.9322,1116.7743],[31.8893,-14.9017,1048.5765],[31.9064,-14.8798,1007.8424],[31.9147,-14.8766,988.1411],[31.9307,-14.8757,968.7544],[31.9812,-14.8546,929.5535],[31.9992,-14.8317,919.2878],[32.0188,-14.8202,914.6211],[32.0253,-14.8124,854.4611],[32.0469,-14.8057,825.4119],[32.0724,-14.8178,807.8408],[32.0957,-14.8241,786.1354],[32.1176,-14.8382,769.1891],[32.1834,-14.8427,745.0368],[32.197,-14.8229,751.1349],[32.2095,-14.8149,710.7549],[32.2247,-14.8081,702.7995],[32.2559,-14.8009,690.6967],[32.3191,-14.7919,679.0591],[32.3347,-14.7858,659.4751],[32.3408,-14.771,624.7269],[32.3548,-14.7666,613.1534],[32.3703,-14.7652,608.0916],[32.4081,-14.7707,564.8627],[32.4344,-14.7675,558.3802],[32.49,-14.7496,534.8041],[32.4811,-14.7322,553.4351],[32.4589,-14.7045,569.5349],[32.4542,-14.6923,554.2778],[32.4538,-14.683,555.7223],[32.4433,-14.6605,627.3512],[32.4178,-14.6334,608.3505],[32.4077,-14.619,609.8771],[32.4006,-14.6028,622.2856],[32.3903,-14.5954,615.1127],[32.3193,-14.6029,664.2237],[32.3089,-14.6001,660.6688],[32.2661,-14.5428,774.1318],[32.2642,-14.5309,788.7914],[32.2597,-14.5286,794.5184],[32.254,-14.5297,793.5208],[32.2464,-14.5108,814.2273],[32.2439,-14.4729,816.151],[32.2355,-14.4485,836.6266],[32.2162,-14.4359,845.5538],[32.2101,-14.4286,843.3667],[32.2018,-14.4165,847.143],[32.1859,-14.3878,883.4341],[32.1884,-14.3805,860.9439],[32.1848,-14.3655,866.5659],[32.1665,-14.3489,890.8269],[32.1827,-14.3419,915.3079],[32.2054,-14.3359,931.5583],[32.2423,-14.323,932.3549],[32.3151,-14.3079,912.6179],[32.3214,-14.3054,926.5189],[32.3345,-14.3046,919.7023],[32.3581,-14.2996,908.2444],[32.3959,-14.2945,929.696],[32.4512,-14.2828,1151.65],[32.5272,-14.2484,865.6858],[32.5357,-14.2464,877.2034],[32.6107,-14.2145,751.908],[32.7941,-14.1487,967.6556],[32.843,-14.1331,835.0059],[32.9142,-14.1074,893.8796],[32.9217,-14.1064,856.7336],[32.9343,-14.1012,889.108],[32.9479,-14.0978,881.1752],[33.0701,-14.0528,1122.9817],[33.0973,-14.0415,1063.515]]]]}
,"properties": {"GID_3": "MOZ.10.8.4_1","GID_0": "MOZ","country": "Mozambique","GID_1": "MOZ.10_1","province": "Tete","NL_NAME_1": "NA","GID_2": "MOZ.10.8_1","county": "Maravia","NL_NAME_2": "NA","city": "Molowera(Malowera)","VARNAME_3": "NA","NL_NAME_3": "NA","TYPE_3": "Localidad","ENGTYPE_3": "Locality","CC_3": "NA","HASC_3": "NA","name": "Molowera(Malowera).city","area_km2": 5374.238,"hist_schema_id": "Elevation0-9000","hist_area_km2": {"525": 1.046,"550": 12.016,"575": 15.912,"600": 15.75,"625": 24.962,"650": 44.12,"675": 43.851,"700": 44.463,"725": 47.85,"750": 71.211,"775": 94.279,"800": 129.245,"825": 178.229,"850": 225.267,"875": 288.733,"900": 382.997,"925": 549.692,"950": 693.584,"975": 795.945,"1000": 684.115,"1025": 489.905,"1050": 297.859,"1075": 121.769,"1100": 42.121,"1125": 24.516,"1150": 16.741,"1175": 13.438,"1200": 9.54,"1225": 5.909,"1250": 3.53,"1275": 2.237,"1300": 1.19,"1325": 0.637,"1350": 0.801,"1375": 0.452,"1400": 0.267,"1425": 0.062}}}