{"type":"Feature","properties":{"GID_3":"MOZ.8.15.1_1","GID_0":"MOZ","country":"Mozambique","GID_1":"MOZ.8_1","province":"Nassa","NL_NAME_1":"NA","GID_2":"MOZ.8.15_1","county":"Sanga","NL_NAME_2":"NA","city":"Lussimbeze","VARNAME_3":"NA","NL_NAME_3":"NA","TYPE_3":"Localidad","ENGTYPE_3":"Locality","CC_3":"NA","HASC_3":"NA","name":"Lussimbeze.city"},
"geometry":{"type": "MultiPolygon","coordinates": [[[[34.952,-13.0785,1066.6913],[34.9696,-13.0591,1230.6118],[34.9727,-13.0621,1274.6901],[34.9758,-13.0889,1160.2349],[34.9758,-13.1217,1053.8899],[34.9788,-13.1605,770.9911],[35.0049,-13.1285,790.9853],[35.0234,-13.1126,825.3445],[35.0658,-13.0899,860.8911],[35.0842,-13.0716,861.6555],[35.1059,-13.0851,889.5179],[35.1203,-13.1195,1127.9075],[35.1786,-13.1406,1308.3774],[35.2159,-13.1236,1205.4027],[35.238,-13.122,1178.5758],[35.2408,-13.1291,1159.4727],[35.2557,-13.1365,1297.6643],[35.3107,-13.1468,1281.2039],[35.3157,-13.1559,1222.1146],[35.3301,-13.1571,1171.5339],[35.3659,-13.1516,1118.4385],[35.3821,-13.1451,1130.0837],[35.4016,-13.1465,1112.5],[35.4187,-13.141,1086.618],[35.4282,-13.1232,1065.1626],[35.4141,-13.0912,1076.6553],[35.4062,-13.0612,1097.6938],[35.394,-13.0258,1064.6702],[35.3691,-13.0105,1039.6115],[35.3506,-13.0343,1054.4814],[35.3407,-13.041,1093.5188],[35.3165,-13.056,1125.2028],[35.3074,-13.0582,1118.3732],[35.295,-13.0582,1189.3237],[35.2803,-13.041,1157.2732],[35.3014,-13.0166,1082.073],[35.2985,-12.9603,1087.8259],[35.2855,-12.9536,1155.9174],[35.2642,-12.9329,1199.8623],[35.2425,-12.927,1174.8116],[35.2158,-12.927,1167.657],[35.1965,-12.9125,1306.5182],[35.1746,-12.927,1424.2979],[35.1596,-12.9415,1314.847],[35.1223,-12.93,1319.8246],[35.1147,-12.9144,1296.3475],[35.1036,-12.9091,1329.8464],[35.0758,-12.8793,1265.7458],[35.086,-12.8448,1470.3625],[35.0069,-12.9933,1278.8716],[34.9723,-13.0541,1278.7854],[34.952,-13.0785,1066.6913]]]]}}