{"type":"Feature","properties":{"GID_3":"MOZ.6.5.5_1","GID_0":"MOZ","country":"Mozambique","GID_1":"MOZ.6_1","province":"Maputo","NL_NAME_1":"NA","GID_2":"MOZ.6.5_1","county":"Matutuíne","NL_NAME_2":"NA","city":"Zitundo","VARNAME_3":"NA","NL_NAME_3":"NA","TYPE_3":"Localidad","ENGTYPE_3":"Locality","CC_3":"NA","HASC_3":"NA","name":"Zitundo.city"},
"geometry":{"type": "MultiPolygon","coordinates": [[[[32.3406,-26.8563,23.9725],[32.3469,-26.856,20.991],[32.3469,-26.864,26.2059],[32.5657,-26.8645,93.0665],[32.6829,-26.8681,58.0872],[32.7362,-26.8665,61.9913],[32.8203,-26.8687,31.4777],[32.8442,-26.8683,28.9221],[32.8729,-26.8644,5.2194],[32.891,-26.8589,16.2778],[32.8965,-26.8463,0.0],[32.8957,-26.844,0.0],[32.8901,-26.844,0.977],[32.8874,-26.8404,5.2183],[32.886,-26.8274,0.0],[32.8921,-26.7987,0.0],[32.8904,-26.794,3.5442],[32.8901,-26.784,3.559],[32.8946,-26.7654,0.0],[32.9018,-26.746,0.0],[32.9007,-26.7279,0.0],[32.9049,-26.7104,0.0],[32.9018,-26.7085,1.0901],[32.9007,-26.7055,0.0],[32.8459,-26.6973,24.2363],[32.775,-26.6927,50.9149],[32.7623,-26.6905,53.6386],[32.5842,-26.6495,64.921],[32.5596,-26.6462,7.7578],[32.5542,-26.6498,7.2848],[32.5545,-26.6569,9.6128],[32.5616,-26.6633,9.0993],[32.5629,-26.6711,9.3062],[32.5625,-26.6861,9.2593],[32.5641,-26.695,15.6865],[32.561,-26.7012,10.2327],[32.552,-26.7126,10.0806],[32.5409,-26.7215,11.328],[32.5384,-26.7259,11.4292],[32.531,-26.7237,15.6811],[32.5263,-26.7271,21.7868],[32.5021,-26.7351,54.472],[32.504,-26.7426,10.8986],[32.4909,-26.7534,12.1342],[32.4914,-26.7607,12.2207],[32.4875,-26.7775,13.7327],[32.4778,-26.7918,17.5899],[32.4713,-26.7979,14.5103],[32.4617,-26.7992,20.8195],[32.4532,-26.7962,16.9628],[32.4471,-26.7975,17.2217],[32.4462,-26.7916,22.075],[32.4404,-26.7884,50.5427],[32.4341,-26.792,14.8472],[32.4256,-26.7876,18.7738],[32.421,-26.7794,16.5926],[32.4103,-26.7752,16.6033],[32.4031,-26.7769,17.7147],[32.4026,-26.7866,25.3881],[32.406,-26.7937,18.8394],[32.3928,-26.7983,25.2601],[32.3867,-26.7947,19.7183],[32.3848,-26.7965,20.954],[32.3905,-26.8053,24.0057],[32.3798,-26.8127,26.2971],[32.3709,-26.8151,28.7375],[32.3641,-26.8208,23.416],[32.361,-26.8283,21.1526],[32.3615,-26.8361,23.7728],[32.3498,-26.8493,23.0999],[32.3433,-26.8551,23.5534],[32.3417,-26.8549,24.2508],[32.3404,-26.8562,24.5343],[32.3406,-26.8563,23.9725]]]]}}