{"type":"Feature","properties":{"GID_3":"MOZ.11.1.1_1","GID_0":"MOZ","country":"Mozambique","GID_1":"MOZ.11_1","province":"Zambezia","NL_NAME_1":"NA","GID_2":"MOZ.11.1_1","county":"AltoMolocue","NL_NAME_2":"NA","city":"Nauela","VARNAME_3":"NA","NL_NAME_3":"NA","TYPE_3":"Localidad","ENGTYPE_3":"Locality","CC_3":"NA","HASC_3":"NA","name":"Nauela.city"},
"geometry":{"type": "MultiPolygon","coordinates": [[[[37.3102,-15.1274,733.1443],[37.3045,-15.1357,740.6787],[37.306,-15.1363,742.988],[37.3094,-15.1556,736.7383],[37.3004,-15.2027,747.7709],[37.3003,-15.2169,752.0051],[37.2945,-15.2355,750.6013],[37.2758,-15.2569,772.0854],[37.2684,-15.2694,778.9011],[37.2915,-15.2866,804.022],[37.2876,-15.2956,807.0862],[37.273,-15.3177,846.7958],[37.3072,-15.3276,931.1213],[37.3358,-15.345,1117.6819],[37.3871,-15.3588,1280.0353],[37.3605,-15.379,1189.657],[37.3681,-15.3946,822.2683],[37.3453,-15.4542,1097.3557],[37.3424,-15.467,746.8004],[37.3462,-15.4753,736.7154],[37.3409,-15.4899,703.5509],[37.3232,-15.5045,704.1473],[37.3069,-15.5256,661.2657],[37.2864,-15.5321,647.9337],[37.2619,-15.545,635.0739],[37.2415,-15.5588,616.8932],[37.2244,-15.5671,612.7538],[37.2177,-15.5788,611.1567],[37.2082,-15.597,606.6152],[37.2434,-15.6295,825.4776],[37.269,-15.6322,767.8531],[37.2959,-15.6558,795.8864],[37.3031,-15.6596,788.1807],[37.3272,-15.6616,744.7805],[37.3529,-15.6598,619.7626],[37.3636,-15.6611,688.7673],[37.3682,-15.6647,624.8299],[37.3688,-15.6729,614.1398],[37.3717,-15.6769,577.2971],[37.3648,-15.6916,575.1318],[37.3738,-15.6992,558.4016],[37.3819,-15.7017,563.1891],[37.411,-15.6853,633.8994],[37.4514,-15.6585,632.4763],[37.4844,-15.6528,664.0624],[37.4975,-15.6258,660.0093],[37.5013,-15.6065,644.6272],[37.5013,-15.568,760.0954],[37.5042,-15.5541,779.1835],[37.5259,-15.5422,698.1584],[37.5508,-15.5183,644.4662],[37.5632,-15.5213,650.4669],[37.5787,-15.5213,638.5247],[37.5886,-15.5011,630.0557],[37.5911,-15.4915,650.7682],[37.6092,-15.4857,719.8723],[37.6242,-15.5056,666.4697],[37.6376,-15.5004,652.8221],[37.675,-15.5124,665.4421],[37.6874,-15.5213,660.4401],[37.7108,-15.523,617.9057],[37.7402,-15.5183,583.7512],[37.7689,-15.5047,557.9591],[37.7946,-15.4992,556.9982],[37.8365,-15.4863,609.6508],[37.8593,-15.4698,632.2302],[37.8789,-15.4604,634.0815],[37.8731,-15.4565,630.9824],[37.8682,-15.4496,618.1205],[37.8521,-15.4375,668.4387],[37.8418,-15.3978,693.3668],[37.8364,-15.3931,669.6313],[37.8234,-15.3719,683.8979],[37.8135,-15.3624,682.0957],[37.8086,-15.3489,692.8863],[37.8117,-15.3387,711.3986],[37.8435,-15.3068,656.1278],[37.8521,-15.3006,642.6245],[37.8986,-15.2767,624.9687],[37.9111,-15.2767,587.1005],[37.9155,-15.2746,580.8074],[37.9175,-15.2627,581.4796],[37.9366,-15.2341,548.1864],[37.925,-15.2305,546.9529],[37.9056,-15.2308,548.6822],[37.9003,-15.2266,551.7352],[37.8844,-15.2367,552.3066],[37.8735,-15.2326,556.3413],[37.8671,-15.2262,577.3029],[37.8489,-15.2174,567.5702],[37.8447,-15.2111,567.6232],[37.8335,-15.2055,568.4542],[37.7967,-15.2166,575.9104],[37.7603,-15.2135,582.2231],[37.7402,-15.2224,585.5485],[37.7234,-15.2352,603.9771],[37.7108,-15.2424,601.6985],[37.6912,-15.2471,612.9564],[37.6832,-15.2439,622.1635],[37.675,-15.2439,622.0254],[37.634,-15.2368,628.1942],[37.6253,-15.232,650.8353],[37.6184,-15.2156,646.7182],[37.6175,-15.2073,648.7844],[37.5975,-15.1917,660.1962],[37.5924,-15.1913,661.5156],[37.5455,-15.1511,688.3672],[37.5384,-15.1477,692.3416],[37.5322,-15.1477,699.4975],[37.5168,-15.1328,714.0221],[37.4768,-15.1537,755.1359],[37.4645,-15.1656,768.3739],[37.4491,-15.1746,795.2949],[37.4368,-15.1805,791.5266],[37.4205,-15.1858,766.9275],[37.4144,-15.184,813.6328],[37.4085,-15.1766,811.2647],[37.406,-15.1597,1090.1382],[37.3999,-15.1395,1287.0228],[37.3805,-15.1183,1303.8149],[37.3624,-15.1055,1348.1821],[37.3557,-15.111,1247.5927],[37.3377,-15.133,786.4878],[37.3234,-15.1348,764.109],[37.3139,-15.1321,748.7648],[37.3102,-15.1274,733.1443]]]]}}