{"type": "Feature","bbox": [39.8671,-12.0012,40.1395,-11.6224],"geometry": {"type": "MultiPolygon","coordinates": [[[[40.1274,-11.7345,28.8686],[40.1155,-11.7337,35.3577],[40.1002,-11.7302,35.4703],[40.0733,-11.7154,41.4809],[40.0633,-11.7006,46.4908],[40.0562,-11.695,49.3686],[40.0215,-11.6377,82.8918],[40.0065,-11.626,87.4409],[39.9739,-11.6224,95.4176],[39.9514,-11.6288,104.7838],[39.9582,-11.6794,156.5564],[40.0124,-11.7242,115.9148],[39.9941,-11.7362,103.9054],[39.985,-11.757,171.1223],[39.9636,-11.7809,140.6255],[39.9758,-11.8077,111.9113],[39.985,-11.8346,127.1385],[39.9463,-11.8472,189.5501],[39.9373,-11.8552,161.8815],[39.928,-11.8614,139.0082],[39.9157,-11.8669,128.3804],[39.8937,-11.8837,174.9457],[39.8934,-11.889099999999999,190.444],[39.9115,-11.902,100.1371],[39.9125,-11.9088,87.3203],[39.9073,-11.926,82.5452],[39.8907,-11.9386,66.1216],[39.88,-11.9637,75.5301],[39.8709,-11.9966,75.7412],[39.8671,-12.0012,77.1592],[39.8701,-11.9993,72.5],[39.8854,-11.9784,76.0984],[39.9067,-11.9575,75.0746],[39.922,-11.9396,69.4152],[39.9822,-11.9145,55.0712],[40.0185,-11.8913,50.2027],[40.0582,-11.8718,44.1724],[40.0931,-11.8501,40.4988],[40.1175,-11.8293,33.8163],[40.1313,-11.8077,32.2164],[40.1374,-11.7779,28.3146],[40.1395,-11.7571,47.4142],[40.1358,-11.7428,27.9385],[40.1274,-11.7345,28.8686]]]]}
,"properties": {"GID_3": "MOZ.1.10.1_1","GID_0": "MOZ","country": "Mozambique","GID_1": "MOZ.1_1","province": "CaboDelgado","NL_NAME_1": "NA","GID_2": "MOZ.1.10_1","county": "Muidumbe","NL_NAME_2": "NA","city": "Chitunda","VARNAME_3": "NA","NL_NAME_3": "NA","TYPE_3": "Localidad","ENGTYPE_3": "Locality","CC_3": "NA","HASC_3": "NA","name": "Chitunda.city","area_km2": 441.2634,"hist_schema_id": "Elevation0-9000","hist_area_km2": {"25": 55.8539,"50": 96.0875,"75": 93.0554,"100": 79.3761,"125": 54.5905,"150": 33.8909,"175": 16.3521,"200": 9.5455,"225": 1.6396,"250": 0.5397,"275": 0.2491,"300": 0.083}}}