{"type": "Feature","bbox": [32.5364,-24.191,33.1186,-23.576],"geometry": {"type": "MultiPolygon","coordinates": [[[[33.0161,-23.6269,69.1336],[32.9719,-23.6003,76.1178],[32.9616,-23.5887,76.6278],[32.9481,-23.5802,78.2441],[32.9197,-23.576,79.12],[32.9043,-23.5763,81.9086],[32.8786,-23.5828,84.6942],[32.8616,-23.6038,89.8075],[32.8424,-23.6335,91.2164],[32.8165,-23.6601,92.6963],[32.7995,-23.6671,93.3543],[32.7669,-23.6775,91.8164],[32.7341,-23.6844,94.651],[32.7361,-23.6914,93.5534],[32.7523,-23.7048,91.4742],[32.7638,-23.718,90.3274],[32.7701,-23.7293,87.7875],[32.7936,-23.7482,84.2184],[32.7905,-23.752,84.6178],[32.6174,-23.7907,93.921],[32.5563,-23.817,102.6296],[32.5364,-23.8285,55.5],[32.5364,-23.8316,59.3449],[32.5553,-23.8339,60.7918],[32.5907,-23.9286,53.6074],[32.5744,-23.9575,54.4876],[32.5714,-23.9688,53.2327],[32.5763,-23.9849,48.6386],[32.5903,-23.9949,52.9777],[32.6047,-24.0107,47.5056],[32.6092,-24.0185,47.5292],[32.6134,-24.0376,46.6093],[32.6111,-24.0557,51.6159],[32.6128,-24.0611,47.636],[32.6125,-24.0673,47.5126],[32.6171,-24.0828,46.4492],[32.6265,-24.1009,45.1795],[32.6371,-24.1105,45.7249],[32.6512,-24.1145,64.5761],[32.672,-24.1266,79.7103],[32.7039,-24.1604,47.0956],[32.721,-24.1707,38.6591],[32.7263,-24.1781,37.0],[32.7399,-24.191,45.5746],[32.8357,-24.0924,58.6837],[32.8911,-24.0243,58.3328],[32.914,-24.0035,64.7289],[32.9111,-23.9997,64.5446],[32.9789,-23.9394,62.0256],[32.9986,-23.9498,58.4316],[33.0079,-23.9523,58.643],[33.0151,-23.9355,61.5172],[33.0172,-23.9194,60.487],[33.0386,-23.8795,56.7186],[33.0992,-23.7312,64.0634],[33.1149,-23.6728,71.657],[33.1186,-23.6508,66.5265],[33.1137,-23.6431,68.7598],[33.108,-23.6405,67.6328],[33.1022,-23.6415,69.6511],[33.0857,-23.6487,68.2082],[33.0751,-23.6483,67.8536],[33.0471,-23.6331,71.022],[33.0161,-23.6269,69.1336]]]]}
,"properties": {"GID_3": "MOZ.2.7.2_1","GID_0": "MOZ","country": "Mozambique","GID_1": "MOZ.2_1","province": "Gaza","NL_NAME_1": "NA","GID_2": "MOZ.2.7_1","county": "Mabalane","NL_NAME_2": "NA","city": "Mabalane","VARNAME_3": "NA","NL_NAME_3": "NA","TYPE_3": "Localidad","ENGTYPE_3": "Locality","CC_3": "NA","HASC_3": "NA","name": "Mabalane.city","area_km2": 2108.96,"hist_schema_id": "Elevation0-9000","hist_area_km2": {"25": 0.097,"50": 190.129,"75": 1565.005,"100": 351.577,"125": 2.152}}}