{"type":"Feature","properties":{"GID_2":"MOZ.8.9_1","GID_0":"MOZ","country":"Mozambique","GID_1":"MOZ.8_1","province":"Nassa","NL_NAME_1":"NA","county":"Mecanhelas","VARNAME_2":"NA","NL_NAME_2":"NA","TYPE_2":"Distrito","ENGTYPE_2":"District","CC_2":"NA","HASC_2":"MZ.NS.MS","name":"Mecanhelas.county"},
"geometry":{"type": "MultiPolygon","coordinates": [[[[35.7944,-15.1899,622.5],[35.8382,-15.3614,622.5],[35.843,-15.3738,622.5],[35.8418,-15.3738,622.5],[35.8448,-15.3887,622.5],[35.8521,-15.4175,629.6171],[35.8506,-15.4441,625.0656],[36.0846,-15.4457,704.7186],[36.1133,-15.4283,674.1846],[36.1244,-15.4263,684.1463],[36.1399,-15.4347,690.0157],[36.1781,-15.45,700.3949],[36.1863,-15.4503,703.1409],[36.2363,-15.4684,779.1602],[36.2827,-15.4663,1012.7494],[36.2851,-15.4621,1024.894],[36.2875,-15.4486,815.4332],[36.2698,-15.4298,721.7726],[36.2676,-15.3998,695.4833],[36.2841,-15.3875,686.4537],[36.3146,-15.3526,669.309],[36.3221,-15.3388,669.6652],[36.3359,-15.3208,659.8463],[36.347,-15.3113,655.1892],[36.3585,-15.2893,648.7927],[36.4399,-15.2685,634.5641],[36.4307,-15.2589,645.2228],[36.4082,-15.2578,656.2459],[36.3014,-15.2243,912.5453],[36.2703,-15.1849,671.2313],[36.2707,-15.1762,669.3792],[36.2854,-15.1527,652.2856],[36.3018,-15.1159,635.7805],[36.3102,-15.1063,632.7136],[36.3171,-15.0773,624.7728],[36.327,-15.0538,619.9015],[36.3348,-15.0442,617.052],[36.331,-15.0327,614.8777],[36.3149,-15.0147,609.588],[36.3149,-15.008,608.5015],[36.321,-14.9986,605.4332],[36.3172,-14.9895,605.6093],[36.3334,-14.9626,599.8204],[36.3442,-14.9331,596.8798],[36.3483,-14.8823,587.8091],[36.3435,-14.8583,584.25],[36.3429,-14.8433,580.1171],[36.3469,-14.8349,581.2545],[36.3567,-14.8346,582.7899],[36.3671,-14.8382,578.0804],[36.3709,-14.8343,578.1848],[36.3731,-14.8267,578.0508],[36.3897,-14.8194,575.9455],[36.3918,-14.8149,576.4958],[36.3897,-14.8113,575.6581],[36.3831,-14.8075,577.2808],[36.3671,-14.8051,581.1798],[36.3626,-14.7966,582.165],[36.3471,-14.7824,589.5645],[36.3441,-14.7758,586.454],[36.3387,-14.7697,589.2924],[36.3165,-14.768,592.7034],[36.2976,-14.7556,605.2053],[36.288,-14.7514,601.1537],[36.2676,-14.7509,606.4421],[36.2575,-14.7399,608.2293],[36.239,-14.7129,613.4365],[36.2294,-14.6943,616.4653],[36.2258,-14.6822,622.7994],[36.2257,-14.6642,629.6658],[36.2205,-14.6422,634.0342],[36.2246,-14.6294,639.748],[36.2228,-14.587,653.6213],[36.215,-14.5768,662.0712],[36.2071,-14.5719,667.7012],[36.1938,-14.5703,678.1645],[36.1393,-14.5395,670.9548],[36.0463,-14.5223,681.9659],[36.0524,-14.5061,636.3152],[36.0454,-14.5049,636.073],[36.0324,-14.4947,635.6979],[36.0284,-14.4846,638.0394],[36.0261,-14.472,638.4325],[36.0133,-14.4372,633.0364],[36.0078,-14.4313,630.2296],[35.9736,-14.4247,628.4993],[35.9667,-14.4202,627.5],[35.9617,-14.4122,627.5],[35.947,-14.3955,627.5],[35.9221,-14.3926,627.5],[35.9203,-14.3757,627.5],[35.9221,-14.3702,627.5],[35.931,-14.3562,627.5],[35.9392,-14.3494,628.1467],[35.9403,-14.3447,629.8498],[35.9535,-14.3274,628.8108],[35.9603,-14.3021,625.2554],[35.9556,-14.272,622.8411],[35.9371,-14.2681,621.8815],[35.9355,-14.2638,629.6763],[35.9403,-14.2546,621.0822],[35.9412,-14.2476,622.3313],[35.9369,-14.241,628.6064],[35.931,-14.2357,630.0715],[35.923,-14.2331,633.3483],[35.9086,-14.2419,633.2015],[35.9034,-14.2386,641.5581],[35.8973,-14.2388,637.2747],[35.8867,-14.2484,639.2791],[35.8731,-14.2522,645.8669],[35.8652,-14.2526,650.1533],[35.861,-14.2509,658.442],[35.8683,-14.2369,677.8608],[35.8322,-14.2295,685.5917],[35.8199,-14.2238,694.976],[35.8007,-14.2195,703.0209],[35.7457,-14.2205,723.9498],[35.7261,-14.2158,777.5017],[35.7172,-14.2128,828.3201],[35.709,-14.2078,780.314],[35.7006,-14.1894,790.3217],[35.6873,-14.1804,812.3354],[35.6645,-14.1691,861.1178],[35.6506,-14.1712,905.7972],[35.6431,-14.1617,887.1359],[35.6394,-14.1379,877.6645],[35.6368,-14.1303,853.9177],[35.6378,-14.119,857.0624],[35.6334,-14.0913,811.709],[35.6338,-14.0849,817.6556],[35.6405,-14.0778,811.0253],[35.6443,-14.0627,814.1373],[35.6481,-14.0607,813.7452],[35.6486,-14.0565,803.194],[35.6445,-14.0524,807.554],[35.6391,-14.0529,823.824],[35.6305,-14.0587,823.6011],[35.6238,-14.0576,824.2993],[35.6196,-14.0595,820.8895],[35.608,-14.071,828.9407],[35.6027,-14.0709,841.8225],[35.5973,-14.0663,834.7418],[35.5903,-14.0632,848.3368],[35.5813,-14.0748,860.6403],[35.562,-14.0888,882.1205],[35.5554,-14.0913,897.1283],[35.53,-14.09,908.3488],[35.5176,-14.0943,917.2972],[35.5081,-14.0928,910.1727],[35.4925,-14.0978,922.9498],[35.4857,-14.1027,927.5156],[35.4761,-14.1067,929.6244],[35.4685,-14.1072,928.7003],[35.465,-14.1057,944.4314],[35.45,-14.0925,943.3333],[35.4401,-14.0883,963.7239],[35.4148,-14.0895,1016.9193],[35.484,-14.1674,950.4058],[35.4946,-14.1892,935.9125],[35.508,-14.2248,946.5614],[35.5174,-14.2607,909.1169],[35.5776,-14.3315,821.3134],[35.637,-14.3948,769.9339],[35.7267,-14.5006,840.6415],[35.77,-14.5571,678.0493],[35.8703,-14.6745,627.5],[35.8707,-14.7092,627.5],[35.8694,-14.7074,627.5],[35.8684,-14.7236,627.5],[35.8698,-14.7296,627.5],[35.8705,-14.8946,629.1276],[35.915,-14.895,628.8911],[35.8882,-14.953,630.6037],[35.8898,-14.9536,630.6037],[35.8872,-14.9596,630.5933],[35.7892,-15.1679,622.5],[35.7944,-15.1899,622.5]]]]}}