{"type": "Feature","bbox": [35.145,-17.6571,36.4607,-16.3527],"geometry": {"type": "MultiPolygon","coordinates": [[[[35.297,-17.1262,34.0511],[35.2942,-17.1261,34.7727],[35.2909,-17.1376,34.5822],[35.2963,-17.1407,34.8805],[35.3036,-17.1407,34.9023],[35.3033,-17.1479,36.3669],[35.3014,-17.1649,35.7677],[35.2951,-17.1696,35.0891],[35.3014,-17.1875,35.0503],[35.3081,-17.1946,34.0516],[35.3078,-17.2012,34.7216],[35.3115,-17.2081,35.3001],[35.3047,-17.2192,33.1042],[35.3035,-17.238,31.5858],[35.2959,-17.2413,31.7781],[35.2994,-17.2504,31.8725],[35.2948,-17.2681,31.049],[35.306,-17.2734,30.507],[35.3225,-17.2993,29.7297],[35.3251,-17.3156,29.5144],[35.3326,-17.3308,29.4156],[35.3188,-17.3329,29.4235],[35.3259,-17.4217,31.525],[35.3381,-17.4427,29.3901],[35.3345,-17.4507,29.2217],[35.3355,-17.4715,30.4532],[35.3344,-17.4802,29.7995],[35.3429,-17.4944,30.2683],[35.3395,-17.5168,32.1556],[35.335,-17.5276,33.5322],[35.3327,-17.5441,29.5229],[35.3307,-17.5485,30.2136],[35.3308,-17.5655,29.196],[35.3269,-17.5778,27.5],[35.3203,-17.587,29.8331],[35.3234,-17.597,28.4794],[35.3741,-17.5981,89.8037],[35.3837,-17.5969,86.2525],[35.3945,-17.6014,137.3281],[35.4101,-17.5986,148.665],[35.442,-17.5996,173.2695],[35.4691,-17.6081,196.7314],[35.4793,-17.6189,211.666],[35.4882,-17.6408,246.6806],[35.5171,-17.6571,252.9267],[35.5507,-17.6534,179.5825],[35.6177,-17.652,163.7165],[35.8054,-17.6433,107.7204],[35.821,-17.6388,104.7813],[35.8122,-17.6247,116.1238],[35.8187,-17.6223,112.213],[35.8174,-17.6099,114.2553],[35.7966,-17.566,137.2109],[35.7881,-17.5381,159.9089],[35.7891,-17.5238,167.4571],[35.788,-17.5139,174.7332],[35.7955,-17.509,185.3011],[35.8984,-17.5007,149.6747],[35.9184,-17.5025,137.7127],[35.9421,-17.5115,118.5161],[35.9534,-17.5133,131.4169],[35.9889,-17.5007,139.909],[35.9801,-17.4911,143.1823],[35.9898,-17.4989,134.2757],[36.0114,-17.498,109.0257],[36.1051,-17.5021,120.1836],[36.3751,-17.509,75.7577],[36.3906,-17.5166,63.457],[36.4055,-17.5374,64.7597],[36.4044,-17.5348,58.8413],[36.4607,-17.4567,85.7276],[36.4605,-17.454,92.2755],[36.4418,-17.4248,116.4703],[36.4391,-17.4147,117.8098],[36.4041,-17.3649,98.8835],[36.362,-17.3381,143.0353],[36.4042,-17.291,120.0069],[36.4316,-17.2729,92.8784],[36.4435,-17.2148,98.1953],[36.4507,-17.2028,105.5043],[36.4337,-17.1944,118.0823],[36.4341,-17.1721,108.6299],[36.4095,-17.1229,139.8801],[36.4127,-17.1122,139.9846],[36.3935,-17.0839,158.5099],[36.3876,-17.0586,172.2419],[36.3618,-17.0327,190.7126],[36.3588,-17.0108,193.959],[36.3457,-17.0044,203.0065],[36.3409,-17.0055,198.1245],[36.335,-16.9988,205.5558],[36.3289,-16.967,234.2125],[36.3168,-16.9481,228.5331],[36.3146,-16.9314,241.9952],[36.306,-16.9233,241.5941],[36.3005,-16.9247,230.584],[36.2936,-16.914,244.9148],[36.2833,-16.9087,238.4632],[36.2865,-16.8881,261.1219],[36.2843,-16.8728,263.6055],[36.2859,-16.8636,272.0793],[36.2661,-16.8311,279.8018],[36.2663,-16.827,298.4822],[36.2793,-16.8176,299.7166],[36.2742,-16.7949,313.9763],[36.2695,-16.7904,305.0961],[36.2654,-16.778,316.7885],[36.2462,-16.7701,324.1575],[36.2444,-16.7655,353.5964],[36.2481,-16.755,343.0127],[36.2529,-16.7493,335.1299],[36.2505,-16.7464,341.9173],[36.2565,-16.7461,339.5457],[36.255,-16.7446,335.2821],[36.2553,-16.7362,350.0056],[36.2582,-16.7302,337.1715],[36.2553,-16.7261,342.2668],[36.2596,-16.7062,357.1529],[36.2579,-16.7017,359.5656],[36.2602,-16.6798,365.3156],[36.2662,-16.6759,369.7004],[36.2792,-16.6614,371.1765],[36.2826,-16.6547,375.5427],[36.2815,-16.6472,385.8257],[36.2714,-16.6268,397.7104],[36.2498,-16.6072,406.1392],[36.2334,-16.5888,422.5584],[36.1971,-16.5712,462.7806],[36.1854,-16.5724,486.2579],[36.1669,-16.5709,476.4182],[36.1388,-16.5732,493.6749],[36.1275,-16.5677,523.8228],[36.0741,-16.5913,386.0652],[36.0612,-16.5936,378.9773],[36.022,-16.6159,346.6959],[35.9994,-16.6257,337.0768],[35.9912,-16.6328,334.5317],[35.9818,-16.6469,332.5343],[35.9749,-16.6514,326.1624],[35.9645,-16.6439,331.3868],[35.9645,-16.6404,346.407],[35.9601,-16.6343,353.8214],[35.9555,-16.6226,349.5704],[35.9555,-16.6008,359.4054],[35.9518,-16.5823,346.3727],[35.9472,-16.5721,339.3442],[35.9536,-16.563,350.3582],[35.9523,-16.5546,348.3649],[35.9381,-16.5274,341.8986],[35.9333,-16.5216,344.1269],[35.9266,-16.5177,348.1356],[35.8779,-16.5316,351.3135],[35.8532,-16.4922,377.4742],[35.8301,-16.5242,367.38],[35.8346,-16.5314,363.3019],[35.8334,-16.5332,362.9612],[35.8297,-16.5383,364.7974],[35.8191,-16.5438,369.7466],[35.8098,-16.5529,376.4647],[35.66,-16.5764,326.0221],[35.6606,-16.5914,258.1219],[35.6485,-16.6157,223.3698],[35.639,-16.6222,222.8927],[35.6322,-16.6364,211.3373],[35.6121,-16.6503,178.9726],[35.6076,-16.6509,173.3787],[35.6052,-16.6504,171.0331],[35.6105,-16.6275,198.1335],[35.5892,-16.5893,365.7914],[35.5719,-16.5466,504.6871],[35.5667,-16.539,598.3549],[35.5244,-16.5067,292.9384],[35.4948,-16.5369,255.6452],[35.4895,-16.5457,234.279],[35.4847,-16.5467,220.7701],[35.4171,-16.4526,429.3877],[35.3339,-16.3593,288.8081],[35.3249,-16.3527,247.7412],[35.313,-16.3564,199.9091],[35.2956,-16.3571,175.1547],[35.2879,-16.3672,162.5861],[35.2752,-16.3776,167.3157],[35.2648,-16.3917,132.5419],[35.2622,-16.4019,127.7801],[35.2636,-16.4053,125.8401],[35.2622,-16.4066,124.685],[35.2649,-16.4333,85.3825],[35.2624,-16.444,79.2485],[35.2635,-16.4593,71.4889],[35.2622,-16.4703,65.5616],[35.2564,-16.48,65.8363],[35.25,-16.4867,73.339],[35.2438,-16.4899,61.287],[35.2192,-16.4933,58.0964],[35.2145,-16.4954,58.1095],[35.2125,-16.5,55.594],[35.2046,-16.5079,56.0396],[35.2103,-16.5138,55.6565],[35.2057,-16.5161,55.41],[35.199,-16.5146,62.1181],[35.1872,-16.517,53.9563],[35.1767,-16.5259,54.4135],[35.1781,-16.5347,52.1102],[35.1769,-16.5384,51.7301],[35.1629,-16.5461,50.0388],[35.1596,-16.5496,48.8576],[35.151,-16.5523,49.9632],[35.145,-16.5562,49.3279],[35.145,-16.5606,45.5103],[35.148,-16.5634,48.4948],[35.1472,-16.5686,48.3344],[35.1538,-16.5862,47.5998],[35.1548,-16.5972,46.592],[35.1575,-16.6,48.6885],[35.1587,-16.6055,44.6103],[35.1609,-16.6069,47.1785],[35.1705,-16.6048,47.855],[35.1719,-16.606,47.855],[35.1682,-16.6159,44.7384],[35.1701,-16.6203,45.9169],[35.1788,-16.6212,45.2253],[35.1831,-16.6245,46.0245],[35.187,-16.6252,45.558],[35.1983,-16.6349,45.6319],[35.2078,-16.6359,44.7814],[35.2155,-16.6532,45.3601],[35.2205,-16.6532,44.8542],[35.2247,-16.6509,45.4364],[35.2288,-16.6516,43.8557],[35.2318,-16.6616,44.232],[35.236,-16.6692,43.7054],[35.2446,-16.6749,43.983],[35.2422,-16.6811,44.1227],[35.2554,-16.6805,45.3014],[35.2613,-16.6922,42.0245],[35.2793,-16.7061,42.1424],[35.2853,-16.7154,42.0176],[35.2825,-16.7326,42.2672],[35.2845,-16.7346,42.6196],[35.2943,-16.7363,42.8954],[35.2862,-16.7421,41.769],[35.2829,-16.7498,48.0712],[35.2894,-16.7594,41.8937],[35.2946,-16.7725,40.2792],[35.292,-16.7853,41.3354],[35.294,-16.7954,40.3923],[35.3055,-16.8063,39.5348],[35.3064,-16.8167,40.4206],[35.3122,-16.8279,38.5972],[35.3098,-16.8367,39.5099],[35.3052,-16.8426,38.7894],[35.3061,-16.8505,40.0957],[35.3044,-16.855,38.6364],[35.2948,-16.8684,38.1708],[35.2865,-16.8744,38.3996],[35.2831,-16.8851,37.4928],[35.2727,-16.8913,37.3313],[35.2734,-16.894,39.1147],[35.2778,-16.8944,38.6491],[35.2847,-16.898,38.3661],[35.2846,-16.8995,38.3661],[35.2743,-16.9141,37.6085],[35.2725,-16.9236,37.3275],[35.2678,-16.9266,39.2419],[35.2676,-16.9294,36.7117],[35.2706,-16.9327,37.7714],[35.2696,-16.9357,37.0099],[35.2654,-16.9361,37.2395],[35.2642,-16.9415,36.5387],[35.2651,-16.9451,37.2473],[35.2725,-16.9475,37.2723],[35.2741,-16.9496,36.2686],[35.2702,-16.9537,37.0927],[35.2699,-16.9586,37.1328],[35.2784,-16.9599,36.5857],[35.2828,-16.9647,36.811],[35.2968,-16.9625,36.464],[35.2978,-16.9725,36.7253],[35.3023,-16.981,36.3926],[35.3046,-16.9817,36.0302],[35.2959,-17.0015,35.3233],[35.2943,-17.0114,35.9049],[35.2951,-17.0219,37.1002],[35.2926,-17.0318,34.8623],[35.296,-17.038,35.8157],[35.2972,-17.0506,35.9319],[35.2954,-17.0543,35.1863],[35.2973,-17.0609,34.9864],[35.309,-17.0578,35.5827],[35.3126,-17.0603,35.2623],[35.3065,-17.0675,34.6388],[35.3077,-17.0785,34.9851],[35.3031,-17.0957,35.1715],[35.3064,-17.1032,35.5731],[35.3062,-17.1164,34.7622],[35.3101,-17.1209,35.5555],[35.3068,-17.1242,35.3599],[35.2988,-17.1241,34.7999],[35.297,-17.1262,34.0511]]]]}
,"properties": {"GID_2": "MOZ.11.12_1","GID_0": "MOZ","country": "Mozambique","GID_1": "MOZ.11_1","province": "Zambezia","NL_NAME_1": "NA","county": "Morrumbala","VARNAME_2": "NA","NL_NAME_2": "NA","TYPE_2": "Distrito","ENGTYPE_2": "District","CC_2": "NA","HASC_2": "MZ.ZA.MR","name": "Morrumbala.county","area_km2": 12924.408,"hist_schema_id": "Elevation0-9000","hist_area_km2": {"25": 215.852,"50": 704.164,"75": 545.549,"100": 700.04,"125": 778.573,"150": 818.885,"175": 856.298,"200": 909.162,"225": 897.186,"250": 945.481,"275": 921.393,"300": 904.225,"325": 931.266,"350": 923.398,"375": 807.102,"400": 453.993,"425": 224.519,"450": 108.99,"475": 48.456,"500": 27.797,"525": 22.863,"550": 17.378,"575": 15.874,"600": 14.717,"625": 13.355,"650": 12.502,"675": 12.746,"700": 11.651,"725": 9.761,"750": 9.72,"775": 7.973,"800": 6.468,"825": 5.961,"850": 4.967,"875": 4.581,"900": 4.377,"925": 4.517,"950": 4.659,"975": 4.435,"1000": 3.746,"1025": 2.775,"1050": 2.248,"1075": 1.924,"1100": 0.932,"1125": 0.588,"1150": 0.264,"1175": 0.183,"1200": 0.284,"1225": 0.163,"1250": 0.122,"1300": 0.122}}}