{"type":"Feature","properties":{"GID_2":"MOZ.11.4_1","GID_0":"MOZ","country":"Mozambique","GID_1":"MOZ.11_1","province":"Zambezia","NL_NAME_1":"NA","county":"Gurue","VARNAME_2":"NA","NL_NAME_2":"NA","TYPE_2":"Distrito","ENGTYPE_2":"District","CC_2":"NA","HASC_2":"MZ.ZA.GU","name":"Gurue.county"},
"geometry":{"type": "MultiPolygon","coordinates": [[[[37.273,-15.3177,846.7958],[37.2876,-15.2956,807.0862],[37.2915,-15.2866,804.022],[37.2684,-15.2694,778.9011],[37.2758,-15.2569,772.0854],[37.2945,-15.2355,750.6013],[37.3003,-15.2169,752.0051],[37.3004,-15.2027,747.7709],[37.3094,-15.1556,736.7383],[37.306,-15.1363,742.988],[37.3045,-15.1357,740.6787],[37.3102,-15.1274,733.1443],[37.309,-15.1239,728.0685],[37.2947,-15.1142,774.1783],[37.2883,-15.1004,807.7141],[37.2828,-15.0948,800.0337],[37.2645,-15.0983,917.4797],[37.2579,-15.0874,799.6748],[37.2469,-15.077,779.7471],[37.2399,-15.0481,719.8971],[37.2423,-15.0351,698.6048],[37.2419,-15.0208,679.9869],[37.2355,-15.0209,687.1439],[37.2244,-15.032,703.1271],[37.2178,-15.0291,716.5925],[37.215,-15.0252,733.7779],[37.2216,-15.0138,828.9099],[37.2202,-15.0075,849.5629],[37.2123,-15.005,953.5238],[37.2016,-15.0051,1389.0027],[37.192,-14.9973,1653.4681],[37.003,-14.9959,616.1622],[36.6973,-14.9992,561.2633],[36.7012,-15.0135,565.6082],[36.6995,-15.0175,570.7094],[36.7007,-15.023,563.9945],[36.6982,-15.0271,565.3142],[36.6969,-15.0454,570.2954],[36.6918,-15.0519,568.1384],[36.6896,-15.0606,573.385],[36.6824,-15.0664,572.2357],[36.6776,-15.0752,571.0184],[36.6684,-15.0771,572.3217],[36.6644,-15.0961,577.4849],[36.6601,-15.1072,582.6891],[36.6385,-15.1068,581.5798],[36.6164,-15.1541,592.4147],[36.5954,-15.17,596.8478],[36.5877,-15.1711,599.9178],[36.5774,-15.1788,601.4587],[36.5685,-15.1992,601.3104],[36.562,-15.2045,612.5538],[36.5388,-15.215,611.3191],[36.5347,-15.223,612.4946],[36.5201,-15.2283,611.6032],[36.5154,-15.2357,613.8217],[36.5107,-15.2383,617.741],[36.5112,-15.2428,616.1191],[36.5051,-15.2459,625.5876],[36.4964,-15.2477,624.9424],[36.4797,-15.2492,629.5592],[36.4708,-15.2531,628.3082],[36.4697,-15.2585,629.4028],[36.4808,-15.2659,678.5034],[36.4824,-15.2764,636.9292],[36.4727,-15.2944,639.79],[36.4672,-15.2926,661.394],[36.4634,-15.3013,651.8713],[36.4653,-15.3177,665.6514],[36.4625,-15.3333,691.6835],[36.4675,-15.3461,708.0093],[36.474,-15.3767,730.3036],[36.477,-15.3818,734.4462],[36.4832,-15.3889,738.9393],[36.5041,-15.3941,759.7288],[36.5145,-15.4017,774.0329],[36.522,-15.4047,779.6276],[36.5527,-15.4949,920.9617],[36.5397,-15.51,856.4728],[36.5553,-15.5171,796.1351],[36.5622,-15.5221,967.6925],[36.5629,-15.5339,755.5651],[36.5671,-15.5372,738.5158],[36.596,-15.5344,701.0313],[36.6013,-15.5394,690.2354],[36.6042,-15.5504,679.0537],[36.6162,-15.5713,662.0329],[36.6578,-15.5826,642.6787],[36.6659,-15.5878,623.8771],[36.6679,-15.5864,623.8771],[36.6692,-15.5742,626.8757],[36.6716,-15.5664,637.3104],[36.6742,-15.5653,624.4309],[36.6714,-15.5456,637.7092],[36.6679,-15.5413,643.2002],[36.6685,-15.5329,661.6075],[36.6748,-15.5273,650.9589],[36.6748,-15.5212,664.6512],[36.6963,-15.5001,687.5357],[36.7098,-15.4813,691.838],[36.7451,-15.4894,1118.0872],[36.7929,-15.5308,798.0281],[36.8061,-15.587,1224.4249],[36.8587,-15.5927,674.1086],[36.8955,-15.5836,646.3689],[36.915,-15.5823,604.299],[36.9109,-15.5859,607.9921],[36.9102,-15.5954,605.1652],[36.9188,-15.604,602.2903],[36.9275,-15.6046,595.1085],[36.9319,-15.6083,599.7633],[36.938,-15.6102,589.6661],[36.9412,-15.6242,589.4543],[36.9466,-15.6264,585.7293],[36.9274,-15.6444,608.0031],[36.9417,-15.6777,548.3764],[36.9432,-15.7102,551.0521],[36.9333,-15.7331,519.5543],[36.9265,-15.7851,528.752],[37.0362,-15.8407,504.4086],[37.0534,-15.8937,465.9612],[37.0814,-15.9184,509.7818],[37.1097,-15.9671,415.5295],[37.1143,-15.9383,409.1216],[37.1208,-15.927,415.9376],[37.1197,-15.9171,418.6807],[37.1231,-15.908,418.0627],[37.1239,-15.8979,436.8514],[37.1129,-15.882,451.4093],[37.1152,-15.8729,471.8491],[37.1225,-15.8585,473.3472],[37.1222,-15.8545,474.6503],[37.12,-15.8515,475.4596],[37.1078,-15.8467,472.5331],[37.1059,-15.8382,482.1994],[37.1113,-15.825,492.1003],[37.1001,-15.8003,514.5118],[37.1046,-15.7957,515.2015],[37.1064,-15.7865,535.8497],[37.1132,-15.7786,527.6071],[37.109,-15.768,546.984],[37.1083,-15.7611,546.9595],[37.1041,-15.7592,537.0207],[37.1034,-15.7569,536.4397],[37.105,-15.7544,540.2166],[37.1238,-15.7447,543.4008],[37.1252,-15.7403,543.8441],[37.1251,-15.7254,555.363],[37.1323,-15.7228,547.1246],[37.134,-15.7156,553.1316],[37.132,-15.7107,554.9112],[37.1344,-15.7035,569.681],[37.132,-15.6889,591.5894],[37.1362,-15.6867,597.3031],[37.1466,-15.6753,592.058],[37.1516,-15.6647,600.121],[37.1603,-15.653,596.1078],[37.1626,-15.6377,608.1854],[37.1708,-15.6237,601.7031],[37.1828,-15.6181,599.3987],[37.1975,-15.6036,611.3572],[37.2082,-15.597,606.6152],[37.2244,-15.5671,612.7538],[37.2415,-15.5588,616.8932],[37.2619,-15.545,635.0739],[37.2864,-15.5321,647.9337],[37.3069,-15.5256,661.2657],[37.3232,-15.5045,704.1473],[37.3409,-15.4899,703.5509],[37.3462,-15.4753,736.7154],[37.3424,-15.467,746.8004],[37.3453,-15.4542,1097.3557],[37.3681,-15.3946,822.2683],[37.3605,-15.379,1189.657],[37.3871,-15.3588,1280.0353],[37.3358,-15.345,1117.6819],[37.3072,-15.3276,931.1213],[37.273,-15.3177,846.7958]]]]}}