{"type":"Feature","properties":{"GID_3":"MOZ.7.18.3_1","GID_0":"MOZ","country":"Mozambique","GID_1":"MOZ.7_1","province":"Nampula","NL_NAME_1":"NA","GID_2":"MOZ.7.18_1","county":"Ribaue","NL_NAME_2":"NA","city":"Ribaue","VARNAME_3":"NA","NL_NAME_3":"NA","TYPE_3":"Localidad","ENGTYPE_3":"Locality","CC_3":"NA","HASC_3":"NA","name":"Ribaue.city"},
"geometry":{"type": "MultiPolygon","coordinates": [[[[38.2647,-14.5935,426.3859],[38.2516,-14.6409,469.0215],[38.2348,-14.6691,474.8965],[38.2435,-14.6915,491.3769],[38.1804,-14.79,586.0321],[38.213,-14.8281,577.1075],[38.1023,-14.9328,589.6588],[38.0948,-14.942,570.6456],[38.1177,-14.9698,581.7645],[38.1482,-14.9699,625.9435],[38.1105,-15.0027,608.6088],[38.1195,-15.0436,650.8212],[38.2103,-15.1115,677.9956],[38.244,-15.0997,655.1244],[38.3053,-15.0437,604.2473],[38.3388,-15.0535,614.8974],[38.3632,-15.113,586.4532],[38.3991,-15.113,579.1777],[38.4171,-15.1315,518.1009],[38.4132,-15.1662,649.7858],[38.4582,-15.1995,481.3805],[38.4686,-15.1848,476.864],[38.4692,-15.1738,487.7847],[38.4754,-15.1666,515.4103],[38.4886,-15.1586,516.3967],[38.4963,-15.1442,520.8685],[38.5037,-15.1382,531.3171],[38.5193,-15.1349,546.1884],[38.5288,-15.1231,551.4019],[38.5463,-15.0597,1409.7257],[38.5919,-15.0496,532.2853],[38.5999,-15.051,563.6656],[38.6227,-15.0483,529.8223],[38.6264,-15.0548,518.9618],[38.646,-15.0663,511.7463],[38.652,-15.0556,563.7451],[38.6656,-15.0412,564.5704],[38.6756,-15.0336,557.5732],[38.6964,-15.0254,522.1396],[38.7108,-15.0245,485.2062],[38.7219,-15.0204,489.433],[38.7273,-15.0132,469.5065],[38.7349,-15.0076,462.4772],[38.7469,-15.0142,447.1246],[38.7612,-15.0076,454.4288],[38.7739,-15.0085,436.1438],[38.7962,-15.0158,447.4916],[38.8058,-15.0228,434.7829],[38.8154,-15.0253,437.2157],[38.8141,-15.0176,434.5031],[38.8006,-14.9986,459.2538],[38.802,-14.9905,474.3291],[38.7944,-14.9652,508.5929],[38.7838,-14.9494,541.6406],[38.7766,-14.9458,545.3799],[38.7786,-14.9356,588.6016],[38.7724,-14.9246,810.9475],[38.78,-14.9142,584.8887],[38.7727,-14.9122,590.0871],[38.7626,-14.9137,585.8262],[38.7511,-14.9091,597.1027],[38.7374,-14.9081,603.8446],[38.7174,-14.9214,587.6595],[38.6943,-14.9416,601.5975],[38.6846,-14.9448,601.1973],[38.6617,-14.947,596.3265],[38.6505,-14.9539,604.8259],[38.6381,-14.9585,587.0525],[38.6138,-14.9587,603.2333],[38.603,-14.9616,583.1407],[38.597,-14.956,560.8478],[38.5881,-14.9522,582.9178],[38.5791,-14.9403,631.2031],[38.5724,-14.927,644.4878],[38.5846,-14.9136,635.1332],[38.5846,-14.9064,624.6328],[38.5816,-14.9004,606.2762],[38.5785,-14.8825,595.855],[38.5562,-14.8671,562.9636],[38.5125,-14.8478,579.1246],[38.5089,-14.8424,512.4612],[38.5136,-14.8288,509.9599],[38.5333,-14.7924,474.5816],[38.5393,-14.7733,486.5082],[38.5494,-14.758,464.9744],[38.5537,-14.7455,462.0839],[38.5538,-14.7364,461.9781],[38.546,-14.7263,449.7809],[38.5434,-14.7149,448.5394],[38.5378,-14.7029,458.375],[38.5199,-14.6754,434.6755],[38.526,-14.6618,423.3193],[38.5199,-14.6281,417.0999],[38.5161,-14.6203,410.07],[38.5102,-14.6185,421.0622],[38.5075,-14.6081,412.0688],[38.4982,-14.6022,412.5674],[38.4843,-14.5788,399.6945],[38.4759,-14.5846,406.692],[38.4577,-14.5927,415.3636],[38.4354,-14.5953,434.9645],[38.418,-14.5941,437.0267],[38.3954,-14.5832,452.3335],[38.3525,-14.5988,487.541],[38.3401,-14.5927,464.1082],[38.3101,-14.5832,455.8357],[38.2994,-14.5858,439.1213],[38.2748,-14.5859,421.3271],[38.2647,-14.5935,426.3859]]]]}}