{"type": "Feature","bbox": [36.6557,-18.1632,36.9682,-17.8782],"geometry": {"type": "MultiPolygon","coordinates": [[[[36.9446,-18.0271,0.0],[36.9404,-18.0274,0.0],[36.9401,-18.0335,1.5997],[36.9362,-18.0365,2.9749],[36.9376,-18.0424,2.1833],[36.9307,-18.0449,0.0],[36.9332,-18.0496,0.4635],[36.9326,-18.0546,1.4027],[36.9301,-18.0565,2.4656],[36.9243,-18.0574,0.0],[36.9254,-18.0671,1.0394],[36.921,-18.0696,2.0856],[36.9118,-18.0687,1.0499],[36.9104,-18.0699,1.0827],[36.9104,-18.0762,0.8087],[36.9076,-18.0807,0.0],[36.9087,-18.0888,0.9173],[36.904,-18.0915,1.8983],[36.8993,-18.0896,2.4657],[36.8968,-18.091,0.7353],[36.8918,-18.0979,2.2716],[36.8946,-18.1043,1.9374],[36.8937,-18.1099,2.5673],[36.884,-18.1093,0.0],[36.8829,-18.1104,1.9029],[36.8807,-18.1137,0.0],[36.8815,-18.126,0.0],[36.8726,-18.1382,1.2099],[36.8643,-18.1449,0.0],[36.8654,-18.1476,0.0],[36.8732,-18.1501,0.0],[36.8779,-18.154,2.9154],[36.8776,-18.1632,0.0],[36.8793,-18.1629,0.0],[36.886,-18.1507,2.7845],[36.909,-18.1224,0.0],[36.959,-18.0732,2.5879],[36.9674,-18.0624,3.5697],[36.9671,-18.0557,2.4974],[36.9651,-18.0532,2.6966],[36.9682,-18.044,1.2123],[36.9665,-18.0387,0.0],[36.959,-18.0332,1.2063],[36.9604,-18.0387,5.3883],[36.959,-18.0415,1.2572],[36.9574,-18.0412,1.2385],[36.9549,-18.0365,0.4866],[36.949,-18.0326,0.0],[36.9446,-18.0271,0.0]]],
[[[36.8476,-18.1419,3.127],[36.8732,-18.1612,2.4827],[36.8749,-18.1582,0.0],[36.874,-18.1546,0.0],[36.8621,-18.149,2.1071],[36.8587,-18.1399,2.0899],[36.8599,-18.1349,0.7943],[36.8535,-18.1351,1.4413],[36.8518,-18.1293,0.6516],[36.846,-18.1215,2.3459],[36.8454,-18.119,2.3408],[36.8479,-18.1179,1.2294],[36.8479,-18.1162,1.1437],[36.8457,-18.1018,1.4672],[36.8468,-18.1021,1.4672],[36.8488,-18.116,1.1437],[36.8468,-18.1215,2.3459],[36.8526,-18.129,0.6516],[36.8546,-18.1343,0.0],[36.8607,-18.1338,0.9823],[36.8621,-18.1368,0.807],[36.8604,-18.1407,0.5257],[36.8624,-18.1426,1.7221],[36.869,-18.1382,0.0],[36.879,-18.1268,0.6504],[36.8801,-18.1235,0.0],[36.8788,-18.1143,1.2033],[36.8832,-18.1076,0.0],[36.8832,-18.1026,0.4965],[36.8788,-18.104,0.3128],[36.8751,-18.1001,1.2797],[36.8749,-18.0935,0.6233],[36.8657,-18.0924,0.666],[36.8662,-18.0888,1.2968],[36.8643,-18.0854,2.1975],[36.866,-18.0832,2.0031],[36.8682,-18.0824,1.7767],[36.871,-18.0837,0.4291],[36.8704,-18.0843,0.4291],[36.8668,-18.0835,2.0031],[36.8651,-18.0854,2.1975],[36.8671,-18.0888,1.2968],[36.8665,-18.0921,0.666],[36.8704,-18.091,2.011],[36.8754,-18.0929,2.766],[36.876,-18.1001,1.5773],[36.8785,-18.1029,2.032],[36.8807,-18.1018,0.5743],[36.884,-18.1026,0.4965],[36.8838,-18.1082,0.0],[36.8932,-18.1093,0.9157],[36.8937,-18.1043,0.6633],[36.891,-18.0979,2.2716],[36.8974,-18.0893,1.5098],[36.8993,-18.0888,0.7279],[36.904,-18.0907,0.9737],[36.9076,-18.0885,0.9173],[36.9065,-18.0804,1.7784],[36.9093,-18.076,0.8087],[36.9099,-18.0687,0.376],[36.9115,-18.0676,1.1365],[36.9229,-18.0679,2.3371],[36.9246,-18.0662,2.4567],[36.9226,-18.0604,1.2077],[36.9232,-18.0571,0.0],[36.9249,-18.0554,1.7312],[36.9299,-18.0554,0.0],[36.9321,-18.0532,0.6439],[36.9293,-18.0418,0.0],[36.9221,-18.0412,0.4155],[36.9212,-18.029,0.0],[36.9157,-18.0249,1.8259],[36.9076,-18.0143,2.6296],[36.9038,-18.0012,1.6987],[36.9024,-17.9801,1.1655],[36.8935,-17.9515,0.3023],[36.8926,-17.9329,0.0],[36.9085,-17.9321,0.0],[36.9118,-17.9446,0.0],[36.914,-17.9496,0.0],[36.9151,-17.9501,0.0],[36.9154,-17.9487,0.0],[36.9149,-17.9339,2.412],[36.906,-17.8955,0.0],[36.9001,-17.8888,0.0],[36.8699,-17.8782,0.0],[36.8608,-17.8797,3.3447],[36.8427,-17.8914,4.2044],[36.8208,-17.9009,0.5],[36.8127,-17.9077,0.5],[36.8109,-17.9478,2.3982],[36.8082,-17.9559,3.1056],[36.7996,-17.9585,0.5],[36.7846,-17.9596,3.2245],[36.7724,-17.9667,3.0086],[36.7623,-17.9692,4.0183],[36.7562,-17.9651,3.2408],[36.7519,-17.9399,5.3968],[36.7405,-17.9207,3.3827],[36.6998,-17.9407,3.9996],[36.6924,-17.9519,4.5606],[36.6829,-17.9562,6.4165],[36.6782,-17.9483,7.5253],[36.6717,-17.942,9.3211],[36.6675,-17.9385,7.1116],[36.6637,-17.9379,4.5027],[36.6557,-17.9477,10.4372],[36.682,-18.0677,2.2428],[36.6929,-18.0656,8.3427],[36.6908,-18.0831,7.6155],[36.6937,-18.0913,3.9914],[36.7174,-18.0868,3.5539],[36.7322,-18.087,5.5291],[36.7436,-18.0729,4.4559],[36.753,-18.055,5.4637],[36.7657,-18.0431,5.2719],[36.7875,-18.0431,5.8045],[36.7999,-18.049,6.8169],[36.7995,-18.0523,6.358],[36.7969,-18.067,4.9576],[36.7812,-18.0819,6.7202],[36.775,-18.1147,1.8834],[36.7943,-18.1237,5.4854],[36.8279,-18.1265,3.6627],[36.8439,-18.1326,2.386],[36.8439,-18.1356,3.9976],[36.8476,-18.1419,3.127]]],
[[[36.9063,-17.9651,0.7809],[36.9051,-17.9649,0.7809],[36.9051,-17.9674,1.144],[36.9099,-17.9724,0.7286],[36.9174,-17.9696,0.0],[36.9096,-17.9657,0.0],[36.9063,-17.9651,0.7809]]],
[[[36.9076,-17.9607,10.0281],[36.9057,-17.9601,9.3622],[36.9063,-17.9615,1.5064],[36.909,-17.9612,6.6459],[36.9076,-17.9607,10.0281]]],
[[[36.939,-18.0332,1.7712],[36.9399,-18.0265,0.0],[36.9246,-18.0285,0.0],[36.9232,-18.0293,0.0],[36.9232,-18.0407,1.387],[36.9293,-18.0404,2.4132],[36.9365,-18.0424,1.1252],[36.9354,-18.0365,2.9502],[36.939,-18.0332,1.7712]]],
[[[36.9521,-18.0274,0.0],[36.9507,-18.0268,0.0],[36.9496,-18.0287,0.0],[36.9512,-18.0287,0.0],[36.9521,-18.0274,0.0]]],
[[[36.9551,-18.0265,0.0],[36.9529,-18.0265,0.0],[36.9532,-18.0285,0.0],[36.954,-18.0287,0.0],[36.9551,-18.0265,0.0]]],
[[[36.919,-17.9743,0.0],[36.906,-17.9746,0.0],[36.9085,-18.0001,0.0],[36.9157,-18.0196,0.0],[36.9212,-18.0254,1.333],[36.9257,-18.0257,0.0],[36.9282,-18.0212,0.9329],[36.9368,-18.0163,0.0],[36.9368,-18.014,0.0],[36.9388,-18.016,0.0],[36.9404,-18.0154,0.0],[36.9449,-18.006,0.0],[36.9501,-17.9993,0.0],[36.9482,-17.9954,0.0],[36.9463,-17.9965,0.0],[36.9454,-17.9999,0.0],[36.9429,-17.9982,0.7525],[36.9432,-17.9962,8.9648],[36.9471,-17.994,0.0],[36.9385,-17.9793,0.0],[36.9263,-17.9749,2.0668],[36.919,-17.9743,0.0]]],
[[[36.906,-17.9349,1.7137],[36.904,-17.934,0.0],[36.9012,-17.9363,3.2407],[36.8996,-17.9418,0.0],[36.8999,-17.9499,0.0],[36.904,-17.9587,8.952],[36.9115,-17.9607,0.0],[36.9107,-17.9504,0.0],[36.906,-17.9349,1.7137]]]]}
,"properties": {"GID_3": "MOZ.11.6.2_1","GID_0": "MOZ","country": "Mozambique","GID_1": "MOZ.11_1","province": "Zambezia","NL_NAME_1": "NA","GID_2": "MOZ.11.6_1","county": "Inhassunge","NL_NAME_2": "NA","city": "Mucupia(InhassungeSede)","VARNAME_3": "NA","NL_NAME_3": "NA","TYPE_3": "Localidad","ENGTYPE_3": "Locality","CC_3": "NA","HASC_3": "NA","name": "Mucupia(Inhassunge_Sede).city","area_km2": 560.8002,"hist_schema_id": "Elevation0-9000","hist_area_km2": {"0": 559.2878,"25": 1.5123}}}