{"type": "Feature","bbox": [40.2202,-15.514099999999999,40.8393,-14.5268],"geometry": {"type": "MultiPolygon","coordinates": [[[[40.7968,-14.9754,0.0],[40.7954,-14.9754,0.0],[40.7935,-14.981,0.0],[40.7962,-14.9846,0.0],[40.7982,-14.9835,0.0],[40.7968,-14.9754,0.0]]],
[[[40.7871,-15.051,0.0],[40.7818,-15.051,0.0],[40.781,-15.0551,0.0],[40.7871,-15.0554,0.0],[40.7885,-15.051,0.0],[40.7871,-15.051,0.0]]],
[[[40.7451,-15.0288,0.0],[40.7365,-15.0304,3.8691],[40.7304,-15.0351,1.6965],[40.7274,-15.0401,0.0],[40.7257,-15.0479,0.5461],[40.7315,-15.0451,0.0],[40.7318,-15.041,9.424],[40.7351,-15.0365,1.7728],[40.7399,-15.0321,12.8304],[40.7426,-15.0321,0.0],[40.7451,-15.0288,0.0]]],
[[[40.8299,-14.849,0.0],[40.8282,-14.8482,0.0],[40.8279,-14.8504,0.0],[40.824,-14.8537,1.8257],[40.819,-14.8532,2.6521],[40.8124,-14.849,0.0],[40.8107,-14.8496,0.0],[40.8154,-14.8532,0.0],[40.8168,-14.8565,0.0],[40.8099,-14.8643,0.0],[40.8104,-14.8657,0.0],[40.8154,-14.8613,0.0],[40.8185,-14.8629,0.0],[40.824,-14.8599,0.0],[40.8238,-14.8643,1.3388],[40.821,-14.8685,3.7358],[40.8201,-14.8679,0.0],[40.8213,-14.8654,0.0],[40.819,-14.8651,0.0],[40.819,-14.869,0.7751],[40.8165,-14.8735,0.3886],[40.8196,-14.8735,0.4187],[40.8235,-14.869,0.0],[40.8299,-14.849,0.0]]],
[[[40.8274,-14.7879,0.0],[40.826,-14.7874,0.0],[40.8262,-14.7915,0.0],[40.8279,-14.7924,0.0],[40.8271,-14.7962,0.0],[40.8288,-14.7965,0.0],[40.8307,-14.7926,0.837],[40.8332,-14.7929,1.5698],[40.834,-14.7982,1.995],[40.8329,-14.7985,1.995],[40.8324,-14.7957,0.0],[40.8304,-14.799,0.0],[40.8346,-14.8007,1.1724],[40.836,-14.796,2.027],[40.8351,-14.7885,0.0],[40.8274,-14.7879,0.0]]],
[[[40.8363,-14.5399,4.7037],[40.8349,-14.5393,0.0],[40.8307,-14.5429,0.0],[40.8324,-14.5512,2.7586],[40.8371,-14.5485,0.0],[40.8318,-14.544,2.0437],[40.8335,-14.5413,0.0],[40.8368,-14.5432,0.0],[40.8374,-14.5468,0.0],[40.8393,-14.5451,0.0],[40.8393,-14.5415,0.0],[40.8363,-14.5399,4.7037]]],
[[[40.2476,-15.0848,84.3137],[40.2314,-15.0945,99.3336],[40.2237,-15.1125,103.5123],[40.2242,-15.1204,105.7871],[40.2262,-15.13,128.3408],[40.2332,-15.1405,124.6566],[40.2403,-15.1446,111.1534],[40.2468,-15.1513,107.5565],[40.2497,-15.1611,99.2812],[40.2534,-15.166,97.0758],[40.2413,-15.1741,96.2592],[40.2246,-15.198,110.8313],[40.2202,-15.2076,116.8689],[40.2325,-15.2264,95.7409],[40.2419,-15.2491,70.9536],[40.2531,-15.2605,63.0579],[40.2491,-15.2774,96.5797],[40.2453,-15.3162,100.3577],[40.2455,-15.33,93.5654],[40.2521,-15.3814,82.8971],[40.2602,-15.3827,90.2583],[40.2791,-15.4068,87.232],[40.302,-15.4438,50.3894],[40.3166,-15.4572,40.8177],[40.3227,-15.46,39.8951],[40.3435,-15.456,34.3384],[40.3489,-15.4631,37.8418],[40.3567,-15.4681,25.635],[40.36,-15.4749,21.1996],[40.3686,-15.5051,25.3562],[40.3711,-15.5091,25.9961],[40.3811,-15.514099999999999,13.4205],[40.4033,-15.5117,9.1654],[40.4206,-15.5067,7.5026],[40.457,-15.5111,13.0445],[40.4701,-15.5043,15.8508],[40.4875,-15.483,6.0635],[40.51,-15.4647,4.1999],[40.5152,-15.4582,3.649],[40.5317,-15.4507,2.5283],[40.5404,-15.4445,1.9698],[40.5421,-15.447,2.2508],[40.5418,-15.4499,1.5398],[40.544,-15.4521,0.8484],[40.5488,-15.4515,0.5],[40.5504,-15.4493,2.1906],[40.5585,-15.449,0.6426],[40.561,-15.4462,3.8828],[40.5643,-15.4454,0.5471],[40.5632,-15.4476,0.3434],[40.5612,-15.4471,0.9848],[40.5601,-15.4485,0.8528],[40.5635,-15.4501,0.0],[40.5685,-15.4429,0.0],[40.5649,-15.439,3.5506],[40.5715,-15.4368,0.0],[40.5732,-15.4276,3.6392],[40.5768,-15.4232,0.0],[40.576,-15.4199,0.2131],[40.5726,-15.4238,0.5196],[40.5671,-15.426,0.0],[40.5626,-15.4251,2.3622],[40.560400883179447,-15.420401886792451,1.042],[40.5671,-15.4246,0.0],[40.571,-15.4226,0.7668],[40.576,-15.4076,0.5544],[40.5724,-15.4065,2.9945],[40.571,-15.4032,2.0429],[40.5671,-15.404,2.0148],[40.5713,-15.4026,2.4674],[40.5724,-15.4054,0.9485],[40.576,-15.4068,0.5544],[40.5807,-15.4054,0.0],[40.5868,-15.399,0.0],[40.589,-15.3926,3.8919],[40.5932,-15.3896,0.6767],[40.5863,-15.3854,2.0446],[40.5943,-15.389,2.2095],[40.5938,-15.3915,2.4532],[40.589,-15.3949,0.0],[40.5893,-15.3985,0.0],[40.6162,-15.366,1.1694],[40.6232,-15.3607,0.5604],[40.6263,-15.3604,0.0],[40.6285,-15.3576,0.0],[40.6332,-15.356,0.0],[40.6315,-15.3532,0.0],[40.6307,-15.356,0.0],[40.6215,-15.3546,0.0],[40.6199,-15.3621,1.1559],[40.6051,-15.3743,1.1091],[40.6076,-15.3704,2.6765],[40.6121,-15.3671,0.4281],[40.6118,-15.366,0.0],[40.6079,-15.3671,2.0707],[40.6057,-15.3657,2.1021],[40.6104,-15.3662,3.2546],[40.6118,-15.3615,0.874],[40.6162,-15.3585,1.1624],[40.6196,-15.3532,0.0],[40.619,-15.3515,0.0],[40.6257,-15.3465,0.0],[40.6312,-15.3379,0.8683],[40.6371,-15.3224,1.62],[40.6465,-15.3124,0.0],[40.6693,-15.279,0.0],[40.6704,-15.2746,0.0],[40.6646,-15.2846,0.0],[40.6596,-15.2899,1.5131],[40.661,-15.2854,2.6255],[40.676,-15.2643,3.4746],[40.6787,-15.2562,0.0],[40.6785,-15.2518,0.0],[40.6757,-15.2462,0.0],[40.6671,-15.2379,2.1101],[40.6646,-15.2137,0.0],[40.6638,-15.2165,0.0],[40.6649,-15.2237,1.3891],[40.6587,-15.2321,0.7008],[40.6599,-15.2371,0.0],[40.6563,-15.2421,4.0181],[40.6574,-15.2443,1.4647],[40.6638,-15.2454,0.6584],[40.6613,-15.2515,0.4051],[40.6604,-15.2512,2.1133],[40.6632,-15.246,0.6584],[40.6574,-15.2451,3.4039],[40.6557,-15.2415,0.6618],[40.6585,-15.2376,0.0],[40.6574,-15.2315,3.0768],[40.6585,-15.2293,0.0],[40.6551,-15.2301,1.5791],[40.6524,-15.2351,0.0],[40.6526,-15.239,0.0],[40.6563,-15.2462,3.4039],[40.656,-15.2504,2.6855],[40.6551,-15.2446,0.5221],[40.6512,-15.2374,3.7754],[40.6543,-15.2279,0.5048],[40.6599,-15.2232,2.121],[40.6593,-15.196,0.7551],[40.6576,-15.1885,1.4754],[40.6504,-15.1787,0.0],[40.6474,-15.1774,0.0],[40.6476,-15.1751,0.0],[40.6429,-15.1715,0.0],[40.6413,-15.1737,0.0],[40.6424,-15.1746,1.5335],[40.6401,-15.1746,2.1343],[40.634,-15.1701,2.092],[40.6257,-15.1571,0.0],[40.626,-15.1604,0.0],[40.6312,-15.1704,3.9546],[40.6315,-15.1749,3.0004],[40.6293,-15.1818,3.2396],[40.6304,-15.1729,0.0],[40.6285,-15.1671,0.0],[40.6165,-15.1532,2.7511],[40.6138,-15.1521,1.6928],[40.6079,-15.1515,0.5406],[40.6029,-15.1587,2.6787],[40.5949,-15.164,1.7974],[40.5918,-15.1637,3.3727],[40.5893,-15.1615,0.0],[40.5835,-15.1643,0.0],[40.5812,-15.1637,0.0],[40.5838,-15.1665,0.0],[40.5893,-15.166,2.8375],[40.5938,-15.1707,2.7165],[40.5962,-15.1743,3.4722],[40.5965,-15.1821,3.9068],[40.5943,-15.1849,3.4125],[40.5887,-15.1865,2.0446],[40.5835,-15.1843,0.0],[40.5743,-15.1924,0.0],[40.5665,-15.2029,0.3234],[40.5571,-15.2021,0.944],[40.5457,-15.196,0.0],[40.5432,-15.1971,0.4853],[40.5393,-15.1951,0.2337],[40.5357,-15.1962,0.0],[40.5232,-15.1921,1.8393],[40.5135,-15.1779,0.0],[40.5118,-15.1779,0.0],[40.5068,-15.1846,2.0023],[40.5046,-15.1996,3.129],[40.4985,-15.201,0.0],[40.4938,-15.1996,1.4833],[40.4996,-15.2001,0.2008],[40.5038,-15.1979,6.1092],[40.5043,-15.1901,0.0],[40.5024,-15.1838,0.0],[40.504,-15.1813,0.0],[40.5043,-15.1754,0.0],[40.509,-15.1735,0.7179],[40.5107,-15.169,1.7866],[40.5137,-15.1737,0.0],[40.5179,-15.1726,0.674],[40.5193,-15.1604,1.0037],[40.5165,-15.1587,0.0],[40.5182,-15.1563,0.0],[40.5215,-15.1568,0.839],[40.524,-15.1532,0.0],[40.5251,-15.139,0.0],[40.5238,-15.1324,1.1387],[40.5282,-15.1268,3.9546],[40.5337,-15.1257,1.9972],[40.539,-15.1268,5.1746],[40.5388,-15.1349,0.0],[40.5407,-15.1362,0.0],[40.5421,-15.1313,0.0],[40.5474,-15.1246,0.0],[40.5599,-15.1246,0.0],[40.5629,-15.1263,0.0],[40.564,-15.1304,0.6272],[40.5687,-15.1279,2.5371],[40.566,-15.1324,3.3085],[40.5682,-15.1315,4.575],[40.569,-15.1337,0.7264],[40.5729,-15.1346,0.0],[40.5754,-15.1376,0.0],[40.5771,-15.1349,0.4269],[40.5796,-15.1379,0.0],[40.5801,-15.1424,1.9008],[40.5818,-15.1426,2.4601],[40.5863,-15.1321,0.9359],[40.5935,-15.1243,0.0],[40.5879,-15.1176,0.0],[40.5793,-15.119,2.6499],[40.5757,-15.1179,4.7916],[40.5879,-15.1162,4.8207],[40.5924,-15.1187,5.3855],[40.596,-15.1226,1.6941],[40.5993,-15.1143,4.513],[40.6026,-15.111,0.6149],[40.5999,-15.1076,1.3011],[40.6049,-15.109,0.0],[40.6165,-15.096,2.9748],[40.6226,-15.0935,0.6068],[40.624,-15.0901,1.0217],[40.6246,-15.0912,1.0217],[40.6235,-15.0935,0.0],[40.6176,-15.0988,1.6479],[40.6218,-15.0962,0.0],[40.6265,-15.0899,1.2656],[40.6338,-15.0868,1.4788],[40.6446,-15.0851,0.5585],[40.6454,-15.0871,0.0],[40.6557,-15.0899,0.0],[40.6771,-15.0929,1.5017],[40.689,-15.0907,0.0],[40.7049,-15.0851,0.9721],[40.7093,-15.0807,2.5441],[40.7099,-15.0738,0.0],[40.7049,-15.0726,3.3458],[40.6937,-15.0537,2.2336],[40.6937,-15.0488,4.0014],[40.6963,-15.0437,2.7198],[40.6957,-15.0332,2.0852],[40.6926,-15.031,0.0],[40.6901,-15.0321,0.8301],[40.6849,-15.0312,0.0],[40.6832,-15.0285,0.0],[40.679,-15.0274,0.7417],[40.6782,-15.0249,1.442],[40.6743,-15.0243,1.3543],[40.6715,-15.0215,4.2391],[40.6682,-15.0118,8.6298],[40.6582,-15.0004,1.0051],[40.6574,-14.991,0.6776],[40.6554,-14.9907,0.5152],[40.6546,-14.9926,1.754],[40.656,-14.9979,2.608],[40.6549,-15.0043,0.6084],[40.6571,-15.0085,0.779],[40.656,-15.0124,1.1335],[40.6557,-15.0079,0.0],[40.6535,-15.0057,1.7412],[40.6521,-15.0004,0.0],[40.6451,-14.9926,0.0],[40.6396,-14.9918,1.3869],[40.6279,-14.9851,0.9309],[40.6257,-14.986,0.5],[40.6232,-14.9915,2.8657],[40.6218,-14.9918,1.0577],[40.6246,-14.984,4.1772],[40.631,-14.9829,6.9563],[40.6354,-14.986,2.0486],[40.6387,-14.986,1.282],[40.6435,-14.9849,0.0],[40.6501,-14.9793,0.0],[40.6485,-14.9749,3.3274],[40.6449,-14.9757,0.4177],[40.6424,-14.9726,0.0],[40.6365,-14.9704,0.6935],[40.6357,-14.9668,0.5],[40.6379,-14.961,0.5],[40.6332,-14.9515,4.1373],[40.6368,-14.9532,2.874],[40.6374,-14.9574,4.1718],[40.6415,-14.9599,2.6409],[40.6418,-14.9632,4.9372],[40.6396,-14.9649,3.532],[40.641,-14.9676,1.2369],[40.6476,-14.969,3.7235],[40.6496,-14.9676,12.2068],[40.6579,-14.9671,3.1344],[40.6635,-14.969,8.5762],[40.6688,-14.981,0.2683],[40.6787,-14.9846,0.9851],[40.6757,-14.9868,0.0],[40.6757,-14.989,0.0],[40.6776,-14.9904,0.0],[40.6896,-14.9904,0.0],[40.6915,-14.9885,0.7397],[40.6968,-14.9899,0.0],[40.6976,-14.9885,0.6908],[40.7038,-14.9907,0.2965],[40.706,-14.9893,4.3493],[40.7135,-14.9904,1.0669],[40.7143,-14.9929,0.196],[40.7218,-14.9935,0.0],[40.7324,-14.9896,0.0],[40.7343,-14.9851,0.6948],[40.7354,-14.9854,0.6948],[40.7351,-14.9896,0.0],[40.744,-14.9835,0.552],[40.746,-14.9876,0.4776],[40.7476,-14.9862,0.6527],[40.7471,-14.9824,0.8338],[40.7485,-14.9818,0.0],[40.7493,-14.986,0.0],[40.756,-14.9921,0.4001],[40.754,-14.991,0.0],[40.7521,-14.9926,0.0],[40.7515,-14.9976,3.667],[40.7457,-15.0001,0.0],[40.7562,-14.9996,0.0],[40.7657,-15.0029,1.5643],[40.7651,-15.0149,0.0],[40.7718,-15.0082,0.0],[40.7713,-15.0065,0.0],[40.7749,-15.0013,2.3024],[40.7754,-14.9963,0.0],[40.766,-14.9918,3.1531],[40.7599,-14.9862,0.0],[40.7524,-14.9776,3.2255],[40.7501,-14.9715,7.7093],[40.7451,-14.9668,1.2372],[40.7404,-14.9521,0.0],[40.7388,-14.9351,0.0],[40.7343,-14.9324,0.0],[40.724,-14.9337,0.7091],[40.7154,-14.9307,0.0],[40.7104,-14.934,0.5393],[40.7054,-14.9335,1.5016],[40.699,-14.9301,3.3015],[40.6988,-14.9282,0.6605],[40.696,-14.9274,1.8938],[40.6965,-14.9257,1.4884],[40.6946,-14.9249,0.4127],[40.6937,-14.9285,1.9665],[40.6882,-14.9293,0.0],[40.6907,-14.9371,0.2956],[40.689,-14.939,0.613],[40.6865,-14.9326,0.0],[40.684,-14.9324,0.0],[40.6832,-14.9349,1.7596],[40.6807,-14.9351,1.2826],[40.6782,-14.9329,0.0],[40.6749,-14.9335,3.2712],[40.6721,-14.931,0.0],[40.6632,-14.929,2.552],[40.661,-14.9254,1.5525],[40.6582,-14.9254,3.8201],[40.6549,-14.9229,0.0],[40.6479,-14.9154,0.3033],[40.646,-14.8904,0.0],[40.6488,-14.8835,1.521],[40.6435,-14.8787,1.3772],[40.6404,-14.8787,1.4439],[40.6376,-14.8715,0.0],[40.634,-14.8699,4.6138],[40.6332,-14.8674,3.3471],[40.636,-14.866,0.0],[40.6374,-14.8607,0.0],[40.6354,-14.8499,0.0],[40.6379,-14.8479,0.9933],[40.6387,-14.8432,1.3679],[40.6482,-14.8404,1.2504],[40.6474,-14.8424,1.8391],[40.6415,-14.8443,1.1952],[40.6393,-14.8504,0.0],[40.6446,-14.8657,0.0],[40.6496,-14.8721,0.0],[40.6549,-14.8737,1.7378],[40.6568,-14.884,1.7128],[40.656,-14.8896,0.8277],[40.6624,-14.8954,3.345],[40.6601,-14.9012,1.2518],[40.6515,-14.906,0.0],[40.6521,-14.9071,1.271],[40.6568,-14.9068,0.0],[40.6629,-14.9035,0.0],[40.6879,-14.9012,6.3599],[40.6918,-14.8979,7.9294],[40.6985,-14.896,1.4748],[40.7065,-14.8874,3.0144],[40.7146,-14.8879,1.9035],[40.7201,-14.8865,0.0],[40.7257,-14.8804,4.2631],[40.7318,-14.8771,7.8235],[40.7401,-14.876,6.8141],[40.7424,-14.8771,0.0],[40.7465,-14.8746,0.0],[40.7549,-14.8729,2.9897],[40.7701,-14.8621,0.0],[40.766,-14.861,2.4614],[40.7654,-14.8576,6.2953],[40.771,-14.8515,3.0193],[40.7896,-14.8451,1.4418],[40.7985,-14.8443,3.7586],[40.8065,-14.8462,1.0761],[40.8085,-14.8368,1.7153],[40.814,-14.8296,1.534],[40.8187,-14.8265,1.0552],[40.8257,-14.826,3.256],[40.8312,-14.8276,3.7027],[40.8299,-14.8326,2.0559],[40.8301,-14.8387,0.4599],[40.8312,-14.8387,0.0],[40.8346,-14.8176,2.3141],[40.834,-14.804,0.9343],[40.8296,-14.8049,1.234],[40.826,-14.8082,0.0],[40.8262,-14.8118,2.0121],[40.8213,-14.8118,1.7955],[40.8168,-14.8043,0.8144],[40.8165,-14.7993,0.8702],[40.819,-14.7949,1.8362],[40.8229,-14.7921,0.7363],[40.8213,-14.781,1.0004],[40.8249,-14.7757,3.1099],[40.831,-14.7768,0.0],[40.8324,-14.7751,0.0],[40.8343,-14.781,0.0],[40.836,-14.7804,2.1696],[40.8376,-14.7499,0.0],[40.8371,-14.7349,0.0],[40.8351,-14.7335,4.1271],[40.8368,-14.7321,5.6299],[40.8351,-14.7293,3.6774],[40.8376,-14.7268,0.0],[40.8354,-14.7251,4.1033],[40.8371,-14.724,0.0],[40.8351,-14.7212,0.0],[40.8365,-14.7132,6.0508],[40.8349,-14.711,2.1492],[40.8363,-14.7057,4.2217],[40.8338,-14.6982,2.4888],[40.8357,-14.6949,2.269],[40.8371,-14.6818,0.0],[40.8346,-14.6768,6.3183],[40.8326,-14.666,2.0834],[40.8293,-14.6649,2.0347],[40.8307,-14.6635,0.9447],[40.8299,-14.6596,0.9019],[40.8274,-14.6576,0.0],[40.8243,-14.6587,3.9065],[40.8235,-14.6565,0.7431],[40.821,-14.6557,0.0],[40.8196,-14.6576,0.0],[40.8149,-14.6571,2.1338],[40.8146,-14.6543,0.0],[40.8085,-14.6501,5.5434],[40.8085,-14.6474,0.0],[40.8063,-14.6457,0.0],[40.8074,-14.6385,1.0613],[40.8032,-14.6374,0.0],[40.8032,-14.6346,0.7336],[40.8004,-14.6337,4.6975],[40.7985,-14.6293,3.7191],[40.8007,-14.6196,4.4327],[40.8082,-14.6118,1.4923],[40.8104,-14.6129,2.721],[40.8124,-14.6115,0.0],[40.8185,-14.6043,0.5626],[40.8215,-14.5965,0.0],[40.8226,-14.576,0.9156],[40.8265,-14.5721,3.6903],[40.8299,-14.5579,0.0],[40.8257,-14.5537,1.9462],[40.8265,-14.5493,4.7707],[40.8276,-14.5487,1.5618],[40.8299,-14.5532,0.7047],[40.8321,-14.554,1.0011],[40.8293,-14.5499,0.0],[40.8296,-14.5476,0.4848],[40.8265,-14.5449,4.7177],[40.8254,-14.5335,0.7393],[40.8182,-14.5282,4.2598],[40.8126,-14.5299,5.9099],[40.8096,-14.5274,2.0058],[40.8004,-14.5268,1.6218],[40.7999,-14.5379,0.0],[40.7971,-14.5401,4.142],[40.7888,-14.5399,0.4957],[40.7921,-14.5487,4.7181],[40.7901,-14.5596,3.337],[40.7835,-14.5613,4.5507],[40.7815,-14.5596,0.8599],[40.7782,-14.5596,0.5865],[40.781,-14.5646,2.8817],[40.7749,-14.5618,1.5704],[40.7657,-14.5613,18.8601],[40.761,-14.5579,0.0],[40.7604,-14.5521,1.3671],[40.764,-14.5473,0.0],[40.7373,-14.5442,10.7413],[40.7199,-14.5626,65.2133],[40.7213,-14.6574,59.6833],[40.6712,-14.6575,139.8268],[40.6512,-14.6827,70.402],[40.6328,-14.7002,115.1047],[40.5613,-14.7087,110.723],[40.5529,-14.7115,84.5972],[40.5506,-14.7275,80.5817],[40.5393,-14.744,104.1078],[40.5334,-14.7698,65.744],[40.5186,-14.7636,66.2625],[40.4885,-14.7573,65.0023],[40.4641,-14.7577,90.9315],[40.4361,-14.7669,101.4018],[40.3866,-14.806,129.1792],[40.3675,-14.8084,154.9462],[40.3713,-14.8427,139.6305],[40.3713,-14.8742,123.3016],[40.3613,-14.9056,108.8963],[40.3566,-14.9157,105.075],[40.3403,-14.9346,58.0412],[40.3408,-14.965,36.1874],[40.3506,-14.9898,33.2286],[40.3565,-15.0007,40.5805],[40.362,-15.0025,38.0057],[40.3713,-14.9935,37.8718],[40.3783,-14.992,53.4762],[40.3847,-14.9948,49.1398],[40.3867,-15.0025,28.9084],[40.3991,-15.0144,32.1043],[40.4176,-15.0174,30.1154],[40.4392,-15.0234,29.2021],[40.4424,-15.0267,27.4511],[40.4407,-15.029,26.5771],[40.4234,-15.0346,33.4622],[40.3975,-15.0377,34.815],[40.3899,-15.0346,39.3284],[40.3682,-15.04,42.6453],[40.3302,-15.0736,57.0982],[40.3178,-15.0755,60.9335],[40.3063,-15.0715,63.0614],[40.2983,-15.0652,65.7577],[40.2792,-15.0576,75.3207],[40.268,-15.0619,74.7908],[40.257,-15.0774,79.3697],[40.2476,-15.0848,84.3137]],
[[40.560400883179447,-15.420401886792451,1.042],[40.560399047206587,-15.420400736249459,1.042],[40.5604,-15.4204,1.042],[40.560400883179447,-15.420401886792451,1.042]],
[[40.560399047206587,-15.420400736249459,1.042],[40.556,-15.4238,2.2327],[40.5596,-15.4199,1.042],[40.560399047206587,-15.420400736249459,1.042]]],
[[[40.5782,-15.4254,0.6618],[40.5776,-15.4243,0.0],[40.5746,-15.4332,0.0],[40.5757,-15.4354,0.0],[40.5768,-15.4343,0.0],[40.5782,-15.4254,0.6618]]],
[[[40.5788,-15.4085,0.0],[40.5793,-15.4068,0.3118],[40.5768,-15.4076,0.5544],[40.5771,-15.4085,0.0],[40.5788,-15.4085,0.0]]],
[[[40.5876,-15.4024,0.0],[40.5871,-15.4012,0.0],[40.584,-15.4035,0.6738],[40.5849,-15.406,0.4378],[40.5857,-15.4057,0.4378],[40.5876,-15.4024,0.0]]],
[[[40.6635,-15.1957,0.0],[40.6618,-15.1949,0.0],[40.6626,-15.2107,0.059],[40.6649,-15.2099,0.0],[40.6651,-15.2076,0.0],[40.6651,-15.199,0.0],[40.6635,-15.1957,0.0]]],
[[[40.5282,-15.149,0.0],[40.5262,-15.1485,0.0],[40.5265,-15.1518,0.0],[40.5279,-15.1504,0.0],[40.5282,-15.149,0.0]]],
[[[40.5924,-15.1201,2.3168],[40.5913,-15.1193,0.4429],[40.5935,-15.1224,0.4219],[40.5935,-15.1212,2.3168],[40.5924,-15.1201,2.3168]]],
[[[40.774,-15.0785,1.5294],[40.7732,-15.0751,0.0],[40.7693,-15.0793,3.0107],[40.766,-15.0796,0.0],[40.7701,-15.0813,0.2613],[40.7713,-15.0849,0.0],[40.7732,-15.086,0.0],[40.7754,-15.0821,0.0],[40.774,-15.0785,1.5294]]]]}
,"properties": {"GID_2": "MOZ.7.12_1","GID_0": "MOZ","country": "Mozambique","GID_1": "MOZ.7_1","province": "Nampula","NL_NAME_1": "NA","county": "Mossuril","VARNAME_2": "NA","NL_NAME_2": "NA","TYPE_2": "Distrito","ENGTYPE_2": "District","CC_2": "NA","HASC_2": "MZ.NM.MS","name": "Mossuril.county","area_km2": 3548.884,"hist_schema_id": "Elevation0-9000","hist_area_km2": {"0": 475.668,"25": 686.536,"50": 719.25,"75": 784.368,"100": 592.827,"125": 200.974,"150": 76.407,"175": 11.481,"200": 0.246,"225": 0.41,"250": 0.41,"275": 0.205,"300": 0.103}}}