{"type": "Feature","bbox": [33.6058,-24.272,33.9582,-23.6551],"geometry": {"type": "MultiPolygon","coordinates": [[[[33.8313,-24.272,56.8537],[33.8367,-24.1655,41.7198],[33.8399,-24.1457,40.9793],[33.8406,-24.1136,21.2521],[33.8433,-24.1062,16.0069],[33.8509,-24.0963,19.5342],[33.8671,-24.0973,18.6439],[33.8841,-24.0936,20.003],[33.8955,-24.1001,21.034],[33.9048,-24.0912,18.7609],[33.9089,-24.0814,21.4675],[33.921,-24.0825,18.2141],[33.9306,-24.0879,22.0465],[33.938,-24.0848,24.1039],[33.9456,-24.0776,20.8069],[33.9416,-24.072,38.0719],[33.9376,-24.0617,29.8293],[33.9341,-24.0475,22.9925],[33.9312,-24.042,25.1539],[33.9275,-24.0236,29.0593],[33.9319,-24.0208,24.6946],[33.9339,-24.0135,21.5615],[33.9276,-24.0068,25.6385],[33.9278,-24.0032,27.038],[33.9337,-23.9976,24.8353],[33.9377,-23.9912,29.9961],[33.9349,-23.9859,21.0589],[33.9258,-23.985,20.5166],[33.9255,-23.9793,24.8357],[33.9317,-23.9628,21.583],[33.9333,-23.9526,30.4575],[33.9266,-23.9373,26.4914],[33.9198,-23.907,23.3312],[33.9201,-23.8979,23.6125],[33.9174,-23.8921,27.0997],[33.9156,-23.8803,24.3242],[33.9196,-23.8807,26.3428],[33.9382,-23.8708,27.3145],[33.9397,-23.8623,26.6098],[33.9356,-23.8574,25.733],[33.9265,-23.8516,27.6434],[33.9263,-23.8443,27.1078],[33.9153,-23.8372,24.9447],[33.9289,-23.8227,25.7734],[33.9281,-23.8134,26.1836],[33.9308,-23.8036,26.3747],[33.9287,-23.7922,27.1246],[33.9182,-23.774,29.0325],[33.9239,-23.7699,30.128],[33.9282,-23.7627,28.4441],[33.9286,-23.7506,28.7852],[33.9361,-23.727,34.2346],[33.9338,-23.7187,33.9811],[33.9582,-23.7086,36.2479],[33.9477,-23.6859,33.3791],[33.9418,-23.6847,34.5659],[33.9419,-23.6768,34.6329],[33.9376,-23.6633,35.6774],[33.9294,-23.6551,30.7874],[33.9225,-23.6603,31.165],[33.9044,-23.669,31.2994],[33.8963,-23.6666,29.2713],[33.8935,-23.6626,29.7635],[33.6895,-23.9422,35.4298],[33.6751,-23.9467,33.1303],[33.6634,-23.9422,31.8155],[33.642,-23.9287,34.6245],[33.6061,-23.9161,40.1456],[33.6058,-24.1286,39.1183],[33.609,-24.1497,43.012],[33.614,-24.1559,41.9899],[33.6129,-24.1633,47.6577],[33.6262,-24.1859,44.4453],[33.633,-24.2014,31.2352],[33.6377,-24.2427,7.5466],[33.642,-24.2518,6.9323],[33.6749,-24.2546,27.0644],[33.7353,-24.2642,30.823],[33.7938,-24.2671,37.8081],[33.8313,-24.272,56.8537]]]]}
,"properties": {"GID_3": "MOZ.2.2.3_1","GID_0": "MOZ","country": "Mozambique","GID_1": "MOZ.2_1","province": "Gaza","NL_NAME_1": "NA","GID_2": "MOZ.2.2_1","county": "Chibuto","NL_NAME_2": "NA","city": "Changanine","VARNAME_3": "NA","NL_NAME_3": "NA","TYPE_3": "Localidad","ENGTYPE_3": "Locality","CC_3": "NA","HASC_3": "NA","name": "Changanine.city","area_km2": 1416.503,"hist_schema_id": "Elevation0-9000","hist_area_km2": {"0": 32.563,"25": 436.12,"50": 945.556,"75": 2.264}}}