{"type": "Feature","bbox": [31.9305,-26.8687,33.1375,-24.2032],"geometry": {"type": "MultiPolygon","coordinates": [[[[32.484,-26.0738,29.2336],[32.4539,-26.0886,1.6694],[32.4424,-26.0678,1.9455],[32.4413,-26.0561,1.6373],[32.4439,-26.0562,0.0],[32.4434,-26.0613,0.4921],[32.4449,-26.0655,1.7576],[32.4458,-26.0588,1.731],[32.4476,-26.0569,2.2491],[32.4629,-26.0566,0.2832],[32.4765,-26.0535,0.0],[32.484,-26.0472,0.0],[32.4912,-26.0352,0.0],[32.4987,-26.0133,0.0],[32.4918,-25.9932,0.0],[32.4917,-25.9859,2.0262],[32.5,-25.9695,0.0],[32.506,-25.966,0.0],[32.504,-25.961,0.9674],[32.506,-25.9593,0.0],[32.5046,-25.9579,3.3372],[32.4994,-25.9626,0.0],[32.4848,-25.9706,0.0],[32.4721,-25.985,1.0],[32.4663,-25.9841,5.7211],[32.4621,-25.9784,22.3363],[32.4572,-25.9748,8.8685],[32.4544,-25.9753,2.0782],[32.4513,-25.9712,9.7982],[32.445,-25.9677,9.5606],[32.4367,-25.965699999999998,1.1059],[32.4317,-25.9599,0.2842],[32.4314,-25.9552,5.4835],[32.4367,-25.947,18.7788],[32.4455,-25.9378,23.9369],[32.4356,-25.9352,0.9409],[32.4357,-25.9264,7.5414],[32.4319,-25.921,1.9169],[32.4342,-25.9114,12.9086],[32.4253,-25.9067,20.3937],[32.4212,-25.9023,3.8528],[32.4206,-25.8925,18.5768],[32.4188,-25.8901,22.0101],[32.409,-25.8881,26.702],[32.404,-25.8846,4.3102],[32.4049,-25.8784,23.2399],[32.4163,-25.8707,5.8244],[32.417,-25.8673,23.2251],[32.4134,-25.8622,15.7155],[32.4109,-25.848,10.8787],[32.4146,-25.8428,17.6378],[32.4108,-25.8224,16.1568],[32.4153,-25.8136,9.7116],[32.4194,-25.7929,20.3931],[32.4237,-25.7864,17.4061],[32.4298,-25.756,19.1009],[32.4341,-25.7534,15.136],[32.4524,-25.7558,37.461],[32.4724,-25.752,42.4335],[32.4847,-25.7183,47.8849],[32.5193,-25.6865,52.7095],[32.5651,-25.6991,53.2016],[32.5603,-25.7169,56.0459],[32.5628,-25.7228,56.1467],[32.5699,-25.7303,54.5477],[32.577,-25.7431,56.5336],[32.582,-25.7466,54.3959],[32.5919,-25.7694,46.7599],[32.5754,-25.7998,33.1811],[32.5741,-25.8052,31.9935],[32.6968,-25.8535,1.1449],[32.6954,-25.8462,1.0237],[32.6976,-25.8429,3.5804],[32.6982,-25.8351,2.5313],[32.7012,-25.8293,0.0],[32.7007,-25.8221,1.7758],[32.7032,-25.824,0.0],[32.7071,-25.8215,0.4713],[32.714,-25.8221,0.8179],[32.7171,-25.8207,0.0],[32.721,-25.8143,1.4554],[32.7215,-25.8074,0.0],[32.7068,-25.8071,1.9307],[32.7018,-25.8054,0.9634],[32.6885,-25.7949,1.5675],[32.6857,-25.7865,1.2463],[32.6857,-25.7729,6.1161],[32.6899,-25.7685,0.9234],[32.6957,-25.7693,0.8752],[32.7151,-25.7621,0.8176],[32.7182,-25.7588,0.0],[32.7143,-25.7535,1.9267],[32.7168,-25.7515,0.0],[32.729,-25.7596,0.2018],[32.7354,-25.7665,0.0],[32.7365,-25.7776,0.0],[32.729,-25.7882,1.4717],[32.7279,-25.7943,2.1969],[32.729,-25.8021,0.0],[32.7332,-25.8126,0.0],[32.7332,-25.8204,0.0],[32.7363,-25.8282,0.0],[32.7346,-25.8426,0.0],[32.7385,-25.8515,4.6093],[32.7401,-25.8624,1.2313],[32.7454,-25.8668,2.2666],[32.7454,-25.871,1.8724],[32.7438,-25.8715,0.0],[32.7468,-25.8735,0.0],[32.7526,-25.8735,0.0],[32.7449,-25.8629,1.5481],[32.7374,-25.8376,5.8291],[32.7368,-25.8285,0.0],[32.7329,-25.8082,2.698],[32.7351,-25.7826,2.1182],[32.7374,-25.7779,0.0],[32.7474,-25.7349,3.7688],[32.7576,-25.7085,7.2386],[32.7788,-25.6626,14.0448],[32.7918,-25.6435,0.0],[32.8054,-25.6176,18.2276],[32.8126,-25.6065,9.1093],[32.8429,-25.5726,1.7445],[32.9001,-25.5246,1.8128],[32.9099,-25.519,0.0],[32.9157,-25.5135,1.5605],[32.9193,-25.5129,0.0],[32.9238,-25.5076,8.1068],[32.9304,-25.5046,0.0],[32.9301,-25.5032,0.0],[32.9351,-25.501,2.3657],[32.9371,-25.4979,11.6139],[32.9396,-25.4979,0.0],[32.9412,-25.4954,3.5657],[32.9476,-25.4929,0.0],[32.9515,-25.4885,8.1027],[32.9551,-25.4879,0.0],[32.9735,-25.4749,0.0],[32.9785,-25.4735,0.0],[32.9851,-25.4665,0.561],[32.9901,-25.4651,0.0],[32.9932,-25.4621,2.4291],[33.0115,-25.4532,0.0],[33.0221,-25.4446,0.0],[33.0376,-25.4365,0.0],[33.051,-25.4268,1.1396],[33.094,-25.4051,0.0],[33.1315,-25.3832,0.8253],[33.1375,-25.3009,50.6306],[33.1275,-25.2447,52.7034],[33.1011,-25.203,43.3146],[32.9943,-25.2034,6.7683],[32.9906,-25.2022,7.4423],[32.9926,-25.1993,7.5968],[32.9969,-25.1801,8.0337],[32.9946,-25.1757,8.4896],[32.9958,-25.1721,8.9235],[33.0072,-25.1565,8.4319],[33.012,-25.1525,8.4221],[33.0122,-25.1491,12.6411],[33.0103,-25.146,10.874],[33.0123,-25.1337,9.378],[33.0095,-25.1303,10.3811],[33.0037,-25.1316,9.9061],[32.9976,-25.1356,9.4289],[32.9898,-25.1332,9.6071],[32.9843,-25.126,10.5108],[32.9828,-25.1177,9.7611],[32.9958,-25.0949,10.2316],[32.9991,-25.086,11.2769],[32.9552,-25.0788,12.735],[32.9468,-25.0763,10.2765],[32.9355,-25.0699,11.0375],[32.9254,-25.0696,11.3828],[32.9232,-25.0623,12.0501],[32.9244,-25.0529,10.5],[32.915,-25.0388,10.5],[32.915,-25.033,10.5],[32.9208,-25.0112,10.5],[32.9186,-24.9828,14.466],[32.9217,-24.979,11.0],[32.9232,-24.974,13.977],[32.9199,-24.9716,13.6971],[32.9117,-24.9708,15.6315],[32.9053,-24.9666,11.0],[32.9018,-24.9609,11.0],[32.9034,-24.9561,12.0329],[32.9029,-24.943,11.2867],[32.9125,-24.934,12.4478],[32.9145,-24.9296,11.9033],[32.9139,-24.926,15.5354],[32.9189,-24.9257,12.5502],[32.9319,-24.9157,14.5351],[32.9381,-24.9156,14.2359],[32.9405,-24.9123,14.4955],[32.9393,-24.9086,13.9519],[32.9401,-24.903199999999998,14.3616],[32.9375,-24.8982,15.3274],[32.9247,-24.8977,15.7851],[32.9155,-24.89,16.1191],[32.9155,-24.8827,16.7818],[32.9099,-24.8759,17.65],[32.9126,-24.8721,17.0184],[32.9058,-24.8681,16.6963],[32.9054,-24.8661,17.8164],[32.9089,-24.858,17.7793],[32.9091,-24.8518,21.6068],[32.9508,-24.764,23.1754],[32.8879,-24.7613,28.7676],[32.8788,-24.7672,25.5762],[32.8722,-24.7756,26.325],[32.8673,-24.7711,21.7997],[32.8683,-24.7641,22.5321],[32.8737,-24.7515,24.0104],[32.8728,-24.7494,23.8509],[32.8663,-24.7471,23.7841],[32.8615,-24.7434,24.7002],[32.8612,-24.7415,25.4187],[32.8367,-24.7228,25.2072],[32.8394,-24.6963,27.7921],[32.8382,-24.6837,26.3892],[32.8316,-24.6701,28.2342],[32.8185,-24.6607,31.4735],[32.7986,-24.6294,33.1843],[32.7828,-24.6101,33.2884],[32.7642,-24.575,38.0922],[32.7633,-24.5638,38.1559],[32.7507,-24.5541,38.0801],[32.7463,-24.5444,41.0704],[32.7467,-24.5409,42.5932],[32.7306,-24.5309,44.83],[32.7192,-24.5088,43.3619],[32.7164,-24.4984,41.6449],[32.7197,-24.483,43.0997],[32.724,-24.4752,44.4758],[32.7285,-24.4577,45.5373],[32.725,-24.4234,45.4513],[32.7185,-24.4026,49.3667],[32.6964,-24.3857,50.6882],[32.6717,-24.3768,57.9947],[32.6543,-24.376,62.2585],[32.6146,-24.3796,68.5264],[32.606,-24.3758,70.201],[32.5991,-24.3694,70.9036],[32.587,-24.3499,76.3299],[32.5679,-24.3355,80.0943],[32.5579,-24.3333,79.6756],[32.5455,-24.346,82.2709],[32.5371,-24.3463,83.7225],[32.5339,-24.3452,83.787],[32.528,-24.3383,86.0801],[32.5219,-24.334,86.4076],[32.5127,-24.3343,89.8429],[32.5068,-24.3322,91.2537],[32.4884,-24.33,93.172],[32.4809,-24.326,94.153],[32.4806,-24.3271,94.2083],[32.4757,-24.3248,94.2151],[32.4638,-24.308,97.299],[32.4491,-24.3023,100.0074],[32.4476,-24.2937,101.6157],[32.4397,-24.2802,103.927],[32.4331,-24.2803,106.7279],[32.3957,-24.2674,119.7785],[32.3865,-24.261,124.2837],[32.3573,-24.2476,136.5854],[32.3425,-24.2462,140.5695],[32.3212,-24.2526,147.5583],[32.312,-24.2502,149.4532],[32.3007,-24.2496,153.5132],[32.2934,-24.2511,155.6822],[32.2756,-24.2486,163.0844],[32.2691,-24.2427,173.0744],[32.2564,-24.2361,179.6506],[32.2333,-24.2349,177.3126],[32.2293,-24.2399,179.4306],[32.2147,-24.2335,188.377],[32.208,-24.2333,186.0453],[32.1918,-24.2164,193.8022],[32.1654,-24.2138,217.5654],[32.1274,-24.2127,234.0218],[32.0959,-24.2056,254.8862],[32.0748,-24.2032,262.65],[32.0448,-24.209,277.7128],[31.9704,-24.2458,329.0201],[31.9489,-24.2463,348.5293],[31.9813,-24.2973,312.619],[31.9871,-24.3022,310.5925],[32.0131,-24.4546,157.9758],[32.0089,-24.5751,288.8507],[31.9983,-24.6897,362.5546],[32.0155,-24.9251,403.6624],[32.0302,-25.0657,303.8351],[32.0336,-25.1325,271.5422],[32.0288,-25.2414,305.694],[32.0153,-25.3825,368.2343],[32.0135,-25.3881,363.4351],[31.9905,-25.429,252.1388],[31.9895,-25.4377,105.631],[31.9796,-25.4571,341.9621],[31.9774,-25.4747,388.5603],[31.9774,-25.5098,362.9562],[31.9813,-25.5238,348.7969],[31.9958,-25.5263,305.9691],[32.0056,-25.626,250.6066],[32.0061,-25.6452,397.2691],[31.9959,-25.6767,415.3765],[31.9786,-25.6937,436.4996],[31.9305,-25.8408,586.61],[31.9737,-25.9532,745.307],[31.9813,-25.95,619.1583],[32.0041,-25.9903,586.6097],[32.0285,-25.998,534.3766],[32.0877,-26.0109,455.0635],[32.0972,-26.0724,258.9401],[32.1081,-26.1659,271.9967],[32.0963,-26.211,175.0578],[32.0966,-26.2181,234.7323],[32.0914,-26.2445,332.8063],[32.0749,-26.3125,483.9586],[32.0767,-26.3641,456.343],[32.0802,-26.4091,469.2458],[32.0892,-26.4325,432.5636],[32.1367,-26.5356,453.6643],[32.1331,-26.8402,41.1647],[32.1414,-26.8414,43.1445],[32.1439,-26.8486,41.786],[32.1567,-26.8569,38.2139],[32.184,-26.8632,39.8657],[32.2045,-26.8548,34.6533],[32.2078,-26.8404,36.3349],[32.2192,-26.8328,45.8771],[32.2369,-26.8389,32.0296],[32.2488,-26.8405,31.8598],[32.2534,-26.8434,29.6782],[32.2569,-26.8486,30.231],[32.2636,-26.8473,29.1459],[32.2753,-26.8496,30.5032],[32.2804,-26.8488,30.5545],[32.2879,-26.853,37.4008],[32.2957,-26.8528,27.777],[32.3082,-26.8565,29.4402],[32.3166,-26.8528,25.1013],[32.3206,-26.8527,24.3336],[32.3254,-26.8562,25.0941],[32.3311,-26.8639,24.2992],[32.3387,-26.86,23.3639],[32.3412,-26.8556,24.2508],[32.3461,-26.8551,21.2753],[32.3469,-26.864,26.2059],[32.5657,-26.8645,93.0665],[32.6829,-26.8681,58.0872],[32.7362,-26.8665,61.9913],[32.8203,-26.8687,31.4777],[32.8622,-26.8665,22.9395],[32.891,-26.8589,16.2778],[32.8965,-26.8449,0.0],[32.8913,-26.8446,12.7405],[32.8874,-26.8404,5.2183],[32.8862,-26.8232,0.0],[32.8921,-26.7987,0.0],[32.8904,-26.794,3.5442],[32.8901,-26.784,3.559],[32.8946,-26.7654,0.0],[32.9018,-26.746,0.0],[32.9007,-26.7279,0.0],[32.9049,-26.7121,0.0],[32.9004,-26.7046,0.0],[32.9007,-26.6863,0.0],[32.8949,-26.676,0.0],[32.8935,-26.6568,0.0],[32.8954,-26.6382,2.9778],[32.9063,-26.5912,12.2257],[32.9063,-26.5763,22.5084],[32.9101,-26.5518,24.2159],[32.9196,-26.5199,0.0],[32.9151,-26.5124,0.0],[32.9176,-26.4879,20.961],[32.9299,-26.4543,0.0],[32.9232,-26.4463,2.0469],[32.921,-26.4379,0.0],[32.921,-26.4263,0.0],[32.9243,-26.4068,5.3862],[32.9226,-26.3976,14.6922],[32.9243,-26.3868,16.0935],[32.9326,-26.3632,2.6514],[32.934,-26.3549,0.0],[32.9293,-26.341,0.0],[32.9307,-26.3165,8.2611],[32.9349,-26.2843,41.3362],[32.9421,-26.2626,2.908],[32.9415,-26.2588,0.0],[32.9379,-26.2549,0.0],[32.9376,-26.2482,0.0],[32.9418,-26.2207,2.0833],[32.9457,-26.2065,0.0],[32.949,-26.1518,5.721],[32.9576,-26.1182,12.278],[32.9607,-26.1121,2.1947],[32.9607,-26.1104,3.9338],[32.9568,-26.1076,1.0406],[32.9568,-26.0999,3.9234],[32.9607,-26.0888,2.2317],[32.961,-26.0835,10.2549],[32.9529,-26.0832,1.1941],[32.9526,-26.0885,1.4338],[32.9499,-26.0932,3.6682],[32.9299,-26.0985,0.8549],[32.924,-26.104,0.6783],[32.9221,-26.1018,1.981],[32.9193,-26.1021,2.0767],[32.9121,-26.106,0.0],[32.9071,-26.111,0.0],[32.8915,-26.1429,0.0],[32.8899,-26.151,0.0],[32.8765,-26.1846,3.5325],[32.8693,-26.1976,0.0],[32.8665,-26.2187,1.192],[32.8693,-26.2524,0.0],[32.866,-26.2599,14.399],[32.8726,-26.271,0.5541],[32.8793,-26.274,1.3976],[32.8904,-26.2879,1.7371],[32.8907,-26.2918,1.2267],[32.8874,-26.2962,0.2946],[32.8857,-26.3029,0.5387],[32.8863,-26.3079,1.3609],[32.8849,-26.3029,0.5387],[32.8874,-26.2901,1.8906],[32.8849,-26.2846,0.7961],[32.8796,-26.2796,3.5405],[32.8713,-26.2779,0.0],[32.8582,-26.2799,3.1655],[32.854,-26.2812,0.0],[32.8465,-26.2876,0.8541],[32.8318,-26.2893,1.9454],[32.8293,-26.2865,6.9445],[32.8118,-26.2776,2.2709],[32.8049,-26.2696,6.0054],[32.796,-26.2443,0.0],[32.7771,-26.2332,2.606],[32.7571,-26.214,0.1863],[32.7382,-26.1999,1.5703],[32.7226,-26.1835,1.8388],[32.719,-26.1829,0.3669],[32.7149,-26.1851,1.9471],[32.706,-26.1863,2.4251],[32.6921,-26.1929,1.0368],[32.681,-26.1874,3.0532],[32.681,-26.1829,3.3053],[32.6749,-26.1643,0.0],[32.6679,-26.1524,0.2351],[32.6651,-26.1435,1.0024],[32.6646,-26.1354,0.1026],[32.6665,-26.1299,0.0],[32.6657,-26.1221,0.0],[32.6499,-26.0963,0.7562],[32.6307,-26.0754,0.0],[32.6199,-26.0581,13.4819],[32.5212,-26.0549,40.2639],[32.484,-26.0738,29.2336]]],
[[[32.7249,-25.8215,7.4702],[32.7226,-25.8204,0.9619],[32.7115,-25.8285,1.4064],[32.7065,-25.8371,0.0],[32.7076,-25.8454,0.0],[32.7151,-25.8593,0.9031],[32.7187,-25.8585,0.0],[32.7212,-25.8551,1.2243],[32.7224,-25.8493,0.4214],[32.721,-25.8474,2.7502],[32.7212,-25.8426,3.0795],[32.7271,-25.8318,0.0],[32.7268,-25.8237,0.0],[32.7249,-25.8215,7.4702]]],
[[[32.889,-26.2876,0.919],[32.8874,-26.2868,0.6021],[32.8885,-26.2912,1.8343],[32.8893,-26.291,1.8343],[32.889,-26.2876,0.919]]],
[[[32.7318,-25.7643,0.0],[32.729,-25.7635,0.0],[32.7329,-25.7671,0.4857],[32.7332,-25.7654,3.5913],[32.7318,-25.7643,0.0]]],
[[[32.7221,-25.7593,0.0],[32.7196,-25.7588,0.9377],[32.7157,-25.7629,0.8176],[32.7071,-25.7676,0.6981],[32.7004,-25.7682,1.681],[32.6957,-25.7704,1.3606],[32.689,-25.7699,1.5193],[32.6874,-25.7715,0.0],[32.6885,-25.7935,0.6678],[32.6954,-25.7971,1.6542],[32.7026,-25.8046,0.9634],[32.7118,-25.806,1.0009],[32.7218,-25.8049,0.0],[32.7218,-25.7896,0.8231],[32.7254,-25.7824,0.0],[32.7326,-25.7737,1.3797],[32.7315,-25.7704,0.0],[32.7218,-25.7618,1.8507],[32.7229,-25.7612,0.6066],[32.7221,-25.7593,0.0]]]]}
,"properties": {"GID_1": "MOZ.6_1","GID_0": "MOZ","country": "Mozambique","province": "Maputo","VARNAME_1": "NA","NL_NAME_1": "NA","TYPE_1": "Provincia","ENGTYPE_1": "Province","CC_1": "NA","HASC_1": "MZ.MP","ISO_1": "MZ-L","name": "Maputo.province","area_km2": 22949.29,"hist_schema_id": "Elevation0-9000","hist_area_km2": {"0": 2093.87,"25": 3793.47,"50": 5075.96,"75": 3458.91,"100": 2490.03,"125": 1777.81,"150": 1250.06,"175": 827.43,"200": 586.96,"225": 404.29,"250": 290.58,"275": 191.23,"300": 151.99,"325": 111.46,"350": 67.19,"375": 55.05,"400": 56.23,"425": 60.11,"450": 51.85,"475": 42.41,"500": 33.17,"525": 23.56,"550": 16.73,"575": 13.18,"600": 10.28,"625": 6.85,"650": 2.78,"675": 2.33,"700": 1.32,"725": 0.92,"750": 0.86,"775": 0.42}}}