{"type": "Feature","id": "5854","bbox": [32.51661,-25.96982,32.65876,-25.86582],"geometry": {"type": "Polygon","coordinates": [[[32.65876,-25.91056,0.0],[32.6302,-25.88734,9.3569],[32.55271,-25.86582,30.0877],[32.52688,-25.91891,24.6341],[32.51661,-25.94997,0.0],[32.5337,-25.95037,0.0],[32.55055,-25.95534,9.3109],[32.57106,-25.96705,25.4579],[32.5796,-25.96982,58.2197],[32.59148,-25.96901,61.3553],[32.6006,-25.96404,43.2909],[32.62696,-25.94402,0.0],[32.63233,-25.93808,0.0],[32.63998,-25.92693,0.0],[32.65876,-25.91056,0.0]]]}
,"properties": {"ISO3166-1-Alpha-3": "MOZ","country": "Mozambique","fill": "#F0F","name": "Maputo","area_km2": 99.60019,"hist_schema_id": "Elevation0-9000","hist_area_km2": {"0": 26.86848,"25": 37.49082,"50": 34.87872,"75": 0.36217}}}