{"type": "Feature","id": "1927","bbox": [31.90584,-26.86027,33.13971,-24.21124],"geometry": {"type": "MultiPolygon","coordinates": [[[[32.97511,-26.00945,5.131],[32.98194,-25.98016,7.1837],[32.9826,-25.96901,0.0],[32.95436,-25.98056,0.0],[32.9183,-26.0014,2.3143],[32.89536,-26.02842,0.0],[32.90675,-26.05779,12.729],[32.91383,-26.0346,2.6941],[32.91358,-26.03045,0.0],[32.92677,-26.02825,1.5574],[32.93035,-26.03265,0.0],[32.93084,-26.03948,0.0],[32.93474,-26.04412,0.0],[32.94614,-26.0499,8.3553],[32.94939,-26.05397,13.4538],[32.95191,-26.05299,8.719],[32.96127,-26.04412,34.0968],[32.96453,-26.03802,59.4034],[32.97511,-26.00945,5.131]]],
[[[32.56652,-24.38978,76.5527],[32.5566,-24.38761,79.1497],[32.54151,-24.38161,84.1407],[32.5136,-24.36549,92.9151],[32.48363,-24.35479,99.6531],[32.47805,-24.35123,102.1496],[32.42405,-24.29573,113.1661],[32.41599,-24.28932,113.8282],[32.40699,-24.28389,115.1461],[32.39118,-24.2781,123.435],[32.27388,-24.2626,173.6768],[32.24948,-24.25103,187.2639],[32.24096,-24.24896,188.409],[32.20871,-24.24384,208.3151],[32.19052,-24.23811,214.4361],[32.18618,-24.23516,219.3507],[32.17362,-24.22829,223.8767],[32.11528,-24.22002,238.1866],[32.09135,-24.2132,257.0908],[32.08221,-24.2117,270.7194],[32.07461,-24.21124,264.982],[32.06717,-24.21165,272.7662],[31.94211,-24.26772,278.1392],[31.92631,-24.27674,251.4932],[31.96134,-24.34632,230.7706],[31.98655,-24.42311,234.3135],[31.99193,-24.50042,225.4214],[31.98376,-24.56915,274.3724],[31.98459,-24.70846,327.3524],[31.98562,-24.87693,305.5496],[31.9863,-24.9963,244.7729],[31.98723,-25.15536,154.4025],[31.98872,-25.37261,206.3629],[31.97167,-25.4215,154.7352],[31.96764,-25.44682,136.8901],[31.9664,-25.47968,145.7521],[31.97012,-25.5109,152.084],[31.98056,-25.53157,322.7911],[31.9864,-25.55244,245.6016],[31.99565,-25.61518,216.5101],[31.99575,-25.63688,238.5335],[31.99162,-25.65022,248.6428],[31.9848,-25.65631,259.5968],[31.97508,-25.66169,279.0178],[31.96227,-25.67285,248.2531],[31.95441,-25.68494,248.7585],[31.91193,-25.7853,317.6216],[31.90584,-25.813,340.8008],[31.90997,-25.84297,374.6763],[31.94924,-25.9581,479.2084],[31.97529,-25.98043,510.6017],[32.00402,-25.99438,602.5663],[32.07058,-26.00978,386.7979],[32.05745,-26.0412,330.3533],[32.06272,-26.07717,424.6991],[32.07456,-26.11417,433.5879],[32.08143,-26.14879,462.9705],[32.07781,-26.17546,164.1675],[32.04474,-26.25452,465.6454],[32.03988,-26.28367,477.7042],[32.05234,-26.38681,469.398],[32.05983,-26.41482,545.3565],[32.10706,-26.50029,285.2908],[32.1174,-26.58225,384.3939],[32.11388,-26.84001,60.1909],[32.14318,-26.8457,45.823],[32.19409,-26.84032,53.1693],[32.22302,-26.84136,35.1932],[32.29584,-26.852,27.777],[32.35222,-26.86027,31.0992],[32.4689,-26.85738,58.9504],[32.59809,-26.85397,53.2217],[32.73845,-26.85025,63.533],[32.89308,-26.84612,27.4998],[32.8899,-26.8366,0.0],[32.8812,-26.82204,18.887],[32.87941,-26.81194,26.3668],[32.89088,-26.78436,3.559],[32.89308,-26.77435,0.0],[32.89926,-26.69525,26.5767],[32.89308,-26.65423,5.1848],[32.89552,-26.64251,0.0],[32.90463,-26.61989,0.0],[32.91822,-26.5442,0.0],[32.92945,-26.26605,41.1185],[32.95509,-26.10565,13.9474],[32.95444,-26.07887,1.1863],[32.91529,-26.09441,0.0],[32.90309,-26.10263,0.0],[32.89479,-26.11468,0.0],[32.88559,-26.16082,0.0],[32.8742,-26.1928,3.3742],[32.86883,-26.21941,1.4583],[32.87013,-26.24578,28.9412],[32.87941,-26.27752,0.0],[32.86451,-26.27874,0.3072],[32.85279,-26.2846,3.526],[32.84246,-26.28867,2.4391],[32.83107,-26.28379,0.0],[32.8117,-26.26849,0.0],[32.79737,-26.24847,2.0622],[32.78443,-26.22568,0.0],[32.76287,-26.20184,0.0],[32.74806,-26.1915,0.0],[32.72348,-26.17832,0.0],[32.69809,-26.17344,0.0],[32.68084,-26.18816,1.7917],[32.67465,-26.16668,1.5741],[32.65659,-26.12396,1.7802],[32.65073,-26.09336,0.0],[32.64527,-26.08758,0.0],[32.63754,-26.08261,0.0],[32.62892,-26.07529,4.7334],[32.62176,-26.06422,8.2083],[32.6128,-26.04144,0.0],[32.60572,-26.03045,0.713],[32.59539,-26.02239,0.0],[32.5739,-26.01491,0.0],[32.56414,-26.00945,30.5467],[32.55942,-26.00319,11.611],[32.55209,-25.98659,3.1594],[32.54713,-25.97894,1.6278],[32.53883,-25.97527,0.3239],[32.52361,-25.9708,0.8435],[32.5088,-25.96852,1.9393],[32.50196,-25.9721,1.5958],[32.50099,-26.00457,1.7248],[32.50196,-26.00945,1.5972],[32.49138,-26.01409,0.0],[32.4808,-26.00319,0.0],[32.47682,-25.98455,0.0],[32.4852,-25.96543,0.0],[32.50017,-25.95477,6.0833],[32.51661,-25.94997,0.0],[32.52688,-25.91891,24.6341],[32.55271,-25.86582,30.0877],[32.6302,-25.88734,9.3569],[32.65876,-25.91056,0.0],[32.68702,-25.88592,0.0],[32.69288,-25.87469,2.049],[32.69703,-25.8624,1.9589],[32.69972,-25.84889,0.0],[32.70069,-25.83465,0.0],[32.70427,-25.82415,0.0],[32.71225,-25.8178,1.9305],[32.72153,-25.81219,0.0],[32.72853,-25.80397,0.0],[32.73471,-25.80397,0.0],[32.73878,-25.81308,0.0],[32.74073,-25.82008,0.0],[32.73992,-25.82586,0.0],[32.74464,-25.81699,0.0],[32.73732,-25.76735,4.0678],[32.75131,-25.74586,0.0],[32.76954,-25.68174,6.7591],[32.79233,-25.64007,6.8518],[32.84474,-25.57269,0.0],[32.87273,-25.54388,24.4348],[33.13201,-25.37917,40.2604],[33.13026,-25.33468,8.2894],[33.13103,-25.3291,19.2651],[33.13553,-25.31313,33.3484],[33.13956,-25.29045,44.9566],[33.13971,-25.28435,48.2376],[33.13692,-25.26574,47.9902],[33.13522,-25.26021,50.9973],[33.13057,-25.25014,49.904],[33.12204,-25.23655,47.1222],[33.11723,-25.23143,43.2469],[33.11026,-25.22632,38.4983],[33.0961,-25.21939,38.6271],[33.0792,-25.21427,33.0319],[33.00815,-25.20704,7.5229],[33.00396,-25.20575,8.0367],[33.00055,-25.19696,6.8099],[32.99895,-25.18766,7.581],[32.99915,-25.18301,7.7422],[32.99977,-25.1796,7.7649],[33.00396,-25.16663,8.5345],[33.00474,-25.16105,8.2948],[32.99946,-25.13056,12.824],[32.99993,-25.11309,12.7305],[32.99833,-25.10395,11.5048],[32.99678,-25.09955,9.8325],[32.99616,-25.09563,10.2316],[32.99729,-25.09128,11.1301],[32.99895,-25.08069,11.9887],[32.99802,-25.07495,15.6717],[32.99399,-25.06917,13.6545],[32.98686,-25.06405,12.5197],[32.97213,-25.05795,14.475],[32.96221,-25.05563,15.6075],[32.94004,-25.05366,17.9086],[32.93425,-25.0518,18.5344],[32.92944,-25.04777,17.0743],[32.92696,-25.03744,17.6363],[32.9203,-24.93217,13.1271],[32.92169,-24.92788,12.196],[32.92433,-24.9238,11.9549],[32.92774,-24.92044,13.564],[32.93115,-24.91651,13.6516],[32.93394,-24.91238,14.9582],[32.93347,-24.90556,14.8867],[32.93053,-24.89584,15.5979],[32.92092,-24.8791,20.0525],[32.92014,-24.86391,26.8176],[32.92169,-24.84887,25.5443],[32.93828,-24.79378,24.3368],[32.93663,-24.78179,24.8647],[32.92805,-24.77451,25.2799],[32.87699,-24.75528,25.4083],[32.8635,-24.74738,24.4375],[32.848,-24.73565,26.3137],[32.8404,-24.72841,27.9167],[32.83575,-24.72185,24.5854],[32.8311,-24.6971,27.9772],[32.82738,-24.68609,29.6708],[32.82237,-24.67637,30.557],[32.76062,-24.59002,36.4677],[32.72232,-24.54853,43.4276],[32.71953,-24.54393,42.9202],[32.71721,-24.53897,43.234],[32.71545,-24.53328,42.1738],[32.71064,-24.43432,48.8492],[32.71157,-24.41908,49.9665],[32.71095,-24.41469,49.6614],[32.70894,-24.40972,51.7817],[32.70553,-24.40497,51.3579],[32.69948,-24.40016,51.0973],[32.69375,-24.39748,52.901],[32.66863,-24.38983,58.1007],[32.65654,-24.38373,61.4424],[32.65215,-24.38079,63.3763],[32.64734,-24.37846,63.3348],[32.64114,-24.37675,64.366],[32.63308,-24.37634,65.6326],[32.61292,-24.38022,68.8244],[32.58884,-24.38823,71.9021],[32.58249,-24.38967,72.6299],[32.57551,-24.3904,74.2453],[32.56652,-24.38978,76.5527]]]]}
,"properties": {"ISO3166-1-Alpha-3": "MOZ","country": "Mozambique","fill": "#FF0","name": "Maputo","area_km2": 24068.09,"hist_schema_id": "Elevation0-9000","hist_area_km2": {"0": 2247.82,"25": 4009.14,"50": 5225.04,"75": 3415.41,"100": 2452.68,"125": 1768.9,"150": 1254.34,"175": 852.46,"200": 628.07,"225": 480.3,"250": 390.53,"275": 294.15,"300": 230.3,"325": 164.95,"350": 106.43,"375": 84.49,"400": 81.24,"425": 83.86,"450": 72.25,"475": 60.2,"500": 46.64,"525": 32.54,"550": 26.22,"575": 21.62,"600": 15.92,"625": 9.94,"650": 3.95,"675": 3.39,"700": 1.98,"725": 1.43,"750": 1.3,"775": 0.57}}}