{"type":"Feature","properties":{"featurecla":"River","scalerank":8,"rivernum":929,"dissolve":"929River","name":"Maputo","name_alt":null,"note":null,"min_zoom":7.0,"strokeweig":0.2,"name_en":"Maputo","min_label":8.0},
"geometry":{"type": "LineString","coordinates": [[32.485253906250023,-26.78264739375588,13.4586],[32.46337890625,-26.79094817500588,13.4683],[32.419677734375,-26.78435637813088,19.1363],[32.3974609375,-26.789092706255886,16.7303],[32.382519531250011,-26.801592706255889,22.4445],[32.351806640625,-26.838702081255889,23.3226],[32.322021484375,-26.86736419063088,22.3542],[32.313378906250023,-26.880205987505889,25.6502],[32.310302734375,-26.894561456255886,44.099],[32.311621093750006,-26.91277434688088,89.1834],[32.30712890625,-26.93303801875588,65.021],[32.295166015625,-26.95427825313088,58.5941],[32.2875,-26.972198175005886,26.266],[32.295800781250023,-26.98284270625588,33.7926],[32.316503906250006,-26.993682550005886,63.6108],[32.31015625,-27.00457122188088,26.9733],[32.25830078125,-27.03386809688088,68.4025],[32.256103515625,-27.039873956255889,37.1576],[32.263671875,-27.049639581255889,45.8587],[32.26904296875,-27.06072356563088,52.1437],[32.265869140625,-27.07293059688088,32.1214],[32.22509765625,-27.15618255000588,40.5083],[32.228613281250006,-27.16838958125588,46.2263],[32.250585937500006,-27.201690362505886,40.7885],[32.245361328125,-27.250030206255886,47.3986],[32.210839843750023,-27.33367278438088,68.0691],[32.1875,-27.372881768755889,56.1883],[32.178613281250023,-27.383330987505886,65.4799],[32.170166015625,-27.38689544063088,64.691],[32.152099609375,-27.38420989375588,65.918],[32.142822265625,-27.389678643755886,67.5714],[32.124121093750006,-27.40960051875588,72.241],[32.112060546875,-27.415557550005886,108.2304],[32.066503906250006,-27.413116143755886,245.3301]]}}