{"type":"Feature","properties":{"GID_1":"MOZ.5_1","GID_0":"MOZ","country":"Mozambique","province":"MaputoCity","VARNAME_1":"NA","NL_NAME_1":"NA","TYPE_1":"Provincia","ENGTYPE_1":"Province","CC_1":"NA","HASC_1":"MZ.MC","ISO_1":"NA","name":"Maputo_City.province"},
"geometry":{"type": "MultiPolygon","coordinates": [[[[32.9926,-25.9699,13.1514],[32.9868,-25.9721,4.8908],[32.9796,-25.9701,0.5353],[32.9763,-25.9771,0.0],[32.9757,-25.9857,0.0],[32.9715,-25.9893,0.0],[32.9618,-25.9926,0.0],[32.9601,-25.9963,1.9373],[32.9549,-25.9976,0.0],[32.9529,-25.9938,0.2478],[32.9496,-25.9949,1.7399],[32.9482,-25.9887,0.5986],[32.9446,-25.9882,2.6128],[32.9424,-25.986,0.0],[32.9301,-25.9918,0.6525],[32.9229,-26.0004,1.5139],[32.9138,-26.0037,3.9911],[32.9124,-26.0124,5.4508],[32.9029,-26.0254,20.8103],[32.901,-26.0307,31.205],[32.901,-26.0354,20.3795],[32.9029,-26.0382,17.1804],[32.9024,-26.0443,14.1494],[32.8963,-26.0515,3.3996],[32.899,-26.0549,0.8896],[32.8987,-26.0582,0.0],[32.904,-26.0615,2.3984],[32.9043,-26.0704,0.0],[32.9099,-26.0613,2.1613],[32.9207,-26.0546,0.0],[32.9265,-26.0471,2.799],[32.926,-26.0418,1.397],[32.921,-26.0337,0.0],[32.9179,-26.0312,0.0],[32.9151,-26.0335,1.7148],[32.9107,-26.0315,0.0],[32.9096,-26.0268,11.7006],[32.9138,-26.0243,1.8815],[32.9151,-26.0274,0.3658],[32.9357,-26.0312,6.4568],[32.9385,-26.0332,0.5492],[32.9418,-26.0401,8.9259],[32.9424,-26.0488,0.8824],[32.9446,-26.054,0.0],[32.9482,-26.0585,1.3597],[32.9535,-26.0607,0.0],[32.9551,-26.0649,5.0285],[32.9554,-26.0685,7.3482],[32.9526,-26.0754,0.0],[32.9543,-26.0788,1.1863],[32.9554,-26.0785,1.1863],[32.9624,-26.0657,0.0],[32.9699,-26.0329,38.7658],[32.9701,-26.0257,21.1575],[32.9749,-26.0107,0.0],[32.9821,-25.9954,11.0695],[32.994,-25.9774,0.0],[32.9929,-25.974,0.0],[32.994,-25.9713,0.0],[32.9926,-25.9699,13.1514]]],
[[[32.9204,-25.9696,4.8855],[32.9118,-25.9715,5.8069],[32.9051,-25.9707,0.0],[32.9024,-25.9735,5.3776],[32.9024,-25.9757,6.7729],[32.9085,-25.9807,4.0358],[32.9138,-25.9826,3.5484],[32.916,-25.9746,4.2292],[32.9218,-25.971,1.9308],[32.9204,-25.9696,4.8855]]],
[[[32.6979,-25.9093,0.0],[32.6965,-25.909,0.0],[32.6965,-25.9124,0.0],[32.6926,-25.9185,0.0],[32.6824,-25.9226,2.3747],[32.6793,-25.9218,0.0],[32.6813,-25.9251,0.0],[32.6796,-25.9371,0.8784],[32.6843,-25.9376,1.1269],[32.6874,-25.9351,0.0],[32.6979,-25.9093,0.0]]],
[[[32.6813,-25.8854,0.8745],[32.6846,-25.8835,0.0],[32.686,-25.8799,1.0864],[32.6893,-25.8818,0.0],[32.6904,-25.8796,0.2209],[32.6951,-25.8796,0.0],[32.6999,-25.876,0.0],[32.7012,-25.8718,0.0],[32.6968,-25.8535,1.1449],[32.5741,-25.8052,31.9935],[32.5754,-25.7998,33.1811],[32.5919,-25.7694,46.7599],[32.582,-25.7466,54.3959],[32.577,-25.7431,56.5336],[32.5699,-25.7303,54.5477],[32.5628,-25.7228,56.1467],[32.5603,-25.7169,56.0459],[32.5651,-25.6991,53.2016],[32.5193,-25.6865,52.7095],[32.4847,-25.7183,47.8849],[32.4724,-25.752,42.4335],[32.4524,-25.7558,37.461],[32.4341,-25.7534,15.136],[32.4298,-25.756,19.1009],[32.4237,-25.7864,17.4061],[32.4194,-25.7929,20.3931],[32.4153,-25.8136,9.7116],[32.4108,-25.8224,16.1568],[32.4146,-25.8428,17.6378],[32.4109,-25.848,10.8787],[32.4134,-25.8622,15.7155],[32.417,-25.8673,23.2251],[32.4163,-25.8707,5.8244],[32.4049,-25.8784,23.2399],[32.404,-25.8846,4.3102],[32.409,-25.8881,26.702],[32.4188,-25.8901,22.0101],[32.4206,-25.8925,18.5768],[32.4212,-25.9023,3.8528],[32.4253,-25.9067,20.3937],[32.4342,-25.9114,12.9086],[32.4319,-25.921,1.9169],[32.4357,-25.9264,7.5414],[32.4356,-25.9352,0.9409],[32.4455,-25.9378,23.9369],[32.4367,-25.947,18.7788],[32.4314,-25.9552,5.4835],[32.4317,-25.9599,0.2842],[32.4367,-25.965699999999998,1.1059],[32.445,-25.9677,9.5606],[32.4513,-25.9712,9.7982],[32.4544,-25.9753,2.0782],[32.4572,-25.9748,8.8685],[32.4663,-25.9841,5.7211],[32.4721,-25.985,1.0],[32.4848,-25.9706,0.0],[32.4994,-25.9626,0.0],[32.5046,-25.9579,3.3372],[32.504,-25.9524,2.1793],[32.5101,-25.9463,0.0],[32.509,-25.9449,1.4048],[32.506,-25.9471,1.6189],[32.5037,-25.9449,2.5626],[32.5057,-25.944,2.2251],[32.5057,-25.9396,3.3698],[32.5085,-25.936,3.1642],[32.5185,-25.9335,2.1806],[32.5232,-25.9376,2.0102],[32.5232,-25.9393,2.0],[32.5163,-25.9426,1.126],[32.5232,-25.9415,0.0],[32.5251,-25.9396,1.975],[32.5299,-25.9418,2.5862],[32.536,-25.9463,0.0],[32.5396,-25.9526,0.0],[32.5429,-25.9549,3.8578],[32.5421,-25.959,0.0],[32.544,-25.9613,0.0],[32.5568,-25.9701,0.0],[32.5776,-25.9813,0.0],[32.584,-25.9821,2.4204],[32.5879,-25.9846,0.0],[32.5932,-25.9843,12.1531],[32.5949,-25.9826,0.0],[32.5965,-25.9743,6.1926],[32.6087,-25.956,6.897],[32.624,-25.9424,2.1958],[32.6318,-25.9318,1.5541],[32.6546,-25.9082,4.4454],[32.6624,-25.9026,1.6157],[32.6651,-25.8979,2.5685],[32.6699,-25.8957,0.3835],[32.6707,-25.8893,2.0046],[32.6751,-25.8863,0.0],[32.6774,-25.8871,0.6908],[32.6813,-25.8854,0.8745]]],
[[[32.4539,-26.0886,1.6694],[32.5212,-26.0549,40.2639],[32.6199,-26.0579,5.8867],[32.6113,-26.0449,18.6388],[32.606,-26.0312,0.0],[32.6021,-26.026,0.0],[32.594,-26.0263,15.4673],[32.591,-26.0243,0.0],[32.5854,-26.0251,8.951],[32.5796,-26.0226,0.0],[32.5701,-26.0143,3.2392],[32.5607,-25.9954,4.5436],[32.5601,-25.9807,0.6528],[32.5568,-25.9782,2.4462],[32.5565,-25.974,0.0],[32.5518,-25.9746,2.2463],[32.5488,-25.9785,2.371],[32.5426,-25.9787,1.5404],[32.5399,-25.9754,0.3239],[32.5357,-25.9774,1.3194],[32.5249,-25.9715,0.9913],[32.5121,-25.9674,0.0],[32.5065,-25.9676,0.0],[32.506,-25.966,0.0],[32.5,-25.9695,0.0],[32.4917,-25.9859,2.0262],[32.4918,-25.9932,0.0],[32.4987,-26.0133,0.0],[32.4912,-26.0352,0.0],[32.484,-26.0472,0.0],[32.4765,-26.0535,0.0],[32.4629,-26.0566,0.2832],[32.4476,-26.0569,2.2491],[32.4458,-26.0588,1.731],[32.4449,-26.0655,1.7576],[32.4434,-26.0613,0.4921],[32.4439,-26.0562,0.0],[32.4413,-26.0561,1.6373],[32.4424,-26.0678,1.9455],[32.4539,-26.0886,1.6694]]],
[[[32.701,-25.8957,0.0],[32.7001,-25.8918,0.0],[32.6988,-25.8982,0.0],[32.7004,-25.9026,0.0],[32.7015,-25.8993,0.0],[32.701,-25.8957,0.0]]]]}}