{"type":"Feature","properties":{"GID_3":"MOZ.2.6.3_1","GID_0":"MOZ","country":"Mozambique","GID_1":"MOZ.2_1","province":"Gaza","NL_NAME_1":"NA","GID_2":"MOZ.2.6_1","county":"Guijá","NL_NAME_2":"NA","city":"Nalazi","VARNAME_3":"NA","NL_NAME_3":"NA","TYPE_3":"Localidad","ENGTYPE_3":"Locality","CC_3":"NA","HASC_3":"NA","name":"Nalazi.city"},
"geometry":{"type": "MultiPolygon","coordinates": [[[[33.3664,-23.788,54.6181],[33.3471,-23.7818,56.4663],[33.3267,-23.7697,55.6512],[33.2708,-23.7192,61.2894],[33.2606,-23.7068,60.8837],[33.2345,-23.6852,64.0351],[33.1651,-23.6513,67.207],[33.1559,-23.6497,66.8087],[33.1385,-23.6411,68.5143],[33.1186,-23.6508,66.5265],[33.1149,-23.6728,71.657],[33.0992,-23.7312,64.0634],[33.0386,-23.8795,56.7186],[33.0172,-23.9194,60.487],[33.0151,-23.9355,61.5172],[33.0079,-23.9523,58.643],[32.9986,-23.9498,58.4316],[32.9789,-23.9394,62.0256],[32.9111,-23.9997,64.5446],[32.987,-24.1005,43.6727],[33.0219,-24.1529,37.524],[33.0256,-24.1693,37.555],[33.0223,-24.1828,33.4597],[33.0331,-24.2036,31.3481],[33.0492,-24.2156,28.9299],[33.0789,-24.2451,27.0011],[33.0939,-24.2764,23.4031],[33.0991,-24.2821,23.2123],[33.1327,-24.3086,18.3408],[33.1402,-24.3219,19.3259],[33.1559,-24.3613,18.2946],[33.1638,-24.3885,11.672],[33.1639,-24.403,10.8692],[33.1965,-24.4041,12.6132],[33.211,-24.4352,9.6912],[33.2495,-24.3758,28.4196],[33.2266,-24.3048,34.0687],[33.2234,-24.2873,32.4551],[33.2234,-24.2783,34.0716],[33.2612,-24.2428,35.3347],[33.3591,-24.1459,43.938],[33.3664,-23.788,54.6181]]]]}}