{"type": "Feature","bbox": [33.8098,-17.168,34.1186,-16.5735],"geometry": {"type": "MultiPolygon","coordinates": [[[[33.8888,-16.6374,164.0863],[33.8777,-16.658,176.7202],[33.8502,-16.6818,210.5486],[33.8269,-16.7129,227.8972],[33.8252,-16.7246,243.7697],[33.8186,-16.7369,245.8774],[33.8204,-16.7432,249.6163],[33.8134,-16.7513,265.2438],[33.8098,-16.7612,264.8323],[33.8166,-16.7756,292.0992],[33.8162,-16.7868,296.2276],[33.813,-16.7975,308.9102],[33.8268,-16.8226,340.0582],[33.8217,-16.8421,375.0945],[33.8253,-16.8518,386.0666],[33.8456,-16.871,421.8568],[33.8282,-16.9898,379.4914],[33.8231,-16.99,380.0273],[33.8246,-16.9941,368.9143],[33.8325,-17.0004,343.7341],[33.8354,-17.0111,339.4478],[33.8476,-17.0361,320.6474],[33.8457,-17.0407,340.5717],[33.8377,-17.0429,367.8651],[33.8392,-17.0574,360.0515],[33.8444,-17.0589,372.2493],[33.8492,-17.064,362.6475],[33.8572,-17.0929,406.1628],[33.8573,-17.1029,416.6361],[33.8646,-17.1107,421.9718],[33.8637,-17.1188,424.3929],[33.8718,-17.1327,442.5492],[33.8776,-17.155,467.0492],[33.8785,-17.168,480.5031],[33.8923,-17.152,490.4229],[33.9052,-17.1478,474.3206],[33.926,-17.1349,454.0865],[33.9391,-17.1197,446.8185],[33.9462,-17.1165,438.4934],[33.9687,-17.1137,429.0836],[33.9803,-17.0871,404.9779],[33.9853,-17.0793,426.7481],[34.0012,-17.0818,389.4979],[34.0087,-17.06,411.1204],[34.0147,-17.049,388.0479],[34.0284,-17.0155,385.9177],[34.0317,-16.9911,338.5037],[34.0513,-16.9577,268.8778],[34.0758,-16.9233,447.4576],[34.1186,-16.9011,207.5976],[34.1018,-16.8838,186.0491],[34.0959,-16.8675,178.5397],[34.0969,-16.8557,170.2222],[34.0792,-16.8324,216.3731],[34.0732,-16.819,304.8755],[34.0723,-16.8079,341.5481],[34.0738,-16.7922,304.7289],[34.0796,-16.7698,264.3854],[34.0789,-16.7652,274.1714],[34.0729,-16.7636,278.2663],[34.067,-16.7542,358.1255],[34.0637,-16.7415,371.8346],[34.0536,-16.7248,413.8136],[34.0028,-16.6511,218.4122],[34.0031,-16.6383,136.964],[34.0065,-16.632,192.0345],[34.007,-16.6201,102.5576],[34.0048,-16.6112,100.6093],[33.9982,-16.6064,100.0],[33.9954,-16.6014,100.0],[33.9959,-16.5784,100.0],[33.9897,-16.5735,100.0],[33.9675,-16.5746,100.0],[33.9411,-16.5863,114.0176],[33.9312,-16.5948,120.4382],[33.9107,-16.6071,134.0544],[33.8986,-16.6174,146.9839],[33.8888,-16.6374,164.0863]]]]}
,"properties": {"GID_3": "MOZ.4.9.2_1","GID_0": "MOZ","country": "Mozambique","GID_1": "MOZ.4_1","province": "Manica","NL_NAME_1": "NA","GID_2": "MOZ.4.9_1","county": "Tambara","NL_NAME_2": "NA","city": "Nhacafula","VARNAME_3": "NA","NL_NAME_3": "NA","TYPE_3": "Localidad","ENGTYPE_3": "Locality","CC_3": "NA","HASC_3": "NA","name": "Nhacafula.city","area_km2": 1278.0314,"hist_schema_id": "Elevation0-9000","hist_area_km2": {"100": 5.5065,"125": 10.342,"150": 11.885,"175": 29.2987,"200": 70.8575,"225": 81.5918,"250": 89.327,"275": 111.9439,"300": 136.0231,"325": 177.7354,"350": 165.8249,"375": 138.9465,"400": 100.8,"425": 66.8922,"450": 47.2322,"475": 30.0539,"500": 2.8984,"525": 0.6491,"550": 0.2232}}}