{"type":"Feature","properties":{"GID_3":"MOZ.11.9.4_1","GID_0":"MOZ","country":"Mozambique","GID_1":"MOZ.11_1","province":"Zambezia","NL_NAME_1":"NA","GID_2":"MOZ.11.9_1","county":"Milange","NL_NAME_2":"NA","city":"Mongue","VARNAME_3":"NA","NL_NAME_3":"NA","TYPE_3":"Localidad","ENGTYPE_3":"Locality","CC_3":"NA","HASC_3":"NA","name":"Mongue.city"},
"geometry":{"type": "MultiPolygon","coordinates": [[[[35.3416,-16.368,319.9716],[35.4171,-16.4526,429.3877],[35.4847,-16.5467,220.7701],[35.4895,-16.5457,234.279],[35.4948,-16.5369,255.6452],[35.5244,-16.5067,292.9384],[35.5667,-16.539,598.3549],[35.5719,-16.5466,504.6871],[35.5892,-16.5893,365.7914],[35.6105,-16.6275,198.1335],[35.6052,-16.6504,171.0331],[35.6121,-16.6503,178.9726],[35.6322,-16.6364,211.3373],[35.639,-16.6222,222.8927],[35.6485,-16.6157,223.3698],[35.6606,-16.5914,258.1219],[35.66,-16.5764,326.0221],[35.8098,-16.5529,376.4647],[35.8191,-16.5438,369.7466],[35.8297,-16.5383,364.7974],[35.8334,-16.5332,362.9612],[35.8346,-16.5314,363.3019],[35.8301,-16.5242,367.38],[35.8532,-16.4922,377.4742],[35.8779,-16.5316,351.3135],[35.9266,-16.5177,348.1356],[35.9177,-16.5032,351.2593],[35.9205,-16.4721,369.8333],[35.9149,-16.4615,371.5315],[35.9065,-16.4534,377.3027],[35.8874,-16.4455,382.6189],[35.8843,-16.4217,426.5156],[35.8765,-16.399,456.6805],[35.8533,-16.3748,476.7931],[35.8168,-16.3487,522.242],[35.8002,-16.3265,576.0018],[35.7428,-16.3158,603.3624],[35.7012,-16.2697,628.3287],[35.642,-16.2723,543.0739],[35.6143,-16.2487,596.0718],[35.59,-16.237,661.5879],[35.5746,-16.2536,681.6431],[35.5647,-16.2754,627.2883],[35.5568,-16.2992,576.7585],[35.5574,-16.3071,545.3397],[35.5517,-16.3263,507.3704],[35.5515,-16.3279,507.3704],[35.5571,-16.3332,483.3772],[35.5705,-16.368,430.0014],[35.5669,-16.3713,431.9513],[35.5398,-16.3777,404.101],[35.5298,-16.3774,398.113],[35.5218,-16.381,390.4084],[35.4831,-16.3156,545.0127],[35.4686,-16.3234,535.8511],[35.4529,-16.3352,486.0961],[35.4541,-16.3418,481.2022],[35.4491,-16.347,474.5278],[35.4461,-16.347,486.3768],[35.4411,-16.3505,469.4543],[35.4331,-16.3597,446.6298],[35.4279,-16.3587,453.674],[35.4206,-16.354,435.0459],[35.4098,-16.3514,418.5755],[35.4033,-16.3517,409.0076],[35.3917,-16.3576,408.4606],[35.3819,-16.3537,392.0553],[35.3748,-16.3539,371.1381],[35.3722,-16.359,348.8293],[35.3589,-16.3708,320.4611],[35.3476,-16.3641,304.6983],[35.3416,-16.368,319.9716]]]]}}