{"type":"Feature","properties":{"GID_3":"MOZ.1.8.2_1","GID_0":"MOZ","country":"Mozambique","GID_1":"MOZ.1_1","province":"CaboDelgado","NL_NAME_1":"NA","GID_2":"MOZ.1.8_1","county":"Montepuez","NL_NAME_2":"NA","city":"MontepuezCidade","VARNAME_3":"NA","NL_NAME_3":"NA","TYPE_3":"Localidad","ENGTYPE_3":"Locality","CC_3":"NA","HASC_3":"NA","name":"Montepuez_Cidade.city"},
"geometry":{"type": "MultiPolygon","coordinates": [[[[39.0663,-13.123,505.782],[38.986,-13.1174,488.5534],[38.9897,-13.1343,505.3367],[38.9803,-13.1324,495.9576],[38.9785,-13.1305,486.2371],[38.9822,-13.1922,529.1105],[38.9897,-13.1885,515.3041],[38.9934,-13.2035,516.5424],[39.0215,-13.2053,507.5599],[39.0589,-13.2053,481.9727],[39.0514,-13.1922,480.2648],[39.0663,-13.1922,476.4694],[39.0663,-13.123,505.782]]]]}}