{"type": "Feature","bbox": [38.0041,-15.4453,38.4806,-15.0436],"geometry": {"type": "MultiPolygon","coordinates": [[[[38.4582,-15.1995,481.3805],[38.4132,-15.1662,649.7858],[38.4171,-15.1315,518.1009],[38.3991,-15.113,579.1777],[38.3632,-15.113,586.4532],[38.3388,-15.0535,614.8974],[38.3053,-15.0437,604.2473],[38.244,-15.0997,655.1244],[38.2103,-15.1115,677.9956],[38.1195,-15.0436,650.8212],[38.0939,-15.0881,598.5043],[38.1272,-15.1179,626.5789],[38.1384,-15.1674,575.7075],[38.101,-15.1618,645.0063],[38.0836,-15.1799,603.938],[38.049,-15.2034,595.6005],[38.0566,-15.2406,607.0588],[38.0599,-15.2668,570.2327],[38.0599,-15.2826,556.2927],[38.0297,-15.3025,538.4142],[38.0041,-15.2926,521.5218],[38.0347,-15.3187,526.3823],[38.0358,-15.3192,526.3823],[38.0452,-15.3122,515.4539],[38.0507,-15.3158,511.1921],[38.0543,-15.3253,509.3685],[38.0645,-15.3295,507.709],[38.0748,-15.3291,514.7643],[38.0884,-15.3246,503.2799],[38.0952,-15.3241,497.9092],[38.0987,-15.3356,494.3554],[38.1083,-15.3421,488.5222],[38.1222,-15.3422,507.0041],[38.1339,-15.3402,502.6129],[38.1399,-15.3413,478.3365],[38.1402,-15.349,478.7788],[38.1306,-15.3612,493.7079],[38.1272,-15.3728,476.309],[38.1308,-15.3811,478.0998],[38.1381,-15.3816,477.711],[38.1493,-15.391,476.6389],[38.1605,-15.3916,473.9332],[38.1655,-15.3952,470.3062],[38.1675,-15.4076,472.9248],[38.1748,-15.4221,467.1072],[38.1875,-15.4323,478.0125],[38.2107,-15.4448,446.1072],[38.2386,-15.4453,434.4013],[38.2533,-15.437,408.4197],[38.2592,-15.441,417.2213],[38.2868,-15.3943,541.8954],[38.3822,-15.3912,482.247],[38.3968,-15.383,610.215],[38.421,-15.3455,491.6334],[38.4394,-15.3338,488.8867],[38.4618,-15.3326,422.1402],[38.4666,-15.3243,427.2532],[38.4627,-15.3184,430.9594],[38.4715,-15.3111,443.2322],[38.4801,-15.3148,430.5511],[38.4806,-15.3099,431.9483],[38.4722,-15.303,435.5068],[38.4747,-15.2987,439.5356],[38.4689,-15.29,441.2708],[38.4543,-15.2738,474.9459],[38.4494,-15.2621,456.8052],[38.4556,-15.2543,453.1396],[38.4575,-15.2461,456.2112],[38.4526,-15.2311,474.0933],[38.4538,-15.2092,472.4378],[38.4582,-15.1995,481.3805]]]]}
,"properties": {"GID_3": "MOZ.7.18.2_1","GID_0": "MOZ","country": "Mozambique","GID_1": "MOZ.7_1","province": "Nampula","NL_NAME_1": "NA","GID_2": "MOZ.7.18_1","county": "Ribaue","NL_NAME_2": "NA","city": "Kunle(Cunle)","VARNAME_3": "NA","NL_NAME_3": "NA","TYPE_3": "Localidad","ENGTYPE_3": "Locality","CC_3": "NA","HASC_3": "NA","name": "Kunle(Cunle).city","area_km2": 1344.142,"hist_schema_id": "Elevation0-9000","hist_area_km2": {"400": 0.204,"425": 10.466,"450": 43.935,"475": 103.46,"500": 164.833,"525": 194.531,"550": 187.508,"575": 175.06,"600": 167.727,"625": 146.571,"650": 85.45,"675": 29.144,"700": 10.456,"725": 5.279,"750": 4.951,"775": 4.542,"800": 3.315,"825": 2.66,"850": 1.084,"875": 1.003,"900": 0.859,"925": 0.327,"950": 0.286,"975": 0.246,"1000": 0.143,"1025": 0.102}}}