{"type": "Feature","bbox": [32.9591,-17.8975,33.4002,-17.2367],"geometry": {"type": "MultiPolygon","coordinates": [[[[33.3797,-17.8975,627.2446],[33.386,-17.8796,639.4697],[33.3955,-17.87,661.694],[33.3977,-17.8618,666.0051],[33.4002,-17.8358,698.2211],[33.3958,-17.8264,722.5562],[33.3753,-17.7353,707.5057],[33.3573,-17.7004,649.3406],[33.3643,-17.6864,667.5344],[33.3782,-17.6764,667.4053],[33.3783,-17.663,662.3716],[33.3855,-17.6276,688.1389],[33.3863,-17.6151,691.9277],[33.3824,-17.5861,717.9852],[33.3833,-17.5654,741.4003],[33.3809,-17.5549,765.3919],[33.3627,-17.5322,786.0638],[33.36,-17.5175,792.8991],[33.3404,-17.5178,796.3793],[33.3443,-17.4984,788.7733],[33.3376,-17.4897,772.7396],[33.3038,-17.459,720.8721],[33.2952,-17.4594,720.5292],[33.2673,-17.4401,699.1204],[33.2585,-17.4304,693.6702],[33.2267,-17.3591,639.0355],[33.2062,-17.361,624.8177],[33.1836,-17.3556,602.9047],[33.1776,-17.3489,598.3945],[33.1665,-17.3463,591.6036],[33.1646,-17.3377,599.5732],[33.1447,-17.3127,574.4658],[33.1275,-17.3074,562.4863],[33.1273,-17.3017,558.9868],[33.1314,-17.2856,543.001],[33.1372,-17.2804,541.2118],[33.1346,-17.2716,540.0649],[33.1286,-17.2673,552.9222],[33.1232,-17.2668,538.4915],[33.1079,-17.261,504.5095],[33.087,-17.2367,489.7043],[33.0757,-17.2468,483.0614],[33.0653,-17.2789,495.8719],[33.0495,-17.301,504.4781],[33.0489,-17.3136,507.6992],[33.051,-17.3377,518.5381],[33.0411,-17.3428,529.5878],[33.0453,-17.347,531.7054],[33.0344,-17.3577,518.9296],[33.0296,-17.3666,513.629],[33.02,-17.3773,528.1597],[33.0074,-17.4007,539.7874],[33.0019,-17.4154,546.1575],[32.9968,-17.4447,546.9241],[32.9981,-17.4531,552.936],[32.9836,-17.4559,569.0231],[32.9734,-17.4719,586.6115],[32.9623,-17.4814,578.1082],[32.9591,-17.4945,619.3261],[32.9602,-17.5156,624.364],[32.9627,-17.5271,606.7891],[32.9737,-17.5423,606.2737],[32.976,-17.5518,653.4132],[32.9814,-17.5628,646.6828],[32.99,-17.5668,818.1147],[33.0092,-17.5687,695.8657],[33.0342,-17.5914,804.9582],[33.0432,-17.6034,770.5533],[33.0415,-17.6126,904.4257],[33.0421,-17.6266,853.4164],[33.039,-17.636,907.0748],[33.0262,-17.6474,804.5109],[33.0179,-17.6712,767.8683],[33.012,-17.7021,944.2104],[33.0143,-17.7139,869.305],[33.0202,-17.7203,803.0781],[33.0125,-17.7235,819.92],[33.0033,-17.7196,962.2532],[33.002,-17.725,953.0746],[33.0017,-17.7383,817.6431],[33.0069,-17.7456,806.7234],[33.0161,-17.75,791.9169],[33.0265,-17.758,803.5541],[33.0267,-17.7628,795.4818],[33.0137,-17.7694,865.5544],[33.0155,-17.7811,804.3177],[33.0102,-17.7952,810.957],[33.0457,-17.8304,976.0475],[33.0571,-17.8316,1108.2314],[33.0714,-17.8202,1124.5533],[33.0908,-17.8217,1169.0625],[33.0968,-17.8272,1200.0854],[33.113,-17.8153,799.9725],[33.1208,-17.8241,679.295],[33.1235,-17.8333,650.948],[33.1313,-17.8394,635.7155],[33.1399,-17.8404,632.2715],[33.1759,-17.8175,630.2083],[33.2369,-17.8318,601.7532],[33.2998,-17.8496,600.6979],[33.3797,-17.8975,627.2446]]]]}
,"properties": {"GID_3": "MOZ.4.1.3_1","GID_0": "MOZ","country": "Mozambique","GID_1": "MOZ.4_1","province": "Manica","NL_NAME_1": "NA","GID_2": "MOZ.4.1_1","county": "Barue","NL_NAME_2": "NA","city": "Nhampassa","VARNAME_3": "NA","NL_NAME_3": "NA","TYPE_3": "Localidad","ENGTYPE_3": "Locality","CC_3": "NA","HASC_3": "NA","name": "Nhampassa.city","area_km2": 2046.272,"hist_schema_id": "Elevation0-9000","hist_area_km2": {"475": 0.547,"500": 8.321,"525": 19.127,"550": 29.708,"575": 39.538,"600": 56.567,"625": 109.773,"650": 182.08,"675": 200.281,"700": 168.462,"725": 153.959,"750": 155.751,"775": 159.016,"800": 151.759,"825": 96.501,"850": 85.645,"875": 77.561,"900": 67.779,"925": 52.236,"950": 39.989,"975": 34.714,"1000": 28.589,"1025": 23.577,"1050": 19.212,"1075": 17.434,"1100": 15.19,"1125": 13.674,"1150": 11.39,"1175": 8.967,"1200": 7.189,"1225": 5.109,"1250": 2.646,"1275": 1.555,"1300": 0.727,"1325": 0.828,"1350": 0.464,"1375": 0.081,"1400": 0.142,"1425": 0.101,"1450": 0.061,"1500": 0.02}}}