{"type": "Feature","bbox": [32.3766,-25.3124,32.9405,-24.6963],"geometry": {"type": "MultiPolygon","coordinates": [[[[32.9091,-24.8518,21.6068],[32.8979,-24.8584,17.9346],[32.8902,-24.8559,18.0683],[32.8752,-24.842,18.7718],[32.8723,-24.8378,18.2212],[32.8694,-24.8286,19.6334],[32.863,-24.8235,20.8038],[32.8493,-24.8454,22.6806],[32.8403,-24.8469,24.4802],[32.8259,-24.8361,24.6215],[32.8163,-24.832,26.9962],[32.8117,-24.838,24.1002],[32.8198,-24.8426,24.8943],[32.8278,-24.8506,21.9288],[32.8307,-24.8593,21.0501],[32.8283,-24.867,20.726],[32.8225,-24.8758,19.9421],[32.8057,-24.8882,21.7767],[32.8037,-24.8972,18.4629],[32.7953,-24.8982,24.3288],[32.769,-24.8929,31.7777],[32.7561,-24.8776,33.5598],[32.7508,-24.8593,33.4052],[32.7459,-24.8586,33.0862],[32.7185,-24.8612,44.3138],[32.6912,-24.8603,49.1896],[32.6791,-24.8578,45.517],[32.676,-24.8391,46.324],[32.671,-24.8239,46.7864],[32.6564,-24.7627,56.833],[32.647,-24.7563,53.1649],[32.633,-24.7531,61.1793],[32.6155,-24.7399,65.4634],[32.5987,-24.7308,69.3309],[32.5886,-24.7274,71.3927],[32.5683,-24.7225,78.4969],[32.5375,-24.7184,85.1384],[32.5095,-24.7215,65.9254],[32.4978,-24.7208,80.707],[32.4903,-24.7155,81.8396],[32.493,-24.6991,77.1298],[32.4854,-24.6963,77.2812],[32.4872,-24.7033,75.9765],[32.4728,-24.7176,71.2617],[32.4957,-24.745,72.2724],[32.4925,-24.7479,72.9471],[32.497,-24.7577,68.8192],[32.5131,-24.7634,63.8106],[32.5168,-24.7723,59.9903],[32.5133,-24.7762,66.4227],[32.489,-24.7768,67.2437],[32.489,-24.8109,68.1524],[32.502,-24.8253,61.2219],[32.5138,-24.8328,54.1123],[32.5284,-24.8452,69.7638],[32.5483,-24.8461,71.543],[32.541,-24.8577,68.7301],[32.5381,-24.8707,64.7445],[32.5381,-24.8834,53.5217],[32.5416,-24.8928,51.5634],[32.5662,-24.9086,56.2956],[32.5697,-24.9275,59.1829],[32.5802,-24.9338,57.8556],[32.5802,-24.959,43.8039],[32.5837,-24.9747,55.8532],[32.5949,-25.0023,35.7701],[32.5978,-25.0182,37.1103],[32.5732,-25.0189,30.7531],[32.5451,-25.0346,48.8364],[32.5276,-25.0346,67.1794],[32.4925,-25.0409,98.9393],[32.4749,-25.0409,97.7215],[32.4674,-25.0437,106.659],[32.4548,-25.0352,96.7121],[32.4352,-25.0356,80.146],[32.4223,-25.0472,56.0471],[32.4048,-25.0504,55.3864],[32.3876,-25.0504,54.2675],[32.383,-25.0538,55.4664],[32.383,-25.0647,54.1201],[32.3766,-25.0564,50.5396],[32.3811,-25.0649,54.6489],[32.3837,-25.0813,79.7429],[32.3811,-25.1098,78.1082],[32.4025,-25.1465,81.8297],[32.3984,-25.1806,151.0586],[32.3918,-25.2013,58.2142],[32.3942,-25.2105,53.2379],[32.4178,-25.2474,41.0708],[32.4178,-25.2666,43.7134],[32.4269,-25.278,45.4417],[32.4349,-25.2859,48.1115],[32.4466,-25.2892,48.5653],[32.4619,-25.2859,41.4025],[32.4985,-25.2952,36.3154],[32.5051,-25.2852,39.2908],[32.506,-25.2722,35.7113],[32.5015,-25.2625,35.6216],[32.4966,-25.2568,42.8624],[32.6235,-25.3124,48.2595],[32.6452,-25.2407,63.2021],[32.6899,-25.184,38.8351],[32.6863,-25.172,32.3536],[32.6992,-25.1734,30.8358],[32.7201,-25.1701,28.9303],[32.7318,-25.157,19.1323],[32.7326,-25.1479,24.6109],[32.7385,-25.14,21.3435],[32.7621,-25.1376,12.0],[32.7585,-25.1247,21.3278],[32.7496,-25.1183,26.0744],[32.7686,-25.1157,16.4054],[32.7717,-25.1044,17.4152],[32.7632,-25.1036,17.2463],[32.7504,-25.0872,16.9955],[32.7427,-25.0726,19.6208],[32.7378,-25.0547,21.9628],[32.7258,-25.0466,21.2719],[32.7067,-25.0379,24.2129],[32.6995,-25.0382,24.8217],[32.7073,-25.0236,25.054],[32.7067,-25.0151,25.4283],[32.7277,-25.0091,24.6592],[32.7413,-25.0088,23.8732],[32.7494,-25.0128,22.9647],[32.7571,-25.0195,22.6216],[32.765,-25.021,20.5],[32.7698,-25.012,29.6203],[32.7764,-24.9925,21.1306],[32.7917,-24.9807,14.4332],[32.805,-24.9816,15.0635],[32.8133,-24.9857,14.066],[32.8318,-24.9967,18.1222],[32.8367,-25.0031,16.666],[32.8399,-25.0031,16.6314],[32.8526,-24.9936,14.9504],[32.8575,-24.9873,13.9115],[32.868,-24.9873,13.7843],[32.8746,-24.9832,14.3209],[32.8875,-24.984,14.0649],[32.9023,-24.9924,12.8452],[32.9059,-24.9918,13.257],[32.9052,-24.9855,14.2231],[32.9072,-24.9826,13.9362],[32.9186,-24.9828,14.466],[32.9217,-24.979,11.0],[32.9232,-24.974,13.977],[32.9199,-24.9716,13.6971],[32.9117,-24.9708,15.6315],[32.9053,-24.9666,11.0],[32.9018,-24.9609,11.0],[32.9034,-24.9561,12.0329],[32.9029,-24.943,11.2867],[32.9125,-24.934,12.4478],[32.9145,-24.9296,11.9033],[32.9139,-24.926,15.5354],[32.9189,-24.9257,12.5502],[32.9319,-24.9157,14.5351],[32.9381,-24.9156,14.2359],[32.9405,-24.9123,14.4955],[32.9393,-24.9086,13.9519],[32.9401,-24.903199999999998,14.3616],[32.9375,-24.8982,15.3274],[32.9247,-24.8977,15.7851],[32.9155,-24.89,16.1191],[32.9155,-24.8827,16.7818],[32.9099,-24.8759,17.65],[32.9126,-24.8721,17.0184],[32.9058,-24.8681,16.6963],[32.9054,-24.8661,17.8164],[32.9089,-24.858,17.7793],[32.9091,-24.8518,21.6068]]]]}
,"properties": {"GID_3": "MOZ.6.2.1_1","GID_0": "MOZ","country": "Mozambique","GID_1": "MOZ.6_1","province": "Maputo","NL_NAME_1": "NA","GID_2": "MOZ.6.2_1","county": "Magude","NL_NAME_2": "NA","city": "Magude","VARNAME_3": "NA","NL_NAME_3": "NA","TYPE_3": "Localidad","ENGTYPE_3": "Locality","CC_3": "NA","HASC_3": "NA","name": "Magude.city","area_km2": 1674.574,"hist_schema_id": "Elevation0-9000","hist_area_km2": {"0": 4.824,"25": 540.219,"50": 655.543,"75": 404.805,"100": 42.764,"125": 18.724,"150": 7.694}}}