{"type": "Feature","bbox": [39.6536,-13.4968,39.9272,-13.201599999999999],"geometry": {"type": "MultiPolygon","coordinates": [[[[39.8273,-13.2037,243.5073],[39.8205,-13.201599999999999,255.8204],[39.8102,-13.201599999999999,250.9146],[39.785,-13.2174,263.5765],[39.7801,-13.2181,274.5571],[39.7585,-13.2134,291.7561],[39.7339,-13.2181,266.0548],[39.7063,-13.2211,296.0096],[39.6581,-13.2222,286.1024],[39.6536,-13.2256,282.6654],[39.6689,-13.2678,333.3859],[39.6691,-13.2888,357.6837],[39.6665,-13.3026,396.4919],[39.6618,-13.3061,393.6562],[39.6646,-13.3122,386.9663],[39.6788,-13.3251,366.6216],[39.6692,-13.3418,335.1347],[39.6717,-13.3618,319.5847],[39.6766,-13.368,315.7413],[39.6939,-13.383,303.5363],[39.6964,-13.3923,297.8271],[39.6905,-13.3957,293.6963],[39.6925,-13.4026,294.5761],[39.7005,-13.4099,284.0267],[39.7121,-13.4096,283.3848],[39.7229,-13.4149,273.6375],[39.7303,-13.422,267.3406],[39.7403,-13.44,256.2348],[39.744,-13.4499,253.3662],[39.7619,-13.4695,252.5824],[39.7773,-13.4713,250.091],[39.7774,-13.4778,248.4101],[39.7797,-13.4849,241.048],[39.784,-13.4806,233.1859],[39.8076,-13.49,226.6449],[39.8333,-13.4928,230.3141],[39.8398,-13.4874,223.0591],[39.8435,-13.4885,221.0394],[39.8489,-13.4963,214.316],[39.8554,-13.4968,216.2401],[39.8686,-13.4805,245.6833],[39.8861,-13.4533,256.8589],[39.884,-13.447,238.6593],[39.8879,-13.4436,238.3006],[39.8903,-13.4376,226.4953],[39.8881,-13.4301,218.4017],[39.8735,-13.4204,226.1272],[39.8656,-13.4023,243.9272],[39.8531,-13.3577,279.2581],[39.8539,-13.3514,289.6086],[39.892,-13.3379,263.2196],[39.8975,-13.3326,264.627],[39.891,-13.3153,293.3825],[39.889,-13.2882,269.7704],[39.8901,-13.2799,258.052],[39.8864,-13.276,273.9648],[39.8851,-13.2712,244.8741],[39.8943,-13.2654,250.0117],[39.9021,-13.2516,233.6153],[39.9129,-13.2532,217.6434],[39.9272,-13.2416,222.1959],[39.9211,-13.2365,218.5771],[39.9151,-13.2373,222.3421],[39.9081,-13.2419,232.5727],[39.9033,-13.2217,236.71],[39.8896,-13.2136,232.2225],[39.8833,-13.2114,236.5132],[39.872,-13.2135,235.5369],[39.8273,-13.2037,243.5073]]]]}
,"properties": {"GID_3": "MOZ.1.1.2_1","GID_0": "MOZ","country": "Mozambique","GID_1": "MOZ.1_1","province": "CaboDelgado","NL_NAME_1": "NA","GID_2": "MOZ.1.1_1","county": "Ancuabe","NL_NAME_2": "NA","city": "Chiure-Sede","VARNAME_3": "NA","NL_NAME_3": "NA","TYPE_3": "Localidad","ENGTYPE_3": "Locality","CC_3": "NA","HASC_3": "NA","name": "Chiure-Sede.city","area_km2": 624.4305,"hist_schema_id": "Elevation0-9000","hist_area_km2": {"200": 0.3921,"225": 24.6902,"250": 83.3527,"275": 116.9106,"300": 140.8529,"325": 136.7282,"350": 92.5134,"375": 23.2128,"400": 5.5917,"425": 0.1857}}}