{"type": "Feature","bbox": [37.8086,-16.1713,38.9375,-15.2341],"geometry": {"type": "MultiPolygon","coordinates": [[[[38.7891,-15.7755,212.8597],[38.7855,-15.7675,212.0376],[38.7765,-15.7681,203.183],[38.7605,-15.7719,207.3668],[38.7517,-15.7711,215.2503],[38.7363,-15.7562,212.0162],[38.727,-15.7443,232.5181],[38.7008,-15.727,219.6966],[38.6973,-15.7186,222.1467],[38.6973,-15.7072,230.5453],[38.693,-15.6925,235.9845],[38.6806,-15.6756,249.3704],[38.6537,-15.6789,263.4184],[38.6253,-15.6789,277.4745],[38.6187,-15.6756,288.3675],[38.6002,-15.6744,326.4696],[38.5838,-15.659,331.5563],[38.5643,-15.6466,340.3376],[38.5406,-15.6177,349.1049],[38.5238,-15.5879,362.3365],[38.5128,-15.5779,366.4818],[38.4493,-15.5532,375.3194],[38.44,-15.5421,374.168],[38.4339,-15.5247,378.1741],[38.3974,-15.5012,398.5127],[38.3747,-15.476,405.819],[38.3668,-15.4621,396.828],[38.3561,-15.4608,400.4596],[38.3416,-15.463,401.5521],[38.3292,-15.46,405.539],[38.319,-15.4475,409.3281],[38.2989,-15.4526,411.4269],[38.2758,-15.4526,421.5403],[38.2641,-15.4494,423.6416],[38.2592,-15.441,417.2213],[38.2533,-15.437,408.4197],[38.2386,-15.4453,434.4013],[38.2107,-15.4448,446.1072],[38.1875,-15.4323,478.0125],[38.1748,-15.4221,467.1072],[38.1675,-15.4076,472.9248],[38.1655,-15.3952,470.3062],[38.1605,-15.3916,473.9332],[38.1493,-15.391,476.6389],[38.1381,-15.3816,477.711],[38.1308,-15.3811,478.0998],[38.1272,-15.3728,476.309],[38.1306,-15.3612,493.7079],[38.1402,-15.349,478.7788],[38.1399,-15.3413,478.3365],[38.1339,-15.3402,502.6129],[38.1222,-15.3422,507.0041],[38.1083,-15.3421,488.5222],[38.0987,-15.3356,494.3554],[38.0952,-15.3241,497.9092],[38.0884,-15.3246,503.2799],[38.0748,-15.3291,514.7643],[38.0645,-15.3295,507.709],[38.0543,-15.3253,509.3685],[38.0507,-15.3158,511.1921],[38.0452,-15.3122,515.4539],[38.0358,-15.3192,526.3823],[38.0347,-15.3187,526.3823],[38.0041,-15.2926,521.5218],[38.0197,-15.2986,534.4534],[38.0047,-15.2915,521.5218],[38.0019,-15.2617,540.5452],[37.9802,-15.259,560.1227],[37.9492,-15.2383,549.812],[37.9366,-15.2341,548.1864],[37.9175,-15.2627,581.4796],[37.9155,-15.2746,580.8074],[37.9111,-15.2767,587.1005],[37.8986,-15.2767,624.9687],[37.8521,-15.3006,642.6245],[37.8435,-15.3068,656.1278],[37.8117,-15.3387,711.3986],[37.8086,-15.3513,690.8246],[37.8135,-15.3624,682.0957],[37.8234,-15.3719,683.8979],[37.8364,-15.3931,669.6313],[37.8418,-15.3978,693.3668],[37.8521,-15.4375,668.4387],[37.8682,-15.4496,618.1205],[37.8731,-15.4565,630.9824],[37.8858,-15.4647,637.8378],[37.8936,-15.4759,633.5972],[37.8952,-15.4979,615.0715],[37.8924,-15.5191,608.8906],[37.8938,-15.5269,599.6028],[37.8989,-15.5309,614.0132],[37.9087,-15.5318,603.241],[37.9308,-15.5286,577.5349],[37.9383,-15.5325,603.0255],[37.9521,-15.536,607.0913],[37.958,-15.5487,597.7324],[37.9588,-15.5605,581.2204],[37.962,-15.5738,553.0837],[37.9638,-15.5787,581.8999],[37.9702,-15.5831,600.1885],[37.9744,-15.6015,589.5441],[37.9906,-15.6188,613.9474],[37.994,-15.652,440.5947],[37.9898,-15.6614,426.8188],[37.9771,-15.6751,412.0278],[37.9825,-15.6827,410.0648],[37.9838,-15.7007,392.5252],[37.9885,-15.7073,381.4123],[37.995,-15.7072,376.3812],[37.9963,-15.7096,380.1857],[37.9947,-15.7168,382.2093],[37.9955,-15.7216,370.5555],[38.0062,-15.7301,374.9896],[38.0171,-15.7431,367.0955],[38.0133,-15.7499,365.6845],[38.0175,-15.7608,370.7675],[38.0255,-15.7685,401.2661],[38.0545,-15.7785,372.8504],[38.0758,-15.7834,374.004],[38.0982,-15.7949,350.6685],[38.1113,-15.7958,355.9913],[38.1264,-15.8015,316.092],[38.1295,-15.8105,311.451],[38.1449,-15.8223,289.4847],[38.1575,-15.8223,298.3085],[38.1635,-15.8137,294.9575],[38.1771,-15.814,300.0486],[38.1828,-15.8216,285.3078],[38.1828,-15.8493,277.3753],[38.263,-15.8582,273.4111],[38.2785,-15.8552,255.3746],[38.292,-15.8652,271.2218],[38.3034,-15.8761,282.7158],[38.3065,-15.8761,276.2266],[38.3189,-15.8642,275.2598],[38.322,-15.8493,238.7572],[38.3313,-15.8523,248.402],[38.3313,-15.8642,266.945],[38.3406,-15.8731,267.8777],[38.3581,-15.8678,266.0916],[38.372,-15.8583,233.5385],[38.3872,-15.8642,287.7907],[38.3934,-15.8791,248.2186],[38.4193,-15.8792,308.7021],[38.4213,-15.8642,256.815],[38.4276,-15.8612,269.5574],[38.4616,-15.8612,238.2847],[38.4597,-15.8486,240.8603],[38.5593,-15.8486,208.6201],[38.6083,-15.8627,230.1895],[38.6952,-15.9108,198.8552],[38.7132,-15.9462,193.3741],[38.7618,-16.0247,183.7126],[38.7821,-16.0409,173.2731],[38.837,-16.0558,168.8437],[38.8384,-16.0717,132.2752],[38.8498,-16.0908,176.7589],[38.8532,-16.121,120.0894],[38.8671,-16.1332,113.6674],[38.8807,-16.1679,124.0907],[38.8876,-16.1713,118.7194],[38.894,-16.167,105.343],[38.895,-16.1598,105.1965],[38.8998,-16.1552,102.4347],[38.9181,-16.1703,108.4812],[38.9235,-16.1622,105.3284],[38.9179,-16.146,109.3543],[38.9248,-16.1322,118.58],[38.9345,-16.1239,115.4701],[38.9375,-16.1192,114.7146],[38.9268,-16.1087,111.613],[38.9225,-16.0912,115.5945],[38.9134,-16.0751,124.3999],[38.9118,-16.0653,121.6024],[38.915,-16.0478,137.0042],[38.8973,-16.0294,128.6959],[38.8959,-16.0203,137.5116],[38.8841,-16.0046,135.6093],[38.8708,-15.9979,138.8999],[38.8691,-15.9826,146.378],[38.8739,-15.954,156.1667],[38.8715,-15.9417,163.5398],[38.8599,-15.9268,159.1202],[38.852,-15.9245,169.4491],[38.8448,-15.915,168.7317],[38.8483,-15.8915,167.1025],[38.839,-15.8865,174.6051],[38.8282,-15.8833,187.5234],[38.8246,-15.874,192.6315],[38.8215,-15.8412,190.9815],[38.8147,-15.8356,190.9868],[38.8071,-15.8261,193.4778],[38.8044,-15.8166,193.5932],[38.8043,-15.8012,198.797],[38.8018,-15.7916,207.9059],[38.7945,-15.7846,210.511],[38.7883,-15.7766,205.6111],[38.7891,-15.7755,212.8597]]]]}
,"properties": {"GID_3": "MOZ.11.3.1_1","GID_0": "MOZ","country": "Mozambique","GID_1": "MOZ.11_1","province": "Zambezia","NL_NAME_1": "NA","GID_2": "MOZ.11.3_1","county": "Gile","NL_NAME_2": "NA","city": "AltoLigonha","VARNAME_3": "NA","NL_NAME_3": "NA","TYPE_3": "Localidad","ENGTYPE_3": "Locality","CC_3": "NA","HASC_3": "NA","name": "Alto_Ligonha.city","area_km2": 3963.76,"hist_schema_id": "Elevation0-9000","hist_area_km2": {"100": 3.197,"125": 29.31,"150": 48.692,"175": 88.369,"200": 149.232,"225": 188.734,"250": 228.124,"275": 257.02,"300": 248.304,"325": 207.354,"350": 216.255,"375": 235.454,"400": 254.72,"425": 248.594,"450": 234.144,"475": 224.517,"500": 210.785,"525": 212.343,"550": 201.42,"575": 168.3,"600": 125.836,"625": 88.942,"650": 47.649,"675": 25.306,"700": 8.563,"725": 2.695,"750": 1.919,"775": 1.429,"800": 1.389,"825": 1.225,"850": 1.144,"875": 0.939,"900": 0.613,"925": 0.368,"950": 0.306,"975": 0.245,"1000": 0.204,"1025": 0.102}}}