{"type": "Feature","bbox": [38.4839,-14.9616,39.3409,-13.932],"geometry": {"type": "MultiPolygon","coordinates": [[[[38.4846,-14.5779,395.9229],[38.4982,-14.6022,412.5674],[38.5075,-14.6081,412.0688],[38.5102,-14.6185,421.0622],[38.5161,-14.6203,410.07],[38.5199,-14.6281,417.0999],[38.526,-14.6618,423.3193],[38.5199,-14.6754,434.6755],[38.5378,-14.7029,458.375],[38.5434,-14.7149,448.5394],[38.546,-14.7263,449.7809],[38.5538,-14.7364,461.9781],[38.5537,-14.7455,462.0839],[38.5494,-14.758,464.9744],[38.5393,-14.7733,486.5082],[38.5333,-14.7924,474.5816],[38.5136,-14.8288,509.9599],[38.5089,-14.8424,512.4612],[38.5125,-14.8478,579.1246],[38.5562,-14.8671,562.9636],[38.5785,-14.8825,595.855],[38.5816,-14.9004,606.2762],[38.5846,-14.9064,624.6328],[38.5846,-14.9136,635.1332],[38.5724,-14.927,644.4878],[38.5791,-14.9403,631.2031],[38.5881,-14.9522,582.9178],[38.597,-14.956,560.8478],[38.603,-14.9616,583.1407],[38.6138,-14.9587,603.2333],[38.6381,-14.9585,587.0525],[38.6505,-14.9539,604.8259],[38.6617,-14.947,596.3265],[38.6846,-14.9448,601.1973],[38.6943,-14.9416,601.5975],[38.7174,-14.9214,587.6595],[38.7374,-14.9081,603.8446],[38.7511,-14.9091,597.1027],[38.7626,-14.9137,585.8262],[38.7727,-14.9122,590.0871],[38.78,-14.9142,584.8887],[38.7884,-14.9026,538.1636],[38.7902,-14.9049,543.5138],[38.799,-14.9041,554.3762],[38.8062,-14.8929,547.2352],[38.8087,-14.8806,571.137],[38.8257,-14.8743,570.1097],[38.8464,-14.8689,554.9231],[38.8684,-14.874,545.8945],[38.8807,-14.8734,524.0978],[38.8946,-14.8693,531.7507],[38.9128,-14.867,519.8749],[38.9207,-14.871,512.9736],[38.9289,-14.8795,517.3006],[38.9479,-14.8725,492.9302],[38.98,-14.8696,477.7307],[39.0001,-14.8631,478.2162],[39.0314,-14.8718,464.3901],[39.0418,-14.8728,471.7538],[39.0636,-14.8701,454.6438],[39.0709,-14.865,449.401],[39.0907,-14.8438,416.5936],[39.102,-14.8432,408.2269],[39.112,-14.8481,406.3471],[39.1202,-14.8544,396.4647],[39.1279,-14.8573,395.0992],[39.1442,-14.856,397.3303],[39.1516,-14.8575,388.8942],[39.1594,-14.8638,404.2019],[39.165,-14.8763,470.0305],[39.1818,-14.8899,439.0557],[39.1913,-14.8872,427.7741],[39.1962,-14.89,420.7728],[39.2249,-14.8743,396.6541],[39.2273,-14.8571,375.8543],[39.2288,-14.8553,377.2337],[39.2543,-14.8491,354.6356],[39.2576,-14.8459,363.227],[39.2597,-14.847,359.704],[39.2478,-14.8202,394.3634],[39.2478,-14.8111,415.6767],[39.2576,-14.7984,449.1338],[39.2707,-14.7857,394.8861],[39.274,-14.7572,410.2933],[39.2642,-14.7413,415.8033],[39.2642,-14.7335,420.4118],[39.2602,-14.7275,422.3926],[39.2595,-14.7199,424.4884],[39.2559,-14.7119,434.6931],[39.2281,-14.7001,458.3952],[39.2062,-14.6788,463.8904],[39.1881,-14.6733,478.8519],[39.1865,-14.6544,462.8563],[39.1954,-14.643,474.7153],[39.2117,-14.6145,447.731],[39.2164,-14.6115,445.1923],[39.2195,-14.6004,433.0656],[39.2298,-14.5879,426.5214],[39.2354,-14.5715,419.2804],[39.2355,-14.5598,412.0085],[39.2388,-14.5532,413.6949],[39.2522,-14.5384,405.485],[39.2669,-14.5178,394.6935],[39.2871,-14.494,383.7587],[39.2871,-14.4922,380.8149],[39.2942,-14.4854,388.2858],[39.3007,-14.464,376.0883],[39.3008,-14.4449,371.8092],[39.2945,-14.4272,365.2942],[39.2818,-14.3706,338.8747],[39.319,-14.3355,335.2682],[39.331,-14.3269,332.4894],[39.3371,-14.3259,329.5089],[39.3278,-14.3139,352.5774],[39.3217,-14.3139,361.0085],[39.3086,-14.3075,358.7929],[39.3042,-14.3023,372.8503],[39.3202,-14.2606,411.0204],[39.3186,-14.2298,378.7751],[39.3082,-14.1721,337.6346],[39.2909,-14.1442,327.918],[39.2848,-14.1022,311.0646],[39.2799,-14.0831,305.6965],[39.2623,-14.0778,298.7488],[39.2528,-14.076599999999999,300.4292],[39.242,-14.0682,290.8955],[39.2162,-14.0368,279.498],[39.2068,-14.0197,278.257],[39.1871,-13.9533,272.7965],[39.1723,-13.9385,274.4478],[39.1631,-13.932,273.6943],[39.1421,-13.934,274.7953],[39.1185,-13.9486,275.1944],[39.1067,-13.9586,265.5],[39.0856,-13.9722,276.2632],[39.0756,-13.9859,283.084],[39.0558,-14.0035,271.3076],[39.0481,-14.0075,279.6454],[39.0334,-14.0114,284.9557],[39.006,-14.0101,290.0522],[38.9862,-14.0172,286.5628],[38.955,-14.0373,281.0],[38.9225,-14.0538,286.499],[38.9045,-14.059,287.5586],[38.8798,-14.0713,286.5334],[38.8509,-14.0936,290.7679],[38.8223,-14.1127,292.192],[38.8106,-14.1129,303.9992],[38.7948,-14.1065,297.5559],[38.7795,-14.106,304.5265],[38.7672,-14.1181,298.1381],[38.7506,-14.1236,306.4063],[38.7358,-14.132,309.6502],[38.7155,-14.1525,300.881],[38.7035,-14.1525,300.5551],[38.6861,-14.1482,305.8782],[38.6874,-14.1639,305.3045],[38.6726,-14.1766,317.3256],[38.6548,-14.1888,318.9212],[38.6417,-14.1954,321.1284],[38.6239,-14.2157,324.6078],[38.6094,-14.2288,325.8432],[38.5925,-14.2403,323.7054],[38.591,-14.25,320.3907],[38.5924,-14.2584,326.3138],[38.5767,-14.2855,337.4063],[38.5673,-14.295,338.6097],[38.5562,-14.3026,343.3598],[38.5465,-14.3044,340.7604],[38.5392,-14.3135,332.5689],[38.5288,-14.3402,339.7099],[38.5241,-14.3479,338.6993],[38.521,-14.3616,350.6806],[38.5208,-14.3778,351.4694],[38.5249,-14.3903,362.2397],[38.5194,-14.4059,357.8287],[38.52,-14.4158,362.843],[38.5284,-14.4318,368.5978],[38.527,-14.4423,361.9484],[38.5145,-14.4606,367.8065],[38.501,-14.4677,380.9757],[38.4904,-14.4854,379.8139],[38.497,-14.4975,383.4085],[38.4929,-14.5104,381.3465],[38.4927,-14.5167,392.2387],[38.495,-14.5262,391.8295],[38.4839,-14.5679,395.2107],[38.4846,-14.5779,395.9229]]],
[[[39.3371,-14.3259,329.5089],[39.3403,-14.3253,327.2827],[39.3409,-14.3252,327.2827],[39.3405,-14.3247,327.2827],[39.3371,-14.3259,329.5089]]]]}
,"properties": {"GID_2": "MOZ.7.6_1","GID_0": "MOZ","country": "Mozambique","GID_1": "MOZ.7_1","province": "Nampula","NL_NAME_1": "NA","county": "Mecuburi","VARNAME_2": "NA","NL_NAME_2": "NA","TYPE_2": "Distrito","ENGTYPE_2": "District","CC_2": "NA","HASC_2": "MZ.NM.MB","name": "Mecuburi.county","area_km2": 7217.893,"hist_schema_id": "Elevation0-9000","hist_area_km2": {"250": 1.852,"275": 83.014,"300": 285.276,"325": 564.82,"350": 754.671,"375": 787.688,"400": 703.76,"425": 636.612,"450": 693.255,"475": 716.774,"500": 639.244,"525": 494.617,"550": 377.832,"575": 245.537,"600": 115.381,"625": 31.953,"650": 15.389,"675": 12.066,"700": 8.331,"725": 8.024,"750": 5.582,"775": 5.418,"800": 4.658,"825": 3.304,"850": 2.75,"875": 3.119,"900": 2.524,"925": 2.154,"950": 1.867,"975": 1.601,"1000": 1.149,"1025": 0.964,"1050": 0.738,"1075": 0.882,"1100": 0.636,"1125": 0.677,"1150": 0.595,"1175": 0.533,"1200": 0.554,"1225": 0.39,"1250": 0.287,"1275": 0.226,"1300": 0.369,"1325": 0.226,"1350": 0.328,"1375": 0.144,"1425": 0.062}}}