{"type": "Feature","bbox": [39.407,-16.2849,39.9032,-15.9226],"geometry": {"type": "MultiPolygon","coordinates": [[[[39.8701,-16.2465,1.1986],[39.8685,-16.2471,1.2991],[39.8704,-16.2501,0.5309],[39.8771,-16.2518,0.1173],[39.8768,-16.2501,0.0932],[39.8701,-16.2465,1.1986]]],
[[[39.8582,-16.1924,0.2112],[39.8571,-16.1929,0.2879],[39.8599,-16.1957,0.3206],[39.8624,-16.1957,0.2899],[39.8618,-16.194,0.0],[39.8582,-16.1924,0.2112]]],
[[[39.889,-16.1893,0.4744],[39.8865,-16.1885,0.7075],[39.8835,-16.1907,1.6084],[39.8829,-16.1924,3.5175],[39.8851,-16.1951,0.1738],[39.8893,-16.1946,0.0],[39.889,-16.1893,0.4744]]],
[[[39.7962,-16.2847,0.0],[39.7979,-16.2843,0.4522],[39.7985,-16.2832,0.4522],[39.794,-16.2843,1.321],[39.7962,-16.2847,0.0]]],
[[[39.7574,-16.2618,3.5325],[39.7557,-16.2612,0.2753],[39.7571,-16.2649,0.4427],[39.7596,-16.266,0.0],[39.7599,-16.2646,0.0],[39.7574,-16.2618,3.5325]]],
[[[39.8596,-16.2632,0.3081],[39.8579,-16.2626,0.0],[39.8568,-16.2643,0.2751],[39.8607,-16.264,0.3081],[39.8596,-16.2632,0.3081]]],
[[[39.8763,-16.0336,65.6838],[39.8767,-16.02,56.2312],[39.8703,-15.9999,55.197],[39.8191,-15.9876,50.3014],[39.7563,-15.9836,84.5428],[39.7121,-15.977,110.5713],[39.7051,-15.9712,86.7222],[39.6612,-15.9226,86.3647],[39.6509,-15.9231,83.1396],[39.6381,-15.9263,104.4014],[39.6323,-15.9313,104.5815],[39.6269,-15.9405,107.1925],[39.6227,-15.9533,96.2493],[39.6233,-15.9618,93.4474],[39.6318,-15.9749,76.3599],[39.6384,-15.9794,82.4618],[39.6379,-15.9837,71.394],[39.6324,-15.9871,73.6726],[39.6074,-15.9872,82.4865],[39.601,-15.9905,87.9506],[39.5947,-15.9992,98.9946],[39.5852,-16.0041,105.5533],[39.5734,-16.0077,115.3353],[39.5578,-16.0217,87.0805],[39.5526,-16.0294,82.5519],[39.5495,-16.047,68.8417],[39.5302,-16.0607,58.9841],[39.5146,-16.0746,54.5873],[39.5035,-16.0629,64.1677],[39.4448,-16.0464,81.5463],[39.4253,-16.0437,79.4129],[39.419,-16.0461,59.5286],[39.4142,-16.0508,49.1299],[39.4134,-16.058,47.9095],[39.407,-16.0723,54.3304],[39.4109,-16.0779,52.8323],[39.4189,-16.0844,60.9569],[39.4356,-16.0945,48.481],[39.4658,-16.1013,40.3146],[39.4851,-16.1196,43.9325],[39.5116,-16.1506,39.5721],[39.528,-16.1781,34.713],[39.5541,-16.1915,28.6341],[39.5634,-16.1987,30.2146],[39.5761,-16.2208,29.7467],[39.5865,-16.2354,26.3054],[39.5937,-16.23,32.7371],[39.6032,-16.2284,30.6117],[39.6227,-16.2303,48.7918],[39.6411,-16.2362,46.3556],[39.6568,-16.2542,40.3383],[39.6661,-16.2721,27.2059],[39.6937,-16.2838,20.6638],[39.7256,-16.2838,5.7266],[39.7336,-16.2813,2.2623],[39.7469,-16.2691,2.6948],[39.7498,-16.2607,6.3745],[39.7522,-16.2632,1.8561],[39.752,-16.2607,2.5815],[39.756,-16.2638,1.6642],[39.754,-16.256,0.6015],[39.7471,-16.2485,1.0596],[39.7538,-16.2537,1.0413],[39.7618,-16.266,2.3998],[39.7707,-16.2726,1.1016],[39.7718,-16.2729,0.5713],[39.7751,-16.266,2.7087],[39.7724,-16.2737,0.0],[39.7765,-16.2815,0.0],[39.7818,-16.2849,0.0],[39.7868,-16.2849,0.0],[39.8007,-16.2812,1.6295],[39.8093,-16.276,1.5746],[39.8201,-16.2746,0.0],[39.8301,-16.2704,0.2651],[39.8396,-16.2696,0.0],[39.849,-16.2646,0.0],[39.8551,-16.2646,0.0],[39.8607,-16.2585,0.0],[39.8635,-16.2482,2.2741],[39.8576,-16.239,0.0],[39.8515,-16.2401,1.1413],[39.8376,-16.249,0.0],[39.836,-16.251,0.0],[39.8354,-16.2576,0.5938],[39.8321,-16.2629,0.7127],[39.8226,-16.2582,1.066],[39.8157,-16.2571,1.4508],[39.8218,-16.2565,0.4277],[39.8301,-16.2601,0.0],[39.8324,-16.2599,0.0],[39.834,-16.2571,1.1901],[39.834,-16.2546,1.0718],[39.8318,-16.2521,0.2924],[39.8229,-16.2451,0.5065],[39.8132,-16.244,0.4763],[39.8168,-16.2424,0.9434],[39.8232,-16.2437,0.0],[39.8257,-16.2424,0.509],[39.826,-16.2379,0.4305],[39.8204,-16.2368,1.2131],[39.821,-16.236,0.6244],[39.8265,-16.2376,0.4305],[39.8271,-16.2407,0.9472],[39.8251,-16.2449,0.4127],[39.8315,-16.249,1.3919],[39.8393,-16.2451,0.0],[39.8457,-16.2385,0.6132],[39.8535,-16.2349,0.2769],[39.8782,-16.2435,0.8608],[39.881,-16.2476,0.4222],[39.8835,-16.2482,0.0],[39.8857,-16.2457,0.124],[39.8849,-16.2412,0.3243],[39.886,-16.2412,0.3243],[39.8868,-16.2365,0.3453],[39.884,-16.2368,0.5008],[39.8874,-16.2349,0.0],[39.8879,-16.2299,1.233],[39.8874,-16.2224,0.6454],[39.8854,-16.2193,0.0],[39.8799,-16.2193,0.0],[39.871,-16.224,0.0],[39.864,-16.2251,1.1512],[39.8479,-16.2215,0.8854],[39.8382,-16.214,0.0],[39.8349,-16.2143,0.0],[39.8293,-16.2176,1.3506],[39.8254,-16.2182,0.6562],[39.829,-16.2171,1.3506],[39.8318,-16.2126,1.1538],[39.8379,-16.2115,0.0],[39.8457,-16.2185,0.0],[39.8638,-16.2229,1.0638],[39.8671,-16.2221,0.2727],[39.8699,-16.2187,0.4206],[39.8801,-16.2151,0.0],[39.8801,-16.211,0.0],[39.8771,-16.2068,0.3393],[39.869,-16.2007,0.4935],[39.861,-16.199,0.0],[39.8557,-16.1954,0.0],[39.8526,-16.1843,1.2281],[39.8537,-16.1837,0.2511],[39.856,-16.1893,0.7147],[39.8735,-16.201,0.0],[39.8807,-16.201,0.666],[39.8815,-16.1849,1.4913],[39.8793,-16.1818,1.1123],[39.8812,-16.1829,0.8946],[39.8824,-16.1851,0.0],[39.8849,-16.184,0.0],[39.8851,-16.1771,0.0912],[39.8968,-16.1602,1.38],[39.9032,-16.1428,11.9844],[39.8807,-16.0763,52.4278],[39.877,-16.0583,72.7401],[39.8756,-16.042,61.9924],[39.8763,-16.0336,65.6838]]]]}
,"properties": {"GID_3": "MOZ.7.1.3_1","GID_0": "MOZ","country": "Mozambique","GID_1": "MOZ.7_1","province": "Nampula","NL_NAME_1": "NA","GID_2": "MOZ.7.1_1","county": "Angoche","NL_NAME_2": "NA","city": "Boila-Nametoria","VARNAME_3": "NA","NL_NAME_3": "NA","TYPE_3": "Localidad","ENGTYPE_3": "Locality","CC_3": "NA","HASC_3": "NA","name": "Boila-Nametoria.city","area_km2": 1217.5727,"hist_schema_id": "Elevation0-9000","hist_area_km2": {"0": 156.2471,"25": 310.2145,"50": 279.9078,"75": 258.6565,"100": 176.8386,"125": 35.6878,"150": 0.0204}}}