{"type":"Feature","properties":{"GID_2":"MOZ.10.11_1","GID_0":"MOZ","country":"Mozambique","GID_1":"MOZ.10_1","province":"Tete","NL_NAME_1":"NA","county":"Tsangano","VARNAME_2":"NA","NL_NAME_2":"NA","TYPE_2":"Distrito","ENGTYPE_2":"District","CC_2":"NA","HASC_2":"MZ.TE.TS","name":"Tsangano.county"},
"geometry":{"type": "MultiPolygon","coordinates": [[[[34.4934,-15.4088,1157.0],[34.5049,-15.4098,1171.6014],[34.5146,-15.399,1167.1154],[34.5136,-15.3983,1167.1154],[34.5165,-15.3898,1194.8672],[34.5201,-15.3844,1223.8157],[34.5168,-15.3719,1247.7354],[34.5186,-15.3512,1181.3628],[34.5206,-15.347,1205.25],[34.5312,-15.3423,1190.0059],[34.5326,-15.3332,1203.5234],[34.5403,-15.3262,1167.2466],[34.5556,-15.3368,1251.9883],[34.559,-15.3328,1335.9001],[34.5746,-15.3218,1485.9045],[34.5748,-15.3125,1569.048],[34.5727,-15.3086,1620.1125],[34.5742,-15.3052,1585.7372],[34.5858,-15.2952,1582.4989],[34.5979,-15.2814,1518.9905],[34.6005,-15.2693,1431.4238],[34.6017,-15.2679,1449.0767],[34.6033,-15.269,1419.9517],[34.6041,-15.2672,1409.9762],[34.5992,-15.2514,1458.2524],[34.6011,-15.2426,1547.3174],[34.6006,-15.2353,1585.7819],[34.5926,-15.2252,1598.2404],[34.5886,-15.2107,1566.3267],[34.5806,-15.2056,1612.6765],[34.5794,-15.1999,1606.7378],[34.5828,-15.1811,1684.8071],[34.5754,-15.1645,1627.8125],[34.5765,-15.1624,1637.5289],[34.5815,-15.1611,1646.7377],[34.5773,-15.1473,1580.0739],[34.5743,-15.1476,1602.8864],[34.5767,-15.1409,1605.0706],[34.5762,-15.1349,1612.4517],[34.5734,-15.1294,1546.5703],[34.5685,-15.1247,1563.6346],[34.5706,-15.1127,1605.7664],[34.5864,-15.098,1628.8298],[34.59,-15.0877,1589.7874],[34.5843,-15.0847,1618.8158],[34.5762,-15.0869,1675.6559],[34.5716,-15.0851,1669.2463],[34.5692,-15.0793,1641.4232],[34.5715,-15.073,1641.9172],[34.5698,-15.068,1605.2719],[34.5712,-15.0635,1622.863],[34.5744,-15.0617,1614.3467],[34.5781,-15.0565,1661.2291],[34.5797,-15.0559,1663.7411],[34.5802,-15.0573,1675.0094],[34.5862,-15.048,1612.0415],[34.5969,-15.0436,1575.4521],[34.6019,-15.0388,1567.4384],[34.6007,-15.0306,1564.9999],[34.6037,-15.0253,1585.0416],[34.6043,-15.0209,1609.8605],[34.6105,-15.0142,1559.8484],[34.6172,-15.0113,1560.3101],[34.6207,-15.0006,1570.6627],[34.6194,-14.9967,1549.3994],[34.6109,-14.9899,1538.5162],[34.6142,-14.9778,1523.6372],[34.6082,-14.9774,1516.2478],[34.6017,-14.9741,1495.7717],[34.5964,-14.9669,1452.1987],[34.596,-14.9632,1474.1328],[34.5902,-14.9582,1478.3774],[34.5879,-14.9361,1452.5216],[34.5793,-14.9218,1460.5516],[34.5763,-14.9119,1465.4744],[34.5769,-14.9065,1500.1644],[34.5715,-14.9041,1504.823],[34.5686,-14.9003,1490.3739],[34.567,-14.9007,1483.7355],[34.5634,-14.8959,1497.0739],[34.5672,-14.8835,1414.786],[34.5753,-14.8723,1399.9824],[34.5748,-14.8417,1528.4314],[34.5709,-14.822,1462.6547],[34.574,-14.8168,1454.7153],[34.5826,-14.8129,1458.5909],[34.5827,-14.8087,1466.2576],[34.5732,-14.79,1432.4746],[34.5641,-14.78,1435.3684],[34.5653,-14.7704,1423.6387],[34.5512,-14.7547,1417.2535],[34.5447,-14.7499,1418.6208],[34.5412,-14.7359,1391.6605],[34.5426,-14.7309,1383.4073],[34.5375,-14.725,1393.5492],[34.5336,-14.714,1389.849],[34.5276,-14.7078,1387.1272],[34.528,-14.6993,1415.3757],[34.5242,-14.696,1421.1266],[34.5191,-14.6858,1382.4491],[34.5145,-14.6854,1360.4191],[34.4988,-14.6869,1313.7224],[34.4853,-14.6861,1289.4996],[34.4759,-14.6875,1305.6619],[34.4692,-14.6922,1285.9216],[34.4564,-14.6908,1272.6877],[34.4392,-14.7008,1270.0232],[34.4173,-14.7097,1241.1727],[34.4125,-14.721,1243.4707],[34.4106,-14.7349,1232.1323],[34.3937,-14.7417,1223.2563],[34.3816,-14.742,1229.0359],[34.3765,-14.7462,1206.8702],[34.3836,-14.7534,1199.3857],[34.3771,-14.7579,1188.4524],[34.3682,-14.7582,1179.5131],[34.3663,-14.769,1178.9348],[34.3624,-14.7776,1170.8228],[34.3519,-14.7804,1161.3259],[34.3513,-14.7863,1148.7024],[34.3443,-14.8043,1107.0813],[34.3368,-14.8129,1086.9867],[34.3229,-14.8215,1067.0616],[34.3064,-14.8264,1024.4044],[34.2772,-14.8587,990.2742],[34.2661,-14.876,987.968],[34.2564,-14.883,995.0333],[34.2449,-14.8832,981.5341],[34.2345,-14.8935,977.6633],[34.224,-14.916,956.5907],[34.2132,-14.9233,939.8918],[34.2064,-14.9249,944.0031],[34.1954,-14.9334,931.998],[34.1931,-14.9453,938.532],[34.1657,-14.9582,930.1521],[34.1567,-14.9817,877.4075],[34.158,-14.9924,888.8658],[34.1609,-14.9971,871.0036],[34.1577,-15.002,868.0532],[34.1575,-15.0052,873.014],[34.1616,-15.0124,882.3604],[34.1631,-15.0231,864.2733],[34.1506,-15.0323,869.5015],[34.1525,-15.0412,875.5737],[34.15,-15.0616,863.9007],[34.1578,-15.0942,853.0264],[34.1494,-15.0945,867.7046],[34.1356,-15.1048,850.3289],[34.108,-15.11,821.5441],[34.1036,-15.1134,805.2237],[34.0935,-15.1429,779.3848],[34.0904,-15.1457,794.6537],[34.0641,-15.1403,750.2769],[34.0586,-15.1546,742.4794],[34.0456,-15.1636,738.6537],[34.0418,-15.1685,736.1526],[34.0395,-15.1856,743.4949],[34.0235,-15.1971,720.515],[34.0137,-15.2191,719.6068],[34.0084,-15.2247,675.8693],[34.0079,-15.2277,668.1451],[34.0108,-15.2336,679.0217],[34.0189,-15.2379,678.4551],[34.0225,-15.2432,666.1276],[34.0298,-15.2628,667.4172],[34.0316,-15.2762,653.1307],[34.0397,-15.2874,627.1498],[34.0345,-15.303,634.012],[34.0333,-15.3176,621.6014],[34.0342,-15.3287,604.6976],[34.0312,-15.3359,629.3372],[34.0187,-15.3536,570.3435],[34.0078,-15.3823,562.6809],[34.0054,-15.3935,563.2638],[34.0,-15.4025,563.6487],[34.004,-15.4136,573.6921],[34.0072,-15.4151,584.559],[34.0124,-15.4219,580.6146],[34.0294,-15.4296,591.4675],[34.0404,-15.4297,618.3776],[34.0479,-15.4268,628.0685],[34.0545,-15.4232,650.9342],[34.0579,-15.4168,643.7885],[34.0678,-15.4098,670.1789],[34.0751,-15.4086,674.5054],[34.0846,-15.4251,687.4676],[34.1023,-15.4363,724.2126],[34.1526,-15.4445,630.2442],[34.1575,-15.4487,631.8577],[34.159,-15.4532,600.501],[34.1585,-15.4632,597.9529],[34.1541,-15.4808,582.8335],[34.1581,-15.4874,585.6028],[34.168,-15.4748,584.7461],[34.173,-15.472,600.3574],[34.177,-15.4668,604.9671],[34.1872,-15.4611,615.3862],[34.1877,-15.4573,609.1752],[34.1824,-15.449,628.2554],[34.1948,-15.449,619.436],[34.2057,-15.4528,640.4352],[34.213,-15.4491,634.6868],[34.2095,-15.4413,666.5743],[34.2185,-15.4316,658.144],[34.2148,-15.4262,662.4117],[34.2202,-15.4217,654.8589],[34.2189,-15.4175,661.2285],[34.425,-15.4289,990.3925],[34.4376,-15.4456,1052.322],[34.4419,-15.4547,1069.9293],[34.4437,-15.4509,1071.994],[34.4383,-15.4353,1103.4559],[34.4389,-15.4271,1087.5964],[34.4418,-15.4224,1102.661],[34.4487,-15.4316,1048.7732],[34.4518,-15.4437,1013.2517],[34.4546,-15.4461,1018.7075],[34.4586,-15.4578,946.563],[34.4614,-15.4559,948.4264],[34.4593,-15.4489,1021.0615],[34.4655,-15.4331,1066.7561],[34.4722,-15.4241,1161.7053],[34.4814,-15.4191,1113.009],[34.4919,-15.4086,1152.1572],[34.4934,-15.4088,1157.0]]]]}}