{"type":"Feature","properties":{"GID_3":"MOZ.7.8.4_1","GID_0":"MOZ","country":"Mozambique","GID_1":"MOZ.7_1","province":"Nampula","NL_NAME_1":"NA","GID_2":"MOZ.7.8_1","county":"Mogovolas","NL_NAME_2":"NA","city":"Nametil-Sede","VARNAME_3":"NA","NL_NAME_3":"NA","TYPE_3":"Localidad","ENGTYPE_3":"Locality","CC_3":"NA","HASC_3":"NA","name":"Nametil-Sede.city"},
"geometry":{"type": "MultiPolygon","coordinates": [[[[39.252,-15.6325,151.4065],[39.1773,-15.7016,174.1205],[39.1997,-15.7493,146.9751],[39.222,-15.7632,134.4285],[39.2034,-15.8153,118.2015],[39.2264,-15.8528,112.8959],[39.2346,-15.8588,110.8479],[39.2485,-15.8606,113.7701],[39.2514,-15.8522,110.4837],[39.2621,-15.8571,106.9397],[39.2681,-15.8707,95.4039],[39.3016,-15.8893,99.8222],[39.3141,-15.8989,69.431],[39.3242,-15.8933,77.5855],[39.3333,-15.892,70.1211],[39.3602,-15.8923,78.6342],[39.3639,-15.8911,79.2248],[39.3769,-15.8795,96.8133],[39.3827,-15.8661,86.5585],[39.3918,-15.8618,122.0187],[39.4412,-15.8538,143.7683],[39.4534,-15.8491,138.3272],[39.4684,-15.8327,159.2522],[39.4969,-15.8112,207.7657],[39.5065,-15.8075,193.7893],[39.515,-15.8068,176.2484],[39.5335,-15.809,168.7289],[39.5463,-15.8059,153.2729],[39.5455,-15.7956,182.1016],[39.5327,-15.7487,204.0021],[39.5185,-15.7452,191.741],[39.5222,-15.7326,182.189],[39.5276,-15.7241,175.849],[39.523,-15.7123,178.6508],[39.5207,-15.696,157.3872],[39.5294,-15.6794,158.2448],[39.5591,-15.664,143.3906],[39.5734,-15.6586,172.264],[39.5759,-15.6466,175.719],[39.5775,-15.6215,194.9364],[39.5576,-15.6009,225.144],[39.5331,-15.5966,230.6119],[39.523,-15.6074,206.5221],[39.5175,-15.6178,195.3732],[39.5085,-15.6264,185.9097],[39.4965,-15.613,191.9454],[39.4903,-15.6094,198.8074],[39.4791,-15.5932,212.7288],[39.4748,-15.5919,220.5661],[39.4426,-15.5922,222.2351],[39.4181,-15.6023,186.997],[39.4117,-15.6023,184.6318],[39.3957,-15.5962,161.8658],[39.3925,-15.5992,165.5033],[39.3844,-15.6211,159.4523],[39.3747,-15.6267,148.8982],[39.3783,-15.639099999999999,155.8064],[39.3753,-15.6412,144.4514],[39.3628,-15.6392,151.7174],[39.3508,-15.617,164.7552],[39.327,-15.6141,198.7963],[39.3093,-15.6379,157.3968],[39.2851,-15.6325,150.8584],[39.2829,-15.6424,140.7073],[39.2611,-15.6301,137.2473],[39.2547,-15.6301,135.4622],[39.252,-15.6325,151.4065]]]]}}