{"type": "Feature","bbox": [38.8172,-11.8598,39.5458,-11.0135],"geometry": {"type": "MultiPolygon","coordinates": [[[[38.9175,-11.8181,453.0592],[39.0181,-11.8598,440.5159],[39.1461,-11.7717,416.5483],[39.1922,-11.7779,392.1978],[39.2775,-11.7958,406.8658],[39.3257,-11.7965,361.0081],[39.3311,-11.7921,349.9453],[39.3407,-11.7902,333.4765],[39.3494,-11.7904,325.3938],[39.3449,-11.7841,338.1802],[39.342,-11.7767,337.1788],[39.3466,-11.7575,358.1987],[39.3463,-11.7492,357.3361],[39.343,-11.7398,363.1028],[39.3442,-11.7251,376.458],[39.3559,-11.7118,392.5285],[39.3676,-11.6932,399.7927],[39.3751,-11.6884,416.1501],[39.3995,-11.6497,524.9499],[39.416,-11.6173,572.2134],[39.4186,-11.5906,729.4915],[39.4161,-11.5753,863.2971],[39.4163,-11.5604,952.6434],[39.3642,-11.4544,912.22],[39.4171,-11.4336,855.1666],[39.431,-11.4187,827.7922],[39.441,-11.4161,814.5311],[39.4532,-11.3985,773.1553],[39.4685,-11.3934,755.2023],[39.4818,-11.3813,759.5867],[39.4818,-11.3663,655.4333],[39.4976,-11.3399,653.4559],[39.5022,-11.3273,394.9153],[39.5022,-11.3235,384.9482],[39.5119,-11.3113,328.6646],[39.5336,-11.2707,246.5719],[39.5375,-11.2528,217.4416],[39.5452,-11.2017,152.5202],[39.5458,-11.1785,129.7482],[39.5339,-11.1104,97.1365],[39.5275,-11.0835,57.4306],[39.5184,-11.0588,50.0],[39.5184,-11.0353,53.5474],[39.5032,-11.0183,53.4252],[39.4963,-11.0135,51.5],[39.4796,-11.0232,52.5],[39.4329,-11.0577,56.0],[39.4039,-11.0632,59.5565],[39.3813,-11.0778,59.5],[39.3655,-11.0843,61.5896],[39.3561,-11.0913,61.0],[39.3414,-11.1065,62.5],[39.2915,-11.1509,68.6365],[39.2682,-11.1681,68.5],[39.2537,-11.1758,69.125],[39.2417,-11.1799,70.0],[39.2243,-11.1816,71.0],[39.2134,-11.1801,73.0234],[39.1975,-11.1724,72.5],[39.1901,-11.1639,75.7416],[39.1857,-11.1622,76.422],[39.156,-11.1591,79.2164],[39.1358,-11.1511,80.218],[39.0963,-11.1586,80.6227],[39.0451,-11.1745,85.1124],[39.0273,-11.1708,86.9964],[39.0061,-11.1732,86.8696],[38.9581,-11.1734,89.5353],[38.9532,-11.2349,129.027],[38.9242,-11.2616,178.1604],[38.8993,-11.277,176.5587],[38.874,-11.3233,193.8171],[38.868899999999996,-11.3455,190.5704],[38.878,-11.387,216.2646],[38.8781,-11.426,225.7573],[38.8628,-11.4499,268.9266],[38.8628,-11.4827,267.1527],[38.8659,-11.5244,279.5619],[38.8567,-11.5572,295.218],[38.8476,-11.6049,321.219],[38.8172,-11.6346,344.2608],[38.8475,-11.6687,338.2938],[38.875,-11.763,564.2947],[38.9175,-11.8181,453.0592]]]]}
,"properties": {"GID_3": "MOZ.1.9.4_1","GID_0": "MOZ","country": "Mozambique","GID_1": "MOZ.1_1","province": "CaboDelgado","NL_NAME_1": "NA","GID_2": "MOZ.1.9_1","county": "Mueda","NL_NAME_2": "NA","city": "N'Gapa","VARNAME_3": "NA","NL_NAME_3": "NA","TYPE_3": "Localidad","ENGTYPE_3": "Locality","CC_3": "NA","HASC_3": "NA","name": "N'Gapa.city","area_km2": 4596.677,"hist_schema_id": "Elevation0-9000","hist_area_km2": {"50": 58.698,"75": 127.933,"100": 128.628,"125": 152.679,"150": 161.774,"175": 200.533,"200": 219.847,"225": 230.135,"250": 258.165,"275": 328.522,"300": 358.946,"325": 330.04,"350": 301.554,"375": 283.698,"400": 271.967,"425": 256.999,"450": 110.585,"475": 65.667,"500": 59.688,"525": 53.166,"550": 55.742,"575": 56.741,"600": 56.491,"625": 51.335,"650": 45.288,"675": 39.114,"700": 35.913,"725": 36.538,"750": 33.752,"775": 29.512,"800": 32.484,"825": 32.17,"850": 35.119,"875": 27.801,"900": 30.646,"925": 14.127,"950": 10.554,"975": 10.325,"1000": 3.802}}}