{"type":"Feature","properties":{"GID_2":"MOZ.10.9_1","GID_0":"MOZ","country":"Mozambique","GID_1":"MOZ.10_1","province":"Tete","NL_NAME_1":"NA","county":"Moatize","VARNAME_2":"NA","NL_NAME_2":"NA","TYPE_2":"Distrito","ENGTYPE_2":"District","CC_2":"NA","HASC_2":"MZ.TE.MT","name":"Moatize.county"},
"geometry":{"type": "MultiPolygon","coordinates": [[[[33.9458,-16.5623,100.875],[33.9619,-16.5777,102.1668],[33.9675,-16.5746,100.0],[33.9897,-16.5735,100.0],[33.9959,-16.5784,100.0],[33.9954,-16.6014,100.0],[33.9982,-16.6064,100.0],[34.0082,-16.6138,104.969],[34.0182,-16.6154,113.9414],[34.0362,-16.6144,104.7133],[34.0681,-16.6048,97.0],[34.0706,-16.6056,97.0],[34.0693,-16.6047,97.0],[34.0776,-16.6015,101.7748],[34.0827,-16.5958,98.4956],[34.0852,-16.5902,99.8619],[34.086,-16.5806,103.0556],[34.0843,-16.5613,123.3181],[34.0768,-16.5468,145.8281],[34.0743,-16.5372,169.8499],[34.086,-16.5139,188.886],[34.1028,-16.4986,239.1842],[34.1723,-16.4979,209.0496],[34.1857,-16.428,218.5495],[34.1833,-16.3949,221.1852],[34.1879,-16.384,231.1148],[34.1985,-16.3707,232.2563],[34.2084,-16.368,236.4251],[34.2228,-16.3676,241.3533],[34.2276,-16.3637,241.3348],[34.2419,-16.3569,239.4019],[34.2558,-16.3531,238.9529],[34.2637,-16.356,244.0756],[34.2682,-16.3514,243.5033],[34.2722,-16.3502,250.2846],[34.2829,-16.3557,248.9655],[34.2881,-16.354,242.2304],[34.3204,-16.2904,257.3714],[34.3254,-16.2904,256.411],[34.3281,-16.2853,259.4576],[34.351,-16.275,265.397],[34.3676,-16.2562,267.5242],[34.4232,-16.2481,300.6039],[34.4225,-16.235,292.9741],[34.4203,-16.2306,292.6968],[34.4184,-16.2187,296.8161],[34.4108,-16.2178,293.8121],[34.4072,-16.2116,290.3004],[34.4046,-16.1917,288.6974],[34.3996,-16.1853,283.1731],[34.3995,-16.1717,287.9535],[34.404,-16.1662,290.045],[34.4042,-16.1621,292.9832],[34.3931,-16.1442,299.2819],[34.3925,-16.1277,303.2159],[34.3989,-16.1121,309.6775],[34.4072,-16.1045,316.369],[34.4207,-16.08,330.5048],[34.4375,-16.0616,341.9637],[34.4363,-16.0589,343.0941],[34.4273,-16.0545,335.8716],[34.4251,-16.0513,339.913],[34.4263,-16.0447,363.7736],[34.4251,-16.0399,368.5553],[34.4194,-16.0334,348.0612],[34.3842,-16.0159,349.0619],[34.3728,-16.0,349.5734],[34.3627,-15.9672,339.5635],[34.3551,-15.9612,351.9999],[34.3274,-15.9566,349.1955],[34.3297,-15.955,347.5498],[34.3224,-15.9382,350.7309],[34.3045,-15.926,426.8049],[34.2992,-15.925,394.1481],[34.289,-15.9287,436.6541],[34.2819,-15.9277,597.634],[34.2773,-15.9234,745.2143],[34.2747,-15.9249,756.4775],[34.274,-15.9216,812.8596],[34.2705,-15.9173,800.5806],[34.2575,-15.9158,908.2316],[34.2572,-15.9109,913.7824],[34.2542,-15.9077,753.6129],[34.2523,-15.893,651.7242],[34.2549,-15.8895,480.5551],[34.2625,-15.8859,634.2462],[34.2504,-15.8755,429.6128],[34.2555,-15.8679,412.564],[34.2594,-15.8673,422.5679],[34.261,-15.8644,405.3283],[34.2515,-15.8485,393.7915],[34.2521,-15.8457,393.7823],[34.2486,-15.8407,391.9095],[34.2545,-15.8351,388.6455],[34.2586,-15.8208,390.0702],[34.2633,-15.8161,399.9355],[34.2679,-15.8159,398.6872],[34.2726,-15.8125,405.1895],[34.2704,-15.8013,397.5471],[34.2727,-15.7918,409.812],[34.2796,-15.788,512.4742],[34.2829,-15.7838,503.3862],[34.2854,-15.7855,514.101],[34.2871,-15.7849,514.101],[34.2924,-15.7751,548.9072],[34.2977,-15.7689,557.4388],[34.2996,-15.7585,588.8983],[34.3117,-15.7544,589.3149],[34.3225,-15.7467,616.9465],[34.326,-15.7419,618.472],[34.3281,-15.7426,605.3226],[34.3353,-15.7391,613.9373],[34.349,-15.7419,809.7965],[34.3573,-15.7371,762.6449],[34.3649,-15.7386,777.2344],[34.3691,-15.7323,666.0632],[34.3737,-15.7287,673.1994],[34.3782,-15.7147,666.5259],[34.3874,-15.7069,694.6917],[34.3897,-15.6987,718.8868],[34.3876,-15.6913,744.4708],[34.3917,-15.6838,718.6989],[34.3949,-15.682,718.6917],[34.4038,-15.6832,761.2229],[34.4038,-15.6752,743.7937],[34.4086,-15.6694,790.0519],[34.4184,-15.669,783.431],[34.4229,-15.6635,820.8616],[34.4257,-15.6632,862.6044],[34.4267,-15.6606,840.9431],[34.4343,-15.6609,924.2975],[34.4371,-15.6562,852.023],[34.4307,-15.6478,885.3898],[34.4313,-15.6328,880.1142],[34.4332,-15.6287,883.4023],[34.4313,-15.6238,901.0146],[34.4336,-15.6169,898.1804],[34.4388,-15.6106,884.9083],[34.4537,-15.6063,931.6985],[34.4542,-15.5935,994.9948],[34.4403,-15.571,967.2856],[34.4429,-15.5484,1084.3846],[34.4403,-15.5427,1063.9377],[34.4415,-15.5388,1129.9917],[34.4354,-15.5234,1222.6244],[34.4356,-15.5195,1132.3225],[34.4278,-15.5014,1245.4565],[34.4257,-15.4892,1168.4302],[34.4261,-15.4745,1224.8789],[34.4309,-15.4651,1147.5848],[34.4352,-15.4652,1134.381],[34.4388,-15.4568,1069.129],[34.4419,-15.4547,1069.9293],[34.4376,-15.4456,1052.322],[34.425,-15.4289,990.3925],[34.2189,-15.4175,661.2285],[34.2202,-15.4217,654.8589],[34.2148,-15.4262,662.4117],[34.2185,-15.4316,658.144],[34.2095,-15.4413,666.5743],[34.213,-15.4491,634.6868],[34.2057,-15.4528,640.4352],[34.1948,-15.449,619.436],[34.1824,-15.449,628.2554],[34.1877,-15.4573,609.1752],[34.1872,-15.4611,615.3862],[34.177,-15.4668,604.9671],[34.173,-15.472,600.3574],[34.168,-15.4748,584.7461],[34.1581,-15.4874,585.6028],[34.1541,-15.4808,582.8335],[34.1585,-15.4632,597.9529],[34.159,-15.4532,600.501],[34.1575,-15.4487,631.8577],[34.1526,-15.4445,630.2442],[34.1023,-15.4363,724.2126],[34.0846,-15.4251,687.4676],[34.0751,-15.4086,674.5054],[34.0678,-15.4098,670.1789],[34.0579,-15.4168,643.7885],[34.0545,-15.4232,650.9342],[34.0479,-15.4268,628.0685],[34.0404,-15.4297,618.3776],[34.0294,-15.4296,591.4675],[34.0124,-15.4219,580.6146],[34.0072,-15.4151,584.559],[34.004,-15.4136,573.6921],[34.0,-15.4025,563.6487],[33.9732,-15.4151,556.6318],[33.9651,-15.4212,562.472],[33.9626,-15.4363,537.1642],[33.9555,-15.4427,551.2505],[33.9452,-15.4455,545.2381],[33.9342,-15.4728,641.3989],[33.9279,-15.4814,534.2267],[33.916,-15.4881,506.1563],[33.9117,-15.5114,519.359],[33.9086,-15.519,492.0457],[33.9011,-15.5246,495.1988],[33.8965,-15.5414,476.617],[33.8902,-15.5478,531.8395],[33.8851,-15.5459,437.692],[33.882,-15.549,503.9626],[33.8797,-15.558,433.9712],[33.8737,-15.5677,431.7834],[33.8715,-15.5768,400.9665],[33.8656,-15.5865,355.9969],[33.8553,-15.5972,348.4361],[33.8385,-15.6093,343.7785],[33.8213,-15.6286,349.8527],[33.814,-15.6343,326.5836],[33.8018,-15.6395,313.5828],[33.7961,-15.6447,298.3259],[33.7951,-15.6525,316.369],[33.7993,-15.6602,315.6158],[33.805,-15.669,307.7038],[33.8191,-15.6811,294.2878],[33.8229,-15.6898,298.0262],[33.8202,-15.699,296.5069],[33.8139,-15.703,295.9791],[33.8071,-15.7013,302.3292],[33.8052,-15.6931,298.8959],[33.8014,-15.688,291.4572],[33.7938,-15.6895,300.347],[33.7698,-15.7011,297.2922],[33.7693,-15.7156,295.8831],[33.7619,-15.7252,296.4189],[33.7579,-15.7366,292.9433],[33.7577,-15.7468,286.5928],[33.7553,-15.751,287.9562],[33.7348,-15.7429,292.0289],[33.7251,-15.7426,300.522],[33.7229,-15.7308,304.302],[33.6881,-15.7128,313.6558],[33.6786,-15.7121,318.4437],[33.6744,-15.7095,320.6861],[33.6684,-15.71,327.9878],[33.66,-15.7043,329.7274],[33.6539,-15.7031,337.8405],[33.6521,-15.6988,341.271],[33.6447,-15.6952,344.4762],[33.6106,-15.6916,367.6877],[33.6018,-15.6896,375.3489],[33.5765,-15.6795,412.769],[33.5701,-15.6785,443.5272],[33.5574,-15.6825,513.2072],[33.5388,-15.7043,698.1756],[33.5242,-15.6943,415.8347],[33.5135,-15.6925,402.0114],[33.5058,-15.6892,382.7755],[33.4982,-15.6912,386.1698],[33.4927,-15.6954,367.334],[33.4866,-15.6928,358.4859],[33.4795,-15.6964,349.0391],[33.4761,-15.7018,337.258],[33.4731,-15.716,334.807],[33.468,-15.7213,329.0536],[33.4646,-15.7316,307.4271],[33.4646,-15.7491,374.0048],[33.4583,-15.7611,288.8197],[33.464,-15.7701,374.9684],[33.4823,-15.7803,410.1142],[33.4826,-15.7835,381.101],[33.4741,-15.8029,274.4498],[33.4682,-15.811,216.2743],[33.4579,-15.8086,204.6595],[33.4487,-15.82,214.194],[33.4401,-15.8356,189.1717],[33.4302,-15.8432,189.4377],[33.4234,-15.8507,204.0012],[33.3955,-15.9082,190.1237],[33.3742,-15.9124,144.2894],[33.3677,-15.9435,132.0],[33.3754,-15.9545,132.0],[33.3817,-15.9684,131.5],[33.4063,-15.9853,154.4147],[33.4297,-15.9915,130.0],[33.447,-16.0061,128.625],[33.4578,-16.0191,127.0],[33.4579,-16.0574,125.0],[33.4659,-16.0681,124.0],[33.4973,-16.0956,124.7471],[33.6227,-16.0524,202.2302],[33.6303,-16.0622,186.8573],[33.6378,-16.067,181.5409],[33.645,-16.0847,159.5843],[33.6498,-16.0898,155.2167],[33.651,-16.1125,134.2708],[33.6441,-16.1244,125.8834],[33.6429,-16.1393,125.3047],[33.6455,-16.1436,125.4904],[33.635,-16.1657,125.8983],[33.6222,-16.1781,126.3767],[33.6198,-16.1859,118.5],[33.6297,-16.2109,118.0165],[33.6462,-16.23,117.0],[33.6559,-16.2386,120.2301],[33.6639,-16.2431,116.4685],[33.6732,-16.2574,115.5],[33.693,-16.2762,115.0],[33.7088,-16.2893,117.5965],[33.7146,-16.2913,116.5817],[33.722,-16.3061,114.3602],[33.7253,-16.3209,113.5],[33.7472,-16.3444,112.5],[33.7549,-16.3598,112.0],[33.7613,-16.3688,118.9094],[33.7706,-16.3789,111.0],[33.7776,-16.383,111.0],[33.7924,-16.3871,121.8275],[33.8047,-16.3958,117.7774],[33.8121,-16.407,109.0],[33.8323,-16.4309,108.0],[33.8486,-16.461,106.5],[33.8669,-16.4776,105.5],[33.8867,-16.4992,104.0],[33.9032,-16.5283,103.0],[33.9213,-16.5453,102.0],[33.9458,-16.5623,100.875]]]]}}