{"type":"Feature","properties":{"GID_3":"MOZ.1.11.2_1","GID_0":"MOZ","country":"Mozambique","GID_1":"MOZ.1_1","province":"CaboDelgado","NL_NAME_1":"NA","GID_2":"MOZ.1.11_1","county":"Namuno","NL_NAME_2":"NA","city":"Luli","VARNAME_3":"NA","NL_NAME_3":"NA","TYPE_3":"Localidad","ENGTYPE_3":"Locality","CC_3":"NA","HASC_3":"NA","name":"Luli.city"},
"geometry":{"type": "MultiPolygon","coordinates": [[[[38.556,-14.1441,330.2352],[38.5629,-14.1436,334.7357],[38.5756,-14.1463,326.4884],[38.6086,-14.157,322.5218],[38.6201,-14.151,325.3249],[38.6487,-14.1407,316.1444],[38.6624,-14.1329,315.812],[38.6699,-14.1358,308.1838],[38.6753,-14.1415,306.86],[38.6861,-14.1482,305.8782],[38.7035,-14.1525,300.5551],[38.7155,-14.1525,300.881],[38.7358,-14.132,309.6502],[38.7506,-14.1236,306.4063],[38.7672,-14.1181,298.1381],[38.7795,-14.106,304.5265],[38.7948,-14.1065,297.5559],[38.8106,-14.1129,303.9992],[38.8223,-14.1127,292.192],[38.8509,-14.0936,290.7679],[38.867,-14.0806,289.0819],[38.8593,-14.0742,302.7902],[38.8451,-14.0665,309.6002],[38.8315,-14.0467,309.5547],[38.8237,-14.0392,308.6053],[38.7868,-14.0511,325.5673],[38.7806,-14.0302,324.922],[38.7289,-13.9857,328.5603],[38.7137,-13.9631,334.9523],[38.7048,-13.9664,343.2661],[38.6637,-13.9408,357.2303],[38.6607,-13.9228,350.8279],[38.6447,-13.9168,354.0495],[38.6176,-13.9109,362.1759],[38.5961,-13.9109,370.0939],[38.5961,-13.896,375.1408],[38.5779,-13.8985,377.2931],[38.5625,-13.882,378.7837],[38.5625,-13.8515,403.3706],[38.564,-13.8423,414.3055],[38.5499,-13.8377,424.0588],[38.5247,-13.8255,435.3546],[38.509,-13.8301,432.8141],[38.4898,-13.8303,409.9091],[38.4877,-13.8398,404.8344],[38.4742,-13.8644,394.7628],[38.4756,-13.8675,397.0701],[38.47,-13.8748,394.7563],[38.4694,-13.8807,391.913],[38.4614,-13.8893,393.3492],[38.447,-13.9142,384.679],[38.4462,-13.9235,382.4562],[38.4411,-13.9299,382.2475],[38.4401,-13.9479,375.7867],[38.4344,-13.9585,371.7506],[38.4328,-13.9718,369.0188],[38.4444,-13.9804,364.5497],[38.4456,-13.9825,366.2273],[38.4434,-13.9851,365.4398],[38.4474,-13.9891,364.7525],[38.4516,-13.9976,364.1333],[38.459,-13.9984,362.4657],[38.4723,-14.0212,355.6972],[38.4827,-14.0516,353.232],[38.4954,-14.0531,348.4279],[38.5021,-14.0569,353.5204],[38.508,-14.058,349.0676],[38.5272,-14.0821,346.9882],[38.5275,-14.0885,343.0367],[38.5225,-14.0956,345.4319],[38.5151,-14.1015,343.1957],[38.5158,-14.111,338.7301],[38.5291,-14.1214,340.0975],[38.5362,-14.1321,333.273],[38.543,-14.136,340.9456],[38.5475,-14.1407,330.9344],[38.556,-14.1441,330.2352]]]]}}