{"type": "Feature","bbox": [36.7932,-17.6356,37.2161,-17.1852],"geometry": {"type": "MultiPolygon","coordinates": [[[[37.0681,-17.2161,32.2823],[37.055,-17.2186,34.6281],[37.0492,-17.1965,45.2982],[37.0349,-17.189,45.9647],[37.0239,-17.186,64.2087],[37.018,-17.1852,63.0181],[37.0124,-17.1901,73.5851],[37.0005,-17.2075,107.0081],[36.9923,-17.1958,126.8162],[36.9855,-17.193,129.2751],[36.9696,-17.1984,103.9499],[36.9641,-17.1985,102.2173],[36.9597,-17.1932,103.6681],[36.9278,-17.235,101.5401],[36.9301,-17.2472,89.9058],[36.9348,-17.2557,100.7286],[36.9381,-17.2714,76.41],[36.9329,-17.3032,60.9083],[36.9287,-17.3151,53.5995],[36.9238,-17.32,56.8567],[36.8309,-17.3017,60.5016],[36.8385,-17.3297,52.3917],[36.8335,-17.3325,47.9532],[36.8298,-17.3389,48.783],[36.8293,-17.3455,40.1974],[36.8325,-17.3572,53.1514],[36.8361,-17.3613,35.4759],[36.8231,-17.3709,35.0878],[36.7943,-17.4039,43.4616],[36.7992,-17.4199,38.3957],[36.7982,-17.4264,39.6913],[36.7932,-17.4378,29.8846],[36.7947,-17.4645,27.9092],[36.8149,-17.4916,18.5035],[36.8391,-17.4945,14.9613],[36.8566,-17.5138,30.2811],[36.8604,-17.5254,24.4842],[36.8666,-17.5334,19.4385],[36.871,-17.5427,15.6944],[36.8814,-17.545,11.0238],[36.8906,-17.5539,9.492],[36.8908,-17.5653,4.7662],[36.8945,-17.5751,3.2311],[36.9052,-17.5852,3.1357],[36.9152,-17.5892,2.3658],[36.9226,-17.6105,3.5262],[36.9399,-17.6238,5.2385],[36.9629,-17.6166,3.978],[36.971,-17.6177,3.4636],[36.9757,-17.6295,6.2869],[36.9895,-17.6356,2.3419],[37.0004,-17.6271,2.5134],[37.0041,-17.6282,2.6758],[37.0129,-17.6264,1.7487],[37.01,-17.6185,2.5536],[37.0105,-17.6082,2.4162],[37.0186,-17.6022,2.1537],[37.0163,-17.591,2.4801],[37.0202,-17.5745,2.3231],[37.0309,-17.5668,2.2653],[37.0853,-17.5935,2.8178],[37.095,-17.5934,2.488],[37.1083,-17.5829,3.0321],[37.1286,-17.5709,2.6634],[37.1544,-17.5596,3.2025],[37.1745,-17.54,5.6064],[37.1719,-17.5262,6.4151],[37.1635,-17.5139,4.7925],[37.1655,-17.5006,7.8087],[37.1507,-17.4913,8.6754],[37.1372,-17.4789,16.1901],[37.1293,-17.4612,22.4955],[37.1494,-17.4418,34.8594],[37.1611,-17.4343,34.9135],[37.2037,-17.4333,13.3],[37.212,-17.4209,14.8996],[37.2161,-17.4047,18.5438],[37.2134,-17.3863,17.1016],[37.1778,-17.3491,20.3602],[37.129,-17.3289,20.9569],[37.1218,-17.3245,22.7179],[37.0827,-17.2627,25.3338],[37.0732,-17.2362,25.686],[37.0681,-17.2161,32.2823]]]]}
,"properties": {"GID_3": "MOZ.11.13.2_1","GID_0": "MOZ","country": "Mozambique","GID_1": "MOZ.11_1","province": "Zambezia","NL_NAME_1": "NA","GID_2": "MOZ.11.13_1","county": "Namacurra","NL_NAME_2": "NA","city": "Namacurra","VARNAME_3": "NA","NL_NAME_3": "NA","TYPE_3": "Localidad","ENGTYPE_3": "Locality","CC_3": "NA","HASC_3": "NA","name": "Namacurra.city","area_km2": 1313.0,"hist_schema_id": "Elevation0-9000","hist_area_km2": {"0": 295.182,"25": 460.824,"50": 262.445,"75": 183.195,"100": 97.646,"125": 13.708}}}