{"type":"Feature","properties":{"GID_3":"MOZ.7.1.2_1","GID_0":"MOZ","country":"Mozambique","GID_1":"MOZ.7_1","province":"Nampula","NL_NAME_1":"NA","GID_2":"MOZ.7.1_1","county":"Angoche","NL_NAME_2":"NA","city":"Aube","VARNAME_3":"NA","NL_NAME_3":"NA","TYPE_3":"Localidad","ENGTYPE_3":"Locality","CC_3":"NA","HASC_3":"NA","name":"Aube.city"},
"geometry":{"type": "MultiPolygon","coordinates": [[[[39.811,-16.3743,0.3861],[39.8076,-16.3749,0.0],[39.8118,-16.3785,1.2429],[39.8121,-16.3757,1.7517],[39.811,-16.3743,0.3861]]],
[[[39.8068,-16.3696,2.1436],[39.8026,-16.369,0.0],[39.8024,-16.3704,1.8094],[39.8054,-16.3726,1.1191],[39.8099,-16.3726,1.334],[39.8096,-16.3707,1.0019],[39.8068,-16.3696,2.1436]]],
[[[39.8099,-16.3682,0.955],[39.8088,-16.3676,0.0],[39.8074,-16.3676,0.0],[39.8093,-16.369,0.955],[39.8099,-16.3682,0.955]]],
[[[39.8043,-16.3674,0.0],[39.8043,-16.3665,0.0],[39.8018,-16.3665,0.8987],[39.8021,-16.3679,0.8914],[39.8043,-16.3674,0.0]]],
[[[39.7565,-16.2649,2.5191],[39.752,-16.2607,2.5815],[39.7522,-16.2632,1.8561],[39.7498,-16.2607,6.3745],[39.7469,-16.2691,2.6948],[39.7362,-16.2793,2.1931],[39.7256,-16.2838,5.7266],[39.6937,-16.2838,20.6638],[39.6661,-16.2721,27.2059],[39.6568,-16.2542,40.3383],[39.6411,-16.2362,46.3556],[39.6227,-16.2303,48.7918],[39.6032,-16.2284,30.6117],[39.5937,-16.23,32.7371],[39.5864,-16.2352,26.3054],[39.5836,-16.2537,26.2741],[39.5836,-16.2776,23.6706],[39.5886,-16.2857,22.1734],[39.5916,-16.2959,22.967],[39.6075,-16.3195,19.5856],[39.6251,-16.3396,16.7426],[39.6363,-16.3476,14.4248],[39.6637,-16.3584,14.5661],[39.6751,-16.365,11.5886],[39.7016,-16.389,11.0006],[39.718,-16.3866,8.5166],[39.7354,-16.3992,7.8438],[39.7373,-16.4104,6.6253],[39.7363,-16.4263,5.678],[39.7406,-16.4375,3.8957],[39.7418,-16.4452,3.4019],[39.764,-16.4573,2.0963],[39.7739,-16.4598,1.486],[39.7818,-16.4605,4.8401],[39.7884,-16.4566,2.0222],[39.794,-16.4571,3.1313],[39.8001,-16.4621,2.425],[39.799,-16.4629,1.5256],[39.7974,-16.4607,1.3092],[39.7949,-16.4604,2.5957],[39.7929,-16.4626,1.006],[39.7932,-16.4721,0.5],[39.7946,-16.4729,3.8896],[39.8001,-16.4668,1.0124],[39.8101,-16.4612,3.8873],[39.8418,-16.4499,0.0],[39.8587,-16.4421,0.0],[39.8626,-16.4385,3.985],[39.8632,-16.4351,6.8456],[39.8593,-16.4335,2.0999],[39.8546,-16.436,1.1456],[39.8462,-16.4332,1.7815],[39.8382,-16.4329,2.1545],[39.8387,-16.4382,1.3081],[39.8374,-16.439,1.3081],[39.8368,-16.4332,4.4778],[39.8379,-16.4315,2.1545],[39.8407,-16.4326,2.3354],[39.8438,-16.4315,0.0],[39.844,-16.4268,0.5282],[39.8371,-16.4185,1.3312],[39.831,-16.4201,1.7572],[39.8301,-16.4185,2.0101],[39.8324,-16.4179,1.8742],[39.829,-16.4146,1.1648],[39.8232,-16.4157,1.1146],[39.8224,-16.4249,1.8198],[39.8199,-16.4279,0.8078],[39.8154,-16.4276,2.0136],[39.8215,-16.424,0.5],[39.8218,-16.416,0.5],[39.8182,-16.4137,0.7461],[39.7962,-16.4193,0.5],[39.794,-16.4212,2.0505],[39.7938,-16.4188,0.5],[39.791,-16.4185,3.1083],[39.804,-16.416,1.0638],[39.8101,-16.4135,0.5],[39.8121,-16.4107,3.2696],[39.8235,-16.4112,1.6933],[39.8251,-16.4096,0.375],[39.8224,-16.409,2.5225],[39.826,-16.4079,1.6482],[39.8224,-16.4024,1.8524],[39.8249,-16.4013,0.0],[39.8201,-16.399,0.7209],[39.8221,-16.3985,1.0916],[39.8229,-16.399,0.0],[39.8226,-16.3971,0.0],[39.8171,-16.3935,0.9083],[39.8112,-16.381,0.4746],[39.801,-16.3707,1.1725],[39.8007,-16.3685,0.7494],[39.7988,-16.369,0.467],[39.8013,-16.3662,0.0],[39.7993,-16.3657,0.3113],[39.7943,-16.3571,0.0],[39.7918,-16.3579,0.0],[39.7896,-16.354,0.0],[39.789,-16.3404,1.5767],[39.7954,-16.346,0.7052],[39.796,-16.3357,0.0],[39.8035,-16.3251,0.0],[39.8057,-16.3093,0.0],[39.804,-16.3079,0.0],[39.7993,-16.3085,0.605],[39.7857,-16.314,2.0238],[39.784,-16.3218,0.0],[39.7879,-16.3276,3.0885],[39.7887,-16.3343,2.1604],[39.7871,-16.3299,1.2433],[39.7863,-16.3371,3.8157],[39.7779,-16.339,1.4201],[39.776,-16.349,1.9069],[39.7762,-16.3401,1.7195],[39.7779,-16.3371,0.9081],[39.7799,-16.3346,0.9557],[39.7832,-16.3371,0.5],[39.7857,-16.336,2.4044],[39.786,-16.3276,0.5],[39.7821,-16.3229,0.9812],[39.781,-16.3168,0.3718],[39.7765,-16.324,0.0],[39.7788,-16.3329,1.4982],[39.7757,-16.3251,0.8591],[39.7601,-16.3249,1.8434],[39.7476,-16.3196,1.8553],[39.7401,-16.3146,1.9362],[39.7412,-16.3135,1.3092],[39.7579,-16.3226,0.9757],[39.7721,-16.3226,1.5624],[39.7743,-16.3213,0.0],[39.7768,-16.314,3.3743],[39.776,-16.3121,1.264],[39.7729,-16.3121,1.6181],[39.7765,-16.3115,1.264],[39.7774,-16.3129,0.2927],[39.7813,-16.3071,3.3298],[39.7854,-16.3049,1.1338],[39.7771,-16.2982,2.4212],[39.7743,-16.294,2.4656],[39.7732,-16.2846,0.0],[39.7699,-16.2768,0.0],[39.7663,-16.274,0.5831],[39.7565,-16.2771,1.5579],[39.7476,-16.2763,2.4818],[39.7385,-16.2793,0.9713],[39.7474,-16.2749,0.5593],[39.756,-16.2757,1.6729],[39.7663,-16.2726,1.9212],[39.7565,-16.2649,2.5191]]],
[[[39.7938,-16.346,0.7052],[39.7924,-16.3451,1.1],[39.7918,-16.3465,1.2832],[39.7949,-16.3512,1.1424],[39.7949,-16.354,0.0],[39.7957,-16.3485,1.2758],[39.7938,-16.346,0.7052]]],
[[[39.8163,-16.2996,1.7163],[39.8165,-16.2976,0.0],[39.8132,-16.2982,1.7146],[39.8079,-16.3029,0.0],[39.8088,-16.3096,0.0],[39.8115,-16.309,2.0931],[39.8115,-16.3065,2.8682],[39.8163,-16.2996,1.7163]]],
[[[39.8082,-16.2885,0.5286],[39.8068,-16.2871,0.0],[39.7982,-16.291,1.3403],[39.7863,-16.2915,2.6425],[39.7813,-16.2907,1.2633],[39.7751,-16.2871,0.0],[39.7746,-16.291,0.9397],[39.7793,-16.2982,2.4722],[39.7846,-16.3018,0.0],[39.7876,-16.3021,0.0],[39.7982,-16.2999,0.0],[39.8021,-16.2957,0.0],[39.8029,-16.2924,0.4993],[39.8079,-16.2901,0.5552],[39.8082,-16.2885,0.5286]]],
[[[39.8576,-16.4193,0.9264],[39.8568,-16.4204,1.1019],[39.859,-16.4185,0.9264],[39.8585,-16.4185,0.9264],[39.8576,-16.4193,0.9264]]],
[[[39.8226,-16.3832,0.0],[39.8224,-16.3807,0.7437],[39.8207,-16.3804,0.7437],[39.821,-16.3843,1.379],[39.8226,-16.3832,0.0]]],
[[[39.8863,-16.276,0.0],[39.8824,-16.2751,0.0],[39.874,-16.2801,2.8097],[39.8693,-16.2804,0.0],[39.8524,-16.2871,0.4182],[39.8454,-16.2868,0.689],[39.8285,-16.2915,0.0],[39.8193,-16.306,0.0],[39.8176,-16.3104,0.0],[39.8185,-16.3129,2.8021],[39.8165,-16.3124,0.6907],[39.8165,-16.3154,2.0392],[39.8176,-16.3162,2.0392],[39.8185,-16.3149,1.4507],[39.8218,-16.3221,0.922],[39.8268,-16.3235,3.6396],[39.8279,-16.3285,0.5],[39.8329,-16.3299,1.6299],[39.8329,-16.3312,1.6299],[39.8265,-16.3299,2.6572],[39.8257,-16.3265,1.1804],[39.8179,-16.3185,1.6371],[39.8176,-16.3215,1.2264],[39.8204,-16.3246,2.305],[39.8163,-16.3232,2.2476],[39.8146,-16.3104,0.0],[39.811,-16.3115,0.7059],[39.8088,-16.3157,1.2413],[39.8079,-16.3271,0.0],[39.8046,-16.3326,1.9947],[39.8071,-16.3357,1.4124],[39.8001,-16.3351,2.7522],[39.7988,-16.3371,0.4164],[39.7957,-16.3557,0.4438],[39.7982,-16.3563,2.1063],[39.8021,-16.361,3.5454],[39.8163,-16.3676,2.9741],[39.829,-16.3843,3.5902],[39.8365,-16.4015,0.0],[39.8396,-16.399,0.0],[39.8415,-16.3932,0.0],[39.8379,-16.386,3.3467],[39.8399,-16.3821,2.4822],[39.8393,-16.3862,4.3391],[39.8429,-16.3932,0.0],[39.8418,-16.3982,3.4012],[39.8382,-16.403199999999998,0.0],[39.8396,-16.409,3.8195],[39.849,-16.4143,1.7175],[39.8537,-16.419,0.535],[39.8568,-16.4162,7.7909],[39.8585,-16.4171,0.8684],[39.8568,-16.4182,0.7213],[39.8649,-16.4171,0.5298],[39.8688,-16.4124,1.809],[39.8732,-16.4129,1.5534],[39.8735,-16.414,2.1029],[39.8688,-16.4135,1.741],[39.866,-16.4182,3.9936],[39.8599,-16.4196,2.4524],[39.8549,-16.4237,0.0],[39.8599,-16.424,3.7606],[39.8632,-16.4224,5.6594],[39.886,-16.419,5.2503],[39.8926,-16.4212,1.2506],[39.8982,-16.4196,0.0],[39.9074,-16.4124,0.0],[39.9079,-16.4074,3.8296],[39.9126,-16.4029,4.5493],[39.9135,-16.3999,1.9365],[39.9118,-16.399,3.8017],[39.9085,-16.401,2.5214],[39.9029,-16.4126,4.4372],[39.899,-16.4154,4.9693],[39.9035,-16.4074,1.6311],[39.9026,-16.401,6.1341],[39.9046,-16.3979,1.5909],[39.8982,-16.3907,2.4938],[39.8968,-16.3812,0.7292],[39.889,-16.3846,3.0584],[39.889,-16.3818,1.4775],[39.8849,-16.3826,0.9776],[39.8807,-16.3801,2.3384],[39.8915,-16.381,1.9049],[39.8913,-16.3826,0.5],[39.8943,-16.3804,1.3043],[39.8954,-16.3743,1.2501],[39.894,-16.3735,1.7383],[39.8949,-16.3699,1.6904],[39.8937,-16.3679,1.8564],[39.8954,-16.3696,1.6904],[39.8946,-16.3732,1.2501],[39.8963,-16.3743,1.2501],[39.8951,-16.3768,0.9205],[39.8963,-16.3785,0.5],[39.8999,-16.3799,0.7778],[39.9015,-16.376,2.291],[39.904,-16.3743,1.9272],[39.9015,-16.3771,1.557],[39.9018,-16.3799,2.5391],[39.9029,-16.3793,5.2694],[39.9046,-16.3762,2.6267],[39.906,-16.3696,3.7894],[39.9132,-16.3576,1.0349],[39.9374,-16.3288,0.8543],[39.9512,-16.3074,3.2849],[39.951,-16.3035,0.6781],[39.9482,-16.3026,0.0],[39.9429,-16.306,0.0],[39.941,-16.3099,1.3353],[39.939,-16.3087,0.3956],[39.9371,-16.311,0.0],[39.9349,-16.3282,5.471],[39.9249,-16.3324,0.9389],[39.9224,-16.3296,1.0915],[39.9193,-16.3304,1.176],[39.9182,-16.334,1.4727],[39.9174,-16.329,0.5],[39.9149,-16.329,0.5],[39.9143,-16.3307,0.5],[39.9165,-16.3318,0.9571],[39.9146,-16.3332,0.5],[39.9149,-16.336,0.5],[39.9182,-16.3424,4.8228],[39.9176,-16.3482,6.7643],[39.9157,-16.3507,3.3919],[39.9107,-16.3543,0.927],[39.9046,-16.3532,1.4702],[39.9001,-16.359,1.9465],[39.8935,-16.3587,1.9751],[39.8932,-16.3568,1.2551],[39.8996,-16.3579,1.7177],[39.9046,-16.3515,2.5453],[39.9079,-16.3526,1.9553],[39.9079,-16.3515,1.9553],[39.9126,-16.3515,1.1194],[39.9162,-16.3446,2.4411],[39.9157,-16.3415,2.0144],[39.9118,-16.3396,1.2972],[39.9113,-16.331,0.5],[39.9176,-16.324,1.9765],[39.9243,-16.3229,3.1667],[39.9251,-16.3171,3.1221],[39.9315,-16.3054,0.7076],[39.9238,-16.3076,0.0],[39.9113,-16.319,1.4268],[39.9057,-16.3174,1.2842],[39.9015,-16.3229,0.8852],[39.901,-16.3274,2.7516],[39.8921,-16.3315,1.8918],[39.8921,-16.3362,0.5],[39.8871,-16.3362,0.8955],[39.8863,-16.334,1.3],[39.8876,-16.3318,1.9049],[39.8896,-16.3321,2.4407],[39.8901,-16.3349,0.5],[39.8915,-16.3293,1.7478],[39.899,-16.3276,0.5],[39.8996,-16.3237,0.0],[39.8957,-16.3235,2.1379],[39.8957,-16.3224,2.1143],[39.8976,-16.3224,0.5386],[39.9007,-16.3168,0.0],[39.9165,-16.3057,1.3022],[39.9074,-16.3049,1.4348],[39.9104,-16.3032,0.7038],[39.9204,-16.3026,1.1668],[39.926,-16.2976,0.0],[39.9238,-16.2946,1.3798],[39.9221,-16.2949,0.9541],[39.916,-16.2818,0.6692],[39.9076,-16.2771,0.8539],[39.8968,-16.2774,0.0],[39.8887,-16.2829,0.0],[39.8868,-16.2874,1.0499],[39.8885,-16.291,1.8239],[39.894,-16.2921,1.0323],[39.8951,-16.2949,1.9664],[39.8901,-16.2996,3.6748],[39.891,-16.2957,1.5674],[39.8937,-16.2935,1.0604],[39.8918,-16.2943,1.3752],[39.8915,-16.2924,0.7155],[39.8863,-16.2918,0.7494],[39.8807,-16.2996,2.4687],[39.8699,-16.3054,1.5834],[39.8701,-16.3082,0.6615],[39.8735,-16.3107,1.6395],[39.8693,-16.309,2.2276],[39.8682,-16.3065,0.6038],[39.8604,-16.3104,0.538],[39.8579,-16.3151,2.7824],[39.8574,-16.3304,0.718],[39.8557,-16.3301,0.718],[39.8563,-16.3099,0.0],[39.8629,-16.3035,1.8423],[39.8796,-16.2951,0.5832],[39.8829,-16.2901,0.0],[39.8829,-16.2824,0.0],[39.8863,-16.276,0.0]]],
[[[39.9207,-16.3265,1.1806],[39.9196,-16.3251,0.0],[39.9165,-16.3265,0.5],[39.9165,-16.3282,0.8217],[39.921,-16.3279,1.1806],[39.9207,-16.3265,1.1806]]],
[[[40.0321,-16.3526,0.0],[40.0293,-16.3524,0.0],[40.0288,-16.354,0.0],[40.0313,-16.3549,0.0],[40.0321,-16.3526,0.0]]],
[[[39.9299,-16.3243,1.0037],[39.9285,-16.3226,0.3033],[39.9276,-16.3257,1.8459],[39.9296,-16.326,0.4547],[39.9299,-16.3243,1.0037]]],
[[[39.9329,-16.3232,1.3131],[39.9324,-16.3213,1.1924],[39.9315,-16.3254,0.4547],[39.9324,-16.3251,0.4298],[39.9329,-16.3232,1.3131]]],
[[[39.929,-16.3174,1.4212],[39.9279,-16.3162,0.0],[39.9263,-16.3182,2.3184],[39.9257,-16.3229,1.4783],[39.9285,-16.3213,0.3033],[39.929,-16.3174,1.4212]]],
[[[39.9126,-16.3124,1.9575],[39.9115,-16.311,0.0],[39.9063,-16.3157,0.0],[39.909,-16.316,0.3363],[39.9126,-16.3124,1.9575]]],
[[[39.9204,-16.2838,1.1959],[39.9185,-16.2829,0.0],[39.9199,-16.2871,1.3514],[39.9251,-16.291,0.5511],[39.9254,-16.2876,0.0],[39.9204,-16.2838,1.1959]]],
[[[39.9249,-16.2768,0.9111],[39.9229,-16.276,0.0],[39.9299,-16.281,0.1966],[39.9293,-16.279,0.3962],[39.9249,-16.2768,0.9111]]],
[[[39.9168,-16.2751,2.1709],[39.9126,-16.2746,0.0],[39.9165,-16.2785,0.0],[39.921,-16.2799,0.1932],[39.9199,-16.2771,0.0],[39.9168,-16.2751,2.1709]]],
[[[39.9354,-16.3043,0.0],[39.9349,-16.3032,0.0],[39.9332,-16.3043,0.0],[39.9321,-16.3085,0.0],[39.9354,-16.3049,0.0],[39.9354,-16.3043,0.0]]],
[[[39.9176,-16.2696,0.8487],[39.9146,-16.2701,0.0],[39.9199,-16.2715,0.2019],[39.9332,-16.2804,0.0],[39.9449,-16.2768,0.0],[39.9446,-16.2743,0.0],[39.9426,-16.2732,1.3708],[39.9346,-16.2751,1.9604],[39.9362,-16.2729,2.1091],[39.9176,-16.2696,0.8487]]]]}}