{"type":"Feature","properties":{"GID_3":"MOZ.8.9.3_1","GID_0":"MOZ","country":"Mozambique","GID_1":"MOZ.8_1","province":"Nassa","NL_NAME_1":"NA","GID_2":"MOZ.8.9_1","county":"Mecanhelas","NL_NAME_2":"NA","city":"MecanhelasSede(InsacaSed","VARNAME_3":"NA","NL_NAME_3":"NA","TYPE_3":"Localidad","ENGTYPE_3":"Locality","CC_3":"NA","HASC_3":"NA","name":"Mecanhelas_Sede(Insaca_Sed.city"},
"geometry":{"type": "MultiPolygon","coordinates": [[[[35.7963,-15.1985,622.5],[35.8382,-15.3614,622.5],[35.843,-15.3738,622.5],[35.8418,-15.3738,622.5],[35.8448,-15.3887,622.5],[35.8521,-15.4175,629.6171],[35.8506,-15.4441,625.0656],[36.0846,-15.4457,704.7186],[36.1133,-15.4283,674.1846],[36.1244,-15.4263,684.1463],[36.1399,-15.4347,690.0157],[36.1781,-15.45,700.3949],[36.1863,-15.4503,703.1409],[36.2363,-15.4684,779.1602],[36.2827,-15.4663,1012.7494],[36.2851,-15.4621,1024.894],[36.2875,-15.4486,815.4332],[36.2698,-15.4298,721.7726],[36.2676,-15.3998,695.4833],[36.2841,-15.3875,686.4537],[36.3146,-15.3526,669.309],[36.3221,-15.3388,669.6652],[36.3359,-15.3208,659.8463],[36.347,-15.3113,655.1892],[36.3585,-15.2893,648.7927],[36.4399,-15.2685,634.5641],[36.4307,-15.2589,645.2228],[36.4082,-15.2578,656.2459],[36.3014,-15.2243,912.5453],[36.2703,-15.1849,671.2313],[36.2707,-15.1762,669.3792],[36.2854,-15.1527,652.2856],[36.3018,-15.1159,635.7805],[36.3102,-15.1063,632.7136],[36.3171,-15.0773,624.7728],[36.327,-15.0538,619.9015],[36.3348,-15.0442,617.052],[36.331,-15.0327,614.8777],[36.3149,-15.0147,609.588],[36.3149,-15.008,608.5015],[36.321,-14.9986,605.4332],[36.3172,-14.9895,605.6093],[36.1021,-14.9903,643.1782],[36.0974,-14.965,633.056],[36.0358,-14.9021,715.0188],[36.0004,-14.8975,679.8699],[35.9123,-14.9009,629.077],[35.8882,-14.953,630.6037],[35.8898,-14.9536,630.6037],[35.8872,-14.9596,630.5933],[35.7892,-15.1679,622.5],[35.7963,-15.1985,622.5]]]]}}