{"type": "Feature","bbox": [32.8357,-17.3428,33.4431,-16.5269],"geometry": {"type": "MultiPolygon","coordinates": [[[[33.087,-17.2367,489.7043],[33.0893,-17.2328,488.7999],[33.091,-17.2204,479.9287],[33.0903,-17.1952,471.1352],[33.0928,-17.1795,465.8199],[33.0948,-17.1752,463.2201],[33.1027,-17.1681,473.1443],[33.1057,-17.1626,474.2065],[33.1066,-17.1562,459.9479],[33.111,-17.1502,463.4871],[33.1235,-17.1374,464.2438],[33.1234,-17.1324,455.8656],[33.1159,-17.1289,451.5562],[33.1123,-17.1242,452.7922],[33.1051,-17.1103,445.5517],[33.1058,-17.104,433.8055],[33.1129,-17.101,435.8024],[33.125,-17.0918,426.4617],[33.1271,-17.083,436.3819],[33.1312,-17.0754,431.3293],[33.1402,-17.0709,416.4437],[33.1429,-17.0387,395.0348],[33.1506,-17.0306,387.259],[33.2,-16.9964,345.5056],[33.2134,-16.9837,334.3069],[33.2166,-16.9759,357.797],[33.2153,-16.9656,317.9614],[33.2165,-16.9563,334.7495],[33.2238,-16.9468,314.9149],[33.2264,-16.9338,298.3426],[33.2397,-16.9021,279.722],[33.2475,-16.8883,259.3756],[33.254,-16.8805,249.6163],[33.2789,-16.8573,224.1727],[33.2841,-16.8314,217.2368],[33.2843,-16.8073,215.8272],[33.2916,-16.7873,235.6],[33.2975,-16.7614,205.303],[33.3139,-16.7394,202.8731],[33.3268,-16.7124,194.875],[33.3355,-16.7002,194.8021],[33.3599,-16.694,200.4674],[33.3685,-16.6897,196.0482],[33.3751,-16.6813,187.2828],[33.3812,-16.6667,183.9555],[33.3887,-16.6624,195.1719],[33.3926,-16.6552,194.4903],[33.3934,-16.6399,196.3484],[33.3963,-16.6342,196.1637],[33.4203,-16.6118,189.9913],[33.44,-16.5898,168.6593],[33.4431,-16.5804,185.3555],[33.4389,-16.5488,165.9805],[33.4353,-16.5382,196.4176],[33.4368,-16.5269,155.8397],[33.4071,-16.5303,176.3714],[33.3992,-16.5366,164.5157],[33.3871,-16.5417,165.2168],[33.3599,-16.5455,184.6675],[33.3395,-16.5505,179.3069],[33.3347,-16.5551,184.3327],[33.3113,-16.5534,173.5916],[33.3072,-16.5434,180.8483],[33.2999,-16.5378,195.0235],[33.2868,-16.5407,197.0161],[33.2715,-16.5547,188.2315],[33.2453,-16.5605,200.444],[33.2283,-16.5613,188.4195],[33.2166,-16.5693,191.4785],[33.2006,-16.5746,193.478],[33.1879,-16.5897,194.8861],[33.182,-16.6063,193.9407],[33.1483,-16.6103,210.9284],[33.1403,-16.6214,203.0021],[33.1204,-16.6343,205.6078],[33.1026,-16.6352,206.6675],[33.0944,-16.6384,208.6068],[33.0899,-16.644,204.3146],[33.0858,-16.6563,244.3294],[33.0718,-16.6676,209.382],[33.0578,-16.6724,208.1737],[33.0601,-16.684,210.7619],[33.0544,-16.692,228.4219],[33.0438,-16.6895,224.4648],[33.025,-16.6921,221.0567],[33.0174,-16.6885,243.9492],[33.0035,-16.6944,264.5914],[32.9898,-16.6972,250.2828],[32.9742,-16.7056,260.9585],[32.9785,-16.7072,255.1511],[32.9716,-16.7553,398.8782],[32.9667,-16.7725,442.514],[32.9573,-16.7933,496.7964],[32.9543,-16.8034,512.2554],[32.9517,-16.805,502.832],[32.9423,-16.8251,537.2003],[32.9386,-16.837,555.3745],[32.9122,-16.8942,758.4853],[32.9043,-16.8997,702.2859],[32.895,-16.9033,709.0729],[32.8854,-16.9053,811.6509],[32.8768,-16.9096,753.5676],[32.8617,-16.9111,729.8112],[32.8448,-16.9158,718.7556],[32.8357,-16.9208,951.5649],[32.8361,-16.927,791.2719],[32.8385,-16.932,689.0264],[32.8496,-16.9482,637.1038],[32.903,-17.0181,566.2144],[32.9219,-17.0496,565.4792],[32.9278,-17.054,580.1952],[32.938,-17.0686,693.5824],[32.9865,-17.1793,662.7838],[32.99,-17.1972,701.3484],[32.9935,-17.2438,520.0513],[32.9963,-17.2599,543.0015],[32.9974,-17.3086,692.8472],[33.0007,-17.3141,643.5267],[33.0081,-17.316,671.3297],[33.0331,-17.3347,567.3067],[33.0411,-17.3428,529.5878],[33.051,-17.3377,518.5381],[33.0489,-17.3136,507.6992],[33.0495,-17.301,504.4781],[33.0653,-17.2789,495.8719],[33.0757,-17.2468,483.0614],[33.087,-17.2367,489.7043]]]]}
,"properties": {"GID_3": "MOZ.10.3.2_1","GID_0": "MOZ","country": "Mozambique","GID_1": "MOZ.10_1","province": "Tete","NL_NAME_1": "NA","GID_2": "MOZ.10.3_1","county": "Changara","NL_NAME_2": "NA","city": "Luenha","VARNAME_3": "NA","NL_NAME_3": "NA","TYPE_3": "Localidad","ENGTYPE_3": "Locality","CC_3": "NA","HASC_3": "NA","name": "Luenha.city","area_km2": 2265.924,"hist_schema_id": "Elevation0-9000","hist_area_km2": {"150": 1.138,"175": 30.505,"200": 75.584,"225": 163.446,"250": 249.415,"275": 190.125,"300": 93.408,"325": 65.338,"350": 69.407,"375": 69.054,"400": 80.856,"425": 98.637,"450": 105.931,"475": 110.262,"500": 141.136,"525": 161.811,"550": 132.571,"575": 118.566,"600": 104.814,"625": 83.838,"650": 52.154,"675": 26.685,"700": 13.687,"725": 8.435,"750": 5.921,"775": 4.684,"800": 3.082,"825": 1.44,"850": 1.602,"875": 1.095,"900": 0.588,"925": 0.223,"950": 0.304,"975": 0.081,"1000": 0.041,"1025": 0.061}}}