{"type": "Feature","bbox": [38.4049,-12.115,39.8706,-11.0135],"geometry": {"type": "MultiPolygon","coordinates": [[[[39.5023,-11.334,530.0813],[39.5022,-11.3235,384.9482],[39.5119,-11.3113,328.6646],[39.5336,-11.2707,246.5719],[39.5429,-11.2212,213.3551],[39.5458,-11.1785,129.7482],[39.5339,-11.1104,97.1365],[39.5275,-11.0835,57.4306],[39.5184,-11.0588,50.0],[39.5184,-11.0353,53.5474],[39.5032,-11.0183,53.4252],[39.4963,-11.0135,51.5],[39.4796,-11.0232,52.5],[39.4329,-11.0577,56.0],[39.4039,-11.0632,59.5565],[39.3813,-11.0778,59.5],[39.3655,-11.0843,61.5896],[39.3561,-11.0913,61.0],[39.3414,-11.1065,62.5],[39.2915,-11.1509,68.6365],[39.2682,-11.1681,68.5],[39.2537,-11.1758,69.125],[39.2417,-11.1799,70.0],[39.2243,-11.1816,71.0],[39.2134,-11.1801,73.0234],[39.1975,-11.1724,72.5],[39.1901,-11.1639,75.7416],[39.1857,-11.1622,76.422],[39.156,-11.1591,79.2164],[39.1358,-11.1511,80.218],[39.0963,-11.1586,80.6227],[39.0451,-11.1745,85.1124],[39.0273,-11.1708,86.9964],[39.0061,-11.1732,86.8696],[38.9763,-11.1729,88.2107],[38.9705,-11.1744,88.951],[38.9472,-11.1726,89.5],[38.9266,-11.1687,91.6453],[38.8847,-11.1755,95.5902],[38.8556,-11.1943,98.9391],[38.841,-11.212,97.0],[38.8294,-11.2204,98.0],[38.7827,-11.2447,103.9299],[38.7739,-11.2542,104.9969],[38.7442,-11.2783,108.9882],[38.7257,-11.2767,113.3274],[38.7133,-11.2732,111.0],[38.6667,-11.2758,121.1566],[38.6521,-11.2788,116.5166],[38.6264,-11.2941,123.2261],[38.5744,-11.3471,126.8619],[38.5679,-11.3518,124.9896],[38.5616,-11.3524,125.0],[38.5544,-11.3557,125.7942],[38.5415,-11.3646,127.0452],[38.5313,-11.3688,131.5677],[38.5258,-11.3741,129.0892],[38.5182,-11.3865,128.125],[38.5109,-11.3948,129.0],[38.5023,-11.3988,134.045],[38.4861,-11.4149,135.4469],[38.4818,-11.4163,134.8734],[38.4659,-11.453,134.2458],[38.4509,-11.4801,138.6999],[38.4433,-11.5029,138.5],[38.4187,-11.5625,144.5242],[38.4161,-11.5883,146.1091],[38.4114,-11.6103,145.5],[38.4114,-11.6299,150.0959],[38.4154,-11.6513,153.9779],[38.4063,-11.7105,152.0],[38.4049,-11.7299,168.7512],[38.4159,-11.7679,171.2064],[38.4182,-11.7907,172.1599],[38.4283,-11.7897,173.4641],[38.435,-11.7854,176.8505],[38.4471,-11.7872,178.3197],[38.4554,-11.7863,183.1269],[38.4612,-11.7822,185.1142],[38.4715,-11.7793,187.4667],[38.4858,-11.7897,189.2793],[38.4976,-11.8046,198.2938],[38.5117,-11.8185,202.523],[38.5187,-11.8172,198.4761],[38.5191,-11.8218,205.2236],[38.525,-11.8341,213.0631],[38.5336,-11.8376,211.7015],[38.5431,-11.8448,219.1507],[38.5541,-11.8456,223.9998],[38.5661,-11.8411,226.8915],[38.5869,-11.8387,228.5144],[38.5935,-11.8462,238.1814],[38.6048,-11.8479,235.6569],[38.6318,-11.8463,252.484],[38.6586,-11.8592,266.6153],[38.6843,-11.884,290.4436],[38.6903,-11.8861,291.5919],[38.7005,-11.8845,299.1573],[38.7394,-11.8622,332.8021],[38.75,-11.8584,340.3984],[38.7894,-11.8581,387.2429],[38.8176,-11.8696,430.1667],[38.8318,-11.8728,467.381],[38.8779,-11.7666,593.7416],[38.8972,-11.7904,433.4456],[39.0028,-11.9343,394.7675],[39.0154,-11.9617,377.5776],[39.0259,-11.9986,339.871],[39.0349,-12.0214,331.3063],[39.0429,-12.0322,309.8477],[39.0543,-12.0369,303.3725],[39.0738,-12.0387,299.2072],[39.0907,-12.0431,287.3269],[39.0976,-12.0537,291.4293],[39.1267,-12.0714,278.8568],[39.1396,-12.0824,261.8968],[39.1649,-12.0904,241.2704],[39.1845,-12.0935,233.637],[39.1922,-12.0974,239.571],[39.2002,-12.0977,231.7967],[39.2109,-12.0948,230.2483],[39.2162,-12.0906,228.3273],[39.2461,-12.1021,224.9634],[39.2586,-12.0968,225.8875],[39.2691,-12.096,219.3856],[39.2702,-12.0813,216.8787],[39.2808,-12.0724,213.4472],[39.3008,-12.0666,207.2059],[39.3096,-12.0709,209.3203],[39.315,-12.0768,207.0686],[39.324,-12.0735,198.7212],[39.3425,-12.0757,199.9753],[39.3535,-12.0793,200.5721],[39.3594,-12.0859,186.6836],[39.3647,-12.0964,196.277],[39.3675,-12.1099,187.3746],[39.3755,-12.115,180.7338],[39.3975,-12.1003,158.9732],[39.4111,-12.1051,140.6439],[39.4131,-12.1008,164.101],[39.4213,-12.0952,185.8472],[39.434,-12.0947,136.1956],[39.4528,-12.0883,129.8643],[39.465,-12.0901,147.0862],[39.4796,-12.0845,130.6259],[39.4892,-12.0759,134.5793],[39.5128,-12.0717,125.168],[39.5236,-12.0642,138.3435],[39.5876,-12.0707,135.0957],[39.6231,-12.0698,134.6152],[39.6402,-12.0775,117.3822],[39.6756,-12.0785,112.7827],[39.6748,-12.0703,127.012],[39.6679,-12.0603,133.713],[39.6664,-12.0496,121.5614],[39.6689,-12.0402,221.3683],[39.6616,-12.0344,129.637],[39.6554,-12.0323,142.495],[39.6236,-12.0059,160.6675],[39.6037,-11.9924,160.0237],[39.5923,-11.9769,179.2039],[39.5897,-11.97,165.3058],[39.5889,-11.9609,180.3456],[39.5718,-11.9256,216.4585],[39.5672,-11.9121,206.4301],[39.5465,-11.9096,219.8404],[39.5424,-11.904,227.7202],[39.5403,-11.8699,239.5226],[39.5598,-11.8574,272.6535],[39.5555,-11.8498,265.4416],[39.5641,-11.8406,279.0627],[39.5638,-11.8273,290.3793],[39.5717,-11.8061,301.0683],[39.6005,-11.77,538.2001],[39.6173,-11.7566,578.7476],[39.6401,-11.7421,736.392],[39.6557,-11.7357,700.4043],[39.6699,-11.7338,687.104],[39.6822,-11.7272,629.965],[39.6979,-11.712,615.7629],[39.7197,-11.6952,522.7179],[39.7289,-11.6914,423.6559],[39.7417,-11.6902,446.9277],[39.7578,-11.675,323.9107],[39.7649,-11.6597,286.3169],[39.772,-11.6318,254.4728],[39.7931,-11.6265,211.8428],[39.8068,-11.6309,192.6315],[39.8222,-11.6282,169.6726],[39.8344,-11.6326,174.7958],[39.8541,-11.6262,175.7698],[39.8706,-11.5478,318.1744],[39.793,-11.4433,374.4476],[39.5232,-11.3844,657.3964],[39.5023,-11.334,530.0813]]]]}
,"properties": {"GID_2": "MOZ.1.9_1","GID_0": "MOZ","country": "Mozambique","GID_1": "MOZ.1_1","province": "CaboDelgado","NL_NAME_1": "NA","county": "Mueda","VARNAME_2": "NA","NL_NAME_2": "NA","TYPE_2": "Distrito","ENGTYPE_2": "District","CC_2": "NA","HASC_2": "MZ.CD.MD","name": "Mueda.county","area_km2": 11338.85,"hist_schema_id": "Elevation0-9000","hist_area_km2": {"50": 58.698,"75": 127.933,"100": 151.15,"125": 228.955,"150": 346.619,"175": 533.602,"200": 679.102,"225": 775.041,"250": 847.978,"275": 898.568,"300": 973.784,"325": 980.182,"350": 794.44,"375": 653.541,"400": 554.05,"425": 422.425,"450": 177.106,"475": 116.564,"500": 117.484,"525": 114.103,"550": 120.963,"575": 121.07,"600": 117.579,"625": 114.994,"650": 127.755,"675": 125.782,"700": 129.124,"725": 113.401,"750": 121.066,"775": 100.908,"800": 97.941,"825": 94.364,"850": 92.744,"875": 84.599,"900": 86.819,"925": 75.263,"950": 38.66,"975": 20.586,"1000": 3.905}}}