{"type":"Feature","properties":{"GID_3":"MOZ.11.6.1_1","GID_0":"MOZ","country":"Mozambique","GID_1":"MOZ.11_1","province":"Zambezia","NL_NAME_1":"NA","GID_2":"MOZ.11.6_1","county":"Inhassunge","NL_NAME_2":"NA","city":"Gonhane","VARNAME_3":"NA","NL_NAME_3":"NA","TYPE_3":"Localidad","ENGTYPE_3":"Locality","CC_3":"NA","HASC_3":"NA","name":"Gonhane.city"},
"geometry":{"type": "MultiPolygon","coordinates": [[[[36.7996,-18.199,0.3613],[36.7974,-18.1985,0.4497],[36.7935,-18.201,0.0],[36.7968,-18.2087,0.0],[36.8007,-18.2076,0.0],[36.8015,-18.2049,1.8117],[36.8035,-18.2043,0.0],[36.8037,-18.2026,0.0],[36.801,-18.2021,1.2326],[36.7996,-18.199,0.3613]]],
[[[36.8104,-18.2004,0.0],[36.8079,-18.1996,0.0],[36.8054,-18.2032,0.0],[36.8101,-18.2021,0.0],[36.8104,-18.2004,0.0]]],
[[[36.8179,-18.1949,0.0],[36.816,-18.194,0.0],[36.8115,-18.2004,0.0],[36.8146,-18.1999,0.0],[36.8179,-18.1949,0.0]]],
[[[36.8749,-18.1671,0.0],[36.8735,-18.1662,0.0],[36.8668,-18.1693,0.0],[36.8535,-18.1715,1.3052],[36.8424,-18.1704,0.8328],[36.8385,-18.1718,0.4606],[36.8382,-18.176,0.0],[36.8454,-18.1815,0.0],[36.8771,-18.1871,0.0],[36.8807,-18.1832,0.0],[36.8782,-18.1751,1.9956],[36.879,-18.171,0.0],[36.8749,-18.1671,0.0]]],
[[[36.7674,-18.2015,7.8404],[36.7649,-18.2012,2.4801],[36.7635,-18.2035,5.2897],[36.7651,-18.2135,1.9629],[36.7751,-18.2218,5.1412],[36.7824,-18.2204,3.3122],[36.7854,-18.2151,0.0],[36.7846,-18.2115,2.6335],[36.7818,-18.211,0.0],[36.7762,-18.2126,0.0],[36.7721,-18.2124,1.7228],[36.7674,-18.2015,7.8404]]],
[[[36.7901,-18.2096,0.0],[36.7882,-18.2096,0.0],[36.7882,-18.2138,0.0],[36.7907,-18.2115,0.0],[36.7901,-18.2096,0.0]]],
[[[36.771,-18.2054,1.3119],[36.7699,-18.2057,3.4611],[36.7724,-18.2104,1.2776],[36.7765,-18.2121,0.0],[36.776,-18.2099,3.4183],[36.771,-18.2054,1.3119]]],
[[[36.7588,-18.2416,12.3446],[36.7606,-18.2447,0.0],[36.7696,-18.2399,0.0],[36.7665,-18.2354,5.4565],[36.7704,-18.2274,9.5907],[36.7738,-18.226,4.5102],[36.7738,-18.2235,1.635],[36.7671,-18.2176,1.3601],[36.7629,-18.2101,3.4158],[36.7626,-18.2035,3.9235],[36.7671,-18.1982,3.5492],[36.7651,-18.1879,0.3171],[36.7565,-18.1837,0.0],[36.7596,-18.1835,0.0],[36.766,-18.1868,0.3171],[36.7701,-18.2038,1.3223],[36.7765,-18.2085,0.0],[36.7796,-18.2085,0.0],[36.7849,-18.2057,7.2107],[36.7871,-18.201,1.9133],[36.794,-18.1935,0.0],[36.8071,-18.1851,0.3383],[36.8129,-18.1837,0.0],[36.8135,-18.1804,0.0],[36.8196,-18.1782,0.0],[36.826,-18.1718,0.0],[36.8307,-18.1737,0.0],[36.8335,-18.1704,0.0],[36.8338,-18.1668,0.7692],[36.8385,-18.1637,3.9044],[36.839,-18.1576,3.8958],[36.8351,-18.1571,1.7204],[36.8349,-18.1537,1.8763],[36.8357,-18.1565,1.7204],[36.8399,-18.1574,3.8958],[36.8393,-18.1637,4.415],[36.836,-18.1662,1.7098],[36.8365,-18.1674,0.0],[36.8396,-18.1657,1.1939],[36.8476,-18.1657,2.1416],[36.856,-18.1674,1.3893],[36.8638,-18.166,2.1004],[36.8726,-18.1615,0.0],[36.8476,-18.1419,3.127],[36.8439,-18.1356,3.9976],[36.8439,-18.1326,2.386],[36.8279,-18.1265,3.6627],[36.7943,-18.1237,5.4854],[36.775,-18.1147,1.8834],[36.7812,-18.0819,6.7202],[36.7969,-18.067,4.9576],[36.7995,-18.0523,6.358],[36.7999,-18.049,6.8169],[36.7875,-18.0431,5.8045],[36.7657,-18.0431,5.2719],[36.753,-18.055,5.4637],[36.7436,-18.0729,4.4559],[36.7322,-18.087,5.5291],[36.7174,-18.0873,3.5539],[36.7156,-18.1025,5.992],[36.7043,-18.1091,7.7665],[36.6873,-18.1313,4.8915],[36.6772,-18.1351,8.8874],[36.6661,-18.147,4.2466],[36.6567,-18.1521,7.0189],[36.6503,-18.1609,8.4464],[36.6565,-18.1641,9.4215],[36.6805,-18.1563,0.0],[36.6969,-18.1572,3.8326],[36.7068,-18.1607,3.1369],[36.7145,-18.171,0.0],[36.7199,-18.199,8.2454],[36.7291,-18.2147,0.0],[36.7482,-18.2415,0.0],[36.7529,-18.2435,12.2837],[36.7588,-18.2416,12.3446]]]]}}