{"type":"Feature","properties":{"GID_3":"MOZ.11.12.3_1","GID_0":"MOZ","country":"Mozambique","GID_1":"MOZ.11_1","province":"Zambezia","NL_NAME_1":"NA","GID_2":"MOZ.11.12_1","county":"Morrumbala","NL_NAME_2":"NA","city":"Megaza","VARNAME_3":"NA","NL_NAME_3":"NA","TYPE_3":"Localidad","ENGTYPE_3":"Locality","CC_3":"NA","HASC_3":"NA","name":"Megaza.city"},
"geometry":{"type": "MultiPolygon","coordinates": [[[[35.2942,-17.1261,34.7727],[35.2909,-17.1376,34.5822],[35.2963,-17.1407,34.8805],[35.3036,-17.1407,34.9023],[35.3014,-17.1649,35.7677],[35.2951,-17.1696,35.0891],[35.3014,-17.1875,35.0503],[35.3081,-17.1946,34.0516],[35.3078,-17.2012,34.7216],[35.3115,-17.2081,35.3001],[35.3047,-17.2192,33.1042],[35.3035,-17.238,31.5858],[35.2959,-17.2413,31.7781],[35.2994,-17.2504,31.8725],[35.2948,-17.2681,31.049],[35.306,-17.2734,30.507],[35.3225,-17.2993,29.7297],[35.3251,-17.3156,29.5144],[35.3326,-17.3308,29.4156],[35.3188,-17.3329,29.4235],[35.3259,-17.4217,31.525],[35.3381,-17.4427,29.3901],[35.3345,-17.4507,29.2217],[35.3355,-17.4715,30.4532],[35.3344,-17.4802,29.7995],[35.3429,-17.4944,30.2683],[35.3395,-17.5168,32.1556],[35.335,-17.5276,33.5322],[35.3327,-17.5441,29.5229],[35.3307,-17.5485,30.2136],[35.3308,-17.5655,29.196],[35.3269,-17.5778,27.5],[35.3203,-17.587,29.8331],[35.3234,-17.597,28.4794],[35.3741,-17.5981,89.8037],[35.3837,-17.5969,86.2525],[35.3945,-17.6014,137.3281],[35.4101,-17.5986,148.665],[35.442,-17.5996,173.2695],[35.4691,-17.6081,196.7314],[35.4793,-17.6189,211.666],[35.4882,-17.6408,246.6806],[35.5171,-17.6571,252.9267],[35.5507,-17.6534,179.5825],[35.662,-17.65,129.4847],[35.6516,-17.6319,150.6632],[35.6457,-17.6261,163.8661],[35.6313,-17.6168,165.7859],[35.6298,-17.6041,176.3947],[35.5944,-17.5786,224.3086],[35.5919,-17.5697,226.4184],[35.5769,-17.5507,239.2156],[35.5833,-17.5462,245.0991],[35.5801,-17.5432,239.2684],[35.5742,-17.5259,259.9659],[35.569,-17.5201,264.9128],[35.5562,-17.4834,302.1322],[35.5535,-17.4628,315.4644],[35.5557,-17.4495,341.9501],[35.5505,-17.4257,348.1538],[35.5325,-17.4164,379.9832],[35.509,-17.4124,411.063],[35.5053,-17.4039,307.2787],[35.5014,-17.3737,347.3735],[35.5087,-17.3648,377.0295],[35.5226,-17.3554,355.3912],[35.5069,-17.337,278.3879],[35.5121,-17.3264,287.8329],[35.5146,-17.3149,334.3055],[35.5234,-17.298,405.0694],[35.5629,-17.2486,366.8548],[35.5655,-17.2381,328.8935],[35.5659,-17.1971,263.4949],[35.5367,-17.1455,202.1016],[35.528,-17.1372,201.5135],[35.5272,-17.1151,196.0346],[35.5491,-17.097,206.6271],[35.5546,-17.0862,220.8503],[35.5725,-17.0647,244.5746],[35.5702,-17.0612,247.6786],[35.5501,-17.0575,271.7784],[35.5238,-17.0664,276.5642],[35.5039,-17.0673,260.6599],[35.4977,-17.0634,243.8597],[35.4416,-17.0489,133.3586],[35.4328,-17.0482,122.0259],[35.4249,-17.0427,107.3588],[35.4101,-17.0391,95.1803],[35.3124,-17.0606,35.2623],[35.3065,-17.0675,34.6388],[35.3077,-17.0785,34.9851],[35.3031,-17.0957,35.1715],[35.3064,-17.1032,35.5731],[35.3062,-17.1164,34.7622],[35.3101,-17.1209,35.5555],[35.3068,-17.1242,35.3599],[35.2988,-17.1241,34.7999],[35.297,-17.1262,34.0511],[35.2942,-17.1261,34.7727]]]]}}