{"type":"Feature","properties":{"GID_2":"MOZ.3.4_1","GID_0":"MOZ","country":"Mozambique","GID_1":"MOZ.3_1","province":"Inhambane","NL_NAME_1":"NA","county":"Inharrime","VARNAME_2":"NA","NL_NAME_2":"NA","TYPE_2":"Distrito","ENGTYPE_2":"District","CC_2":"NA","HASC_2":"MZ.IN.IR","name":"Inharrime.county"},
"geometry":{"type": "MultiPolygon","coordinates": [[[[34.4223,-24.4489,24.8518],[34.4534,-24.4813,0.5],[34.459,-24.49,0.5],[34.4782,-24.506,0.5],[34.4983,-24.5083,38.9545],[34.5158,-24.5081,6.4966],[34.5271,-24.5032,32.716],[34.5361,-24.4961,38.303],[34.5465,-24.4918,19.5553],[34.5854,-24.4955,0.5],[34.5938,-24.5004,0.5],[34.5999,-24.5117,0.5],[34.6085,-24.5391,0.5],[34.6428,-24.5511,0.5],[34.6385,-24.5666,0.5],[34.6394,-24.5767,0.5],[34.6525,-24.5887,0.5],[34.6673,-24.5896,0.5],[34.6785,-24.5797,0.8967],[34.6818,-24.563,0.5],[34.6907,-24.5583,0.5],[34.7309,-24.5503,6.5013],[34.7614,-24.5416,0.5],[34.7781,-24.5463,0.5],[34.7932,-24.5423,0.5],[34.8066,-24.5281,0.5],[34.8184,-24.5221,0.5],[34.8703,-24.503,0.5],[34.9063,-24.495,0.5],[34.9685,-24.4871,0.5],[35.0004,-24.4938,0.5],[35.0168,-24.4916,0.5],[35.032,-24.5013,0.5],[35.09,-24.5501,0.5],[35.1048,-24.5646,0.5],[35.1021,-24.5727,0.5],[35.0934,-24.5848,0.5],[35.1051,-24.6112,10.5646],[35.1121,-24.6079,1.6843],[35.1243,-24.5982,11.3785],[35.1271,-24.5979,4.1366],[35.1307,-24.594,16.9237],[35.1338,-24.5937,0.0],[35.1404,-24.5871,11.8802],[35.1465,-24.5846,0.0],[35.1518,-24.5796,0.0],[35.1563,-24.5671,0.0],[35.1654,-24.5554,12.9798],[35.1776,-24.5471,0.0],[35.1862,-24.5379,24.3657],[35.1999,-24.5271,0.0],[35.2026,-24.5221,9.3583],[35.1999,-24.511,0.0],[35.2007,-24.4993,14.8545],[35.2024,-24.4979,0.0],[35.2015,-24.4962,11.2684],[35.2065,-24.4874,35.3787],[35.2215,-24.4707,0.0],[35.2254,-24.4621,27.4995],[35.2624,-24.4282,0.0],[35.2682,-24.4199,14.7095],[35.2762,-24.4126,0.0],[35.276,-24.4104,11.149],[35.2793,-24.4046,0.0],[35.286,-24.3982,0.0],[35.2929,-24.3876,30.4702],[35.2957,-24.3865,0.0],[35.2979,-24.3821,1.0792],[35.306,-24.3749,0.0],[35.3063,-24.3721,2.44],[35.3082,-24.3718,0.0],[35.3143,-24.3638,1.238],[35.3182,-24.3615,0.0],[35.3226,-24.3543,6.3328],[35.3268,-24.3529,0.0],[35.3299,-24.3471,18.6276],[35.3363,-24.341,0.0],[35.3349,-24.3401,0.0],[35.3415,-24.3335,0.0],[35.3413,-24.3315,0.0],[35.3432,-24.3307,0.0],[35.3451,-24.3263,2.1416],[35.3537,-24.3199,0.0],[35.3526,-24.319,6.6122],[35.3535,-24.3171,5.334],[35.3651,-24.3043,15.3467],[35.3649,-24.3029,16.6753],[35.3726,-24.2943,15.7309],[35.3757,-24.2932,0.0],[35.3751,-24.2915,2.006],[35.3865,-24.281,0.0],[35.3887,-24.2771,2.6908],[35.2117,-24.2778,31.1598],[35.1885,-24.3062,30.7673],[35.1778,-24.3167,35.9423],[35.1682,-24.3245,37.2278],[35.1493,-24.3345,42.4211],[35.1285,-24.352,41.2297],[35.11,-24.3627,58.9839],[35.101,-24.3716,45.0918],[35.0558,-24.3557,138.3595],[35.0444,-24.3631,135.9807],[35.0444,-24.3519,91.8723],[35.0048,-24.3344,59.5],[35.0165,-24.2657,114.864],[35.003,-24.2156,55.6969],[34.9772,-24.2209,54.7009],[34.9592,-24.2207,54.0041],[34.9461,-24.2163,53.5709],[34.9374,-24.2076,53.5191],[34.9069,-24.2026,52.2922],[34.8803,-24.2111,51.25],[34.8626,-24.2371,49.2087],[34.8523,-24.2417,50.7711],[34.8398,-24.2366,48.9425],[34.8272,-24.2344,47.7125],[34.8065,-24.2411,43.9261],[34.7971,-24.2461,48.0032],[34.7756,-24.2474,43.7366],[34.7535,-24.2467,45.2398],[34.7434,-24.2405,46.5656],[34.7405,-24.2359,44.5022],[34.724,-24.2383,44.2148],[34.7125,-24.2624,44.0385],[34.6832,-24.2793,43.3078],[34.6704,-24.289,43.3357],[34.6648,-24.297,39.7042],[34.6514,-24.3,38.6095],[34.5966,-24.3225,42.0344],[34.5688,-24.3301,35.2762],[34.5522,-24.3287,35.956],[34.5381,-24.3308,33.5219],[34.5298,-24.3273,35.2179],[34.5131,-24.3315,41.2479],[34.4997,-24.3382,38.7006],[34.4901,-24.3388,37.0121],[34.4235,-24.2617,49.4802],[34.358,-24.2981,45.6413],[34.314,-24.3354,22.8186],[34.308,-24.3379,22.9405],[34.291,-24.339,23.3925],[34.2008,-24.3685,27.5119],[34.1665,-24.3733,29.8089],[34.1306,-24.3639,35.2925],[34.1342,-24.3768,28.5673],[34.1434,-24.3872,22.8853],[34.1516,-24.414,14.8786],[34.1493,-24.4335,11.1509],[34.155,-24.4445,8.8411],[34.1585,-24.4583,8.5688],[34.1524,-24.4688,8.083],[34.1721,-24.4795,10.6068],[34.1809,-24.4906,7.1584],[34.1779,-24.4988,9.1474],[34.1791,-24.5043,6.904],[34.1831,-24.5059,11.5851],[34.1833,-24.5106,15.7098],[34.1808,-24.5171,9.4522],[34.1959,-24.5178,10.0188],[34.2066,-24.5165,7.3511],[34.2183,-24.5079,10.8176],[34.2587,-24.4881,9.0418],[34.2735,-24.4852,29.4415],[34.2875,-24.4845,6.1135],[34.3028,-24.4791,19.4994],[34.3073,-24.4791,13.8835],[34.3145,-24.4837,11.3803],[34.3263,-24.4792,10.3149],[34.3402,-24.4678,2.4827],[34.396,-24.4595,26.2805],[34.4223,-24.4489,24.8518]]]]}}