{"type":"Feature","properties":{"GID_3":"MOZ.1.1.5_1","GID_0":"MOZ","country":"Mozambique","GID_1":"MOZ.1_1","province":"CaboDelgado","NL_NAME_1":"NA","GID_2":"MOZ.1.1_1","county":"Ancuabe","NL_NAME_2":"NA","city":"Murrebue","VARNAME_3":"NA","NL_NAME_3":"NA","TYPE_3":"Localidad","ENGTYPE_3":"Locality","CC_3":"NA","HASC_3":"NA","name":"Murrebue.city"},
"geometry":{"type": "MultiPolygon","coordinates": [[[[40.2102,-13.2684,94.4011],[40.2112,-13.2818,86.8698],[40.2163,-13.286,100.0463],[40.2317,-13.2806,109.0091],[40.2285,-13.2944,75.5276],[40.2396,-13.3039,92.37],[40.2533,-13.3119,90.1209],[40.2675,-13.3164,79.0675],[40.2769,-13.2896,148.9017],[40.2891,-13.2688,321.9964],[40.3097,-13.2545,192.941],[40.3391,-13.259,124.8717],[40.3597,-13.2448,114.2683],[40.4047,-13.2416,104.4412],[40.4087,-13.2274,87.9699],[40.4298,-13.2154,155.7686],[40.4548,-13.2301,138.5152],[40.467,-13.2509,102.2317],[40.4814,-13.2704,67.5983],[40.5069,-13.236,19.8833],[40.5376,-13.2211,50.0343],[40.5568,-13.221,10.1935],[40.5565,-13.2132,7.687],[40.5585,-13.2032,0.0],[40.5604,-13.2029,0.0],[40.5593,-13.1996,0.0],[40.5612,-13.1993,0.282],[40.5615,-13.1962,0.0],[40.5638,-13.1949,0.0],[40.5632,-13.1885,0.0],[40.5615,-13.1865,0.2173],[40.5654,-13.1718,0.0],[40.564,-13.1707,0.0],[40.5629,-13.1718,0.4963],[40.5624,-13.1785,0.0],[40.5607,-13.1807,2.0109],[40.5601,-13.154,2.9594],[40.5612,-13.1485,7.8932],[40.5571,-13.1404,0.0],[40.5574,-13.1343,0.0],[40.5554,-13.1315,5.1106],[40.5501,-13.0999,2.1249],[40.5524,-13.0879,2.3393],[40.5515,-13.0751,1.5417],[40.5537,-13.0638,7.5913],[40.5293,-13.0625,92.3041],[40.5237,-13.0642,103.5531],[40.5187,-13.0702,47.6892],[40.5014,-13.077,12.7891],[40.4621,-13.1278,24.2256],[40.4643,-13.135,27.6884],[40.4077,-13.1415,50.7364],[40.3961,-13.0894,44.0515],[40.3924,-13.0785,54.057],[40.373,-13.0713,77.8326],[40.3621,-13.0739,96.1983],[40.3485,-13.0615,55.2559],[40.3403,-13.0563,64.5882],[40.3333,-13.0554,61.8551],[40.3189,-13.0572,62.0055],[40.3106,-13.0605,65.0754],[40.3109,-13.0689,64.1872],[40.305,-13.0768,67.9285],[40.2911,-13.0885,89.2525],[40.2597,-13.092,109.49],[40.2552,-13.0975,120.4248],[40.2488,-13.097,131.1367],[40.246,-13.1019,141.8379],[40.2345,-13.1106,160.5122],[40.2311,-13.1167,163.0966],[40.2276,-13.1195,168.4196],[40.2272,-13.1244,160.1609],[40.2224,-13.1278,194.3104],[40.2128,-13.1313,199.5315],[40.1746,-13.1388,212.3726],[40.1756,-13.1585,185.2347],[40.1805,-13.1705,167.3723],[40.2001,-13.1995,144.4623],[40.2037,-13.2073,141.7856],[40.2084,-13.2343,120.2877],[40.2043,-13.2423,116.4774],[40.2079,-13.2638,104.621],[40.2102,-13.2684,94.4011]]]]}}