{"type":"Feature","properties":{"GID_3":"MOZ.4.3.4_1","GID_0":"MOZ","country":"Mozambique","GID_1":"MOZ.4_1","province":"Manica","NL_NAME_1":"NA","GID_2":"MOZ.4.3_1","county":"Guro","NL_NAME_2":"NA","city":"Mungari","VARNAME_3":"NA","NL_NAME_3":"NA","TYPE_3":"Localidad","ENGTYPE_3":"Locality","CC_3":"NA","HASC_3":"NA","name":"Mungari.city"},
"geometry":{"type": "MultiPolygon","coordinates": [[[[33.3095,-17.2807,669.8396],[33.3264,-17.2939,699.0778],[33.3388,-17.3178,755.5169],[33.3551,-17.3214,711.4743],[33.3623,-17.3205,705.2366],[33.377,-17.3219,689.434],[33.382,-17.3205,682.539],[33.4056,-17.3283,665.7989],[33.412,-17.3283,657.0304],[33.4207,-17.3241,651.4152],[33.4288,-17.3231,641.8217],[33.4368,-17.3244,639.6113],[33.4537,-17.3307,630.8951],[33.4624,-17.3364,629.7985],[33.4795,-17.3417,618.9433],[33.4892,-17.3348,606.231],[33.4962,-17.334,599.1285],[33.5073,-17.3295,586.9923],[33.5081,-17.3209,581.2639],[33.5147,-17.3069,591.6396],[33.5231,-17.3004,595.8454],[33.5375,-17.284,593.3884],[33.5502,-17.2798,563.7397],[33.5587,-17.2843,558.4598],[33.5737,-17.2791,550.6103],[33.5828,-17.2823,555.9204],[33.5869,-17.288,556.8207],[33.5867,-17.2948,563.7881],[33.5804,-17.2985,577.6533],[33.5752,-17.3245,573.5583],[33.5677,-17.3338,583.8904],[33.561,-17.337,591.59],[33.5383,-17.3554,595.7963],[33.5369,-17.3609,599.9718],[33.5314,-17.3638,609.4968],[33.5203,-17.3606,624.528],[33.5123,-17.3664,618.3301],[33.52,-17.3913,625.7512],[33.5179,-17.4009,630.2763],[33.5146,-17.4065,638.4689],[33.5007,-17.4085,645.2481],[33.4902,-17.4247,644.817],[33.5508,-17.4389,758.3851],[33.5972,-17.4103,712.6322],[33.5994,-17.3898,709.0851],[33.6038,-17.3825,667.1224],[33.6426,-17.3695,613.5529],[33.6511,-17.3675,613.1332],[33.6554,-17.3688,603.7258],[33.6707,-17.3584,575.7367],[33.7118,-17.3448,547.4137],[33.7422,-17.3514,534.0834],[33.7568,-17.3499,523.8594],[33.7615,-17.3481,519.1772],[33.7653,-17.343,523.071],[33.7738,-17.3395,530.1481],[33.8029,-17.3321,510.5332],[33.819,-17.3261,486.3304],[33.8181,-17.3162,504.465],[33.824,-17.2994,529.4025],[33.8399,-17.2695,590.3547],[33.8659,-17.2421,463.1102],[33.8688,-17.2372,475.8011],[33.876,-17.2176,473.5062],[33.8826,-17.1923,490.8743],[33.8776,-17.155,467.0492],[33.8718,-17.1327,442.5492],[33.8637,-17.1188,424.3929],[33.8646,-17.1107,421.9718],[33.8573,-17.1029,416.6361],[33.8572,-17.0929,406.1628],[33.8492,-17.064,362.6475],[33.8444,-17.0589,372.2493],[33.8392,-17.0574,360.0515],[33.8377,-17.0429,367.8651],[33.8457,-17.0407,340.5717],[33.8476,-17.0361,320.6474],[33.8354,-17.0111,339.4478],[33.8325,-17.0004,343.7341],[33.8246,-16.9941,368.9143],[33.8231,-16.99,380.0273],[33.8282,-16.9898,379.4914],[33.8456,-16.871,421.8568],[33.8253,-16.8518,386.0666],[33.8217,-16.8421,375.0945],[33.8268,-16.8226,340.0582],[33.8219,-16.8121,338.6233],[33.8047,-16.8522,399.9884],[33.7928,-16.8749,393.262],[33.7672,-16.8818,388.4565],[33.7526,-16.8992,409.2635],[33.735,-16.9122,437.1656],[33.6439,-16.9191,454.679],[33.6168,-16.931,482.3784],[33.6029,-16.9352,500.9949],[33.5806,-16.9382,524.6072],[33.5471,-16.9515,504.1056],[33.5245,-16.9538,476.8039],[33.5155,-16.95,469.9792],[33.5111,-16.9431,456.2596],[33.5028,-16.937,450.8445],[33.4946,-16.934,441.5172],[33.4851,-16.9208,430.6551],[33.4691,-16.9089,412.5852],[33.4683,-16.9023,417.7201],[33.4643,-16.8965,406.585],[33.4443,-16.8394,408.9741],[33.4184,-16.8353,376.8718],[33.3962,-16.827,331.0999],[33.3893,-16.8199,317.6149],[33.3669,-16.8065,283.2111],[33.3561,-16.7975,267.9081],[33.3527,-16.7869,257.484],[33.3489,-16.782,256.8519],[33.3422,-16.7793,255.9743],[33.3372,-16.7732,237.9355],[33.332,-16.7714,241.2983],[33.333,-16.7631,238.0053],[33.3224,-16.7446,214.0812],[33.3139,-16.7394,202.8731],[33.2975,-16.7614,205.303],[33.2916,-16.7873,235.6],[33.2843,-16.8073,215.8272],[33.2841,-16.8314,217.2368],[33.2789,-16.8573,224.1727],[33.254,-16.8805,249.6163],[33.2475,-16.8883,259.3756],[33.2397,-16.9021,279.722],[33.2264,-16.9338,298.3426],[33.2238,-16.9468,314.9149],[33.2165,-16.9563,334.7495],[33.2153,-16.9656,317.9614],[33.2166,-16.9759,357.797],[33.2134,-16.9837,334.3069],[33.2095,-16.9874,338.4776],[33.2107,-17.0002,359.8686],[33.2096,-17.0067,361.442],[33.2141,-17.0123,374.4026],[33.2286,-17.0405,413.9912],[33.2279,-17.0485,431.3451],[33.2324,-17.0693,449.6007],[33.2387,-17.0741,457.194],[33.2421,-17.0994,511.5551],[33.2479,-17.1049,505.6108],[33.2519,-17.1184,522.0765],[33.2722,-17.1579,569.4131],[33.2784,-17.1808,587.8196],[33.284,-17.1883,578.9993],[33.2963,-17.199,599.5223],[33.3013,-17.2061,600.7054],[33.3027,-17.2129,613.2074],[33.3021,-17.2317,630.494],[33.3044,-17.2719,662.9741],[33.3095,-17.2807,669.8396]]]]}}