{"type":"Feature","properties":{"GID_3":"MOZ.6.3.2_1","GID_0":"MOZ","country":"Mozambique","GID_1":"MOZ.6_1","province":"Maputo","NL_NAME_1":"NA","GID_2":"MOZ.6.3_1","county":"Manhiça","NL_NAME_2":"NA","city":"Calanga","VARNAME_3":"NA","NL_NAME_3":"NA","TYPE_3":"Localidad","ENGTYPE_3":"Locality","CC_3":"NA","HASC_3":"NA","name":"Calanga.city"},
"geometry":{"type": "MultiPolygon","coordinates": [[[[32.9906,-25.2022,7.4423],[32.9812,-25.2219,6.8775],[32.9846,-25.2325,6.565],[32.9824,-25.2337,5.8411],[32.9855,-25.2446,6.5789],[32.9791,-25.2481,8.0736],[32.9777,-25.2522,7.2746],[32.9736,-25.2522,6.7814],[32.9693,-25.2656,7.0229],[32.974,-25.269,5.682],[32.9734,-25.2738,7.3895],[32.9663,-25.2764,7.1233],[32.965,-25.2824,6.9767],[32.9538,-25.2911,5.1119],[32.9459,-25.3008,5.1458],[32.9407,-25.2976,4.5568],[32.934,-25.3036,4.5316],[32.9338,-25.3118,5.5608],[32.9279,-25.3163,4.4686],[32.9146,-25.3154,4.5764],[32.9101,-25.3132,4.2265],[32.9077,-25.3142,5.4421],[32.9076,-25.3296,4.8225],[32.9019,-25.3383,4.1234],[32.8931,-25.3409,3.8005],[32.8892,-25.3489,4.256],[32.8887,-25.358,3.9617],[32.8846,-25.3662,3.1349],[32.8712,-25.3761,2.7469],[32.8607,-25.3809,3.9029],[32.8592,-25.3874,2.7084],[32.8518,-25.3866,3.5527],[32.8392,-25.4014,2.754],[32.8295,-25.3981,1.8532],[32.8103,-25.4014,40.3747],[32.8088,-25.4112,18.4478],[32.8125,-25.4186,2.7605],[32.8132,-25.4293,2.1347],[32.8005,-25.4449,1.9782],[32.8131,-25.454,2.6223],[32.8139,-25.4565,2.2041],[32.8131,-25.4622,1.6576],[32.8072,-25.4729,1.6052],[32.9765,-25.4746,0.0],[32.9851,-25.4665,0.561],[32.9901,-25.4651,0.0],[32.9932,-25.4621,2.4291],[33.0115,-25.4532,0.0],[33.0221,-25.4446,0.0],[33.0376,-25.4365,0.0],[33.051,-25.4268,1.1396],[33.094,-25.4051,0.0],[33.1315,-25.3832,0.8253],[33.1375,-25.3009,50.6306],[33.1339,-25.2754,54.0144],[33.1275,-25.2447,52.7034],[33.1011,-25.203,43.3146],[32.9943,-25.2034,6.7683],[32.9906,-25.2022,7.4423]]]]}}