{"type": "Feature","bbox": [34.952,-13.1605,36.2871,-11.4068],"geometry": {"type": "MultiPolygon","coordinates": [[[[34.9723,-13.0541,1278.7854],[34.952,-13.0785,1066.6913],[34.9543,-13.077,1093.51],[34.9696,-13.0591,1230.6118],[34.9727,-13.0621,1274.6901],[34.9758,-13.0889,1160.2349],[34.9758,-13.1217,1053.8899],[34.9788,-13.1605,770.9911],[35.0049,-13.1285,790.9853],[35.0234,-13.1126,825.3445],[35.0658,-13.0899,860.8911],[35.0842,-13.0716,861.6555],[35.1059,-13.0851,889.5179],[35.1203,-13.1195,1127.9075],[35.1786,-13.1406,1308.3774],[35.2159,-13.1236,1205.4027],[35.238,-13.122,1178.5758],[35.2408,-13.1291,1159.4727],[35.2557,-13.1365,1297.6643],[35.3107,-13.1468,1281.2039],[35.3157,-13.1559,1222.1146],[35.3211,-13.1566,1189.0442],[35.3374,-13.1564,1155.6736],[35.3659,-13.1516,1118.4385],[35.3821,-13.1451,1130.0837],[35.4016,-13.1465,1112.5],[35.4187,-13.141,1086.618],[35.4282,-13.1232,1065.1626],[35.4144,-13.0908,1076.6553],[35.434,-13.0671,1035.4559],[35.438,-13.0525,1038.6873],[35.4481,-13.0503,1037.6797],[35.4463,-13.0314,1023.7043],[35.4629,-13.0249,1015.5626],[35.4772,-13.0075,1024.5496],[35.4741,-13.0015,1036.135],[35.4741,-12.9926,990.4734],[35.4958,-12.9628,1021.1453],[35.4976,-12.9623,1002.6628],[35.4926,-12.9568,998.653],[35.4803,-12.9478,963.1956],[35.4924,-12.9298,962.006],[35.4873,-12.9088,952.072],[35.4921,-12.889099999999999,947.3384],[35.4864,-12.8836,943.7848],[35.4877,-12.8805,948.0034],[35.4868,-12.879,959.4802],[35.5019,-12.8614,939.847],[35.499,-12.8513,935.1652],[35.4998,-12.841,931.1763],[35.5071,-12.836,927.9037],[35.5234,-12.8159,930.1921],[35.5205,-12.7957,912.1655],[35.5205,-12.7719,914.9818],[35.5162,-12.7491,901.8944],[35.5167,-12.7276,905.0749],[35.535,-12.709,899.3234],[35.5499,-12.6875,888.5241],[35.5503,-12.6822,891.6218],[35.5445,-12.6595,884.6293],[35.5387,-12.6444,880.5592],[35.5398,-12.6271,870.0428],[35.5589,-12.5978,868.3545],[35.5444,-12.5708,856.5146],[35.5495,-12.5599,855.9367],[35.5571,-12.5525,851.5951],[35.5618,-12.5374,867.7194],[35.5826,-12.5042,850.2412],[35.5864,-12.494,841.7218],[35.601,-12.4791,828.7369],[35.6193,-12.4468,830.3303],[35.647,-12.408,802.7977],[35.6451,-12.4034,791.4901],[35.6445,-12.3836,762.853],[35.6535,-12.357,747.4103],[35.6752,-12.3493,741.0847],[35.6885,-12.3399,742.8523],[35.7119,-12.3305,741.7871],[35.7332,-12.3248,810.4261],[35.7644,-12.2977,732.0764],[35.7712,-12.2808,724.9434],[35.7762,-12.2753,744.2045],[35.7957,-12.2752,728.1744],[35.8049,-12.2839,740.7181],[35.8292,-12.2917,710.0563],[35.8366,-12.2869,689.08],[35.8468,-12.269,688.3049],[35.8516,-12.2441,678.6884],[35.8628,-12.2357,659.741],[35.8727,-12.2326,651.0518],[35.8941,-12.2348,661.2458],[35.9075,-12.2304,626.9518],[35.9136,-12.2125,601.2247],[35.9319,-12.1946,628.3077],[35.9441,-12.1917,627.8034],[35.9624,-12.1827,599.1808],[35.9746,-12.1708,615.1931],[35.9868,-12.1499,605.9221],[36.002,-12.1052,572.0175],[36.0173,-12.0783,570.8165],[36.0356,-12.0545,562.2556],[36.0387,-12.0395,556.3311],[36.0692,-12.0217,547.8461],[36.0844,-12.0097,549.9861],[36.0864,-11.9975,544.5085],[36.1002,-11.9896,544.7196],[36.1047,-11.9833,548.058],[36.1049,-11.9707,533.1089],[36.1197,-11.9552,544.396],[36.1255,-11.9452,540.8749],[36.1305,-11.9418,534.5293],[36.1455,-11.906,521.0614],[36.1521,-11.8766,514.1502],[36.1559,-11.8715,515.7226],[36.1698,-11.8597,508.2866],[36.1773,-11.843,508.736],[36.1904,-11.8394,516.5486],[36.1942,-11.8338,502.7699],[36.2095,-11.8248,492.1548],[36.2217,-11.8129,493.1245],[36.2248,-11.801,496.6551],[36.24,-11.786,485.6843],[36.2583,-11.7592,483.9346],[36.285,-11.736,480.5523],[36.2834,-11.7274,477.7018],[36.2751,-11.7264,480.5679],[36.2871,-11.708,482.3675],[36.276,-11.7101,482.1483],[36.2671,-11.718,489.0727],[36.2508,-11.7148,501.0598],[36.2394,-11.7066,487.9614],[36.2171,-11.7085,483.1557],[36.2013,-11.7162,491.2509],[36.1896,-11.7162,505.1916],[36.1837,-11.7139,502.1534],[36.1823,-11.7084,498.2631],[36.1886,-11.6967,495.7184],[36.1876,-11.6889,495.0908],[36.1731,-11.676,497.9273],[36.17,-11.6655,500.2759],[36.1811,-11.639,495.3406],[36.1748,-11.6241,505.5791],[36.178,-11.6141,521.9637],[36.1752,-11.6068,520.5916],[36.1768,-11.5981,526.4717],[36.1723,-11.5896,533.4962],[36.1604,-11.5822,525.5679],[36.1575,-11.577,519.6544],[36.1519,-11.5728,510.2704],[36.1386,-11.5703,530.5038],[36.1325,-11.5665,527.65],[36.1239,-11.552,530.9276],[36.1126,-11.5525,525.4193],[36.1059,-11.5488,520.2046],[36.0986,-11.5475,520.0494],[36.0891,-11.537,515.4563],[36.0507,-11.515,525.3505],[36.0254,-11.5026,552.4266],[36.0156,-11.4994,552.7988],[35.9948,-11.4979,575.5275],[35.957,-11.4831,547.153],[35.9539,-11.4773,545.9011],[35.9621,-11.4575,543.3228],[35.9613,-11.4426,543.3209],[35.958,-11.4373,552.3845],[35.9419,-11.4249,546.2368],[35.926,-11.4243,547.6043],[35.9097,-11.4261,548.377],[35.8836,-11.4223,553.5798],[35.8577,-11.424,549.2248],[35.854,-11.4226,549.5854],[35.8446,-11.4097,547.8321],[35.8343,-11.4072,554.2646],[35.8238,-11.4068,550.0329],[35.8203,-11.4096,552.9448],[35.8117,-11.4291,553.3314],[35.7955,-11.4496,562.9401],[35.7862,-11.457,552.4384],[35.777,-11.4709,562.3184],[35.7723,-11.4731,557.5096],[35.7542,-11.4766,556.8489],[35.7393,-11.4757,555.373],[35.7249,-11.4808,556.1894],[35.712,-11.4813,554.3832],[35.7027,-11.491,569.0564],[35.7049,-11.5137,557.8157],[35.7039,-11.5186,559.6524],[35.6938,-11.5201,559.7812],[35.6882,-11.525,562.1638],[35.681,-11.5473,576.2031],[35.6747,-11.5565,564.2305],[35.6659,-11.5595,584.4642],[35.6607,-11.5634,577.7758],[35.657,-11.5721,582.0701],[35.6496,-11.5786,584.7908],[35.6474,-11.5928,596.9512],[35.6439,-11.5931,606.9262],[35.6393,-11.5857,584.9498],[35.6054,-11.5961,583.7776],[35.5966,-11.5965,606.0811],[35.5921,-11.5945,623.3276],[35.5872,-11.5878,600.687],[35.5826,-11.5853,593.662],[35.5788,-11.5993,618.6985],[35.5756,-11.6035,599.612],[35.5676,-11.5991,610.1808],[35.5639,-11.6042,605.4045],[35.5604,-11.6032,613.4377],[35.5485,-11.5947,608.1618],[35.5464,-11.5993,606.396],[35.5387,-11.5924,598.5333],[35.535,-11.5931,596.1123],[35.5329,-11.5993,621.5313],[35.5336,-11.6042,630.6065],[35.5392,-11.6115,630.8787],[35.5324,-11.6111,614.1886],[35.5186,-11.6042,596.426],[35.5156,-11.5977,587.8735],[35.5144,-11.5883,579.7711],[35.5107,-11.5835,578.8304],[35.4936,-11.5754,595.2142],[35.4885,-11.5759,596.7922],[35.4888,-11.58,600.6002],[35.4948,-11.5867,601.2708],[35.4927,-11.5913,602.4793],[35.489,-11.5947,603.6138],[35.4747,-11.595,620.3623],[35.4652,-11.5908,595.711],[35.457,-11.5842,590.9429],[35.4547,-11.5911,606.6285],[35.4491,-11.5869,607.4052],[35.4425,-11.5858,582.1677],[35.4358,-11.5872,585.0049],[35.4311,-11.5842,582.4377],[35.4243,-11.5667,574.4575],[35.4199,-11.5665,578.2043],[35.4136,-11.574,575.7043],[35.4073,-11.5736,576.9669],[35.4036,-11.5758,577.7791],[35.3929,-11.5916,588.6176],[35.3861,-11.5951,584.7136],[35.3756,-11.5922,584.1782],[35.3749,-11.6001,591.8392],[35.3778,-11.6091,584.8324],[35.375,-11.6126,582.4304],[35.3661,-11.6183,586.4135],[35.3635,-11.6221,588.7824],[35.366,-11.6273,579.0402],[35.3631,-11.6326,581.5425],[35.3469,-11.6304,584.2542],[35.3264,-11.6508,591.8721],[35.3232,-11.659,590.7642],[35.3253,-11.6751,596.0787],[35.3159,-11.6884,598.9938],[35.3134,-11.7001,595.2377],[35.3177,-11.7069,590.5452],[35.3178,-11.7128,589.8704],[35.309,-11.7164,604.9795],[35.3022,-11.7388,600.7318],[35.3037,-11.7652,598.7391],[35.2936,-11.7686,607.9548],[35.2889,-11.7733,601.1995],[35.2845,-11.7818,595.9622],[35.2663,-11.8064,615.7629],[35.2647,-11.8118,609.8343],[35.2421,-11.8368,615.2113],[35.2256,-11.8729,619.0168],[35.215,-11.882,616.573],[35.2065,-11.8861,628.6916],[35.1967,-11.8937,624.0549],[35.1949,-11.9048,620.691],[35.1893,-11.9109,630.7012],[35.181,-11.9176,630.2548],[35.176,-11.9176,627.7108],[35.1497,-11.9313,632.8557],[35.1472,-11.936,648.0504],[35.1417,-11.9407,635.1283],[35.1339,-11.9425,647.5311],[35.1516,-11.9544,631.1299],[35.1314,-11.9457,642.989],[35.1301,-11.9469,646.6671],[35.1253,-11.9634,635.5876],[35.1371,-11.9978,628.4974],[35.1516,-12.0272,634.2231],[35.1554,-12.0412,633.5752],[35.1554,-12.0534,636.1182],[35.1724,-12.0739,638.681],[35.1857,-12.0726,641.7004],[35.1968,-12.0775,644.9412],[35.2028,-12.0852,645.1303],[35.2083,-12.1029,645.5346],[35.1934,-12.1222,653.1952],[35.1902,-12.1303,650.6455],[35.1832,-12.1363,651.8337],[35.1703,-12.1422,651.5443],[35.166,-12.1482,664.0247],[35.1604,-12.1682,661.7315],[35.1621,-12.1739,660.599],[35.1826,-12.1924,658.9963],[35.1827,-12.2191,664.9752],[35.1854,-12.2259,674.2875],[35.1901,-12.2529,670.2646],[35.1951,-12.2587,674.5178],[35.1916,-12.2736,677.4841],[35.1738,-12.3054,681.9319],[35.1655,-12.3368,688.03],[35.1654,-12.3424,686.4977],[35.1427,-12.3944,693.3511],[35.1499,-12.4498,743.4419],[35.1575,-12.4541,840.7697],[35.1654,-12.4647,795.9504],[35.1802,-12.4904,836.7572],[35.1928,-12.4921,853.7026],[35.1935,-12.4943,866.0555],[35.1917,-12.5072,862.9401],[35.1859,-12.516,875.8065],[35.1916,-12.5357,889.0538],[35.1811,-12.5574,935.3167],[35.1592,-12.5899,1002.3046],[35.1457,-12.6056,1001.5018],[35.1367,-12.6309,1020.0894],[35.1402,-12.6489,1011.9586],[35.1392,-12.6604,1033.7812],[35.1423,-12.6777,1083.2849],[35.1566,-12.7464,1224.3431],[35.161,-12.7573,1362.1942],[35.1546,-12.7757,1338.4915],[35.1376,-12.8106,1739.9391],[35.1252,-12.8106,1509.7968],[35.0974,-12.8196,1602.1597],[35.0882,-12.8375,1613.5837],[35.086,-12.8448,1470.3625],[35.0069,-12.9933,1278.8716],[34.9723,-13.0541,1278.7854]]]]}
,"properties": {"GID_2": "MOZ.8.15_1","GID_0": "MOZ","country": "Mozambique","GID_1": "MOZ.8_1","province": "Nassa","NL_NAME_1": "NA","county": "Sanga","VARNAME_2": "NA","NL_NAME_2": "NA","TYPE_2": "Distrito","ENGTYPE_2": "District","CC_2": "NA","HASC_2": "MZ.NS.SA","name": "Sanga.county","area_km2": 12411.445,"hist_schema_id": "Elevation0-9000","hist_area_km2": {"475": 8.677,"500": 97.177,"525": 211.266,"550": 402.273,"575": 509.444,"600": 783.187,"625": 863.213,"650": 894.448,"675": 904.958,"700": 836.904,"725": 668.491,"750": 498.542,"775": 410.84,"800": 326.003,"825": 285.537,"850": 279.304,"875": 311.882,"900": 341.33,"925": 320.367,"950": 318.068,"975": 308.802,"1000": 295.719,"1025": 301.082,"1050": 278.561,"1075": 245.296,"1100": 216.192,"1125": 177.443,"1150": 151.85,"1175": 125.323,"1200": 111.874,"1225": 106.145,"1250": 105.277,"1275": 124.464,"1300": 124.85,"1325": 100.656,"1350": 85.655,"1375": 58.668,"1400": 37.629,"1425": 27.335,"1450": 22.311,"1475": 19.769,"1500": 16.191,"1525": 15.157,"1550": 13.586,"1575": 11.745,"1600": 10.752,"1625": 9.015,"1650": 8.249,"1675": 7.733,"1700": 6.699,"1725": 4.528,"1750": 4.693,"1775": 3.06,"1800": 2.067,"1825": 1.013,"1850": 0.145}}}