{"type":"Feature","properties":{"GID_3":"MOZ.1.12.1_1","GID_0":"MOZ","country":"Mozambique","GID_1":"MOZ.1_1","province":"CaboDelgado","NL_NAME_1":"NA","GID_2":"MOZ.1.12_1","county":"Nangade","NL_NAME_2":"NA","city":"Nangade","VARNAME_3":"NA","NL_NAME_3":"NA","TYPE_3":"Localidad","ENGTYPE_3":"Locality","CC_3":"NA","HASC_3":"NA","name":"Nangade.city"},
"geometry":{"type": "MultiPolygon","coordinates": [[[[40.0833,-11.0666,113.7579],[40.0021,-10.9953,142.6411],[39.9827,-10.9713,147.3349],[39.993899999999996,-10.9588,134.4259],[39.969,-10.9301,154.9079],[39.9767,-10.868,148.2438],[39.9851,-10.8566,107.3147],[39.9865,-10.8521,113.2292],[39.9806,-10.837,25.8994],[39.9837,-10.8319,26.3877],[39.9891,-10.8273,25.5416],[39.9849,-10.8173,24.7635],[39.9662,-10.8253,24.0],[39.9558,-10.8259,24.5],[39.9435,-10.8296,25.0],[39.9325,-10.8298,25.5],[39.8879,-10.846,27.5],[39.8706,-10.8564,31.2689],[39.8602,-10.8682,29.0],[39.8431,-10.8798,32.8181],[39.8398,-10.8803,30.0],[39.7994,-10.9046,32.5],[39.7859,-10.9107,33.5],[39.7757,-10.9108,34.4613],[39.7248,-10.9358,37.0],[39.6945,-10.946,39.0],[39.681,-10.9473,41.1452],[39.6633,-10.946,41.7334],[39.6291,-10.9496,43.0],[39.6059,-10.9564,44.6471],[39.5935,-10.9619,45.0],[39.581,-10.9701,46.4904],[39.5584,-10.9787,47.4799],[39.5296,-10.9854,49.0],[39.5203,-10.9908,49.5],[39.5006,-11.011,51.0],[39.4963,-11.0135,51.5],[39.5032,-11.0183,53.4252],[39.5184,-11.0353,53.5474],[39.5184,-11.0588,50.0],[39.5275,-11.0835,57.4306],[39.5339,-11.1104,97.1365],[39.5458,-11.1785,129.7482],[39.5429,-11.2212,213.3551],[39.5336,-11.2707,246.5719],[39.5119,-11.3113,328.6646],[39.5022,-11.3235,384.9482],[39.5023,-11.334,530.0813],[39.5232,-11.3844,657.3964],[39.5465,-11.3896,667.1364],[39.5543,-11.3739,611.7976],[39.5781,-11.365,586.9166],[39.6247,-11.3853,592.8877],[39.6364,-11.371,552.7937],[39.6668,-11.3495,501.7772],[39.6711,-11.3287,509.0625],[39.7027,-11.3018,391.4132],[39.7091,-11.2739,341.6847],[39.727,-11.2656,290.8739],[39.7306,-11.2248,271.4693],[39.7306,-11.2009,239.9783],[39.7276,-11.186,229.0828],[39.7355,-11.1703,208.4713],[39.7519,-11.1592,214.4396],[39.7793,-11.1622,213.9917],[39.8443,-11.1485,190.209],[39.8739,-11.1475,187.1588],[39.9009,-11.1532,183.3917],[39.9221,-11.1473,140.4132],[39.9495,-11.1652,165.7663],[39.9668,-11.1651,158.2583],[39.9753,-11.1516,156.4203],[40.0129,-11.1473,141.4748],[40.0226,-11.111,125.1788],[40.0833,-11.0666,113.7579]]]]}}