{"type":"Feature","properties":{"GID_3":"MOZ.8.3.3_1","GID_0":"MOZ","country":"Mozambique","GID_1":"MOZ.8_1","province":"Nassa","NL_NAME_1":"NA","GID_2":"MOZ.8.3_1","county":"Lichinga","NL_NAME_2":"NA","city":"LagoNiassa","VARNAME_3":"NA","NL_NAME_3":"NA","TYPE_3":"Waterbody","ENGTYPE_3":"Waterbody","CC_3":"NA","HASC_3":"NA","name":"Lago_Niassa.city"},
"geometry":{"type": "MultiPolygon","coordinates": [[[[34.7768,-13.4793,474.5],[34.8369,-13.4808,474.5],[34.8484,-13.4787,474.5],[34.8614,-13.4792,474.5],[34.8676,-13.4826,482.1129],[34.8688,-13.4812,476.8947],[34.8671,-13.4757,482.4334],[34.8601,-13.4685,478.6609],[34.8618,-13.4565,480.4611],[34.8635,-13.4557,480.4372],[34.8632,-13.449,474.5],[34.8654,-13.4457,480.4582],[34.8665,-13.4368,476.629],[34.8688,-13.4343,476.6146],[34.8696,-13.4299,517.5109],[34.8676,-13.4271,476.9547],[34.8615,-13.4237,475.0927],[34.859,-13.4199,474.5],[34.8599,-13.4174,474.5],[34.8671,-13.4113,477.7466],[34.8713,-13.4007,480.6174],[34.8593,-13.3926,515.9531],[34.8563,-13.3876,486.2019],[34.8446,-13.3815,474.5],[34.8401,-13.3746,476.698],[34.8349,-13.3729,504.6757],[34.8349,-13.369,477.4368],[34.8321,-13.3693,482.1595],[34.8288,-13.3671,475.4822],[34.829,-13.3638,481.3774],[34.8257,-13.3657,476.0262],[34.8149,-13.3582,474.5],[34.8115,-13.354,474.5],[34.8129,-13.3521,474.5],[34.811,-13.3493,485.4948],[34.8068,-13.3507,480.6464],[34.804,-13.3479,574.9139],[34.8013,-13.3476,474.5],[34.8001,-13.3443,543.1288],[34.7929,-13.3376,474.5],[34.7907,-13.3274,479.5199],[34.7893,-13.3265,479.5199],[34.7946,-13.3179,474.5],[34.7932,-13.3149,474.5],[34.7951,-13.306,474.5],[34.7982,-13.299,480.3217],[34.8001,-13.2982,524.8785],[34.7993,-13.2963,474.5],[34.8032,-13.2929,474.5],[34.8015,-13.2885,474.5],[34.8063,-13.2768,513.2065],[34.8049,-13.2613,476.6034],[34.8115,-13.246,474.5],[34.816,-13.2396,498.8564],[34.816,-13.2346,494.608],[34.8143,-13.2324,481.4623],[34.8171,-13.2262,477.8968],[34.8149,-13.2232,476.1972],[34.8107,-13.2218,474.5],[34.8112,-13.2201,476.9093],[34.8076,-13.219,474.5],[34.8082,-13.2163,477.2784],[34.8115,-13.214,474.5],[34.8115,-13.2101,474.5],[34.8057,-13.2079,505.6284],[34.8063,-13.2013,497.9135],[34.8043,-13.1985,501.5757],[34.804,-13.194,533.5551],[34.8026,-13.1935,474.5],[34.804,-13.1901,544.9279],[34.8029,-13.1843,474.5],[34.804,-13.1843,501.6811],[34.8043,-13.1782,499.9096],[34.804,-13.1765,519.5813],[34.8001,-13.1757,478.1394],[34.7968,-13.1526,482.7931],[34.7982,-13.1488,485.6256],[34.7965,-13.1357,480.6095],[34.8007,-13.1263,477.7802],[34.8054,-13.1218,497.2034],[34.8088,-13.1151,480.7221],[34.8118,-13.1132,474.5],[34.8132,-13.1074,474.5],[34.8123,-13.102,475.3178],[34.5393,-13.1998,474.5],[34.5394,-13.2492,474.5],[34.5363,-13.2768,474.5],[34.5311,-13.3016,474.5],[34.5209,-13.3372,474.5],[34.5237,-13.3581,474.5],[34.5274,-13.3669,474.5],[34.5384,-13.3777,474.5],[34.5448,-13.3885,474.5],[34.5487,-13.3892,474.5],[34.5614,-13.4031,474.5],[34.5773,-13.4289,474.5],[34.5951,-13.4723,474.5],[34.6035,-13.4818,474.5],[34.6792,-13.4822,474.5],[34.7768,-13.4793,474.5]]]]}}