{"type": "Feature","bbox": [39.2181,-16.498,39.611,-16.0723],"geometry": {"type": "MultiPolygon","coordinates": [[[[39.5864,-16.2352,26.3054],[39.5761,-16.2208,29.7467],[39.5634,-16.1987,30.2146],[39.5541,-16.1915,28.6341],[39.528,-16.1781,34.713],[39.5116,-16.1506,39.5721],[39.4851,-16.1196,43.9325],[39.4658,-16.1013,40.3146],[39.4356,-16.0945,48.481],[39.4189,-16.0844,60.9569],[39.4109,-16.0779,52.8323],[39.407,-16.0723,54.3304],[39.401,-16.0746,51.8697],[39.392,-16.0808,54.8985],[39.3836,-16.0829,59.5758],[39.3645,-16.0842,67.2893],[39.3457,-16.0981,72.6367],[39.3449,-16.1121,97.1734],[39.326,-16.1293,111.7421],[39.3257,-16.1494,92.3244],[39.2919,-16.2317,62.4265],[39.2181,-16.3238,47.3714],[39.2551,-16.3514,41.5128],[39.2611,-16.3678,36.4424],[39.2998,-16.3729,44.5009],[39.3278,-16.394,29.3735],[39.3201,-16.412,25.8081],[39.3354,-16.4358,35.3347],[39.3381,-16.4625,19.3669],[39.3621,-16.4769,31.7684],[39.3773,-16.4891,24.0775],[39.3963,-16.498,10.2226],[39.3996,-16.4776,43.1646],[39.4034,-16.4685,37.0687],[39.4438,-16.4715,63.3238],[39.5339,-16.4446,50.1078],[39.5432,-16.4357,58.7925],[39.5432,-16.388,30.2799],[39.5637,-16.3702,23.4937],[39.55,-16.3538,33.2269],[39.6028,-16.332,18.1452],[39.6085,-16.3283,17.3538],[39.611,-16.3235,18.9734],[39.5916,-16.2959,22.967],[39.5886,-16.2857,22.1734],[39.5836,-16.2776,23.6706],[39.5836,-16.2537,26.2741],[39.5864,-16.2352,26.3054]]]]}
,"properties": {"GID_3": "MOZ.7.9.4_1","GID_0": "MOZ","country": "Mozambique","GID_1": "MOZ.7_1","province": "Nampula","NL_NAME_1": "NA","GID_2": "MOZ.7.9_1","county": "Moma","NL_NAME_2": "NA","city": "Mucuali","VARNAME_3": "NA","NL_NAME_3": "NA","TYPE_3": "Localidad","ENGTYPE_3": "Locality","CC_3": "NA","HASC_3": "NA","name": "Mucuali.city","area_km2": 1140.6239,"hist_schema_id": "Elevation0-9000","hist_area_km2": {"0": 2.5224,"25": 201.2947,"50": 443.1127,"75": 387.9146,"100": 103.9057,"125": 1.8739}}}