{"type":"Feature","properties":{"GID_3":"MOZ.7.13.2_1","GID_0":"MOZ","country":"Mozambique","GID_1":"MOZ.7_1","province":"Nampula","NL_NAME_1":"NA","GID_2":"MOZ.7.13_1","county":"Muecate","NL_NAME_2":"NA","city":"Mucoluane(Muculuone)","VARNAME_3":"NA","NL_NAME_3":"NA","TYPE_3":"Localidad","ENGTYPE_3":"Locality","CC_3":"NA","HASC_3":"NA","name":"Mucoluane(Muculuone).city"},
"geometry":{"type": "MultiPolygon","coordinates": [[[[39.2249,-14.8743,396.6541],[39.2314,-14.8967,447.8054],[39.2347,-14.8998,441.994],[39.2478,-14.8967,406.5016],[39.257,-14.8986,390.5362],[39.2626,-14.902,378.2839],[39.2664,-14.9114,405.4775],[39.3038,-14.9536,417.526],[39.3179,-14.9535,401.2849],[39.3275,-14.9511,396.4047],[39.3375,-14.9519,388.8146],[39.3486,-14.9683,369.4358],[39.3527,-14.9821,357.736],[39.3568,-14.9892,338.942],[39.3653,-14.9894,333.4888],[39.3796,-14.9936,331.7155],[39.3966,-15.0036,317.9986],[39.4046,-14.9995,299.4706],[39.4118,-14.9983,300.5222],[39.4183,-15.0077,301.613],[39.4319,-15.0103,305.4175],[39.4375,-15.0031,286.7213],[39.4404,-15.0037,293.6203],[39.4117,-14.9791,355.6952],[39.3986,-14.9498,403.7979],[39.3986,-14.9321,386.5898],[39.4046,-14.9065,360.4351],[39.4248,-14.8897,341.1337],[39.446,-14.8832,332.2932],[39.4674,-14.8745,315.1068],[39.479,-14.8633,311.1116],[39.4838,-14.8523,318.1907],[39.4936,-14.8142,337.6399],[39.5222,-14.7695,324.9637],[39.5199,-14.7413,324.4724],[39.5063,-14.7005,358.1581],[39.4641,-14.6906,381.7879],[39.446,-14.6819,382.2966],[39.4287,-14.6828,399.7839],[39.419,-14.6912,403.5802],[39.3986,-14.6715,431.6024],[39.3717,-14.6341,485.8504],[39.3509,-14.6222,480.5476],[39.3366,-14.6119,492.3095],[39.3148,-14.5918,491.4977],[39.2979,-14.5733,450.9965],[39.2871,-14.5542,438.9121],[39.2859,-14.5481,424.9558],[39.2923,-14.5389,430.5849],[39.3022,-14.5342,412.8646],[39.302,-14.5248,417.7922],[39.2982,-14.5188,418.1346],[39.2875,-14.5163,400.0227],[39.2871,-14.494,383.7587],[39.2669,-14.5178,394.6935],[39.2522,-14.5384,405.485],[39.2388,-14.5532,413.6949],[39.2355,-14.5598,412.0085],[39.2354,-14.5715,419.2804],[39.2298,-14.5879,426.5214],[39.2195,-14.6004,433.0656],[39.2164,-14.6115,445.1923],[39.2117,-14.6145,447.731],[39.1954,-14.643,474.7153],[39.1865,-14.6544,462.8563],[39.1881,-14.6733,478.8519],[39.2062,-14.6788,463.8904],[39.2281,-14.7001,458.3952],[39.2559,-14.7119,434.6931],[39.2595,-14.7199,424.4884],[39.2602,-14.7275,422.3926],[39.2642,-14.7335,420.4118],[39.2642,-14.7413,415.8033],[39.274,-14.7572,410.2933],[39.2707,-14.7857,394.8861],[39.2576,-14.7984,449.1338],[39.2478,-14.8111,415.6767],[39.2478,-14.8202,394.3634],[39.2597,-14.847,359.704],[39.2576,-14.8459,363.227],[39.2543,-14.8491,354.6356],[39.2288,-14.8553,377.2337],[39.2273,-14.8571,375.8543],[39.2249,-14.8743,396.6541]]]]}}