{"type":"Feature","properties":{"GID_3":"MOZ.9.4.2_1","GID_0":"MOZ","country":"Mozambique","GID_1":"MOZ.9_1","province":"Sofala","NL_NAME_1":"NA","GID_2":"MOZ.9.4_1","county":"Cheringoma","NL_NAME_2":"NA","city":"Inhamitanga","VARNAME_3":"NA","NL_NAME_3":"NA","TYPE_3":"Localidad","ENGTYPE_3":"Locality","CC_3":"NA","HASC_3":"NA","name":"Inhamitanga.city"},
"geometry":{"type": "MultiPolygon","coordinates": [[[[34.9502,-18.1651,31.7367],[34.9717,-18.1701,37.8451],[34.9802,-18.1752,45.149],[34.9942,-18.1958,61.0735],[35.0049,-18.2213,97.1486],[35.0211,-18.2476,132.7826],[35.0591,-18.2632,149.5601],[35.0892,-18.278,214.5846],[35.1022,-18.2822,203.484],[35.1146,-18.2829,187.4864],[35.1279,-18.2868,194.6589],[35.1344,-18.2979,200.4471],[35.1374,-18.3108,214.4335],[35.1441,-18.323,219.8332],[35.1564,-18.333,226.2367],[35.1566,-18.3517,198.3],[35.1605,-18.3629,195.387],[35.1735,-18.3838,174.5582],[35.1749,-18.3916,167.8993],[35.2323,-18.4231,161.1974],[35.2771,-18.4451,163.038],[35.2911,-18.4477,185.1562],[35.3769,-18.4935,136.2845],[35.3833,-18.4943,132.9911],[35.3893,-18.4911,135.2457],[35.3974,-18.486,116.2953],[35.4062,-18.4774,112.0993],[35.4274,-18.4891,99.4037],[35.4339,-18.4862,107.151],[35.4483,-18.4899,84.7856],[35.2905,-17.999,57.3198],[35.2929,-17.9865,48.0003],[35.3085,-17.9679,56.6298],[35.3082,-17.9494,58.0609],[35.3158,-17.9216,48.9255],[35.3235,-17.9123,66.8969],[35.3229,-17.8626,23.7693],[35.3114,-17.8753,24.2077],[35.308,-17.8888,23.1543],[35.2855,-17.9126,23.2754],[35.2764,-17.9157,23.3024],[35.2629,-17.9235,23.5592],[35.2457,-17.9182,23.8863],[35.2197,-17.8984,24.9207],[35.2073,-17.9031,26.7062],[35.1963,-17.911,24.945],[35.1602,-17.9507,23.3427],[35.1494,-17.9496,24.0829],[35.1313,-17.9645,25.4157],[35.0974,-17.9745,22.8283],[35.0841,-17.9887,23.0338],[35.0709,-17.9995,23.0091],[35.0704,-18.0128,23.0519],[35.072,-18.0232,23.3669],[35.076,-18.0334,23.8943],[35.0699,-18.0577,24.090699999999998],[35.0724,-18.064,24.0178],[35.0647,-18.0647,25.0617],[35.0569,-18.0727,25.6351],[35.0511,-18.0749,25.1996],[35.0208,-18.0956,27.3118],[35.0167,-18.0952,27.798],[35.0127,-18.0994,27.7139],[35.0041,-18.1043,27.9021],[34.9969,-18.0973,28.5255],[34.9818,-18.1046,28.8925],[34.9754,-18.1158,27.3076],[34.9728,-18.1294,29.4848],[34.9573,-18.1449,29.0294],[34.9578,-18.1573,31.8162],[34.9502,-18.1651,31.7367]]]]}}