{"type":"Feature","properties":{"GID_3":"MOZ.2.2.1_1","GID_0":"MOZ","country":"Mozambique","GID_1":"MOZ.2_1","province":"Gaza","NL_NAME_1":"NA","GID_2":"MOZ.2.2_1","county":"Chibuto","NL_NAME_2":"NA","city":"AltoChangane","VARNAME_3":"NA","NL_NAME_3":"NA","TYPE_3":"Localidad","ENGTYPE_3":"Locality","CC_3":"NA","HASC_3":"NA","name":"Alto_Changane.city"},
"geometry":{"type": "MultiPolygon","coordinates": [[[[33.5124,-24.5195,5.6118],[33.5361,-24.5206,21.7284],[33.5815,-24.5277,57.9038],[33.6292,-24.53,78.7043],[33.6781,-24.53,89.0575],[33.7548,-24.5137,64.5519],[33.7589,-24.5072,63.9903],[33.7584,-24.5005,61.9179],[33.8327,-24.5004,67.7037],[33.8341,-24.4951,73.5125],[33.8328,-24.4859,82.2985],[33.8368,-24.4483,99.25],[33.8303,-24.4045,73.763],[33.8313,-24.272,56.8537],[33.7938,-24.2671,37.8081],[33.7353,-24.2642,30.823],[33.6749,-24.2546,27.0644],[33.642,-24.2518,6.9323],[33.6377,-24.2427,7.5466],[33.633,-24.2014,31.2352],[33.6262,-24.1859,44.4453],[33.6129,-24.1633,47.6577],[33.614,-24.1559,41.9899],[33.609,-24.1497,43.012],[33.6058,-24.1286,39.1183],[33.6061,-23.9161,40.1456],[33.592,-23.9114,40.8027],[33.5594,-23.9073,41.9167],[33.5284,-23.8878,44.8092],[33.4947,-23.8834,44.5373],[33.4829,-23.8757,47.8302],[33.4603,-23.8494,47.327],[33.4485,-23.8386,48.1265],[33.3664,-23.788,54.6181],[33.3591,-24.1459,43.938],[33.2612,-24.2428,35.3347],[33.2716,-24.2694,36.0473],[33.2755,-24.2754,35.0709],[33.2772,-24.2826,31.3221],[33.2811,-24.2883,31.1854],[33.2978,-24.3112,29.54],[33.3266,-24.3362,27.349],[33.3304,-24.3414,27.7581],[33.3454,-24.3692,23.7497],[33.3724,-24.4333,17.1346],[33.3764,-24.4465,12.2653],[33.3829,-24.4546,10.1409],[33.4014,-24.4697,7.5],[33.4115,-24.4749,7.5],[33.4275,-24.48,7.5],[33.4355,-24.4909,13.2628],[33.4301,-24.4984,7.5],[33.452,-24.5039,12.7228],[33.4601,-24.5088,12.1623],[33.4712,-24.5123,7.8123],[33.4885,-24.5137,6.5242],[33.5069,-24.5196,5.356],[33.5124,-24.5195,5.6118]]]]}}