{"type":"Feature","properties":{"GID_3":"MOZ.10.8.2_1","GID_0":"MOZ","country":"Mozambique","GID_1":"MOZ.10_1","province":"Tete","NL_NAME_1":"NA","GID_2":"MOZ.10.8_1","county":"Maravia","NL_NAME_2":"NA","city":"Chiputo","VARNAME_3":"NA","NL_NAME_3":"NA","TYPE_3":"Localidad","ENGTYPE_3":"Locality","CC_3":"NA","HASC_3":"NA","name":"Chiputo.city"},
"geometry":{"type": "MultiPolygon","coordinates": [[[[32.6169,-14.9103,464.675],[32.6127,-14.9012,467.4535],[32.6138,-14.8912,463.9923],[32.6072,-14.8798,462.5654],[32.5961,-14.8701,474.5798],[32.5889,-14.8497,477.0972],[32.5739,-14.8417,476.9592],[32.5663,-14.8291,499.0573],[32.5604,-14.7875,499.0465],[32.5629,-14.7789,496.5112],[32.5606,-14.7743,503.4109],[32.5375,-14.7742,521.4564],[32.5312,-14.7632,521.5905],[32.521,-14.7543,517.0264],[32.49,-14.7496,534.8041],[32.4344,-14.7675,558.3802],[32.4081,-14.7707,564.8627],[32.3703,-14.7652,608.0916],[32.3548,-14.7666,613.1534],[32.3408,-14.771,624.7269],[32.3347,-14.7858,659.4751],[32.3191,-14.7919,679.0591],[32.2559,-14.8009,690.6967],[32.2247,-14.8081,702.7995],[32.2095,-14.8149,710.7549],[32.197,-14.8229,751.1349],[32.1834,-14.8427,745.0368],[32.1176,-14.8382,769.1891],[32.0957,-14.8241,786.1354],[32.0724,-14.8178,807.8408],[32.0469,-14.8057,825.4119],[32.0253,-14.8124,854.4611],[32.0188,-14.8202,914.6211],[31.9992,-14.8317,919.2878],[31.9812,-14.8546,929.5535],[31.9307,-14.8757,968.7544],[31.9147,-14.8766,988.1411],[31.9064,-14.8798,1007.8424],[31.8893,-14.9017,1048.5765],[31.874,-14.9322,1116.7743],[31.8846,-14.9444,1119.8623],[31.885,-14.9584,1077.9668],[31.8908,-14.9777,1070.0406],[31.8935,-14.9973,1038.1606],[31.8915,-15.0089,1019.7842],[31.8832,-15.0336,1000.2687],[31.8833,-15.0466,990.5899],[31.8892,-15.0488,979.0599],[31.8931,-15.0547,972.5106],[31.8967,-15.0662,965.2657],[31.9011,-15.0702,964.6083],[31.9208,-15.0703,986.8005],[31.9407,-15.0728,936.6697],[31.9502,-15.0748,930.2531],[31.9671,-15.0823,900.6865],[31.9736,-15.0806,896.8818],[31.9786,-15.0823,894.09],[31.9817,-15.0872,903.1014],[32.0001,-15.0934,939.7939],[32.0304,-15.1149,828.395],[32.0447,-15.1075,807.5193],[32.0546,-15.1086,814.1481],[32.0864,-15.1123,805.7534],[32.1465,-15.1275,779.4855],[32.1526,-15.144,750.5399],[32.1575,-15.1523,748.5178],[32.1759,-15.1543,734.9875],[32.1984,-15.1734,732.7541],[32.1988,-15.177,723.7249],[32.2031,-15.1797,720.4503],[32.2014,-15.1921,713.8776],[32.2038,-15.1985,692.6355],[32.1926,-15.2093,664.2386],[32.1911,-15.2155,632.9169],[32.1946,-15.2207,602.7057],[32.2914,-15.2348,575.8662],[32.3904,-15.2556,546.9343],[32.5063,-15.2847,496.8084],[32.5373,-15.291,576.9782],[32.5692,-15.3034,497.4247],[32.6102,-15.3139,518.3261],[32.6264,-15.3207,449.528],[32.6409,-15.3235,459.3911],[32.661,-15.3234,444.0954],[32.6654,-15.3181,460.6379],[32.6913,-15.3211,422.7272],[32.7015,-15.3251,418.4946],[32.7057,-15.321,407.7965],[32.7114,-15.3185,416.7678],[32.7172,-15.3221,447.9127],[32.7427,-15.3245,465.7223],[32.7572,-15.3193,404.4701],[32.7689,-15.3189,410.0308],[32.7726,-15.3227,357.8704],[32.7738,-15.3267,332.3945],[32.7828,-15.3282,333.3011],[32.7891,-15.3312,354.8641],[32.7998,-15.3311,330.9872],[32.822,-15.3247,304.5219],[32.8176,-15.3225,310.9288],[32.8071,-15.3084,313.1835],[32.7876,-15.2395,373.5924],[32.7555,-15.1882,347.4552],[32.7474,-15.1804,351.0869],[32.7358,-15.177,345.9585],[32.7294,-15.1723,348.085],[32.714,-15.1551,365.9066],[32.6933,-15.1211,354.4613],[32.6746,-15.0862,387.017],[32.6657,-15.0647,385.4796],[32.6459,-15.0383,389.7891],[32.6404,-15.0204,401.5612],[32.6415,-15.0003,440.2075],[32.6303,-14.9661,423.2649],[32.61,-14.9345,422.6606],[32.6169,-14.9103,464.675]]]]}}