{"type":"Feature","properties":{"GID_3":"MOZ.4.3.1_1","GID_0":"MOZ","country":"Mozambique","GID_1":"MOZ.4_1","province":"Manica","NL_NAME_1":"NA","GID_2":"MOZ.4.3_1","county":"Guro","NL_NAME_2":"NA","city":"Dacata","VARNAME_3":"NA","NL_NAME_3":"NA","TYPE_3":"Localidad","ENGTYPE_3":"Locality","CC_3":"NA","HASC_3":"NA","name":"Dacata.city"},
"geometry":{"type": "MultiPolygon","coordinates": [[[[33.2269,-17.3594,639.0355],[33.3095,-17.2807,669.8396],[33.3044,-17.2719,662.9741],[33.3021,-17.2317,630.494],[33.3027,-17.2129,613.2074],[33.3013,-17.2061,600.7054],[33.2963,-17.199,599.5223],[33.284,-17.1883,578.9993],[33.2784,-17.1808,587.8196],[33.2722,-17.1579,569.4131],[33.2519,-17.1184,522.0765],[33.2479,-17.1049,505.6108],[33.2421,-17.0994,511.5551],[33.2387,-17.0741,457.194],[33.2324,-17.0693,449.6007],[33.2279,-17.0485,431.3451],[33.2286,-17.0405,413.9912],[33.2141,-17.0123,374.4026],[33.2096,-17.0067,361.442],[33.2107,-17.0002,359.8686],[33.2095,-16.9874,338.4776],[33.1954,-16.9999,349.0615],[33.1506,-17.0306,387.259],[33.1429,-17.0387,395.0348],[33.1402,-17.0709,416.4437],[33.1312,-17.0754,431.3293],[33.1271,-17.083,436.3819],[33.125,-17.0918,426.4617],[33.1129,-17.101,435.8024],[33.1058,-17.104,433.8055],[33.1051,-17.1103,445.5517],[33.1123,-17.1242,452.7922],[33.1159,-17.1289,451.5562],[33.1234,-17.1324,455.8656],[33.1235,-17.1374,464.2438],[33.111,-17.1502,463.4871],[33.1066,-17.1562,459.9479],[33.1057,-17.1626,474.2065],[33.1027,-17.1681,473.1443],[33.0948,-17.1752,463.2201],[33.0928,-17.1795,465.8199],[33.0903,-17.1952,471.1352],[33.091,-17.2204,479.9287],[33.0893,-17.2328,488.7999],[33.087,-17.2367,489.7043],[33.1079,-17.261,504.5095],[33.1232,-17.2668,538.4915],[33.1286,-17.2673,552.9222],[33.1346,-17.2716,540.0649],[33.1372,-17.2804,541.2118],[33.1314,-17.2856,543.001],[33.1273,-17.3017,558.9868],[33.1275,-17.3074,562.4863],[33.1447,-17.3127,574.4658],[33.1646,-17.3377,599.5732],[33.1665,-17.3463,591.6036],[33.1776,-17.3489,598.3945],[33.1836,-17.3556,602.9047],[33.2062,-17.361,624.8177],[33.2179,-17.3591,635.8354],[33.2269,-17.3594,639.0355]]]]}}