{"type":"Feature","properties":{"featurecla":"Reservoir","scalerank":7,"name":"Lago de Cahora Bassa","name_abb":"Lago de Cahora Bassa","name_alt":"Cahora Bassa","note":null,"delta":null,"dam_name":null,"year":1974,"admin":null,"min_zoom":5.7,"min_label":6.7},
"geometry":{"type": "Polygon","coordinates": [[[32.704300082395974,-15.572631639574666,629.9867],[32.68722696302234,-15.573220367828924,679.4457],[32.680456588098309,-15.572042911320409,647.4096],[32.680750952225424,-15.569099270049065,571.9335],[32.682517136988224,-15.564683808142092,598.0723],[32.680750952225424,-15.559385253853748,370.938],[32.680750952225424,-15.532303754157624,355.4907],[32.662794740470389,-15.543489590988628,423.8468],[32.642483615698325,-15.5452557757514,368.6996],[32.605688099806855,-15.539074129081655,460.7441],[32.601272637899882,-15.536424851937454,435.909],[32.598034632501424,-15.532009390030481,431.3452],[32.593030442340194,-15.527593928123508,451.0559],[32.585082610907648,-15.52523901510645,581.2825],[32.58361079027199,-15.527888292250651,671.8593],[32.574191138203759,-15.539368493208769,562.1549],[32.570953132805329,-15.542312134480085,601.8087],[32.5606503883557,-15.543489590988628,321.0],[32.552113828668894,-15.54025158559017,321.0],[32.544165997236348,-15.54113467797157,439.9483],[32.536806894058032,-15.553203607183974,321.0],[32.526504149608428,-15.548199417022744,324.1772],[32.500305742293705,-15.54025158559017,618.9716],[32.488531177208444,-15.539074129081655,501.4188],[32.481760802284413,-15.54025158559017,396.972],[32.469986237199151,-15.545550139878543,322.3223],[32.461744041639463,-15.545844504005686,334.9026],[32.457034215605375,-15.543195226861485,357.1111],[32.447025835282886,-15.533775574793282,464.4332],[32.441138552740256,-15.532303754157624,489.6238],[32.427303438765051,-15.536424851937454,321.0],[32.409641591137159,-15.550259965912659,432.1651],[32.395806477161983,-15.553203607183974,356.0222],[32.384031912076722,-15.551731786548316,321.0],[32.344292754913937,-15.539074129081655,364.8032],[32.347530760312395,-15.533186846539024,321.0],[32.349885673329425,-15.523767194470793,343.2727],[32.351946222219368,-15.517879911928162,321.0],[32.336639287608506,-15.523178466216535,323.6977],[32.324275994268987,-15.529360112886309,352.4241],[32.313678885692241,-15.536424851937454,321.0],[32.2854199294876,-15.564389444014978,321.0],[32.275705913292256,-15.568510541794808,321.0],[32.174444653558965,-15.591470943711073,321.0],[32.117632377022545,-15.593531492601016,321.0],[32.105857811937284,-15.596769497999446,321.0],[32.094377610979137,-15.604422965304877,321.0],[32.07877631224116,-15.620612992297112,371.4786],[32.070534116681472,-15.62561718245837,336.3854],[32.05699336683341,-15.627677731348285,341.7159],[32.030500595391572,-15.617374986898682,321.0],[32.004007823949735,-15.597652590380847,334.2827],[31.978986873143526,-15.5879385741855,412.3919],[31.946606819159058,-15.61972989991574,575.3349],[31.934537889946654,-15.616197530390139,548.5762],[31.913049308666046,-15.594120220855274,369.7115],[31.900097287072242,-15.587349845931243,369.3313],[31.885379080715666,-15.588232938312643,334.64],[31.856237032129627,-15.599124411016504,395.6039],[31.830627353069161,-15.605600421813421,354.1413],[31.678146735214966,-15.624145361822713,367.5052],[31.66843271901962,-15.627383367221142,336.1369],[31.660484887587074,-15.633565013890916,329.201],[31.649299050756071,-15.645339578976177,328.2118],[31.634580844399466,-15.656819779934324,327.8456],[31.629871018365378,-15.65063813326455,321.5597],[31.631931567255293,-15.62473409007697,329.8633],[31.628104833602578,-15.614431345627366,410.1851],[31.619273909788632,-15.615903166263024,406.4206],[31.610148621847543,-15.624145361822713,330.9095],[31.604555703432055,-15.635331198653716,321.0],[31.596313507872367,-15.617080622771539,321.4624],[31.581300937388647,-15.609427155466108,323.8122],[31.56305036150647,-15.607660970703336,337.2225],[31.542739236734405,-15.60795533483045,336.9852],[31.53390831292046,-15.609721519593251,331.3491],[31.516540829419682,-15.618846807534339,331.2451],[31.508298633859994,-15.621496084678512,337.4408],[31.501528258935963,-15.620907356424254,344.2257],[31.483572047180928,-15.615608802135881,330.1096],[31.474741123366982,-15.614725709754481,338.3438],[31.463555286535978,-15.618552443407197,329.6352],[31.454724362722033,-15.624439725949827,332.3415],[31.4461878030352,-15.625322818331227,328.2873],[31.437062515094141,-15.614725709754481,341.489],[31.431175232551482,-15.610898976101765,341.1376],[31.364648939819745,-15.617080622771539,327.2208],[31.34580963568331,-15.615608802135881,331.7864],[31.33079706519959,-15.60795533483045,321.0],[31.329619608691075,-15.626500274839742,321.0],[31.3216717772585,-15.643867758340519,329.0945],[31.307836663283325,-15.654170502790123,321.0],[31.28988045152829,-15.652404318027351,350.0755],[31.271629875646141,-15.652404318027351,321.8332],[31.253084935636821,-15.680957638359104,321.0],[31.234539995627529,-15.676247812325016,350.2907],[31.226592164194983,-15.690377290427335,321.0],[31.197450115608945,-15.680074545977732,321.0],[31.183026273379511,-15.690082926300192,321.0],[31.172134800675622,-15.702740583766854,321.0],[31.158005322573302,-15.708627866309484,321.0],[31.141226567326811,-15.7106884151994,321.0],[31.124742176207434,-15.710982779326542,321.0],[31.096188855875653,-15.706567317419569,321.0],[31.040848399974891,-15.687139285028877,332.3852],[31.001697971066392,-15.680663274231989,321.61],[30.827434407804446,-15.630032644365343,321.0],[30.818014755736215,-15.629149551983943,322.0091],[30.809772560176526,-15.632681921509516,321.0],[30.796526174455607,-15.642101573577747,321.0],[30.811244380812212,-15.653876138663009,321.0],[30.823607674151731,-15.656231051680066,321.0],[30.836265331618392,-15.655053595171523,321.0],[30.850983537974969,-15.655642323425781,321.0],[30.891900151646269,-15.672126714545158,321.0],[30.906323993875731,-15.676247812325016,328.6877],[30.959603900886549,-15.683018187249047,321.0],[30.992867047252446,-15.695970208842823,321.0],[31.035549845686518,-15.702740583766854,321.0],[31.088829752697364,-15.725995349810262,321.0],[31.169485523531449,-15.73747555076838,321.0],[31.182437545125225,-15.736886822514123,321.0],[31.191268468939171,-15.734826273624208,321.0],[31.213640142601179,-15.723934800920347,321.0],[31.214228870855464,-15.738064279022666,321.0],[31.213051414346921,-15.75013320823507,321.0],[31.208635952439948,-15.761319045066045,321.0],[31.20039375688026,-15.771621789515677,334.2066],[31.188030463540741,-15.777509072058308,323.7834],[31.160065871463217,-15.776920343804051,330.0665],[31.1485856705051,-15.781924533965281,321.0],[31.143875844470983,-15.798408925084658,321.0],[31.144758936852384,-15.823724240017981,321.0],[31.150351855267871,-15.848156462569904,321.0],[31.158888414954703,-15.861108484163708,321.0],[31.193329017829114,-15.811360946678434,321.0],[31.207164131804291,-15.798997653338915,321.0],[31.236600544517472,-15.784279446982339,321.0],[31.247492017221333,-15.775742887295507,321.0],[31.258383489925194,-15.758081039667616,321.0],[31.271924239773256,-15.743951561565297,341.4081],[31.277222794061629,-15.735120637751351,340.9117],[31.2722186039004,-15.731293904098635,323.1615],[31.263387680086453,-15.728644626954434,321.9014],[31.257500397543822,-15.721874252030403,321.0],[31.256322941035279,-15.713926420597858,321.0],[31.261915859450795,-15.707156045673827,321.0],[31.278694614697287,-15.700385670749796,321.0],[31.294001549308149,-15.699796942495539,321.0],[31.308425391537583,-15.705684225038169,321.0],[31.323437962021302,-15.717164425996316,321.0],[31.328736516309675,-15.682723823121904,361.6277],[31.336978711869364,-15.6706548939095,321.0],[31.354640559497255,-15.679485817723446,321.0],[31.37083058648949,-15.694204024080051,321.0],[31.379661510303464,-15.695970208842823,321.0],[31.385548792846095,-15.685373100266077,321.0],[31.392907896024383,-15.663001426604069,321.0],[31.412335928415075,-15.67565908407073,321.0],[31.434707602077083,-15.682723823121904,321.0],[31.458256732247605,-15.685078736138962,321.0],[31.481511498291013,-15.683018187249047,321.0],[31.489459329723559,-15.684195643757562,321.0],[31.498290253537505,-15.687139285028877,321.0],[31.505649356715793,-15.68655055677462,321.0],[31.508298633859994,-15.676247812325016,322.7823],[31.512125367512709,-15.66653379612967,321.0],[31.521545019580913,-15.663590154858355,321.0],[31.532730856411916,-15.665356339621127,321.0],[31.542444872607263,-15.669477437400985,321.0],[31.53891250308169,-15.674187263435073,321.0],[31.533319584666174,-15.685078736138962,326.7311],[31.5289041227592,-15.689788562173078,321.0],[31.546271606259978,-15.700974399004053,321.0],[31.555985622455324,-15.695381480588566,321.5934],[31.562755997379355,-15.683606915503304,321.0],[31.570409464684786,-15.676247812325016,321.0],[31.585127671041363,-15.676542176452131,321.0],[31.593369866601051,-15.681840730740504,321.0],[31.607793708830485,-15.700385670749796,321.0],[31.628693561856835,-15.7106884151994,321.0],[31.658129974570016,-15.713926420597858,321.0],[31.770282707007169,-15.703918040275397,321.0],[31.797658570830436,-15.696853301224223,321.0],[31.823562614018016,-15.68655055677462,321.0],[31.838280820374592,-15.677425268833531,321.0],[31.845934287680024,-15.670949258036643,321.0],[31.854765211493969,-15.668299980892442,321.0],[31.872132694994747,-15.669477437400985,321.0],[31.909222575013331,-15.681252002486247,321.0],[31.934832254073768,-15.685373100266077,321.0],[31.960736297261377,-15.695087116461423,321.0],[31.987817796957472,-15.699796942495539,321.0],[32.009895106492365,-15.711865871707943,321.0],[32.022847128086141,-15.717164425996316,321.0],[32.077598855732646,-15.723934800920347,321.0],[32.114100007496972,-15.736298094259865,321.0],[32.128523849726406,-15.73747555076838,321.0],[32.142358963701611,-15.731293904098635,321.0],[32.145596969100069,-15.71745879012343,321.0],[32.146185697354326,-15.703623676148254,321.0],[32.152956072278357,-15.697147665351366,321.0],[32.164141909109361,-15.695675844715709,321.0],[32.226841468188411,-15.6724210786723,321.0],[32.24097094629073,-15.669477437400985,321.0],[32.251862418994591,-15.672715442799415,321.0],[32.265403168842653,-15.678602725342074,321.0],[32.28100446758063,-15.675953448197873,321.0],[32.294839581555806,-15.66741688851107,321.0],[32.303376141242637,-15.655642323425781,321.0],[32.321626717124786,-15.663884518985469,321.0],[32.331635097447275,-15.662412698349812,321.0],[32.339582928879821,-15.655642323425781,321.0],[32.351946222219368,-15.64887194850175,321.0],[32.372257346991432,-15.644162122467662,321.0],[32.3996332108147,-15.642101573577747,321.0],[32.395806477161983,-15.620024264042854,321.0],[32.409641591137159,-15.606777878321935,322.7771],[32.430541444163509,-15.595592041490931,327.8417],[32.447614563537144,-15.579990742752955,321.0],[32.477050976250325,-15.602362416414962,385.335],[32.490591726098387,-15.608544063084736,343.1461],[32.509431030234794,-15.60795533483045,381.3052],[32.526798513735571,-15.60295114466922,406.4941],[32.539161807075089,-15.595592041490931,492.1402],[32.543577268982062,-15.58381747640567,321.0],[32.536806894058032,-15.56703872115915,321.0],[32.552113828668894,-15.571159818939009,321.0],[32.570953132805329,-15.573514731956067,329.1664],[32.590086801068878,-15.573514731956067,454.8391],[32.628354137596006,-15.562623259252177,321.0],[32.642777979825439,-15.566449992904893,637.2955],[32.669859479521563,-15.597358226253732,697.5612],[32.68722696302234,-15.609132791338993,354.2785],[32.702828261760317,-15.60795533483045,631.2067],[32.711070457320005,-15.595297677363789,614.074],[32.707538087794404,-15.573220367828924,631.2024],[32.704300082395974,-15.572631639574666,629.9867]]]}}