{"type": "Feature","bbox": [33.7178,-15.1457,34.5496,-14.3842],"geometry": {"type": "MultiPolygon","coordinates": [[[[33.7202,-14.4908,1283.5525],[33.7178,-14.4927,1295.1389],[33.7417,-14.5191,1263.5229],[33.747,-14.5317,1239.1597],[33.7554,-14.5394,1234.4065],[33.7635,-14.5536,1219.6079],[33.7788,-14.5902,1225.9614],[33.7791,-14.5964,1188.0188],[33.788,-14.5987,1168.3011],[33.8062,-14.6319,1132.5173],[33.8181,-14.6373,1113.347],[33.8179,-14.6476,1109.0968],[33.8405,-14.6719,1108.589],[33.8469,-14.6809,1078.8942],[33.8552,-14.6846,1074.2129],[33.8712,-14.707,1058.3514],[33.8796,-14.7147,1055.1531],[33.8814,-14.7233,1047.6472],[33.8887,-14.7241,1064.4971],[33.8987,-14.7349,1038.7371],[33.9078,-14.7505,1038.2957],[33.9174,-14.7567,1023.7544],[33.9195,-14.7642,1018.7832],[33.926,-14.7708,1017.385],[33.9464,-14.775,999.4354],[33.9481,-14.7836,1008.3093],[33.9472,-14.7901,1007.2227],[33.9505,-14.7935,1004.7983],[33.9635,-14.7984,992.4276],[33.9719,-14.8047,999.4437],[33.9673,-14.8111,1060.3131],[33.9655,-14.8197,958.6139],[33.9742,-14.8252,968.6575],[33.9835,-14.8369,961.2814],[34.008,-14.854,953.0794],[34.0162,-14.8649,948.3345],[34.0211,-14.8906,941.3331],[34.0227,-14.9118,931.5745],[34.0208,-14.9273,924.4115],[34.0215,-14.9365,900.1531],[34.0269,-14.9459,890.8351],[34.0305,-14.9473,886.0685],[34.0335,-14.9541,877.3472],[34.0317,-14.9732,871.0357],[34.0367,-14.9822,856.537],[34.0418,-14.9854,856.1766],[34.051,-15.0177,822.4762],[34.0555,-15.0398,815.8447],[34.0672,-15.0652,813.5212],[34.0775,-15.078,828.4043],[34.0782,-15.0836,801.0803],[34.0736,-15.0907,796.0114],[34.074,-15.1036,782.7048],[34.0675,-15.1346,773.2731],[34.0641,-15.1403,750.2769],[34.0904,-15.1457,794.6537],[34.0935,-15.1429,779.3848],[34.1036,-15.1134,805.2237],[34.108,-15.11,821.5441],[34.1356,-15.1048,850.3289],[34.1494,-15.0945,867.7046],[34.1578,-15.0942,853.0264],[34.15,-15.0616,863.9007],[34.1525,-15.0412,875.5737],[34.1506,-15.0323,869.5015],[34.1631,-15.0231,864.2733],[34.1616,-15.0124,882.3604],[34.1575,-15.0052,873.014],[34.1577,-15.002,868.0532],[34.1609,-14.9971,871.0036],[34.158,-14.9924,888.8658],[34.1567,-14.9817,877.4075],[34.1657,-14.9582,930.1521],[34.1931,-14.9453,938.532],[34.1954,-14.9334,931.998],[34.2064,-14.9249,944.0031],[34.2132,-14.9233,939.8918],[34.224,-14.916,956.5907],[34.2345,-14.8935,977.6633],[34.2449,-14.8832,981.5341],[34.2564,-14.883,995.0333],[34.2661,-14.876,987.968],[34.2772,-14.8587,990.2742],[34.3064,-14.8264,1024.4044],[34.3229,-14.8215,1067.0616],[34.3368,-14.8129,1086.9867],[34.3443,-14.8043,1107.0813],[34.3513,-14.7863,1148.7024],[34.3519,-14.7804,1161.3259],[34.3624,-14.7776,1170.8228],[34.3663,-14.769,1178.9348],[34.3682,-14.7582,1179.5131],[34.3771,-14.7579,1188.4524],[34.3836,-14.7534,1199.3857],[34.3765,-14.7462,1206.8702],[34.3816,-14.742,1229.0359],[34.3937,-14.7417,1223.2563],[34.4106,-14.7349,1232.1323],[34.4125,-14.721,1243.4707],[34.4173,-14.7097,1241.1727],[34.4392,-14.7008,1270.0232],[34.4564,-14.6908,1272.6877],[34.4692,-14.6922,1285.9216],[34.4759,-14.6875,1305.6619],[34.4853,-14.6861,1289.4996],[34.5191,-14.6858,1382.4491],[34.5185,-14.6832,1388.4382],[34.526,-14.6851,1349.973],[34.532,-14.6887,1337.0222],[34.5327,-14.6855,1382.3259],[34.5409,-14.6848,1360.0065],[34.5404,-14.6751,1386.4226],[34.5359,-14.6721,1376.9832],[34.5383,-14.6681,1397.9897],[34.5386,-14.6568,1402.8134],[34.5408,-14.6525,1420.9402],[34.5451,-14.6519,1437.0454],[34.5496,-14.6439,1452.738],[34.5486,-14.6392,1446.5076],[34.5413,-14.6312,1473.123],[34.5408,-14.6242,1480.671],[34.5433,-14.6196,1499.9749],[34.5402,-14.614,1490.7413],[34.5409,-14.5994,1519.8729],[34.5339,-14.5848,1559.6782],[34.5267,-14.5792,1554.4937],[34.5226,-14.5645,1554.3735],[34.5122,-14.5515,1490.7729],[34.5011,-14.552,1505.9562],[34.4929,-14.5504,1462.9583],[34.4852,-14.5366,1522.5723],[34.4726,-14.5298,1500.7124],[34.4706,-14.5242,1502.2094],[34.4664,-14.5202,1467.0483],[34.4673,-14.5194,1453.0289],[34.4567,-14.5097,1451.588],[34.45,-14.497,1464.0323],[34.4454,-14.4758,1501.0548],[34.4366,-14.464,1530.177],[34.4299,-14.4603,1509.5226],[34.4251,-14.452,1526.4492],[34.4215,-14.4412,1544.8792],[34.4197,-14.4403,1558.1251],[34.4181,-14.4287,1540.5151],[34.4019,-14.4174,1545.1265],[34.4001,-14.412,1568.5327],[34.3929,-14.403,1556.512],[34.3932,-14.3956,1580.9135],[34.3919,-14.3931,1586.1594],[34.3891,-14.3933,1579.9606],[34.3862,-14.3962,1582.8243],[34.3757,-14.3945,1533.6777],[34.3715,-14.3863,1549.3101],[34.3693,-14.3849,1547.5739],[34.3634,-14.3859,1539.6067],[34.3561,-14.3842,1564.6029],[34.3448,-14.3955,1620.7217],[34.3265,-14.397,1566.9645],[34.312,-14.4038,1561.4633],[34.3097,-14.404,1558.6084],[34.3065,-14.4003,1541.615],[34.3044,-14.4003,1547.9622],[34.2876,-14.4074,1516.3481],[34.2801,-14.4127,1495.7341],[34.2713,-14.4239,1510.379],[34.2626,-14.4293,1526.1296],[34.2558,-14.429,1520.9833],[34.2372,-14.4229,1535.7274],[34.2294,-14.4273,1493.7504],[34.225,-14.4273,1472.1658],[34.223,-14.4293,1469.2302],[34.2228,-14.4324,1470.8723],[34.22,-14.4342,1465.8308],[34.2051,-14.4395,1445.147],[34.1941,-14.4373,1450.4719],[34.1893,-14.438,1450.9438],[34.1839,-14.4343,1423.0338],[34.1755,-14.4316,1421.5884],[34.1672,-14.4385,1348.7688],[34.1261,-14.4464,1295.6119],[34.1183,-14.4473,1321.5125],[34.1158,-14.4452,1323.0698],[34.1082,-14.4463,1307.8528],[34.0931,-14.4502,1311.9987],[34.0858,-14.4566,1318.8658],[34.0829,-14.463,1329.4934],[34.0822,-14.4782,1335.252],[34.0743,-14.485,1326.2784],[34.0468,-14.4812,1324.6304],[34.0324,-14.4816,1320.083],[33.9726,-14.4764,1253.7556],[33.9717,-14.48,1255.9308],[33.9424,-14.4781,1289.2552],[33.9402,-14.4763,1283.6544],[33.9378,-14.47,1280.9315],[33.9354,-14.4687,1280.001],[33.9285,-14.4727,1263.2435],[33.9235,-14.4785,1253.6936],[33.9144,-14.476,1252.3215],[33.9121,-14.4767,1254.774],[33.9068,-14.4845,1261.0594],[33.8992,-14.4854,1260.4628],[33.8857,-14.4962,1262.8109],[33.8829,-14.501,1257.8838],[33.8863,-14.5135,1267.6482],[33.878,-14.5194,1274.1738],[33.8737,-14.5195,1270.0933],[33.864,-14.5104,1268.6226],[33.8652,-14.5041,1271.8192],[33.8558,-14.5041,1268.3461],[33.8449,-14.5114,1258.5908],[33.8136,-14.5418,1279.9121],[33.8047,-14.5433,1277.6292],[33.7917,-14.5315,1283.0969],[33.7689,-14.5222,1280.5754],[33.7428,-14.4964,1302.3804],[33.7294,-14.488,1279.9036],[33.7202,-14.4908,1283.5525]]]]}
,"properties": {"GID_2": "MOZ.10.1_1","GID_0": "MOZ","country": "Mozambique","GID_1": "MOZ.10_1","province": "Tete","NL_NAME_1": "NA","county": "Angónia","VARNAME_2": "NA","NL_NAME_2": "NA","TYPE_2": "Distrito","ENGTYPE_2": "District","CC_2": "NA","HASC_2": "MZ.TE.AN","name": "Angónia.county","area_km2": 3300.847,"hist_schema_id": "Elevation0-9000","hist_area_km2": {"750": 0.246,"775": 2.415,"800": 5.056,"825": 11.157,"850": 17.648,"875": 22.195,"900": 28.218,"925": 37.931,"950": 54.449,"975": 73.472,"1000": 106.047,"1025": 136.291,"1050": 157.831,"1075": 174.296,"1100": 198.746,"1125": 193.695,"1150": 200.325,"1175": 202.095,"1200": 205.748,"1225": 197.132,"1250": 197.944,"1275": 192.912,"1300": 148.67,"1325": 118.934,"1350": 102.453,"1375": 97.368,"1400": 94.012,"1425": 86.797,"1450": 74.328,"1475": 57.706,"1500": 42.231,"1525": 24.515,"1550": 16.2,"1575": 8.46,"1600": 4.25,"1625": 2.977,"1650": 1.129,"1675": 0.862,"1700": 0.903,"1725": 0.657,"1750": 0.493,"1775": 0.37,"1800": 0.287,"1825": 0.267,"1850": 0.267,"1875": 0.185,"1900": 0.103,"1925": 0.103,"1950": 0.185,"1975": 0.144,"2025": 0.062,"2050": 0.062}}}