{"type":"Feature","properties":{"GID_3":"MOZ.9.7.2_1","GID_0":"MOZ","country":"Mozambique","GID_1":"MOZ.9_1","province":"Sofala","NL_NAME_1":"NA","GID_2":"MOZ.9.7_1","county":"Gorongosa","NL_NAME_2":"NA","city":"Nhamadzi","VARNAME_3":"NA","NL_NAME_3":"NA","TYPE_3":"Localidad","ENGTYPE_3":"Locality","CC_3":"NA","HASC_3":"NA","name":"Nhamadzi.city"},
"geometry":{"type": "MultiPolygon","coordinates": [[[[34.0391,-18.9211,213.2628],[34.0384,-18.9121,120.5174],[34.0431,-18.9037,119.5141],[34.0443,-18.8942,221.2405],[34.0533,-18.8782,150.2485],[34.0606,-18.8694,179.509],[34.0595,-18.8587,152.9683],[34.0658,-18.8433,173.6359],[34.0642,-18.8326,162.5741],[34.0549,-18.8232,208.9256],[34.0509,-18.8126,178.577],[34.0589,-18.7965,185.4426],[34.0665,-18.7873,191.3682],[34.0605,-18.7632,224.3959],[34.0612,-18.7515,249.1812],[34.0427,-18.7196,227.6846],[34.046,-18.7063,263.8049],[34.0592,-18.6715,285.0422],[34.0689,-18.6647,356.1418],[34.0694,-18.656,363.9104],[34.0591,-18.6435,358.98],[34.0653,-18.6282,377.8906],[34.0646,-18.6178,393.4089],[34.069,-18.5944,413.8141],[34.069,-18.5783,420.3976],[34.0616,-18.5444,477.8896],[34.0541,-18.5366,490.0881],[34.0621,-18.5125,573.3321],[34.0808,-18.4783,805.358],[34.0829,-18.4599,957.7728],[34.0763,-18.4363,1381.8651],[34.0721,-18.4086,1402.9551],[34.0726,-18.3833,1512.9481],[34.0657,-18.3561,1315.1028],[34.0631,-18.3233,711.2204],[34.0582,-18.3027,518.0706],[34.0656,-18.296,512.1243],[34.07,-18.2799,446.4052],[34.0726,-18.2607,421.4846],[34.0725,-18.2145,391.3723],[34.0693,-18.2151,385.148],[34.0637,-18.2194,380.5878],[34.0584,-18.2143,386.4448],[34.0567,-18.2049,387.1039],[34.0502,-18.1973,388.8404],[34.045,-18.1865,392.686],[34.0456,-18.1778,396.2482],[34.0487,-18.1706,388.7576],[34.0439,-18.1656,391.1505],[34.0325,-18.1602,400.9132],[34.0273,-18.1544,415.3786],[34.026,-18.1391,400.0023],[34.0277,-18.1313,409.4312],[34.0261,-18.127,416.9459],[34.0138,-18.1206,425.1751],[34.0078,-18.1233,416.5219],[33.9992,-18.1323,410.8896],[33.952,-18.1259,431.0618],[33.9235,-18.1684,502.4866],[33.8673,-18.2253,550.3442],[33.8585,-18.2321,533.8845],[33.8468,-18.2366,524.6511],[33.837,-18.2624,503.7094],[33.8268,-18.2706,500.3814],[33.814,-18.2766,482.726],[33.8065,-18.2825,473.4238],[33.8062,-18.2897,470.0861],[33.8125,-18.2932,477.8727],[33.8237,-18.2921,477.0243],[33.8263,-18.3057,470.0833],[33.8237,-18.3175,462.2663],[33.8199,-18.3256,471.487],[33.8236,-18.344,470.5081],[33.8426,-18.3745,459.6101],[33.8315,-18.4074,446.6712],[33.8334,-18.4171,446.0607],[33.8412,-18.4202,438.3511],[33.8505,-18.4083,437.6094],[33.8588,-18.4058,435.9662],[33.8556,-18.4443,431.949],[33.8582,-18.4518,445.7431],[33.8701,-18.4622,421.3287],[33.8668,-18.4699,420.3717],[33.8681,-18.4914,411.1287],[33.8714,-18.5004,417.0674],[33.8821,-18.5173,407.6431],[33.8745,-18.5221,408.0725],[33.8627,-18.5137,408.0808],[33.8458,-18.5152,425.7344],[33.8379,-18.5225,437.4596],[33.836,-18.5267,433.1424],[33.8098,-18.5296,457.2556],[33.7854,-18.5258,488.8312],[33.7739,-18.522,510.0569],[33.7723,-18.601,447.1941],[33.7295,-18.6377,413.2056],[33.7283,-18.6657,384.3767],[33.7219,-18.6758,378.8062],[33.7197,-18.6844,370.8843],[33.7222,-18.6958,356.1276],[33.7411,-18.7154,341.5791],[33.7465,-18.7191,338.6258],[33.7522,-18.7166,323.2892],[33.7619,-18.7152,332.9942],[33.8041,-18.7441,284.9637],[33.8161,-18.7657,300.0814],[33.8363,-18.7834,296.7726],[33.8475,-18.7855,249.3653],[33.872,-18.7845,282.4728],[33.8904,-18.7869,239.0784],[33.9201,-18.8347,226.4898],[33.9217,-18.848,217.8001],[33.9294,-18.8677,210.8027],[33.951,-18.8863,168.8741],[33.9884,-18.9085,166.2122],[34.0056,-18.9199,151.5615],[34.0104,-18.9257,141.1087],[34.0145,-18.9215,145.8142],[34.0162,-18.9167,148.3866],[34.0229,-18.917,132.6731],[34.0282,-18.9209,164.928],[34.0391,-18.9211,213.2628]]]]}}