{"type": "Feature","bbox": [34.1306,-24.5896,34.9689,-24.2359],"geometry": {"type": "MultiPolygon","coordinates": [[[[34.4285,-24.4555,1.8088],[34.4534,-24.4813,0.5],[34.459,-24.49,0.5],[34.4782,-24.506,0.5],[34.4983,-24.5083,38.9545],[34.5158,-24.5081,6.4966],[34.5271,-24.5032,32.716],[34.5361,-24.4961,38.303],[34.5465,-24.4918,19.5553],[34.5854,-24.4955,0.5],[34.5938,-24.5004,0.5],[34.5999,-24.5117,0.5],[34.6085,-24.5391,0.5],[34.6428,-24.5511,0.5],[34.6385,-24.5666,0.5],[34.6394,-24.5767,0.5],[34.6525,-24.5887,0.5],[34.6673,-24.5896,0.5],[34.6785,-24.5797,0.8967],[34.6818,-24.563,0.5],[34.6907,-24.5583,0.5],[34.7309,-24.5503,6.5013],[34.7614,-24.5416,0.5],[34.7781,-24.5463,0.5],[34.7932,-24.5423,0.5],[34.8066,-24.5281,0.5],[34.8184,-24.5221,0.5],[34.8703,-24.503,0.5],[34.9063,-24.495,0.5],[34.9546,-24.4892,0.5],[34.9545,-24.4765,18.7647],[34.9565,-24.468,31.4939],[34.9651,-24.4582,40.2826],[34.9679,-24.4526,58.1663],[34.9689,-24.4443,72.1396],[34.9655,-24.4296,70.5129],[34.9681,-24.4239,66.2652],[34.9637,-24.4151,55.9444],[34.9469,-24.4151,65.3039],[34.9204,-24.3908,110.3566],[34.9124,-24.3873,107.4981],[34.9,-24.3898,105.2142],[34.883,-24.3879,105.6945],[34.8754,-24.3841,112.9022],[34.8586,-24.3804,112.617],[34.8332,-24.3186,109.4397],[34.7988,-24.3235,118.2158],[34.7591,-24.3074,81.1348],[34.7535,-24.2467,45.2398],[34.7434,-24.2405,46.5656],[34.7405,-24.2359,44.5022],[34.724,-24.2383,44.2148],[34.7125,-24.2624,44.0385],[34.6832,-24.2793,43.3078],[34.6704,-24.289,43.3357],[34.6648,-24.297,39.7042],[34.6514,-24.3,38.6095],[34.5966,-24.3225,42.0344],[34.5688,-24.3301,35.2762],[34.5522,-24.3287,35.956],[34.5381,-24.3308,33.5219],[34.5298,-24.3273,35.2179],[34.5131,-24.3315,41.2479],[34.4997,-24.3382,38.7006],[34.4901,-24.3388,37.0121],[34.4235,-24.2617,49.4802],[34.358,-24.2981,45.6413],[34.314,-24.3354,22.8186],[34.308,-24.3379,22.9405],[34.291,-24.339,23.3925],[34.2008,-24.3685,27.5119],[34.1665,-24.3733,29.8089],[34.1306,-24.3639,35.2925],[34.1342,-24.3768,28.5673],[34.1434,-24.3872,22.8853],[34.1516,-24.414,14.8786],[34.1493,-24.4335,11.1509],[34.155,-24.4445,8.8411],[34.1585,-24.4583,8.5688],[34.1524,-24.4688,8.083],[34.1721,-24.4795,10.6068],[34.1809,-24.4906,7.1584],[34.1779,-24.4988,9.1474],[34.1791,-24.5043,6.904],[34.1831,-24.5059,11.5851],[34.1833,-24.5106,15.7098],[34.1808,-24.5171,9.4522],[34.1959,-24.5178,10.0188],[34.2066,-24.5165,7.3511],[34.2183,-24.5079,10.8176],[34.2587,-24.4881,9.0418],[34.2735,-24.4852,29.4415],[34.2875,-24.4845,6.1135],[34.3028,-24.4791,19.4994],[34.3073,-24.4791,13.8835],[34.3145,-24.4837,11.3803],[34.3263,-24.4792,10.3149],[34.3402,-24.4678,2.4827],[34.396,-24.4595,26.2805],[34.4223,-24.4489,24.8518],[34.4285,-24.4555,1.8088]]]]}
,"properties": {"GID_3": "MOZ.3.4.2_1","GID_0": "MOZ","country": "Mozambique","GID_1": "MOZ.3_1","province": "Inhambane","NL_NAME_1": "NA","GID_2": "MOZ.3.4_1","county": "Inharrime","NL_NAME_2": "NA","city": "Mucumbi","VARNAME_3": "NA","NL_NAME_3": "NA","TYPE_3": "Localidad","ENGTYPE_3": "Locality","CC_3": "NA","HASC_3": "NA","name": "Mucumbi.city","area_km2": 1652.036,"hist_schema_id": "Elevation0-9000","hist_area_km2": {"0": 65.006,"25": 450.114,"50": 401.268,"75": 438.057,"100": 231.141,"125": 65.329,"150": 1.12}}}