{"type": "Feature","bbox": [32.5134,-25.9768,32.6276,-25.8052],"geometry": {"type": "MultiPolygon","coordinates": [[[[32.5134,-25.9342,2.4186],[32.5185,-25.9335,2.1806],[32.5232,-25.9376,2.0102],[32.5226,-25.9399,2.4312],[32.5163,-25.9426,1.126],[32.5232,-25.9415,0.0],[32.5254,-25.9396,1.975],[32.5326,-25.9435,2.9273],[32.5429,-25.9549,3.8578],[32.5421,-25.959,0.0],[32.544,-25.9613,0.0],[32.5691,-25.9768,0.0],[32.5701,-25.9717,7.2748],[32.5628,-25.9673,7.9361],[32.5635,-25.9651,11.3611],[32.5587,-25.9625,14.4051],[32.5525,-25.949,26.8818],[32.5474,-25.9435,32.9568],[32.544,-25.9438,34.1363],[32.5397,-25.9361,25.3347],[32.5477,-25.9336,29.8975],[32.5594,-25.9211,29.4943],[32.5635,-25.916,32.6293],[32.5635,-25.9105,26.4738],[32.5763,-25.9072,38.6091],[32.5785,-25.8991,39.2612],[32.5862,-25.883,46.1242],[32.6027,-25.8856,42.0587],[32.6097,-25.8665,40.2481],[32.6265,-25.8449,47.7368],[32.6276,-25.8262,52.8818],[32.5741,-25.8052,31.9935],[32.5532,-25.8777,25.6848],[32.5446,-25.8997,25.4343],[32.5355,-25.9155,25.2715],[32.5134,-25.9342,2.4186]]]]}
,"properties": {"GID_3": "MOZ.5.2.6_1","GID_0": "MOZ","country": "Mozambique","GID_1": "MOZ.5_1","province": "MaputoCity","NL_NAME_1": "NA","GID_2": "MOZ.5.2_1","county": "Maputo","NL_NAME_2": "NA","city": "Maputo5","VARNAME_3": "NA","NL_NAME_3": "NA","TYPE_3": "Localidad","ENGTYPE_3": "Locality","CC_3": "NA","HASC_3": "NA","name": "Maputo5.city","area_km2": 68.31417,"hist_schema_id": "Elevation0-9000","hist_area_km2": {"0": 12.64271,"25": 26.8016,"50": 28.67905,"75": 0.19081}}}