{"type": "Feature","bbox": [32.206,-25.8374,32.58,-25.5591],"geometry": {"type": "MultiPolygon","coordinates": [[[[32.4733,-25.7495,45.3568],[32.4847,-25.7183,47.8849],[32.5193,-25.6865,52.7095],[32.5651,-25.6991,53.2016],[32.58,-25.6595,55.3723],[32.5501,-25.5835,55.0368],[32.5113,-25.5591,41.9729],[32.4908,-25.5773,53.0202],[32.4908,-25.5901,39.6742],[32.4873,-25.6158,33.4102],[32.4873,-25.635,34.1003],[32.4649,-25.6408,58.9235],[32.4235,-25.6383,93.5771],[32.3819,-25.6344,100.0035],[32.3293,-25.6262,101.4244],[32.295,-25.6254,99.6581],[32.2675,-25.6197,87.8046],[32.2626,-25.629,87.6473],[32.2529,-25.6377,93.2098],[32.2274,-25.6479,101.2719],[32.2122,-25.6493,108.1432],[32.206,-25.6523,111.4513],[32.2061,-25.7367,89.1717],[32.2325,-25.7451,80.4545],[32.2422,-25.7445,79.9186],[32.2473,-25.7422,79.8985],[32.255,-25.7445,75.8734],[32.2624,-25.7568,71.9432],[32.2617,-25.7711,123.0139],[32.2648,-25.7752,101.7374],[32.2665,-25.7828,105.5441],[32.263,-25.8053,108.0639],[32.2665,-25.8182,92.1659],[32.2665,-25.8342,84.4766],[32.2808,-25.8374,60.4355],[32.2836,-25.8368,60.0399],[32.2975,-25.8263,58.1801],[32.3358,-25.8029,95.5962],[32.4135,-25.7635,41.2342],[32.4262,-25.7738,15.0412],[32.4286,-25.7582,18.5453],[32.432,-25.7543,19.4298],[32.4524,-25.7558,37.461],[32.4704,-25.7533,38.9012],[32.4733,-25.7495,45.3568]]]]}
,"properties": {"GID_3": "MOZ.6.6.2_1","GID_0": "MOZ","country": "Mozambique","GID_1": "MOZ.6_1","province": "Maputo","NL_NAME_1": "NA","GID_2": "MOZ.6.6_1","county": "Moamba","NL_NAME_2": "NA","city": "Pessene","VARNAME_3": "NA","NL_NAME_3": "NA","TYPE_3": "Localidad","ENGTYPE_3": "Locality","CC_3": "NA","HASC_3": "NA","name": "Pessene.city","area_km2": 555.8195,"hist_schema_id": "Elevation0-9000","hist_area_km2": {"25": 33.2022,"50": 179.4514,"75": 171.571,"100": 160.358,"125": 11.237}}}