{"type": "Feature","bbox": [32.187,-26.2819,32.506,-25.7635],"geometry": {"type": "MultiPolygon","coordinates": [[[[32.4262,-25.7738,15.0412],[32.4135,-25.7635,41.2342],[32.3358,-25.8029,95.5962],[32.2975,-25.8263,58.1801],[32.2833,-25.8369,60.0399],[32.2858,-25.8437,60.5619],[32.2865,-25.853,54.1405],[32.3041,-25.8613,52.2793],[32.3132,-25.8623,49.4765],[32.3113,-25.8714,49.9787],[32.3112,-25.8821,47.2347],[32.2923,-25.8839,44.2455],[32.2957,-25.891,43.3008],[32.2906,-25.9002,40.9423],[32.2848,-25.9056,38.8881],[32.2743,-25.9069,42.4596],[32.2697,-25.9137,34.2051],[32.274,-25.9219,35.0087],[32.288,-25.9256,34.641],[32.2889,-25.9305,32.7717],[32.2852,-25.9353,30.867],[32.2731,-25.9373,31.313],[32.2692,-25.942,32.7504],[32.2794,-25.9519,28.2152],[32.2865,-25.9653,23.9926],[32.2835,-25.9711,27.4723],[32.2678,-25.9762,28.2243],[32.2796,-25.992,18.8812],[32.2811,-25.9996,14.9559],[32.2736,-26.0066,14.6548],[32.2831,-26.0061,28.2466],[32.2933,-26.0106,17.7334],[32.2959,-26.0152,12.7957],[32.2934,-26.0196,10.996],[32.2866,-26.0216,13.7032],[32.278,-26.029,10.892],[32.2804,-26.0326,13.5921],[32.2959,-26.0359,9.4082],[32.2984,-26.0467,17.3366],[32.2821,-26.0405,22.0673],[32.278,-26.0405,13.467],[32.2705,-26.0433,13.4955],[32.2637,-26.0498,14.4772],[32.2588,-26.0614,18.1861],[32.2561,-26.0735,23.2141],[32.2425,-26.0805,32.7394],[32.2412,-26.0899,31.5099],[32.2464,-26.1027,44.5],[32.2453,-26.1072,44.5],[32.2293,-26.126,44.5],[32.1952,-26.1285,44.5],[32.2056,-26.1474,44.5],[32.2047,-26.1491,44.5],[32.1909,-26.1531,44.5],[32.187,-26.1671,47.4078],[32.2191,-26.1787,56.2977],[32.2234,-26.1853,48.7053],[32.2233,-26.1977,53.8972],[32.2265,-26.2056,60.5329],[32.2624,-26.1977,77.7982],[32.2882,-26.2049,31.1074],[32.3292,-26.1709,13.7307],[32.3328,-26.1782,13.5447],[32.335,-26.194,29.0948],[32.3306,-26.2144,28.3037],[32.3352,-26.2541,34.9112],[32.3475,-26.2819,7.9168],[32.3669,-26.274,4.114],[32.3655,-26.2608,6.8787],[32.3736,-26.2652,2.9058],[32.3816,-26.2458,1.8265],[32.3906,-26.2461,5.3156],[32.3941,-26.2444,2.0766],[32.4027,-26.2291,2.2248],[32.4,-26.2222,2.6999],[32.4045,-26.2236,2.4656],[32.3937,-26.1902,2.1674],[32.385,-26.1807,1.6895],[32.3934,-26.1777,2.4202],[32.3896,-26.1721,3.2134],[32.3981,-26.1703,2.0673],[32.3878,-26.1468,5.2648],[32.3948,-26.1437,1.6875],[32.4087,-26.1505,1.372],[32.46,-26.1166,1.4019],[32.4752,-26.1045,1.7882],[32.4792,-26.0978,1.7953],[32.4801,-26.0929,1.2137],[32.477,-26.0896,2.3351],[32.4697,-26.0859,2.6954],[32.4627,-26.0847,1.6918],[32.4539,-26.0886,1.6694],[32.4424,-26.0678,1.9455],[32.4413,-26.0561,1.6373],[32.4439,-26.0562,0.0],[32.4434,-26.0613,0.4921],[32.4449,-26.0655,1.7576],[32.4458,-26.0588,1.731],[32.4476,-26.0569,2.2491],[32.4629,-26.0566,0.2832],[32.4765,-26.0535,0.0],[32.484,-26.0472,0.0],[32.4912,-26.0352,0.0],[32.4987,-26.0133,0.0],[32.4918,-25.9932,0.0],[32.4917,-25.9859,2.0262],[32.5,-25.9695,0.0],[32.506,-25.966,0.0],[32.504,-25.961,0.9674],[32.506,-25.9593,0.0],[32.5046,-25.9579,3.3372],[32.4994,-25.9626,0.0],[32.4848,-25.9706,0.0],[32.4721,-25.985,1.0],[32.4663,-25.9841,5.7211],[32.4621,-25.9784,22.3363],[32.4572,-25.9748,8.8685],[32.4544,-25.9753,2.0782],[32.4513,-25.9712,9.7982],[32.445,-25.9677,9.5606],[32.4367,-25.965699999999998,1.1059],[32.4317,-25.9599,0.2842],[32.4314,-25.9552,5.4835],[32.4367,-25.947,18.7788],[32.4455,-25.9378,23.9369],[32.4356,-25.9352,0.9409],[32.4357,-25.9264,7.5414],[32.4319,-25.921,1.9169],[32.4342,-25.9114,12.9086],[32.4253,-25.9067,20.3937],[32.4212,-25.9023,3.8528],[32.4206,-25.8925,18.5768],[32.4188,-25.8901,22.0101],[32.409,-25.8881,26.702],[32.404,-25.8846,4.3102],[32.4049,-25.8784,23.2399],[32.4163,-25.8707,5.8244],[32.417,-25.8673,23.2251],[32.4134,-25.8622,15.7155],[32.4109,-25.848,10.8787],[32.4146,-25.8428,17.6378],[32.4108,-25.8224,16.1568],[32.4153,-25.8136,9.7116],[32.4194,-25.7929,20.3931],[32.4237,-25.7864,17.4061],[32.4262,-25.7738,15.0412]]]]}
,"properties": {"GID_3": "MOZ.6.1.1_1","GID_0": "MOZ","country": "Mozambique","GID_1": "MOZ.6_1","province": "Maputo","NL_NAME_1": "NA","GID_2": "MOZ.6.1_1","county": "Boane","NL_NAME_2": "NA","city": "Boane","VARNAME_3": "NA","NL_NAME_3": "NA","TYPE_3": "Localidad","ENGTYPE_3": "Locality","CC_3": "NA","HASC_3": "NA","name": "Boane.city","area_km2": 830.6929,"hist_schema_id": "Elevation0-9000","hist_area_km2": {"0": 189.1949,"25": 358.966,"50": 151.438,"75": 83.9504,"100": 35.1732,"125": 8.926,"150": 3.0443}}}