{"type": "Feature","bbox": [36.1275,-17.2028,36.8478,-16.4783],"geometry": {"type": "MultiPolygon","coordinates": [[[[36.6773,-16.6204,178.2817],[36.667,-16.6143,178.1405],[36.6541,-16.611,167.8662],[36.6344,-16.6011,170.6951],[36.6141,-16.5777,190.24],[36.6101,-16.575,199.6172],[36.602,-16.5713,204.0259],[36.5811,-16.5665,210.655],[36.5685,-16.56,206.4267],[36.5599,-16.5683,214.7994],[36.5522,-16.5699,226.4018],[36.5457,-16.5648,212.9815],[36.5395,-16.563,226.8623],[36.505,-16.5621,237.4897],[36.5027,-16.5503,235.7198],[36.4868,-16.557,238.6745],[36.4827,-16.557,245.3947],[36.4422,-16.549,244.8453],[36.4361,-16.5459,261.8843],[36.43,-16.5396,251.8695],[36.4148,-16.5282,254.4718],[36.4021,-16.5232,264.0443],[36.3971,-16.5265,252.596],[36.3934,-16.5234,261.9659],[36.391,-16.5145,265.9739],[36.3837,-16.517,274.191],[36.3717,-16.5054,271.3009],[36.3556,-16.5037,272.8533],[36.3512,-16.4885,290.9954],[36.3349,-16.4837,284.9936],[36.3309,-16.4783,288.9948],[36.3206,-16.4823,296.0994],[36.3109,-16.4913,289.7374],[36.3039,-16.4897,295.5755],[36.279,-16.4975,303.813],[36.2596,-16.4939,322.4056],[36.2496,-16.4976,321.1953],[36.2364,-16.4975,342.3547],[36.1801,-16.5142,357.304],[36.1722,-16.5206,368.3573],[36.1605,-16.5236,378.0425],[36.1547,-16.5293,371.9646],[36.1362,-16.5551,431.4883],[36.134,-16.5617,451.8926],[36.1275,-16.5677,523.8228],[36.1388,-16.5732,493.6749],[36.1669,-16.5709,476.4182],[36.1854,-16.5724,486.2579],[36.1971,-16.5712,462.7806],[36.2275,-16.5858,418.3976],[36.2334,-16.5888,422.5584],[36.2498,-16.6072,406.1392],[36.2714,-16.6268,397.7104],[36.2788,-16.6411,391.5776],[36.283,-16.6518,376.1478],[36.2822,-16.6563,378.0821],[36.2662,-16.6759,369.7004],[36.2602,-16.6798,365.3156],[36.2579,-16.7017,359.5656],[36.2596,-16.7062,357.1529],[36.2553,-16.7261,342.2668],[36.2582,-16.7302,337.1715],[36.2553,-16.7362,350.0056],[36.255,-16.7446,335.2821],[36.2565,-16.7461,339.5457],[36.2505,-16.7464,341.9173],[36.2529,-16.7493,335.1299],[36.2481,-16.755,343.0127],[36.2444,-16.7655,353.5964],[36.2462,-16.7701,324.1575],[36.2654,-16.778,316.7885],[36.2695,-16.7904,305.0961],[36.2742,-16.7949,313.9763],[36.2793,-16.8176,299.7166],[36.2663,-16.827,298.4822],[36.2661,-16.8311,279.8018],[36.2859,-16.8636,272.0793],[36.2843,-16.8728,263.6055],[36.2865,-16.8881,261.1219],[36.2833,-16.9087,238.4632],[36.2936,-16.914,244.9148],[36.3005,-16.9247,230.584],[36.306,-16.9233,241.5941],[36.3146,-16.9314,241.9952],[36.3168,-16.9481,228.5331],[36.3289,-16.967,234.2125],[36.335,-16.9988,205.5558],[36.3409,-17.0055,198.1245],[36.3457,-17.0044,203.0065],[36.3588,-17.0108,193.959],[36.3618,-17.0327,190.7126],[36.3876,-17.0586,172.2419],[36.3935,-17.0839,158.5099],[36.4127,-17.1122,139.9846],[36.4095,-17.1229,139.8801],[36.4341,-17.1721,108.6299],[36.4337,-17.1944,118.0823],[36.4507,-17.2028,105.5043],[36.4631,-17.1695,179.3849],[36.548,-17.1788,144.1564],[36.5641,-17.1504,141.1553],[36.5883,-17.135,157.1916],[36.5886,-17.1243,150.9033],[36.5793,-17.1064,156.5031],[36.5512,-17.0706,171.4988],[36.5501,-17.067,174.6158],[36.5453,-17.0467,204.3282],[36.542,-17.0219,189.3339],[36.5535,-16.9946,191.7866],[36.5793,-16.9781,187.1244],[36.598,-16.9692,221.9108],[36.6392,-16.9335,276.3484],[36.7197,-16.8885,223.0437],[36.7197,-16.8738,216.7805],[36.6947,-16.8648,270.9173],[36.676,-16.835,283.1214],[36.6635,-16.823,250.5156],[36.651,-16.8081,253.1302],[36.6479,-16.7932,235.0418],[36.6885,-16.7783,200.0808],[36.6885,-16.7425,252.3305],[36.6791,-16.7366,257.0797],[36.7602,-16.7366,265.6292],[36.7977,-16.7306,218.2743],[36.8217,-16.7202,212.8515],[36.8478,-16.7033,148.1141],[36.8303,-16.6875,149.5395],[36.7993,-16.6899,150.5121],[36.7613,-16.6784,161.8312],[36.7576,-16.6705,148.6392],[36.7562,-16.6618,158.3102],[36.7487,-16.6542,153.9014],[36.7383,-16.652,160.4087],[36.7312,-16.6545,160.2661],[36.7212,-16.6547,163.7434],[36.706,-16.6436,153.9933],[36.7027,-16.6353,158.9491],[36.6974,-16.6326,167.4665],[36.6829,-16.6321,169.7338],[36.676,-16.6255,173.552],[36.6752,-16.6234,171.4488],[36.6773,-16.6204,178.2817]]]]}
,"properties": {"GID_3": "MOZ.11.10.3_1","GID_0": "MOZ","country": "Mozambique","GID_1": "MOZ.11_1","province": "Zambezia","NL_NAME_1": "NA","GID_2": "MOZ.11.10_1","county": "Mocuba","NL_NAME_2": "NA","city": "Namajavira","VARNAME_3": "NA","NL_NAME_3": "NA","TYPE_3": "Localidad","ENGTYPE_3": "Locality","CC_3": "NA","HASC_3": "NA","name": "Namajavira.city","area_km2": 2679.821,"hist_schema_id": "Elevation0-9000","hist_area_km2": {"100": 1.134,"125": 22.389,"150": 81.343,"175": 142.96,"200": 207.189,"225": 263.397,"250": 339.388,"275": 378.673,"300": 306.607,"325": 240.597,"350": 209.087,"375": 176.854,"400": 131.056,"425": 96.212,"450": 52.538,"475": 19.749,"500": 6.685,"525": 2.052,"550": 0.935,"575": 0.467,"600": 0.345,"625": 0.142}}}