{"type": "Feature","id": "1190","bbox": [30.21385,-17.72367,35.33663,-14.01387],"geometry": {"type": "Polygon","coordinates": [[[33.35711,-14.23057,1249.3323],[33.35433,-14.22533,1287.7943],[33.34714,-14.21882,1356.4429],[33.33825,-14.21541,1376.5874],[33.32394,-14.20632,1284.4451],[33.31557,-14.19712,1332.4124],[33.29056,-14.15691,1311.0466],[33.28622,-14.13893,1260.0449],[33.29128,-14.08922,1153.1255],[33.28022,-14.06079,1079.8221],[33.25779,-14.04364,1049.639],[33.20271,-14.01387,1059.6495],[33.13005,-14.03806,998.738],[33.04292,-14.0671,1114.611],[32.91714,-14.10906,881.5507],[32.74496,-14.16642,1091.277],[32.5768,-14.22254,1094.0762],[32.42549,-14.27298,980.1017],[32.32038,-14.30801,917.3274],[32.22737,-14.33902,947.1097],[32.14706,-14.35339,908.8737],[32.10877,-14.36486,955.5839],[32.03327,-14.39876,973.5326],[31.93291,-14.43111,1013.5029],[31.80135,-14.47359,1024.6202],[31.65841,-14.51958,1015.0156],[31.58968,-14.55482,979.34],[31.49666,-14.60257,1054.5568],[31.41088,-14.63358,992.3912],[31.3068,-14.65817,1054.9436],[31.17802,-14.68856,1056.1418],[31.07446,-14.71305,996.3698],[31.05658,-14.7144,987.9722],[30.91509,-14.74602,880.4474],[30.81577,-14.76824,871.1712],[30.67697,-14.81765,749.0091],[30.59181,-14.84814,754.5771],[30.48556,-14.88596,726.0292],[30.39249,-14.93103,531.8798],[30.31844,-14.96699,533.2279],[30.2309,-14.97722,502.1397],[30.21447,-14.98146,372.4607],[30.21442,-14.98197,372.4607],[30.21385,-14.98849,365.6671],[30.22098,-15.01836,413.9324],[30.22098,-15.06301,367.005],[30.22583,-15.10631,360.4592],[30.26314,-15.23127,358.5747],[30.28795,-15.27891,409.7984],[30.32051,-15.29948,342.5],[30.33487,-15.30475,345.3012],[30.34748,-15.31788,340.5],[30.35792,-15.33565,342.3636],[30.36495,-15.35415,351.7473],[30.36918,-15.37472,347.9684],[30.37177,-15.43983,342.4006],[30.37492,-15.4513,340.0833],[30.38965,-15.47115,420.527],[30.39285,-15.48076,341.3991],[30.39017,-15.49078,330.0],[30.37177,-15.52541,373.9543],[30.36526,-15.54742,327.0],[30.36743,-15.56127,331.4244],[30.39595,-15.59062,343.9806],[30.40122,-15.59848,333.9361],[30.4127,-15.62793,328.5406],[30.41037,-15.63041,336.6332],[30.39626,-15.636,334.4252],[30.39771,-15.71682,349.2326],[30.39926,-15.81201,401.4988],[30.40133,-15.93169,435.6028],[30.40257,-16.00124,428.5598],[30.51481,-16.00042,375.8483],[30.58659,-16.0,394.6758],[30.74973,-15.99887,448.4847],[30.85742,-15.99814,408.8387],[30.90187,-16.00714,392.0199],[30.94217,-16.03452,371.2348],[30.9583,-16.05106,369.1108],[30.97308,-16.06202,351.1877],[30.98977,-16.06429,345.4073],[31.01204,-16.05488,344.8922],[31.02372,-16.04517,341.2859],[31.04222,-16.02491,337.4881],[31.05689,-16.01757,334.181],[31.06542,-16.01964,331.9405],[31.07333,-16.02553,331.9783],[31.08087,-16.02595,329.8651],[31.08904,-16.01189,326.7314],[31.1141,-15.9969,331.92],[31.15849,-16.00021,341.3076],[31.25998,-16.02347,354.0175],[31.2789,-16.03029,360.7099],[31.29533,-16.04166,369.729],[31.30959,-16.05902,369.7677],[31.32835,-16.09282,381.8978],[31.34091,-16.10666,381.9003],[31.36034,-16.1169,388.3172],[31.37026,-16.12372,383.7289],[31.3746,-16.13292,386.4656],[31.37775,-16.14222,388.7205],[31.38401,-16.14883,393.1772],[31.38773,-16.14956,392.321],[31.39558,-16.1477,393.255],[31.39961,-16.14728,393.3708],[31.40432,-16.14987,392.5334],[31.40406,-16.15452,394.2904],[31.40271,-16.15937,395.157],[31.40457,-16.16227,397.7398],[31.42411,-16.16475,398.2116],[31.44571,-16.16496,397.6245],[31.46566,-16.16775,402.1176],[31.48064,-16.17798,409.8001],[31.51919,-16.19648,418.4054],[31.68611,-16.20723,458.2062],[31.7107,-16.21787,464.8693],[31.7382,-16.23978,480.5199],[31.79876,-16.30365,519.8832],[31.81809,-16.31957,530.5786],[31.86005,-16.34076,544.4574],[31.87194,-16.35037,554.9568],[31.88072,-16.36804,572.9805],[31.88563,-16.40628,616.4625],[31.89436,-16.42148,670.3342],[31.91028,-16.42892,679.4216],[32.01415,-16.44494,860.2889],[32.21176,-16.44018,589.6118],[32.29046,-16.45176,599.6094],[32.39366,-16.49176,630.4786],[32.5521,-16.55336,640.3259],[32.67178,-16.59976,679.2267],[32.6831,-16.60989,676.6208],[32.68791,-16.62426,668.9345],[32.68863,-16.6473,712.7329],[32.69865,-16.68678,715.0956],[32.72522,-16.70642,458.0307],[32.73095,-16.70866,446.4776],[32.73131,-16.7088,446.4776],[32.73989,-16.70322,443.6059],[32.75385,-16.69795,434.1736],[32.76935,-16.69547,445.3191],[32.80066,-16.69733,434.7994],[32.862,-16.71045,397.7314],[32.89337,-16.71242,363.2219],[32.9096,-16.70807,325.9429],[32.93957,-16.68978,340.7798],[32.95621,-16.68306,421.8508],[32.96851,-16.68162,481.0956],[32.96158,-16.71035,314.5718],[32.93337,-16.81577,548.9907],[32.91621,-16.84791,571.6093],[32.9005,-16.86775,613.7039],[32.82878,-16.93514,663.045],[32.83012,-16.94155,639.1882],[32.88676,-17.03818,586.3179],[32.92851,-17.1095,645.1566],[32.95414,-17.16717,623.1985],[32.96779,-17.22887,548.0542],[32.96909,-17.26611,527.6467],[32.96944,-17.2761,558.4246],[32.97321,-17.29791,586.9523],[32.9836,-17.31775,617.4697],[32.99238,-17.32468,609.876],[33.01466,-17.33667,591.1797],[33.02163,-17.34556,594.6226],[33.02246,-17.36147,563.6624],[33.01626,-17.37718,549.8132],[33.01165,-17.38399,556.3173],[33.0376,-17.37382,562.3181],[33.04473,-17.34566,536.008],[33.04396,-17.33992,524.3535],[33.0421,-17.33222,537.4583],[33.03931,-17.32623,560.0775],[33.03621,-17.31755,559.0693],[33.03729,-17.31207,549.6752],[33.04721,-17.30008,518.8052],[33.05564,-17.28783,524.3342],[33.09284,-17.21683,472.8903],[33.09517,-17.20861,477.5125],[33.09548,-17.20252,486.9619],[33.08711,-17.17869,505.7566],[33.08649,-17.16784,511.1897],[33.0885,-17.15988,503.7243],[33.09331,-17.15043,499.8411],[33.09517,-17.14221,499.6436],[33.09672,-17.12025,473.3947],[33.10871,-17.08945,516.9148],[33.12111,-17.0709,446.838],[33.12902,-17.06154,445.1041],[33.13956,-17.05209,422.3502],[33.14793,-17.04656,413.3143],[33.1515,-17.04304,450.7283],[33.15785,-17.03508,428.3419],[33.16142,-17.03152,402.6414],[33.16607,-17.02904,392.9384],[33.17155,-17.02723,402.7332],[33.20658,-17.0217,403.9651],[33.21309,-17.01937,386.8559],[33.21961,-17.01534,390.0022],[33.22834,-17.00775,402.0249],[33.23237,-17.00211,385.7653],[33.23439,-16.99808,397.3077],[33.23547,-16.9864,383.5012],[33.2409,-16.96336,362.4868],[33.27376,-16.87091,252.3207],[33.27707,-16.86429,235.5101],[33.3104,-16.81768,265.9328],[33.31521,-16.80729,255.9059],[33.31691,-16.79897,249.4476],[33.31614,-16.79375,244.6987],[33.31629,-16.78812,242.3364],[33.32048,-16.77174,240.8691],[33.32094,-16.76637,237.9978],[33.32001,-16.75221,225.3221],[33.32094,-16.74094,204.3242],[33.32311,-16.73402,202.6093],[33.32621,-16.72869,202.6451],[33.34332,-16.71019,216.9734],[33.35588,-16.70151,216.3612],[33.36053,-16.69934,214.7542],[33.37215,-16.69557,209.1843],[33.37805,-16.69113,232.0321],[33.38053,-16.68529,211.1392],[33.38208,-16.67753,213.0065],[33.38549,-16.67144,209.7011],[33.44274,-16.60167,190.0377],[33.4476,-16.59242,192.4737],[33.44915,-16.58467,194.3735],[33.4476,-16.57987,189.1472],[33.44233,-16.57139,179.0294],[33.44171,-16.56591,181.4706],[33.4445,-16.55108,179.5957],[33.44491,-16.54395,211.3914],[33.44264,-16.52101,224.2491],[33.4507,-16.51501,203.995],[33.48383,-16.46716,192.9568],[33.50501,-16.44706,188.1474],[33.52982,-16.4315,153.3984],[33.55664,-16.42143,148.7027],[33.59013,-16.41719,168.7104],[33.69079,-16.42572,129.4335],[33.70712,-16.42401,169.7809],[33.75208,-16.4082,124.0985],[33.76438,-16.40572,117.9213],[33.802,-16.40572,110.3237],[33.80448,-16.40236,109.5],[33.82272,-16.42277,108.5],[33.85125,-16.46675,106.0],[33.8853,-16.50747,104.0],[33.91564,-16.55449,106.2353],[33.93481,-16.56994,108.8938],[33.95997,-16.58261,100.0],[33.97191,-16.58607,252.9206],[33.98943,-16.58731,143.82],[34.00116,-16.59242,253.7717],[34.00612,-16.60431,202.9926],[34.00979,-16.61811,104.8444],[34.01739,-16.62891,323.7352],[34.03361,-16.63263,181.8095],[34.06911,-16.62395,194.6882],[34.08534,-16.6255,117.9903],[34.09583,-16.62917,153.8556],[34.11764,-16.63335,136.2264],[34.12818,-16.63666,131.2378],[34.13598,-16.64084,95.3119],[34.18668,-16.68219,94.4925],[34.20259,-16.69237,95.8169],[34.22032,-16.69888,92.7619],[34.28734,-16.70239,87.8235],[34.3538,-16.71459,87.1123],[34.40796,-16.73117,83.6361],[34.59616,-16.83024,72.5],[34.67125,-16.86982,70.6977],[34.74732,-16.8907,67.2106],[34.77067,-16.90176,65.9097],[34.8609,-16.97473,63.4781],[34.86927,-16.9848,61.0463],[34.88348,-17.01503,61.9238],[34.90808,-17.11461,56.8147],[34.94808,-17.17952,53.0465],[34.9672,-17.22127,50.5864],[34.97883,-17.25967,48.4552],[34.98084,-17.27972,46.9996],[34.98627,-17.28086,46.5],[34.99014,-17.29,48.0029],[35.00642,-17.31553,47.5762],[35.01009,-17.32948,46.7516],[35.01216,-17.33439,46.066],[35.0226,-17.34804,46.9877],[35.05174,-17.41728,42.715],[35.06053,-17.45986,40.8484],[35.06492,-17.46793,39.5],[35.08047,-17.48436,40.7768],[35.08564,-17.49206,38.5],[35.09856,-17.52766,37.1241],[35.0997,-17.53335,36.5],[35.09959,-17.55226,39.3366],[35.10094,-17.55846,38.6838],[35.10559,-17.56756,37.145],[35.11877,-17.5844,36.3441],[35.13484,-17.60073,36.6803],[35.1661,-17.62146,33.3575],[35.19194,-17.64419,33.2039],[35.2015,-17.64833,32.6864],[35.20879,-17.65908,31.8071],[35.2216,-17.66802,31.8252],[35.28584,-17.69928,27.5],[35.30847,-17.71675,30.6832],[35.32005,-17.72367,30.1353],[35.32961,-17.68119,28.1538],[35.33059,-17.48715,31.8869],[35.31927,-17.43051,32.0636],[35.31886,-17.42617,31.8551],[35.31984,-17.40199,28.1908],[35.32108,-17.39377,29.3121],[35.32397,-17.38674,29.6091],[35.33627,-17.36829,29.6719],[35.33663,-17.36008,29.2641],[35.32945,-17.32401,29.9838],[35.30594,-17.27941,30.241],[35.30082,-17.26029,30.9147],[35.29576,-17.14453,35.577],[35.29167,-17.12937,35.2059],[35.23478,-17.13534,32.6495],[35.13391,-17.13203,183.7471],[35.0813,-17.12407,440.4329],[35.066,-17.10981,411.5455],[35.0691,-17.08407,456.0873],[35.03655,-17.03591,336.8505],[35.0444,-17.0047,353.9853],[35.06611,-16.98733,369.908],[35.09143,-16.97535,453.0117],[35.11344,-16.96026,453.8905],[35.12512,-16.93287,386.7701],[35.12812,-16.90072,430.4338],[35.1275,-16.86445,476.7537],[35.1183,-16.83344,326.1345],[35.09577,-16.81732,267.8914],[35.0628,-16.81639,254.6325],[35.03303,-16.81918,239.7679],[35.00451,-16.81463,234.8417],[34.97505,-16.7921,224.719],[34.95666,-16.76833,205.138],[34.94808,-16.75934,226.3445],[34.93444,-16.74973,286.1815],[34.92761,-16.74725,278.2485],[34.91232,-16.74456,264.9593],[34.9055,-16.74084,264.3322],[34.90095,-16.73329,281.985],[34.89775,-16.71397,277.381],[34.89351,-16.7057,278.9792],[34.88661,-16.70085,295.0625],[34.87749,-16.69443,302.3717],[34.85992,-16.6872,312.2827],[34.84462,-16.67841,305.9454],[34.8348,-16.66312,352.6157],[34.82757,-16.64152,302.7598],[34.81951,-16.62777,290.2707],[34.773,-16.58974,337.1897],[34.76287,-16.5764,294.1083],[34.74499,-16.54292,246.9491],[34.73207,-16.52917,266.0887],[34.66872,-16.49661,282.1365],[34.66117,-16.49393,274.0367],[34.65497,-16.48938,261.2577],[34.64267,-16.45972,261.9565],[34.6374,-16.45052,266.7404],[34.63068,-16.44339,286.5208],[34.59833,-16.41972,293.616],[34.58583,-16.40783,272.44],[34.57508,-16.39233,244.7535],[34.54707,-16.32309,260.6684],[34.52474,-16.30076,288.2274],[34.48041,-16.29446,273.4339],[34.44599,-16.29322,279.8699],[34.42646,-16.27389,300.5262],[34.38522,-16.18645,282.0569],[34.38925,-16.15245,290.7339],[34.40899,-16.08785,321.3419],[34.40455,-16.05974,326.5723],[34.3877,-16.037,340.8487],[34.30429,-15.95215,348.1563],[34.28972,-15.94347,362.8676],[34.25644,-15.92817,565.5883],[34.24404,-15.91763,634.266],[34.23319,-15.88983,524.6218],[34.23133,-15.85417,391.8853],[34.23639,-15.81924,371.9736],[34.24714,-15.79413,357.5508],[34.27556,-15.76436,526.0715],[34.29334,-15.75113,562.7891],[34.31029,-15.74328,565.4892],[34.33096,-15.73707,598.8522],[34.34181,-15.73087,595.1904],[34.34222,-15.73032,595.1904],[34.40403,-15.64685,739.0504],[34.41591,-15.61512,856.2163],[34.41912,-15.57533,865.2659],[34.41002,-15.51497,1002.9434],[34.41013,-15.48128,957.6323],[34.42263,-15.46453,1123.6963],[34.44062,-15.45554,1065.9939],[34.46025,-15.42485,1088.8478],[34.48041,-15.41286,1096.4873],[34.48702,-15.40045,1123.572],[34.49198,-15.37513,1122.6641],[34.49663,-15.36273,1161.9435],[34.508,-15.34805,1132.8424],[34.5203,-15.33979,1178.1781],[34.53332,-15.33307,1203.5234],[34.54676,-15.32325,1238.1428],[34.56516,-15.29731,1425.1721],[34.56908,-15.27116,1297.9539],[34.55909,-15.20018,1435.9888],[34.54831,-15.12368,1482.4847],[34.55069,-15.10662,1449.2048],[34.55988,-15.09567,1448.2457],[34.5573,-15.0843,1445.2076],[34.551,-15.07179,1475.5187],[34.54872,-15.05763,1533.8164],[34.55461,-15.04358,1473.4836],[34.57497,-15.01608,1467.9932],[34.58231,-15.00131,1530.7351],[34.58417,-14.98446,1474.8628],[34.57694,-14.96927,1451.6365],[34.56598,-14.95428,1406.9858],[34.55699,-14.93826,1405.7208],[34.5511,-14.91831,1444.7865],[34.54872,-14.90157,1445.3639],[34.54841,-14.82778,1450.905],[34.54283,-14.79625,1450.0734],[34.53208,-14.7668,1370.7493],[34.51534,-14.73455,1351.3267],[34.50583,-14.70034,1343.1105],[34.51937,-14.64081,1392.6488],[34.51813,-14.60743,1411.8712],[34.5018,-14.5757,1418.3491],[34.44971,-14.52547,1446.7688],[34.42646,-14.49756,1491.7007],[34.3938,-14.43235,1482.5251],[34.38044,-14.41364,1506.8086],[34.37209,-14.40196,1506.9506],[34.34408,-14.38739,1566.174],[34.3353,-14.38884,1592.1506],[34.32775,-14.39359,1560.7561],[34.32052,-14.39938,1568.7567],[34.31287,-14.40424,1561.4633],[34.30491,-14.40579,1553.0483],[34.28889,-14.40403,1513.297],[34.28135,-14.40496,1486.8336],[34.18244,-14.43948,1422.6665],[34.10958,-14.44144,1305.9833],[34.07754,-14.45467,1314.1393],[34.0702,-14.4649,1303.6373],[34.05862,-14.49012,1319.8672],[34.05077,-14.49519,1329.1091],[33.94556,-14.48144,1291.3748],[33.91631,-14.48134,1240.9456],[33.88892,-14.48816,1251.0125],[33.83083,-14.52268,1271.1024],[33.80241,-14.53281,1297.2839],[33.7742,-14.53002,1313.3459],[33.7204,-14.48971,1283.5525],[33.69921,-14.49622,1259.5178],[33.68407,-14.51875,1247.9819],[33.67555,-14.54779,1302.3115],[33.67544,-14.58231,1388.4285],[33.67224,-14.60019,1393.3998],[33.66242,-14.60701,1398.7584],[33.64485,-14.60174,1373.3516],[33.63296,-14.59141,1354.6622],[33.62449,-14.57808,1395.4376],[33.61841,-14.56184,1373.0162],[33.60423,-14.52402,1421.067],[33.59576,-14.51141,1512.3344],[33.58429,-14.50263,1580.4692],[33.55741,-14.49043,1665.2874],[33.54594,-14.48165,1512.2531],[33.53747,-14.46873,1473.4918],[33.53235,-14.45622,1541.4465],[33.52579,-14.44434,1366.7834],[33.51246,-14.43297,1369.9993],[33.47029,-14.41447,1506.9434],[33.45737,-14.40434,1386.1541],[33.43918,-14.38067,1366.4651],[33.38859,-14.28063,1480.9822],[33.37102,-14.25675,1389.2365],[33.35711,-14.23057,1249.3323]]]}
,"properties": {"ISO3166-1-Alpha-3": "MOZ","country": "Mozambique","fill": "#000","name": "Tete","area_km2": 101035.31,"hist_schema_id": "Elevation0-9000","hist_area_km2": {"25": 1007.1,"50": 288.12,"75": 592.51,"100": 651.86,"125": 691.96,"150": 804.58,"175": 891.74,"200": 1091.6,"225": 1373.09,"250": 1812.64,"275": 2076.07,"300": 2328.46,"325": 6045.12,"350": 4915.2,"375": 4923.86,"400": 4581.41,"425": 3880.76,"450": 3461.5,"475": 3392.64,"500": 3371.2,"525": 3225.81,"550": 2896.73,"575": 2514.94,"600": 2301.0,"625": 2012.95,"650": 1805.3,"675": 1709.57,"700": 1705.85,"725": 1652.52,"750": 1550.45,"775": 1600.29,"800": 1657.28,"825": 1736.13,"850": 1794.54,"875": 1884.06,"900": 1977.86,"925": 2085.47,"950": 2161.1,"975": 2261.73,"1000": 2047.33,"1025": 1652.03,"1050": 1310.54,"1075": 1035.9,"1100": 887.77,"1125": 784.05,"1150": 724.41,"1175": 685.01,"1200": 668.46,"1225": 661.92,"1250": 665.22,"1275": 618.06,"1300": 527.67,"1325": 458.49,"1350": 372.87,"1375": 282.87,"1400": 234.68,"1425": 194.86,"1450": 155.8,"1475": 113.04,"1500": 79.49,"1525": 49.23,"1550": 31.49,"1575": 23.59,"1600": 18.61,"1625": 13.75,"1650": 8.42,"1675": 4.87,"1700": 3.3,"1725": 2.4,"1750": 1.31,"1775": 0.92}}}