{"type": "Feature","bbox": [30.2194,-17.7582,35.3684,-13.9982],"geometry": {"type": "MultiPolygon","coordinates": [[[[33.0653,-17.2789,495.8719],[33.0757,-17.2468,483.0614],[33.087,-17.2367,489.7043],[33.0893,-17.2328,488.7999],[33.091,-17.2204,479.9287],[33.0903,-17.1952,471.1352],[33.0928,-17.1795,465.8199],[33.0948,-17.1752,463.2201],[33.1027,-17.1681,473.1443],[33.1057,-17.1626,474.2065],[33.1066,-17.1562,459.9479],[33.111,-17.1502,463.4871],[33.1235,-17.1374,464.2438],[33.1234,-17.1324,455.8656],[33.1159,-17.1289,451.5562],[33.1123,-17.1242,452.7922],[33.1051,-17.1103,445.5517],[33.1058,-17.104,433.8055],[33.1129,-17.101,435.8024],[33.125,-17.0918,426.4617],[33.1271,-17.083,436.3819],[33.1312,-17.0754,431.3293],[33.1402,-17.0709,416.4437],[33.1429,-17.0387,395.0348],[33.1506,-17.0306,387.259],[33.2,-16.9964,345.5056],[33.2134,-16.9837,334.3069],[33.2166,-16.9759,357.797],[33.2153,-16.9656,317.9614],[33.2165,-16.9563,334.7495],[33.2238,-16.9468,314.9149],[33.2264,-16.9338,298.3426],[33.2397,-16.9021,279.722],[33.2475,-16.8883,259.3756],[33.254,-16.8805,249.6163],[33.2789,-16.8573,224.1727],[33.2841,-16.8314,217.2368],[33.2843,-16.8073,215.8272],[33.2916,-16.7873,235.6],[33.2975,-16.7614,205.303],[33.3139,-16.7394,202.8731],[33.3268,-16.7124,194.875],[33.3355,-16.7002,194.8021],[33.3599,-16.694,200.4674],[33.3685,-16.6897,196.0482],[33.3751,-16.6813,187.2828],[33.3812,-16.6667,183.9555],[33.3887,-16.6624,195.1719],[33.3926,-16.6552,194.4903],[33.3934,-16.6399,196.3484],[33.3963,-16.6342,196.1637],[33.4203,-16.6118,189.9913],[33.44,-16.5898,168.6593],[33.4431,-16.5804,185.3555],[33.4389,-16.5488,165.9805],[33.4353,-16.5382,196.4176],[33.4368,-16.5269,155.8397],[33.4508,-16.5161,203.995],[33.461,-16.5048,156.207],[33.4719,-16.4848,152.6371],[33.5009,-16.4696,149.6709],[33.52,-16.4469,145.1603],[33.5291,-16.4391,145.0087],[33.5425,-16.4321,144.7719],[33.569,-16.4256,138.7201],[33.5937,-16.4247,135.7662],[33.6053,-16.4293,134.0619],[33.6171,-16.4294,131.7361],[33.6848,-16.4201,149.6425],[33.709,-16.4307,123.3709],[33.7166,-16.4268,124.1791],[33.7248,-16.4121,125.5956],[33.7563,-16.3965,116.1369],[33.7847,-16.3853,110.5],[33.7924,-16.3871,121.8275],[33.8047,-16.3958,117.7774],[33.8121,-16.407,109.0],[33.8323,-16.4309,108.0],[33.8486,-16.461,106.5],[33.8789,-16.4897,104.5],[33.8867,-16.4992,104.0],[33.9032,-16.5283,103.0],[33.9114,-16.5369,102.5],[33.9458,-16.5623,100.875],[33.9619,-16.5777,102.1668],[33.9675,-16.5746,100.0],[33.9897,-16.5735,100.0],[33.9959,-16.5784,100.0],[33.9954,-16.6014,100.0],[33.9982,-16.6064,100.0],[34.0082,-16.6138,104.969],[34.0182,-16.6154,113.9414],[34.0362,-16.6144,104.7133],[34.0681,-16.6048,97.0],[34.0832,-16.6117,188.1056],[34.1237,-16.6207,95.0],[34.1334,-16.6273,94.5],[34.1491,-16.6546,93.0],[34.172,-16.6801,95.8824],[34.1983,-16.6917,93.8629],[34.2094,-16.694,95.854],[34.2674,-16.6938,89.9218],[34.2879,-16.6986,89.0139],[34.3072,-16.7083,86.5],[34.3239,-16.7131,87.8333],[34.3582,-16.7162,86.3994],[34.4028,-16.7168,84.2652],[34.4182,-16.7201,83.0206],[34.4438,-16.7289,81.7194],[34.4606,-16.736,81.206],[34.4724,-16.7476,80.5629],[34.4798,-16.7612,79.6275],[34.5359,-16.7843,77.8156],[34.5661,-16.8071,74.9424],[34.5867,-16.8285,73.0],[34.6012,-16.8404,72.5892],[34.6294,-16.8603,70.5],[34.661,-16.8767,69.8909],[34.6916,-16.8841,68.5197],[34.7304,-16.8908,69.0738],[34.7513,-16.8999,66.4509],[34.7653,-16.9109,66.2507],[34.797,-16.9444,63.0],[34.8187,-16.9762,61.5],[34.8262,-16.9968,61.6847],[34.8377,-17.0105,61.0409],[34.8648,-17.0299,59.815],[34.8886,-17.0684,58.4836],[34.8948,-17.0872,55.5],[34.9036,-17.1064,57.4486],[34.9156,-17.1546,53.6139],[34.9217,-17.1717,54.2158],[34.9581,-17.2391,48.5],[34.9545,-17.2475,49.372],[34.9598,-17.2592,47.5],[34.9711,-17.2671,47.941],[34.9757,-17.2821,46.5],[34.9783,-17.3136,46.8068],[34.9995,-17.352,45.0],[35.0084,-17.3523,45.6094],[35.0149,-17.355,44.9131],[35.0214,-17.3633,45.8692],[35.0568,-17.4354,41.0],[35.0631,-17.4543,40.7126],[35.0829,-17.4973,39.4956],[35.0951,-17.5134,37.8014],[35.1407,-17.5658,34.5],[35.1594,-17.6094,33.5],[35.1713,-17.6294,32.5],[35.1892,-17.6504,32.5512],[35.2102,-17.6655,32.1523],[35.229,-17.6759,31.8299],[35.284,-17.7012,29.3076],[35.3299,-17.7149,28.3371],[35.3445,-17.7257,26.5],[35.3496,-17.7373,27.5077],[35.3477,-17.7493,28.4953],[35.3516,-17.7569,28.8057],[35.3649,-17.7582,25.5],[35.3684,-17.74,26.0],[35.3675,-17.7333,26.0],[35.3623,-17.7238,26.9048],[35.3362,-17.6914,27.8003],[35.318,-17.6914,28.4222],[35.3146,-17.6857,28.8338],[35.3178,-17.6796,27.0],[35.3297,-17.68,28.1538],[35.336,-17.6767,27.7249],[35.3362,-17.669,28.7036],[35.3218,-17.6256,27.4632],[35.3234,-17.597,28.4794],[35.3203,-17.587,29.8331],[35.3269,-17.5778,27.5],[35.3308,-17.5655,29.196],[35.3307,-17.5485,30.2136],[35.3327,-17.5441,29.5229],[35.335,-17.5276,33.5322],[35.3395,-17.5168,32.1556],[35.3429,-17.4944,30.2683],[35.3344,-17.4802,29.7995],[35.3355,-17.4715,30.4532],[35.3345,-17.4507,29.2217],[35.3381,-17.4427,29.3901],[35.3259,-17.4217,31.525],[35.3188,-17.3329,29.4235],[35.3326,-17.3308,29.4156],[35.3251,-17.3156,29.5144],[35.3225,-17.2993,29.7297],[35.306,-17.2734,30.507],[35.2948,-17.2681,31.049],[35.2994,-17.2504,31.8725],[35.2959,-17.2413,31.7781],[35.3035,-17.238,31.5858],[35.3047,-17.2192,33.1042],[35.3115,-17.2081,35.3001],[35.3078,-17.2012,34.7216],[35.3081,-17.1946,34.0516],[35.3014,-17.1875,35.0503],[35.2951,-17.1696,35.0891],[35.3014,-17.1649,35.7677],[35.3036,-17.1407,34.9023],[35.2963,-17.1407,34.8805],[35.2909,-17.1376,34.5822],[35.2942,-17.1261,34.7727],[35.0974,-17.1272,437.0871],[35.0909,-17.1233,456.7052],[35.092,-17.1181,471.1273],[35.0894,-17.1127,413.9293],[35.0868,-17.112,426.7165],[35.0796,-17.1048,456.861],[35.085,-17.1022,469.4035],[35.0854,-17.0986,476.3463],[35.0906,-17.090699999999998,499.8517],[35.0927,-17.0913,510.97],[35.1031,-17.0865,636.7168],[35.0995,-17.0836,551.1458],[35.0986,-17.0797,532.278],[35.0858,-17.0751,486.41],[35.0828,-17.0703,488.3289],[35.0825,-17.0656,500.8893],[35.0854,-17.0632,521.3694],[35.0845,-17.0617,521.6422],[35.0766,-17.0643,496.283],[35.0743,-17.0604,504.9033],[35.0716,-17.0594,497.4596],[35.0631,-17.0509,462.874],[35.0591,-17.0381,412.7935],[35.0632,-17.0211,390.9758],[35.0621,-17.018,379.5754],[35.0569,-17.0163,415.9471],[35.0585,-17.0123,406.7997],[35.052,-17.0083,418.7614],[35.0549,-17.0078,424.7035],[35.0555,-17.0044,432.806],[35.0591,-17.003,439.6778],[35.0589,-17.0002,490.5213],[35.0633,-16.9921,509.3785],[35.0709,-16.9918,441.6905],[35.0831,-16.9836,531.9537],[35.0951,-16.9848,672.338],[35.0989,-16.9805,592.1856],[35.1099,-16.9747,603.0261],[35.1254,-16.9737,704.6229],[35.1363,-16.9681,675.9695],[35.1389,-16.9632,625.1166],[35.143,-16.9599,681.2197],[35.142,-16.9572,579.2339],[35.1501,-16.9409,547.4746],[35.1558,-16.9388,693.345],[35.1632,-16.9418,761.4835],[35.166,-16.9385,831.7248],[35.1697,-16.938,866.5151],[35.1723,-16.9353,891.86],[35.1681,-16.931,747.803],[35.1674,-16.9185,696.7014],[35.1527,-16.8865,564.5542],[35.1532,-16.8775,562.4675],[35.1502,-16.8748,547.6197],[35.1515,-16.8675,546.5402],[35.1568,-16.8601,592.1589],[35.1607,-16.8598,586.6345],[35.1616,-16.8583,583.0337],[35.1596,-16.8406,548.8263],[35.156,-16.8319,494.9184],[35.1471,-16.8258,446.9461],[35.134,-16.8233,621.045],[35.1156,-16.8149,318.7969],[35.1089,-16.8145,318.6859],[35.0991,-16.8174,284.8293],[35.0959,-16.8211,284.3073],[35.0943,-16.82,272.3499],[35.0917,-16.8211,269.6456],[35.0905,-16.8182,266.1942],[35.0724,-16.8186,259.8946],[35.0679,-16.8255,257.9242],[35.0644,-16.8276,240.6393],[35.0393,-16.8229,242.6586],[35.0338,-16.8184,239.7679],[35.0265,-16.8047,254.4782],[35.0035,-16.7957,243.4955],[35.0027,-16.7917,239.2852],[34.9955,-16.7902,226.2756],[34.9919,-16.7806,251.9564],[34.9937,-16.7694,249.2009],[34.9896,-16.7677,240.7976],[34.9895,-16.765,240.4362],[34.9864,-16.7629,241.3562],[34.9868,-16.7599,249.0741],[34.9825,-16.7467,271.2432],[34.9715,-16.748,228.6338],[34.9694,-16.7423,232.1841],[34.9613,-16.7384,234.3566],[34.9389,-16.7443,267.4227],[34.9244,-16.7444,257.9141],[34.9203,-16.7354,250.0646],[34.9193,-16.7244,263.7676],[34.9166,-16.7145,286.8968],[34.9149,-16.713,286.8968],[34.9153,-16.6976,306.487],[34.9122,-16.6919,300.5231],[34.8902,-16.6844,308.4179],[34.8867,-16.6869,307.9226],[34.8808,-16.6866,307.8372],[34.8732,-16.678,327.5248],[34.8676,-16.6751,318.88],[34.8644,-16.6761,320.4667],[34.8608,-16.6735,328.1427],[34.8581,-16.6547,345.8953],[34.8578,-16.6336,348.4507],[34.8532,-16.6178,345.5837],[34.8464,-16.6098,380.8727],[34.8424,-16.6076,501.6544],[34.842,-16.604,415.9493],[34.838,-16.6028,388.2041],[34.8373,-16.5997,391.567],[34.8341,-16.598,402.3014],[34.8275,-16.6049,378.6237],[34.8207,-16.6016,381.0562],[34.8158,-16.6022,356.8517],[34.8117,-16.5951,357.0358],[34.7932,-16.585,311.9629],[34.7825,-16.5834,311.2687],[34.7784,-16.5801,322.3594],[34.7745,-16.5847,338.64],[34.7729,-16.5838,335.6877],[34.7717,-16.5802,348.0644],[34.7743,-16.5744,316.2947],[34.7808,-16.5689,334.9164],[34.7784,-16.5614,310.2177],[34.7783,-16.5503,290.4735],[34.7761,-16.5442,289.7253],[34.7663,-16.5366,274.6764],[34.7636,-16.5294,265.3578],[34.7686,-16.5291,264.533],[34.7588,-16.5177,265.4797],[34.7576,-16.5109,280.2794],[34.7405,-16.507,273.5516],[34.7256,-16.4949,281.9229],[34.7212,-16.4981,290.5468],[34.7201,-16.4954,290.9421],[34.7181,-16.4952,291.5403],[34.6952,-16.4998,314.7323],[34.6874,-16.4996,329.757],[34.6788,-16.4914,288.7182],[34.6747,-16.4779,267.653],[34.6782,-16.4662,260.5056],[34.6777,-16.4554,266.304],[34.6693,-16.4442,275.2224],[34.664,-16.4433,265.2705],[34.6534,-16.4507,282.4239],[34.6185,-16.4235,277.7522],[34.5942,-16.4112,282.6944],[34.5851,-16.3979,241.488],[34.5841,-16.3896,251.2068],[34.5888,-16.3736,266.1534],[34.5888,-16.3614,255.0139],[34.5726,-16.3459,292.889],[34.5718,-16.3378,285.0907],[34.5744,-16.3287,283.6233],[34.5732,-16.3211,317.3962],[34.5382,-16.2932,311.7349],[34.5286,-16.2815,302.8754],[34.5222,-16.2809,314.1407],[34.5118,-16.2864,274.8561],[34.5004,-16.2979,265.6888],[34.4899,-16.2945,274.7989],[34.4704,-16.2835,282.0511],[34.4587,-16.2728,282.0168],[34.4532,-16.2705,284.3464],[34.4456,-16.2707,292.8711],[34.4318,-16.2646,339.4506],[34.4314,-16.2623,325.4611],[34.4235,-16.254,325.5488],[34.4225,-16.235,292.9741],[34.4203,-16.2306,292.6968],[34.4184,-16.2187,296.8161],[34.4108,-16.2178,293.8121],[34.4072,-16.2116,290.3004],[34.4046,-16.1917,288.6974],[34.3996,-16.1853,283.1731],[34.3995,-16.1717,287.9535],[34.404,-16.1662,290.045],[34.4042,-16.1621,292.9832],[34.3931,-16.1442,299.2819],[34.3925,-16.1277,303.2159],[34.3989,-16.1121,309.6775],[34.4072,-16.1045,316.369],[34.4207,-16.08,330.5048],[34.4375,-16.0616,341.9637],[34.4363,-16.0589,343.0941],[34.4273,-16.0545,335.8716],[34.4251,-16.0513,339.913],[34.4263,-16.0447,363.7736],[34.4251,-16.0399,368.5553],[34.4194,-16.0334,348.0612],[34.3842,-16.0159,349.0619],[34.3728,-16.0,349.5734],[34.3627,-15.9672,339.5635],[34.3551,-15.9612,351.9999],[34.3274,-15.9566,349.1955],[34.3297,-15.955,347.5498],[34.3224,-15.9382,350.7309],[34.3045,-15.926,426.8049],[34.2992,-15.925,394.1481],[34.289,-15.9287,436.6541],[34.2819,-15.9277,597.634],[34.2773,-15.9234,745.2143],[34.2747,-15.9249,756.4775],[34.274,-15.9216,812.8596],[34.2705,-15.9173,800.5806],[34.2578,-15.9161,908.2316],[34.2572,-15.9109,913.7824],[34.2542,-15.9077,753.6129],[34.2525,-15.8926,601.5945],[34.2549,-15.8895,480.5551],[34.2625,-15.8859,634.2462],[34.2504,-15.8755,429.6128],[34.2555,-15.8679,412.564],[34.2594,-15.8673,422.5679],[34.261,-15.8644,405.3283],[34.2515,-15.8485,393.7915],[34.2521,-15.8457,393.7823],[34.2486,-15.8407,391.9095],[34.2545,-15.8351,388.6455],[34.2586,-15.8208,390.0702],[34.2633,-15.8161,399.9355],[34.2679,-15.8159,398.6872],[34.2728,-15.8121,408.2159],[34.2704,-15.8013,397.5471],[34.2729,-15.7913,417.852],[34.2796,-15.788,512.4742],[34.2829,-15.7838,503.3862],[34.2854,-15.7855,514.101],[34.2871,-15.7849,514.101],[34.2924,-15.7751,548.9072],[34.2977,-15.7689,557.4388],[34.2996,-15.7585,588.8983],[34.3117,-15.7544,589.3149],[34.3225,-15.7467,616.9465],[34.326,-15.7419,618.472],[34.3281,-15.7426,605.3226],[34.3373,-15.7388,613.5121],[34.3506,-15.7418,809.7965],[34.3573,-15.7371,762.6449],[34.3649,-15.7386,777.2344],[34.3691,-15.7323,666.0632],[34.3737,-15.7287,673.1994],[34.3782,-15.7147,666.5259],[34.3874,-15.7069,694.6917],[34.3897,-15.6987,718.8868],[34.3876,-15.6913,744.4708],[34.3917,-15.6838,718.6989],[34.3949,-15.682,718.6917],[34.4038,-15.6832,761.2229],[34.4038,-15.6752,743.7937],[34.4086,-15.6694,790.0519],[34.4184,-15.669,783.431],[34.4229,-15.6635,820.8616],[34.4257,-15.6632,862.6044],[34.4267,-15.6606,840.9431],[34.4343,-15.6609,924.2975],[34.4371,-15.6562,852.023],[34.4307,-15.6478,885.3898],[34.4313,-15.6328,880.1142],[34.4332,-15.6287,883.4023],[34.4313,-15.6238,901.0146],[34.4336,-15.6169,898.1804],[34.4388,-15.6106,884.9083],[34.4537,-15.6063,931.6985],[34.4542,-15.5935,994.9948],[34.4403,-15.571,967.2856],[34.4429,-15.5484,1084.3846],[34.4403,-15.5427,1063.9377],[34.4415,-15.5388,1129.9917],[34.4354,-15.5234,1222.6244],[34.4356,-15.5195,1132.3225],[34.4278,-15.5014,1245.4565],[34.4257,-15.4892,1168.4302],[34.4261,-15.4745,1224.8789],[34.4309,-15.4651,1147.5848],[34.4352,-15.4652,1134.381],[34.4388,-15.4568,1069.129],[34.4436,-15.4527,1083.6725],[34.4418,-15.443,1082.459],[34.4383,-15.4362,1103.4559],[34.4392,-15.4263,1087.5964],[34.4418,-15.4224,1102.661],[34.4461,-15.4264,1072.3104],[34.4518,-15.4437,1013.2517],[34.4546,-15.4461,1018.7075],[34.4586,-15.4578,946.563],[34.4614,-15.4559,948.4264],[34.4593,-15.4489,1021.0615],[34.4655,-15.4331,1066.7561],[34.4722,-15.4241,1161.7053],[34.4814,-15.4191,1113.009],[34.4928,-15.408,1152.1572],[34.4937,-15.4095,1157.0],[34.5049,-15.4098,1171.6014],[34.5146,-15.399,1167.1154],[34.5136,-15.3983,1167.1154],[34.5165,-15.3898,1194.8672],[34.5201,-15.3844,1223.8157],[34.5168,-15.3719,1247.7354],[34.5186,-15.3512,1181.3628],[34.5206,-15.347,1205.25],[34.5312,-15.3423,1190.0059],[34.5326,-15.3332,1203.5234],[34.5403,-15.3262,1167.2466],[34.5556,-15.3368,1251.9883],[34.559,-15.3328,1335.9001],[34.5746,-15.3218,1485.9045],[34.5748,-15.3125,1569.048],[34.5727,-15.3086,1620.1125],[34.5742,-15.3052,1585.7372],[34.5858,-15.2952,1582.4989],[34.5979,-15.2814,1518.9905],[34.6005,-15.2693,1431.4238],[34.6017,-15.2679,1449.0767],[34.6033,-15.269,1419.9517],[34.6041,-15.2672,1409.9762],[34.5992,-15.2514,1458.2524],[34.6011,-15.2426,1547.3174],[34.6006,-15.2353,1585.7819],[34.5926,-15.2252,1598.2404],[34.5886,-15.2107,1566.3267],[34.5806,-15.2056,1612.6765],[34.5794,-15.1999,1606.7378],[34.5828,-15.1811,1684.8071],[34.5754,-15.1645,1627.8125],[34.5765,-15.1624,1637.5289],[34.5815,-15.1611,1646.7377],[34.5773,-15.1473,1580.0739],[34.5743,-15.1476,1602.8864],[34.5767,-15.1409,1605.0706],[34.5762,-15.1349,1612.4517],[34.5734,-15.1294,1546.5703],[34.5685,-15.1247,1563.6346],[34.5706,-15.1127,1605.7664],[34.5864,-15.098,1628.8298],[34.59,-15.0877,1589.7874],[34.5843,-15.0847,1618.8158],[34.5762,-15.0869,1675.6559],[34.5716,-15.0851,1669.2463],[34.5692,-15.0793,1641.4232],[34.5715,-15.073,1641.9172],[34.5698,-15.068,1605.2719],[34.5712,-15.0635,1622.863],[34.5744,-15.0617,1614.3467],[34.5781,-15.0565,1661.2291],[34.5797,-15.0559,1663.7411],[34.5802,-15.0573,1675.0094],[34.5862,-15.048,1612.0415],[34.5969,-15.0436,1575.4521],[34.6019,-15.0388,1567.4384],[34.6007,-15.0306,1564.9999],[34.6037,-15.0253,1585.0416],[34.6043,-15.0209,1609.8605],[34.6105,-15.0142,1559.8484],[34.6172,-15.0113,1560.3101],[34.6207,-15.0006,1570.6627],[34.6194,-14.9967,1549.3994],[34.6109,-14.9899,1538.5162],[34.6142,-14.9778,1523.6372],[34.6082,-14.9774,1516.2478],[34.6017,-14.9741,1495.7717],[34.5964,-14.9669,1452.1987],[34.596,-14.9632,1474.1328],[34.5902,-14.9582,1478.3774],[34.5879,-14.9361,1452.5216],[34.5793,-14.9218,1460.5516],[34.5763,-14.9119,1465.4744],[34.5769,-14.9065,1500.1644],[34.5715,-14.9041,1504.823],[34.5686,-14.9003,1490.3739],[34.567,-14.9007,1483.7355],[34.5634,-14.8959,1497.0739],[34.5672,-14.8835,1414.786],[34.5753,-14.8723,1399.9824],[34.5748,-14.8417,1528.4314],[34.5709,-14.822,1462.6547],[34.574,-14.8168,1454.7153],[34.5826,-14.8129,1458.5909],[34.5827,-14.8087,1466.2576],[34.5732,-14.79,1432.4746],[34.5641,-14.78,1435.3684],[34.5653,-14.7704,1423.6387],[34.5512,-14.7547,1417.2535],[34.5447,-14.7499,1418.6208],[34.5412,-14.7359,1391.6605],[34.5426,-14.7309,1383.4073],[34.5375,-14.725,1393.5492],[34.5336,-14.714,1389.849],[34.5279,-14.7084,1387.5397],[34.528,-14.6993,1415.3757],[34.5242,-14.696,1421.1266],[34.5185,-14.6832,1388.4382],[34.526,-14.6851,1349.973],[34.532,-14.6887,1337.0222],[34.5327,-14.6855,1382.3259],[34.5409,-14.6848,1360.0065],[34.5404,-14.6751,1386.4226],[34.5359,-14.6721,1376.9832],[34.5383,-14.6681,1397.9897],[34.5386,-14.6568,1402.8134],[34.5408,-14.6525,1420.9402],[34.5451,-14.6519,1437.0454],[34.5496,-14.6439,1452.738],[34.5486,-14.6392,1446.5076],[34.5413,-14.6312,1473.123],[34.5408,-14.6242,1480.671],[34.5433,-14.6196,1499.9749],[34.5402,-14.614,1490.7413],[34.5413,-14.6009,1520.7629],[34.5339,-14.5848,1559.6782],[34.5267,-14.5792,1554.4937],[34.523,-14.5652,1532.1257],[34.5133,-14.5523,1490.7729],[34.51,-14.5509,1485.6348],[34.5011,-14.552,1505.9562],[34.4929,-14.5504,1462.9583],[34.4852,-14.5366,1522.5723],[34.4738,-14.5311,1500.7124],[34.4706,-14.5242,1502.2094],[34.4664,-14.5202,1467.0483],[34.4673,-14.5194,1453.0289],[34.4567,-14.5097,1451.588],[34.4496,-14.4959,1461.0334],[34.4454,-14.4758,1501.0548],[34.4366,-14.464,1530.177],[34.4293,-14.4595,1500.9781],[34.4215,-14.4412,1544.8792],[34.4197,-14.4403,1558.1251],[34.4181,-14.4287,1540.5151],[34.4019,-14.4174,1545.1265],[34.4001,-14.412,1568.5327],[34.3929,-14.403,1556.512],[34.3932,-14.3956,1580.9135],[34.3919,-14.3931,1586.1594],[34.3891,-14.3933,1579.9606],[34.3862,-14.3962,1582.8243],[34.3765,-14.3947,1541.4017],[34.374,-14.3931,1541.7875],[34.3705,-14.3853,1541.7194],[34.3634,-14.3859,1539.6067],[34.3561,-14.3842,1564.6029],[34.3498,-14.3895,1606.5647],[34.3468,-14.3944,1606.8969],[34.3435,-14.396,1612.0872],[34.3265,-14.397,1566.9645],[34.3106,-14.4041,1558.3718],[34.3065,-14.4003,1541.615],[34.3044,-14.4003,1547.9622],[34.2876,-14.4074,1516.3481],[34.2801,-14.4127,1495.7341],[34.2713,-14.4239,1510.379],[34.2626,-14.4293,1526.1296],[34.2558,-14.429,1520.9833],[34.2372,-14.4229,1535.7274],[34.2294,-14.4273,1493.7504],[34.225,-14.4273,1472.1658],[34.223,-14.4293,1469.2302],[34.2228,-14.4324,1470.8723],[34.22,-14.4342,1465.8308],[34.2051,-14.4395,1445.147],[34.1941,-14.4373,1450.4719],[34.1893,-14.438,1450.9438],[34.1839,-14.4343,1423.0338],[34.1755,-14.4316,1421.5884],[34.1672,-14.4385,1348.7688],[34.1261,-14.4464,1295.6119],[34.1183,-14.4473,1321.5125],[34.1158,-14.4452,1323.0698],[34.1082,-14.4463,1307.8528],[34.0931,-14.4502,1311.9987],[34.0858,-14.4566,1318.8658],[34.0829,-14.463,1329.4934],[34.0822,-14.4782,1335.252],[34.0743,-14.485,1326.2784],[34.0468,-14.4812,1324.6304],[34.0324,-14.4816,1320.083],[33.9726,-14.4764,1253.7556],[33.9717,-14.48,1255.9308],[33.9424,-14.4781,1289.2552],[33.9402,-14.4763,1283.6544],[33.9378,-14.47,1280.9315],[33.9354,-14.4687,1280.001],[33.9285,-14.4727,1263.2435],[33.9235,-14.4785,1253.6936],[33.9144,-14.476,1252.3215],[33.9121,-14.4767,1254.774],[33.9068,-14.4845,1261.0594],[33.8992,-14.4854,1260.4628],[33.8857,-14.4962,1262.8109],[33.8829,-14.501,1257.8838],[33.8863,-14.5135,1267.6482],[33.878,-14.5194,1274.1738],[33.8737,-14.5195,1270.0933],[33.864,-14.5104,1268.6226],[33.8652,-14.5041,1271.8192],[33.8558,-14.5041,1268.3461],[33.8449,-14.5114,1258.5908],[33.8136,-14.5418,1279.9121],[33.8047,-14.5433,1277.6292],[33.7917,-14.5315,1283.0969],[33.7689,-14.5222,1280.5754],[33.7428,-14.4964,1302.3804],[33.7294,-14.488,1279.9036],[33.7202,-14.4908,1283.5525],[33.71,-14.4987,1291.6089],[33.7061,-14.5217,1286.3899],[33.7009,-14.5341,1334.5057],[33.7025,-14.5479,1330.6484],[33.7132,-14.5718,1356.5366],[33.707,-14.5764,1331.1035],[33.7047,-14.581,1347.4835],[33.6907,-14.5917,1385.9097],[33.6805,-14.605,1333.281],[33.6449,-14.5832,1351.311],[33.6377,-14.5705,1359.028],[33.6314,-14.5633,1353.808],[33.6274,-14.555,1348.1666],[33.6298,-14.5436,1389.4578],[33.6299,-14.5316,1421.1682],[33.6189,-14.5081,1460.9041],[33.6131,-14.5012,1576.5581],[33.5957,-14.4846,1674.441],[33.5861,-14.4795,1605.1063],[33.5731,-14.478,1616.6896],[33.5649,-14.4711,1652.6101],[33.5572,-14.4545,1613.3779],[33.5539,-14.4517,1651.7493],[33.5448,-14.4356,1649.9652],[33.5368,-14.4273,1582.2173],[33.5246,-14.4203,1445.5251],[33.5149,-14.4191,1409.9124],[33.4806,-14.4035,1517.876],[33.4743,-14.3975,1544.311],[33.4642,-14.3777,1537.1379],[33.4483,-14.3615,1504.189],[33.4468,-14.3454,1550.8754],[33.4384,-14.3279,1599.1814],[33.4241,-14.308,1595.6306],[33.4195,-14.297,1593.265],[33.4191,-14.2898,1583.2495],[33.4142,-14.2802,1550.8076],[33.4055,-14.2702,1525.0098],[33.3967,-14.2499,1487.985],[33.3819,-14.2342,1480.6542],[33.3794,-14.2245,1408.7531],[33.3792,-14.2158,1446.6738],[33.3748,-14.211,1484.2496],[33.3649,-14.2118,1391.1613],[33.361,-14.214,1329.6458],[33.3599,-14.2172,1348.1069],[33.357,-14.2176,1317.5024],[33.3516,-14.2169,1329.4075],[33.342,-14.2124,1394.8656],[33.3379,-14.2059,1437.09],[33.3367,-14.1993,1433.1257],[33.3288,-14.1819,1317.5847],[33.315,-14.163,1337.4371],[33.3097,-14.1619,1350.609],[33.3078,-14.1521,1305.3851],[33.298,-14.1465,1338.7594],[33.2969,-14.1397,1343.0337],[33.3014,-14.1314,1302.5074],[33.3008,-14.1264,1294.2173],[33.3092,-14.1226,1267.4152],[33.3103,-14.1205,1255.6855],[33.3103,-14.1178,1225.1781],[33.305,-14.1087,1201.64],[33.3052,-14.1046,1195.698],[33.3173,-14.0896,1170.1996],[33.3196,-14.0842,1169.0363],[33.3174,-14.0775,1174.2206],[33.305,-14.0609,1162.5806],[33.3032,-14.0546,1163.3932],[33.3036,-14.048,1162.0605],[33.2981,-14.0342,1168.7335],[33.2959,-14.0318,1166.0569],[33.2888,-14.0299,1150.5364],[33.2814,-14.0226,1147.9934],[33.2678,-14.0246,1145.8677],[33.2603,-14.0229,1136.9194],[33.2568,-14.0193,1133.5249],[33.2544,-14.0076,1140.5618],[33.2478,-14.0047,1141.8252],[33.2402,-13.9982,1151.5803],[33.2302,-13.9997,1108.641],[33.2003,-14.0085,1108.2302],[33.1626,-14.0243,1000.2849],[33.146,-14.027,1026.501],[33.0976,-14.0415,1063.515],[33.0931,-14.0413,1066.5977],[33.0006,-14.077,963.7103],[32.9055,-14.1021,908.0581],[32.7294,-14.1627,1048.8595],[32.6439,-14.1945,729.9211],[32.5127,-14.2512,868.6151],[32.4697,-14.2675,1164.9701],[32.4242,-14.2786,961.3967],[32.394,-14.283,927.7578],[32.3765,-14.2879,938.7839],[32.286,-14.3042,948.1261],[32.2376,-14.3149,949.3126],[32.1272,-14.3507,929.666],[32.1029,-14.3613,951.9742],[32.0355,-14.3863,962.7769],[31.9955,-14.3968,995.5561],[31.9835,-14.3965,1011.053],[31.9699,-14.4001,1008.0784],[31.9561,-14.401,1023.3749],[31.8833,-14.4391,1003.9882],[31.8611,-14.4491,995.4224],[31.8317,-14.4674,986.3374],[31.8155,-14.4742,1018.4197],[31.8051,-14.477,1016.0731],[31.7767,-14.4767,983.2288],[31.7159,-14.4934,991.4619],[31.6949,-14.495,1030.6499],[31.6661,-14.5033,996.527],[31.6547,-14.5093,1011.5579],[31.6371,-14.5224,1003.9526],[31.5877,-14.5507,993.4435],[31.5419,-14.5803,1039.0597],[31.528199999999998,-14.5871,1034.5781],[31.5064,-14.601,1061.8114],[31.498,-14.6043,1059.7732],[31.4581,-14.614,1050.6104],[31.4256,-14.6186,1012.9872],[31.3762,-14.6289,998.4075],[31.3441,-14.6381,1014.3646],[31.3271,-14.6392,1042.8528],[31.3036,-14.6451,1066.6973],[31.2847,-14.6514,1092.5288],[31.2633,-14.6558,1121.1228],[31.2387,-14.665,1096.0371],[31.1945,-14.678,1087.4271],[31.1714,-14.6908,1059.7197],[31.1531,-14.698,1062.2477],[30.7963,-14.7834,883.9366],[30.7755,-14.7935,844.0735],[30.7016,-14.814,767.1631],[30.6873,-14.8199,790.2252],[30.6638,-14.8331,735.3682],[30.6361,-14.8432,694.8574],[30.6017,-14.8606,738.9609],[30.5565,-14.8755,725.798],[30.5316,-14.8869,726.6622],[30.5242,-14.8886,693.4065],[30.481,-14.9062,756.8864],[30.4583,-14.9175,564.0745],[30.4493,-14.9236,542.0723],[30.3743,-14.9603,598.0956],[30.3231,-14.9677,522.1857],[30.2956,-14.9773,503.2304],[30.2581,-14.9836,466.6893],[30.2274,-14.9944,417.7503],[30.2233,-14.9939,419.6508],[30.2194,-14.9979,441.2132],[30.2266,-15.0305,434.7524],[30.2259,-15.0412,477.3738],[30.2226,-15.0498,359.5],[30.2209,-15.0739,359.6197],[30.2264,-15.0878,363.1687],[30.2392,-15.1411,356.0],[30.2499,-15.161,357.8162],[30.2557,-15.1774,352.9236],[30.2601,-15.2076,349.0],[30.274,-15.2441,346.5],[30.2841,-15.2599,345.5],[30.3246,-15.2979,347.4874],[30.3431,-15.3134,346.9157],[30.3591,-15.3224,340.9518],[30.3699,-15.334,345.2523],[30.376,-15.3522,344.1705],[30.3826,-15.383,336.0],[30.3828,-15.4024,337.1166],[30.38,-15.4276,338.5575],[30.3815,-15.4394,332.5],[30.3922,-15.4643,331.5],[30.394,-15.473,343.4482],[30.3937,-15.4811,341.3991],[30.3645,-15.5382,349.1653],[30.3634,-15.5437,328.1789],[30.3706,-15.558,326.5],[30.3825,-15.5668,331.971],[30.3943,-15.5804,326.4975],[30.4115,-15.6107,332.2294],[30.4217,-15.6211,322.5],[30.4252,-15.6283,350.8321],[30.4258,-15.6843,365.8318],[30.4233,-15.7313,392.6582],[30.4247,-15.7471,416.6532],[30.4239,-15.9029,408.5872],[30.4222,-15.9171,417.8617],[30.4237,-15.9286,414.7381],[30.4246,-16.0,395.529],[30.9225,-16.0,379.0434],[30.9499,-16.0163,367.8208],[30.9549,-16.0282,367.6248],[30.9572,-16.0387,362.1764],[30.9663,-16.0494,355.6686],[30.9821,-16.059,349.0901],[30.9983,-16.0569,344.9347],[31.0203,-16.0446,341.6356],[31.0289,-16.0279,338.2754],[31.0306,-16.0188,338.7131],[31.0536,-16.013,333.0933],[31.0605,-16.0081,331.2249],[31.0643,-16.0,331.7406],[31.07,-16.007,331.8463],[31.0724,-16.0162,328.6518],[31.1032,-16.0,328.2035],[31.1018,-15.9955,325.878],[31.1405,-15.9823,328.8154],[31.1514,-15.9886,330.0711],[31.1783,-15.9904,335.8111],[31.1845,-16.0,337.5959],[31.1899,-16.0042,338.3509],[31.202,-16.0046,339.9513],[31.2154,-16.0076,341.4751],[31.2447,-16.0,352.7813],[31.247,-16.0014,350.501],[31.2469,-16.0085,348.1954],[31.2497,-16.0097,345.7329],[31.2678,-16.0098,347.7337],[31.2835,-16.0199,355.5844],[31.3073,-16.0272,356.6872],[31.3171,-16.0367,359.4773],[31.3338,-16.0485,362.4224],[31.3389,-16.0531,364.1334],[31.3418,-16.0685,368.4396],[31.3487,-16.0801,371.1117],[31.364,-16.0911,379.0704],[31.3733,-16.1032,379.1048],[31.3873,-16.1156,385.4083],[31.3943,-16.1267,386.1796],[31.4045,-16.1371,386.7683],[31.4205,-16.1324,389.4257],[31.4266,-16.1352,390.0464],[31.4306,-16.1415,390.4087],[31.4278,-16.1508,391.6304],[31.4306,-16.1564,394.1967],[31.4463,-16.1534,397.8502],[31.456,-16.1542,404.5988],[31.4659,-16.159,398.7041],[31.4814,-16.1569,402.9149],[31.4993,-16.1707,406.5952],[31.5451,-16.1842,419.0314],[31.588,-16.1913,429.7844],[31.6182,-16.1901,436.3335],[31.6352,-16.1972,443.1061],[31.6917,-16.2017,454.6914],[31.7028,-16.2066,458.8598],[31.7331,-16.2284,479.8511],[31.758,-16.237,479.8477],[31.7708,-16.2367,483.9012],[31.7857,-16.2564,495.2501],[31.7907,-16.2583,494.2769],[31.7978,-16.2579,495.8129],[31.8032,-16.2702,500.2104],[31.8161,-16.2774,506.9886],[31.8182,-16.2821,507.7873],[31.8149,-16.2949,514.2765],[31.8254,-16.2943,513.5977],[31.8298,-16.2994,516.0151],[31.8307,-16.3084,520.6358],[31.834,-16.3111,522.2415],[31.8359,-16.3126,523.2936],[31.84,-16.3076,524.3238],[31.8485,-16.3095,525.9889],[31.8519,-16.3178,531.8081],[31.8579,-16.319,532.4003],[31.8628,-16.3241,535.1646],[31.8728,-16.3259,540.1868],[31.8834,-16.3329,545.3984],[31.8938,-16.3365,551.7061],[31.9022,-16.3476,562.9808],[31.9055,-16.3676,577.88],[31.9111,-16.3732,579.4827],[31.9073,-16.3977,604.4067],[31.9135,-16.4129,625.8593],[32.0375,-16.4424,1108.9065],[32.2744,-16.4342,613.2167],[32.2853,-16.4346,539.0502],[32.3216,-16.4448,559.2764],[32.3442,-16.4492,549.3353],[32.3482,-16.452,567.8441],[32.412,-16.4696,577.0476],[32.4877,-16.4994,577.8502],[32.5756,-16.5367,584.4054],[32.7092,-16.6,755.2076],[32.7125,-16.603,700.624],[32.7103,-16.6415,645.9336],[32.7066,-16.6513,905.8185],[32.7023,-16.6768,1064.448],[32.7092,-16.6855,875.5724],[32.7698,-16.7094,409.6574],[32.781,-16.707,396.8422],[32.8039,-16.7078,462.8284],[32.8089,-16.7053,383.4113],[32.8255,-16.7091,408.6819],[32.8327,-16.7005,376.5929],[32.8428,-16.6989,370.6724],[32.8534,-16.708,393.8665],[32.8687,-16.7085,358.1424],[32.8862,-16.7194,315.7327],[32.8934,-16.7202,324.6537],[32.9015,-16.7163,350.0656],[32.907,-16.7106,355.2466],[32.9123,-16.7086,344.8612],[32.92,-16.702,324.1899],[32.9233,-16.7013,322.2446],[32.9276,-16.7039,345.8461],[32.9713,-16.7046,279.2497],[32.9785,-16.7072,255.1511],[32.9716,-16.7553,398.8782],[32.9667,-16.7725,442.514],[32.9573,-16.7933,496.7964],[32.9543,-16.8034,512.2554],[32.9517,-16.805,502.832],[32.9423,-16.8251,537.2003],[32.9386,-16.837,555.3745],[32.9122,-16.8942,758.4853],[32.9043,-16.8997,702.2859],[32.8854,-16.9053,811.6509],[32.8768,-16.9096,753.5676],[32.8617,-16.9111,729.8112],[32.8448,-16.9158,718.7556],[32.8357,-16.9208,951.5649],[32.8361,-16.927,791.2719],[32.8496,-16.9482,637.1038],[32.903,-17.0181,566.2144],[32.9219,-17.0496,565.4792],[32.9278,-17.054,580.1952],[32.938,-17.0686,693.5824],[32.9665,-17.1316,637.2247],[32.9865,-17.1793,662.7838],[32.99,-17.1972,701.3484],[32.9935,-17.2438,520.0513],[32.9963,-17.2599,543.0015],[32.9974,-17.3086,692.8472],[33.0007,-17.3141,643.5267],[33.0081,-17.316,671.3297],[33.0331,-17.3347,567.3067],[33.0411,-17.3428,529.5878],[33.051,-17.3377,518.5381],[33.0489,-17.3136,507.6992],[33.0495,-17.301,504.4781],[33.0653,-17.2789,495.8719]]]]}
,"properties": {"GID_1": "MOZ.10_1","GID_0": "MOZ","country": "Mozambique","province": "Tete","VARNAME_1": "NA","NL_NAME_1": "NA","TYPE_1": "Provincia","ENGTYPE_1": "Province","CC_1": "NA","HASC_1": "MZ.TE","ISO_1": "MZ-T","name": "Tete.province","area_km2": 101326.79,"hist_schema_id": "Elevation0-9000","hist_area_km2": {"25": 1020.37,"50": 375.97,"75": 602.65,"100": 620.84,"125": 683.85,"150": 811.68,"175": 887.03,"200": 1077.1,"225": 1375.28,"250": 1827.21,"275": 2134.04,"300": 2363.86,"325": 6032.55,"350": 4890.57,"375": 4866.04,"400": 4553.51,"425": 3826.85,"450": 3466.74,"475": 3409.1,"500": 3366.06,"525": 3204.39,"550": 2852.23,"575": 2422.25,"600": 2213.55,"625": 1968.34,"650": 1780.83,"675": 1693.3,"700": 1698.43,"725": 1647.56,"750": 1544.04,"775": 1596.0,"800": 1652.46,"825": 1735.77,"850": 1797.38,"875": 1887.93,"900": 1987.05,"925": 2104.57,"950": 2177.35,"975": 2278.15,"1000": 2080.63,"1025": 1679.26,"1050": 1324.69,"1075": 1057.13,"1100": 909.23,"1125": 805.53,"1150": 741.85,"1175": 695.55,"1200": 674.68,"1225": 665.78,"1250": 663.88,"1275": 616.98,"1300": 528.37,"1325": 458.63,"1350": 393.45,"1375": 319.39,"1400": 275.96,"1425": 242.19,"1450": 207.63,"1475": 160.41,"1500": 119.84,"1525": 81.7,"1550": 58.3,"1575": 42.67,"1600": 32.05,"1625": 23.38,"1650": 15.06,"1675": 8.55,"1700": 4.22,"1725": 2.68,"1750": 1.35,"1775": 0.92}}}