{"type":"Feature","properties":{"GID_3":"MOZ.10.6.1_1","GID_0":"MOZ","country":"Mozambique","GID_1":"MOZ.10_1","province":"Tete","NL_NAME_1":"NA","GID_2":"MOZ.10.6_1","county":"Macanga","NL_NAME_2":"NA","city":"Chidzolomondo","VARNAME_3":"NA","NL_NAME_3":"NA","TYPE_3":"Localidad","ENGTYPE_3":"Locality","CC_3":"NA","HASC_3":"NA","name":"Chidzolomondo.city"},
"geometry":{"type": "MultiPolygon","coordinates": [[[[33.1801,-15.0812,511.5156],[33.1948,-15.0891,522.1383],[33.2023,-15.0983,526.7795],[33.2074,-15.1004,529.0936],[33.2156,-15.1006,530.7435],[33.2245,-15.0946,535.8229],[33.2355,-15.1023,540.9602],[33.2466,-15.1004,547.8721],[33.2619,-15.104,558.2929],[33.27,-15.1019,563.0748],[33.3005,-15.1029,580.1777],[33.3115,-15.1082,589.7749],[33.3189,-15.1098,592.6232],[33.3268,-15.1077,596.294],[33.3489,-15.1128,619.7649],[33.355,-15.1189,603.9538],[33.4016,-15.1541,883.1472],[33.4059,-15.1557,875.2226],[33.4326,-15.1502,588.9962],[33.4477,-15.1822,566.3236],[33.4654,-15.2036,545.8425],[33.4772,-15.2057,539.1244],[33.4815,-15.2096,538.0971],[33.4971,-15.2169,522.5779],[33.511,-15.2291,515.7993],[33.514,-15.2301,523.2177],[33.5156,-15.218,532.1525],[33.5184,-15.2145,527.8658],[33.5501,-15.1923,644.0854],[33.5545,-15.1869,646.9373],[33.559,-15.1789,651.8445],[33.5597,-15.1727,664.1669],[33.558,-15.1683,707.6217],[33.5387,-15.1472,887.033],[33.5384,-15.1376,898.0247],[33.5461,-15.1308,1181.0453],[33.5481,-15.1237,1205.3826],[33.5269,-15.0806,980.7374],[33.5206,-15.0588,1392.0999],[33.5216,-14.9989,806.437],[33.5256,-14.9945,829.8953],[33.5311,-14.9784,889.743],[33.5234,-14.932,874.1221],[33.5176,-14.906,911.7415],[33.4994,-14.8806,972.9911],[33.4959,-14.8683,937.8381],[33.4895,-14.8259,907.7349],[33.489,-14.8077,898.4444],[33.4923,-14.7974,909.1256],[33.4916,-14.7895,929.2329],[33.468,-14.7324,1204.5322],[33.467,-14.7257,1243.3282],[33.4546,-14.6924,1081.6566],[33.4551,-14.6755,954.2076],[33.447,-14.6788,1006.7193],[33.4402,-14.6786,947.4769],[33.4157,-14.6852,893.2397],[33.3937,-14.6803,865.3442],[33.3633,-14.6824,843.2327],[33.3582,-14.6765,820.0193],[33.3565,-14.6696,825.8058],[33.3481,-14.6701,812.2845],[33.3417,-14.6603,800.9305],[33.335,-14.6542,795.3754],[33.3234,-14.6586,786.2209],[33.306,-14.6519,776.9977],[33.2983,-14.6462,763.2872],[33.2885,-14.6439,762.673],[33.2805,-14.6454,735.204],[33.2474,-14.6247,720.7836],[33.2471,-14.6291,707.9666],[33.2373,-14.6457,694.2905],[33.2256,-14.6607,685.6583],[33.2109,-14.6757,683.6099],[33.2014,-14.6907,688.5209],[33.1964,-14.7295,662.6873],[33.1902,-14.7404,657.2396],[33.1804,-14.7374,651.4416],[33.1783,-14.7432,641.692],[33.1834,-14.7577,635.9255],[33.1779,-14.7902,623.1859],[33.1742,-14.798,621.0217],[33.1702,-14.8034,605.7853],[33.163,-14.8057,611.652],[33.1621,-14.812,605.0656],[33.1463,-14.8264,597.7899],[33.1351,-14.834,588.5081],[33.1893,-14.9742,719.1774],[33.1895,-15.0066,593.2983],[33.1915,-15.0179,562.8137],[33.2066,-15.0434,542.7578],[33.2088,-15.0498,536.5822],[33.208,-15.0566,529.8196],[33.2017,-15.0592,529.3121],[33.1997,-15.062,522.6498],[33.2012,-15.0651,524.4233],[33.1997,-15.0687,518.8237],[33.1917,-15.07,517.6221],[33.1801,-15.0812,511.5156]]]]}}