{"type": "Feature","bbox": [36.362,-17.9692,37.0129,-17.1695],"geometry": {"type": "MultiPolygon","coordinates": [[[[36.8488,-17.8869,2.3786],[36.8445,-17.8801,3.0053],[36.8416,-17.8714,3.637],[36.8361,-17.8638,2.9155],[36.8422,-17.8552,2.8414],[36.8474,-17.8421,2.5687],[36.8586,-17.8333,3.0757],[36.8733,-17.8279,2.7469],[36.8842,-17.8157,2.7481],[36.8872,-17.8161,2.3798],[36.8903,-17.8225,2.4014],[36.897,-17.82,3.1988],[36.9545,-17.7868,1.8344],[36.9619,-17.7764,0.9874],[36.9677,-17.7597,0.9503],[36.9677,-17.7536,2.0075],[36.97,-17.748,1.8878],[36.9785,-17.7441,2.2145],[36.9997,-17.7399,1.833],[37.0043,-17.7344,1.2867],[37.0023,-17.7313,2.5285],[36.9934,-17.7318,2.0723],[36.9868,-17.7242,1.8119],[36.9895,-17.7158,2.8252],[36.9853,-17.7067,2.3945],[36.9854,-17.6874,2.754],[36.9916,-17.6742,2.6335],[37.0088,-17.6629,2.5428],[37.01,-17.6531,2.4201],[37.0087,-17.6451,2.4072],[37.0129,-17.6264,1.7487],[37.0041,-17.6282,2.6758],[37.0004,-17.6271,2.5134],[36.9895,-17.6356,2.3419],[36.9757,-17.6295,6.2869],[36.971,-17.6177,3.4636],[36.9629,-17.6166,3.978],[36.9399,-17.6238,5.2385],[36.9226,-17.6105,3.5262],[36.9152,-17.5892,2.3658],[36.9052,-17.5852,3.1357],[36.8945,-17.5751,3.2311],[36.8908,-17.5653,4.7662],[36.8906,-17.5539,9.492],[36.8814,-17.545,11.0238],[36.871,-17.5427,15.6944],[36.8666,-17.5334,19.4385],[36.8604,-17.5254,24.4842],[36.8566,-17.5138,30.2811],[36.8391,-17.4945,14.9613],[36.8149,-17.4916,18.5035],[36.7947,-17.4645,27.9092],[36.7932,-17.4378,29.8846],[36.7982,-17.4264,39.6913],[36.7992,-17.4199,38.3957],[36.7943,-17.4039,43.4616],[36.7842,-17.3987,44.3408],[36.7791,-17.3987,44.8954],[36.7757,-17.3969,49.3253],[36.7602,-17.3849,58.0494],[36.7509,-17.3748,59.9487],[36.7433,-17.3699,54.8935],[36.6853,-17.3718,72.1109],[36.6031,-17.3274,75.7905],[36.5978,-17.319,68.2516],[36.6025,-17.3074,58.7199],[36.6088,-17.298,57.9438],[36.6045,-17.2852,80.7681],[36.6051,-17.2777,64.3815],[36.6198,-17.2495,71.2772],[36.6216,-17.2394,91.8166],[36.6195,-17.2368,87.0172],[36.5866,-17.2233,124.8759],[36.5758,-17.2122,122.5442],[36.5544,-17.1942,140.939],[36.5439,-17.1789,150.3616],[36.4631,-17.1695,179.3849],[36.4564,-17.1898,124.4276],[36.4507,-17.2028,105.5043],[36.4439,-17.2134,106.4021],[36.4316,-17.2729,92.8784],[36.4042,-17.291,120.0069],[36.362,-17.3381,143.0353],[36.4041,-17.3649,98.8835],[36.4391,-17.4147,117.8098],[36.4418,-17.4248,116.4703],[36.4605,-17.454,92.2755],[36.4607,-17.4567,85.7276],[36.4044,-17.5348,58.8413],[36.4161,-17.5589,58.3833],[36.431399999999996,-17.5841,52.4399],[36.4426,-17.5859,48.7162],[36.4522,-17.5919,59.3254],[36.4673,-17.6056,41.2038],[36.4852,-17.614,40.3763],[36.4933,-17.6216,41.3725],[36.513,-17.6563,26.5478],[36.5486,-17.6747,16.7966],[36.5582,-17.6747,17.7414],[36.5667,-17.683,13.6681],[36.5991,-17.696,6.7053],[36.605,-17.7068,10.1591],[36.6136,-17.7078,7.4629],[36.6234,-17.7066,12.4126],[36.6364,-17.7005,10.5877],[36.6392,-17.7056,5.98],[36.6363,-17.7202,4.8088],[36.6366,-17.7408,3.498],[36.6439,-17.7578,3.6335],[36.6571,-17.7591,3.3413],[36.6557,-17.9477,10.4372],[36.6637,-17.9379,4.5027],[36.6675,-17.9385,7.1116],[36.6782,-17.9483,7.5253],[36.6829,-17.9562,6.4165],[36.6924,-17.9519,4.5606],[36.6998,-17.9407,3.9996],[36.7405,-17.9207,3.3827],[36.7519,-17.9399,5.3968],[36.7562,-17.9651,3.2408],[36.7623,-17.9692,4.0183],[36.7724,-17.9667,3.0086],[36.7846,-17.9596,3.2245],[36.7996,-17.9585,0.5],[36.8082,-17.9559,3.1056],[36.8109,-17.9478,2.3982],[36.8127,-17.9077,0.5],[36.8208,-17.9009,0.5],[36.8322,-17.8969,0.5],[36.8488,-17.8869,2.3786]]]]}
,"properties": {"GID_3": "MOZ.11.15.3_1","GID_0": "MOZ","country": "Mozambique","GID_1": "MOZ.11_1","province": "Zambezia","NL_NAME_1": "NA","GID_2": "MOZ.11.15_1","county": "Nicoadala","NL_NAME_2": "NA","city": "Nicodala","VARNAME_3": "NA","NL_NAME_3": "NA","TYPE_3": "Localidad","ENGTYPE_3": "Locality","CC_3": "NA","HASC_3": "NA","name": "Nicodala.city","area_km2": 2769.717,"hist_schema_id": "Elevation0-9000","hist_area_km2": {"0": 1092.453,"25": 474.519,"50": 371.33,"75": 351.539,"100": 258.689,"125": 130.054,"150": 78.271,"175": 12.76,"200": 0.101}}}