{"type": "Feature","bbox": [34.2001,-19.6455,34.5593,-18.9933],"geometry": {"type": "MultiPolygon","coordinates": [[[[34.526,-19.6011,2.3129],[34.5244,-19.5985,0.5],[34.5216,-19.5619,5.2158],[34.527,-19.5556,4.9937],[34.5375,-19.5539,3.8882],[34.5388,-19.5444,4.123],[34.5451,-19.5358,2.8119],[34.5547,-19.528,2.1708],[34.5532,-19.5166,4.58],[34.5466,-19.5149,3.7901],[34.537,-19.5245,3.5677],[34.5234,-19.507,4.5497],[34.5243,-19.5035,4.4476],[34.5365,-19.5105,4.2353],[34.5388,-19.5067,2.8173],[34.5361,-19.4997,2.8842],[34.5295,-19.494,4.2746],[34.5234,-19.4857,3.631],[34.5272,-19.4798,5.6636],[34.5279,-19.4717,5.44],[34.5322,-19.4661,3.5472],[34.5424,-19.459,5.412],[34.5447,-19.453,3.5363],[34.5313,-19.4605,4.1183],[34.526,-19.4605,3.8127],[34.5225,-19.4534,3.9656],[34.54,-19.4475,4.2707],[34.5394,-19.4433,4.456],[34.5305,-19.4431,3.8711],[34.5228,-19.4388,5.3699],[34.5255,-19.4337,6.0762],[34.5356,-19.4323,4.3125],[34.5359,-19.423,4.5927],[34.5296,-19.4242,3.9779],[34.5279,-19.4219,4.4835],[34.5305,-19.4131,5.4742],[34.534,-19.4088,4.5112],[34.5459,-19.3997,6.613],[34.5542,-19.4038,5.3215],[34.5546,-19.3765,6.1832],[34.5574,-19.3583,7.792],[34.5547,-19.3302,8.3311],[34.5582,-19.3253,8.956],[34.55,-19.3251,9.1674],[34.5503,-19.3164,9.4264],[34.5536,-19.309,10.0631],[34.5593,-19.3029,10.5169],[34.5492,-19.2814,9.9909],[34.5502,-19.2755,10.6603],[34.5577,-19.2787,11.4856],[34.5432,-19.2625,12.9168],[34.5529,-19.2509,14.8269],[34.55,-19.2461,12.6744],[34.5278,-19.2428,15.0927],[34.5266,-19.2392,14.3149],[34.5286,-19.2336,14.82],[34.5262,-19.2154,13.5172],[34.522,-19.2067,16.4479],[34.5163,-19.2004,14.4196],[34.5233,-19.1879,15.8588],[34.5343,-19.176,14.4863],[34.534,-19.1637,14.5101],[34.53,-19.1624,16.0899],[34.5282,-19.1596,16.7706],[34.5308,-19.1459,17.3594],[34.5276,-19.1362,20.5134],[34.5002,-19.114,20.7047],[34.4929,-19.101,22.2166],[34.4845,-19.0935,24.3683],[34.4771,-19.0946,23.7839],[34.4738,-19.0822,26.663],[34.4078,-19.0562,29.277],[34.3935,-19.0371,29.1806],[34.3798,-19.0142,33.9444],[34.3745,-18.998,36.7898],[34.3711,-18.9952,41.6992],[34.3667,-18.9974,42.2665],[34.361,-18.9978,35.3001],[34.3568,-18.9946,32.2436],[34.3508,-18.9933,35.1538],[34.3333,-19.0107,37.1849],[34.3356,-19.0249,35.0021],[34.33,-19.0435,35.0702],[34.3134,-19.0653,39.428],[34.3222,-19.0857,41.2318],[34.3337,-19.1011,38.4283],[34.3384,-19.1161,38.5299],[34.2956,-19.1293,41.5557],[34.2882,-19.139,41.8474],[34.2742,-19.1483,44.7802],[34.248,-19.1555,49.7054],[34.255,-19.1665,44.3624],[34.2623,-19.1728,44.4136],[34.2878,-19.1828,41.1135],[34.3079,-19.2112,34.7207],[34.3229,-19.2251,31.036],[34.3311,-19.2383,28.0029],[34.3281,-19.2485,25.7199],[34.34,-19.2661,22.3962],[34.3527,-19.2788,19.2496],[34.3307,-19.29,19.743],[34.3085,-19.2846,22.7687],[34.2807,-19.2953,25.6857],[34.2515,-19.316,33.0798],[34.2507,-19.3254,35.7455],[34.2135,-19.326,49.723],[34.202,-19.349,48.6517],[34.2018,-19.3607,41.054],[34.2001,-19.3659,41.0085],[34.235,-19.4093,39.4983],[34.2541,-19.4296,35.6465],[34.2664,-19.4372,33.5479],[34.3075,-19.4708,18.2316],[34.3349,-19.4719,12.8941],[34.3718,-19.5136,5.9976],[34.364,-19.5676,23.1821],[34.3243,-19.6229,73.4236],[34.311,-19.6333,74.0653],[34.309,-19.638,77.6885],[34.312,-19.6455,73.8879],[34.41,-19.6367,34.367],[34.4507,-19.622,14.1321],[34.4579,-19.6061,4.3126],[34.5013,-19.6019,5.3158],[34.5181,-19.6041,4.9573],[34.526,-19.6011,2.3129]]]]}
,"properties": {"GID_3": "MOZ.9.12.2_1","GID_0": "MOZ","country": "Mozambique","GID_1": "MOZ.9_1","province": "Sofala","NL_NAME_1": "NA","GID_2": "MOZ.9.12_1","county": "Nhamatanda","NL_NAME_2": "NA","city": "Tica","VARNAME_3": "NA","NL_NAME_3": "NA","TYPE_3": "Localidad","ENGTYPE_3": "Locality","CC_3": "NA","HASC_3": "NA","name": "Tica.city","area_km2": 1557.845,"hist_schema_id": "Elevation0-9000","hist_area_km2": {"0": 606.014,"25": 826.661,"50": 111.71,"75": 13.46}}}