{"type": "Feature","bbox": [33.8079,-24.7751,33.9621,-24.6497],"geometry": {"type": "MultiPolygon","coordinates": [[[[33.835,-24.7365,76.8846],[33.8436,-24.7626,73.6475],[33.8494,-24.7719,79.2563],[33.8616,-24.7751,79.5826],[33.8767,-24.7742,79.8075],[33.8905,-24.7615,72.7634],[33.904,-24.7531,76.2248],[33.926,-24.7511,69.429],[33.9141,-24.7227,60.0862],[33.9,-24.7151,59.2785],[33.8991,-24.7064,59.8757],[33.9039,-24.7025,63.4517],[33.9198,-24.6976,59.1383],[33.9465,-24.6859,58.4263],[33.9621,-24.662,62.6841],[33.9578,-24.6507,71.7366],[33.9551,-24.6497,72.3097],[33.9494,-24.6515,68.4205],[33.9319,-24.6735,56.7613],[33.9179,-24.6771,57.6508],[33.905,-24.6772,59.7967],[33.8981,-24.6798,65.5633],[33.8187,-24.6875,80.1139],[33.8145,-24.6986,82.2571],[33.8079,-24.7022,83.1581],[33.8231,-24.7034,80.3123],[33.835,-24.7365,76.8846]]]]}
,"properties": {"GID_3": "MOZ.2.8.5_1","GID_0": "MOZ","country": "Mozambique","GID_1": "MOZ.2_1","province": "Gaza","NL_NAME_1": "NA","GID_2": "MOZ.2.8_1","county": "Mandlakazi","NL_NAME_2": "NA","city": "Mandlacaze","VARNAME_3": "NA","NL_NAME_3": "NA","TYPE_3": "Localidad","ENGTYPE_3": "Locality","CC_3": "NA","HASC_3": "NA","name": "Mandlacaze.city","area_km2": 90.27061,"hist_schema_id": "Elevation0-9000","hist_area_km2": {"50": 16.7574,"75": 72.95463,"100": 0.55859}}}