{"type": "Feature","bbox": [32.1093,-26.8687,32.961,-26.0549],"geometry": {"type": "MultiPolygon","coordinates": [[[[32.9007,-26.7057,0.0],[32.9007,-26.6863,0.0],[32.8949,-26.676,0.0],[32.8932,-26.666,0.0],[32.8937,-26.6537,5.1848],[32.8954,-26.6382,2.9778],[32.9063,-26.5912,12.2257],[32.9063,-26.5763,22.5084],[32.9101,-26.5518,24.2159],[32.9196,-26.5199,0.0],[32.9151,-26.5124,0.0],[32.9176,-26.4879,20.961],[32.9299,-26.4543,0.0],[32.9232,-26.4463,2.0469],[32.921,-26.4379,0.0],[32.921,-26.4263,0.0],[32.9243,-26.4068,5.3862],[32.9226,-26.3976,14.6922],[32.9243,-26.3868,16.0935],[32.9326,-26.3632,2.6514],[32.934,-26.3549,0.0],[32.9293,-26.341,0.0],[32.9307,-26.3165,8.2611],[32.9349,-26.2843,41.3362],[32.9421,-26.2626,2.908],[32.9415,-26.2588,0.0],[32.9379,-26.2549,0.0],[32.9376,-26.2482,0.0],[32.9418,-26.2207,2.0833],[32.9457,-26.2065,0.0],[32.949,-26.1518,5.721],[32.9576,-26.1182,12.278],[32.9607,-26.1121,2.1947],[32.9607,-26.1104,3.9338],[32.9568,-26.1076,1.0406],[32.9568,-26.0999,3.9234],[32.961,-26.0874,9.3513],[32.9604,-26.0829,0.0],[32.9529,-26.0832,1.1941],[32.9526,-26.0885,1.4338],[32.9499,-26.0932,3.6682],[32.9299,-26.0985,0.8549],[32.924,-26.104,0.6783],[32.9221,-26.1018,1.981],[32.9193,-26.1021,2.0767],[32.9121,-26.106,0.0],[32.9071,-26.111,0.0],[32.8915,-26.1429,0.0],[32.8899,-26.151,0.0],[32.8765,-26.1846,3.5325],[32.8693,-26.1976,0.0],[32.8665,-26.2187,1.192],[32.8693,-26.2524,0.0],[32.866,-26.2599,14.399],[32.8726,-26.271,0.5541],[32.8793,-26.274,1.3976],[32.8904,-26.2879,1.7371],[32.8907,-26.2918,1.2267],[32.8874,-26.2962,0.2946],[32.8857,-26.3029,0.5387],[32.8863,-26.3079,1.3609],[32.8849,-26.3029,0.5387],[32.8874,-26.2901,1.8906],[32.8849,-26.2846,0.7961],[32.8796,-26.2796,3.5405],[32.8713,-26.2779,0.0],[32.8582,-26.2799,3.1655],[32.854,-26.2812,0.0],[32.8465,-26.2876,0.8541],[32.8318,-26.2893,1.9454],[32.8293,-26.2865,6.9445],[32.8118,-26.2776,2.2709],[32.8049,-26.2696,6.0054],[32.796,-26.2443,0.0],[32.7771,-26.2332,2.606],[32.7571,-26.214,0.1863],[32.7382,-26.1999,1.5703],[32.7226,-26.1835,1.8388],[32.719,-26.1829,0.3669],[32.7149,-26.1851,1.9471],[32.706,-26.1863,2.4251],[32.6921,-26.1929,1.0368],[32.681,-26.1874,3.0532],[32.681,-26.1829,3.3053],[32.6749,-26.1643,0.0],[32.6679,-26.1524,0.2351],[32.6651,-26.1435,1.0024],[32.6646,-26.1354,0.1026],[32.6665,-26.1299,0.0],[32.6657,-26.1221,0.0],[32.6499,-26.0963,0.7562],[32.6307,-26.0754,0.0],[32.6199,-26.0581,13.4819],[32.5212,-26.0549,40.2639],[32.4627,-26.0847,1.6918],[32.4697,-26.0859,2.6954],[32.477,-26.0896,2.3351],[32.4801,-26.0929,1.2137],[32.4792,-26.0978,1.7953],[32.4752,-26.1045,1.7882],[32.46,-26.1166,1.4019],[32.4087,-26.1505,1.372],[32.3948,-26.1437,1.6875],[32.3878,-26.1468,5.2648],[32.3981,-26.1703,2.0673],[32.3896,-26.1721,3.2134],[32.3934,-26.1777,2.4202],[32.385,-26.1807,1.6895],[32.3937,-26.1902,2.1674],[32.4045,-26.2236,2.4656],[32.4,-26.2222,2.6999],[32.4027,-26.2291,2.2248],[32.3941,-26.2444,2.0766],[32.3906,-26.2461,5.3156],[32.3816,-26.2458,1.8265],[32.3736,-26.2652,2.9058],[32.3655,-26.2608,6.8787],[32.3667,-26.2741,4.114],[32.3742,-26.2819,3.4158],[32.3746,-26.2889,3.4624],[32.3783,-26.2933,7.6662],[32.3694,-26.2999,4.3614],[32.3746,-26.3039,5.6257],[32.3807,-26.3061,16.434],[32.3959,-26.3051,18.4995],[32.3969,-26.3164,9.879],[32.401,-26.3272,11.012],[32.3892,-26.3321,7.9356],[32.3821,-26.3408,13.4663],[32.3766,-26.351,13.5199],[32.3795,-26.3571,10.9008],[32.3884,-26.3624,19.3398],[32.3816,-26.413,20.2369],[32.369,-26.4093,28.1869],[32.3633,-26.4171,22.7086],[32.3593,-26.4314,21.2084],[32.3547,-26.4352,25.0146],[32.3496,-26.4358,25.7892],[32.3463,-26.4379,25.901],[32.3137,-26.4185,39.8125],[32.3092,-26.4352,32.9925],[32.3043,-26.4407,35.8841],[32.2644,-26.4415,48.9544],[32.2441,-26.4463,55.0034],[32.2343,-26.4543,58.4064],[32.203,-26.4569,72.0656],[32.1643,-26.4516,93.5408],[32.1459,-26.4615,154.5988],[32.1401,-26.467,184.7682],[32.1248,-26.473,292.3004],[32.1093,-26.476,399.7176],[32.1367,-26.5356,453.6643],[32.1331,-26.8402,41.1647],[32.1407,-26.8409,45.772],[32.1454,-26.8501,43.6292],[32.1559,-26.8565,38.2139],[32.1634,-26.8591,37.5717],[32.1855,-26.8631,38.7587],[32.1976,-26.8566,34.0228],[32.2037,-26.8554,34.6533],[32.2054,-26.8536,32.5],[32.2078,-26.8404,36.3349],[32.2197,-26.8328,45.8771],[32.2369,-26.8389,32.0296],[32.2488,-26.8405,31.8598],[32.2534,-26.8434,29.6782],[32.2569,-26.8486,30.231],[32.2636,-26.8473,29.1459],[32.2753,-26.8496,30.5032],[32.2804,-26.8488,30.5545],[32.2879,-26.853,37.4008],[32.2957,-26.8528,27.777],[32.3082,-26.8565,29.4402],[32.3166,-26.8528,25.1013],[32.3206,-26.8527,24.3336],[32.3254,-26.8562,25.0941],[32.3311,-26.8639,24.2992],[32.3387,-26.86,23.3639],[32.3412,-26.8556,24.2508],[32.3461,-26.8551,21.2753],[32.3469,-26.864,26.2059],[32.5657,-26.8645,93.0665],[32.6829,-26.8681,58.0872],[32.7362,-26.8665,61.9913],[32.8203,-26.8687,31.4777],[32.8442,-26.8683,28.9221],[32.8729,-26.8644,5.2194],[32.891,-26.8589,16.2778],[32.8965,-26.8463,0.0],[32.8957,-26.844,0.0],[32.8901,-26.844,0.977],[32.8874,-26.8404,5.2183],[32.886,-26.8274,0.0],[32.8921,-26.7987,0.0],[32.8904,-26.794,3.5442],[32.8901,-26.784,3.559],[32.8946,-26.7654,0.0],[32.9018,-26.746,0.0],[32.9007,-26.7279,0.0],[32.9049,-26.7104,0.0],[32.9018,-26.7085,1.0901],[32.9007,-26.7057,0.0]]],
[[[32.8885,-26.2874,0.919],[32.8874,-26.2868,0.6021],[32.8874,-26.2887,0.8291],[32.889,-26.2912,1.8343],[32.8893,-26.2887,3.5402],[32.8885,-26.2874,0.919]]]]}
,"properties": {"GID_2": "MOZ.6.5_1","GID_0": "MOZ","country": "Mozambique","GID_1": "MOZ.6_1","province": "Maputo","NL_NAME_1": "NA","county": "Matutuíne","VARNAME_2": "NA","NL_NAME_2": "NA","TYPE_2": "Distrito","ENGTYPE_2": "District","CC_2": "NA","HASC_2": "MZ.MP.MT","name": "Matutuíne.county","area_km2": 5381.592,"hist_schema_id": "Elevation0-9000","hist_area_km2": {"0": 867.645,"25": 1388.157,"50": 1908.829,"75": 863.031,"100": 188.472,"125": 74.031,"150": 25.581,"175": 15.805,"200": 13.248,"225": 10.726,"250": 7.845,"275": 5.422,"300": 3.337,"325": 3.11,"350": 2.314,"375": 2.105,"400": 0.929,"425": 0.512,"450": 0.417,"475": 0.076}}}