{"type":"Feature","properties":{"GID_2":"MOZ.2.9_1","GID_0":"MOZ","country":"Mozambique","GID_1":"MOZ.2_1","province":"Gaza","NL_NAME_1":"NA","county":"Massangena","VARNAME_2":"NA","NL_NAME_2":"NA","TYPE_2":"Distrito","ENGTYPE_2":"District","CC_2":"NA","HASC_2":"MZ.GA.MS","name":"Massangena.county"},
"geometry":{"type": "MultiPolygon","coordinates": [[[[32.34,-22.1675,206.8046],[32.377,-22.1732,199.1616],[32.4138,-22.1507,201.9756],[32.454,-22.1316,197.1328],[32.4721,-22.1213,196.8937],[32.5023,-22.1086,191.683],[32.528,-22.1042,183.5599],[32.5439,-22.0976,183.1096],[32.5667,-22.0919,178.6008],[32.5799,-22.0845,176.3961],[32.5919,-22.0682,176.6908],[32.6316,-22.0568,171.9503],[32.6903,-22.0199,163.9603],[32.7055,-22.0129,162.0633],[32.7401,-22.0052,156.7491],[32.8053,-21.9661,145.7171],[32.8203,-21.9663,141.7043],[32.8627,-21.9789,136.9376],[32.9325,-21.9646,128.9787],[33.0071,-21.9756,121.9444],[33.2824,-21.9792,120.4277],[33.2906,-21.9742,118.9993],[33.2809,-21.9652,122.6877],[33.2518,-21.9472,124.228],[33.1548,-21.8208,128.817],[33.1934,-21.7575,133.7836],[33.1644,-21.7033,140.0448],[33.1836,-21.622,143.1228],[33.1932,-21.613,144.0056],[33.2029,-21.6129,141.9066],[33.2029,-21.5858,129.8318],[33.2125,-21.5768,127.7932],[33.2318,-21.5768,121.3545],[33.2415,-21.5677,115.4997],[33.2415,-21.5587,114.7553],[33.2318,-21.5497,109.8016],[33.2318,-21.5406,108.2587],[33.2414,-21.5316,104.0411],[33.2511,-21.5316,104.2223],[33.2607,-21.5225,105.0765],[33.2704,-21.5315,95.3511],[33.2704,-21.5225,99.1148],[33.3089,-21.4863,89.636],[33.28,-21.4954,93.7831],[33.2703,-21.4954,88.665],[33.2317,-21.4774,91.6424],[33.1931,-21.4865,93.8828],[33.1641,-21.5046,94.9094],[33.1062,-21.5317,101.4008],[33.0676,-21.5679,110.7991],[33.0676,-21.586,103.3226],[33.0483,-21.586,104.212],[33.029,-21.5769,105.5291],[33.0193,-21.5679,108.7176],[33.0,-21.5679,108.4309],[32.9843,-21.5705,104.0],[32.97,-21.5678,110.3104],[32.9616,-21.5627,109.6974],[32.9571,-21.5555,107.0622],[32.9625,-21.5274,112.9155],[32.9605,-21.5197,113.4367],[32.9507,-21.5051,115.4941],[32.932,-21.4902,116.0686],[32.9116,-21.484,112.5],[32.8904,-21.4869,118.6157],[32.8722,-21.5004,115.75],[32.8498,-21.5066,121.0948],[32.7805,-21.4753,125.3458],[32.769,-21.4603,126.4669],[32.7552,-21.4477,129.8903],[32.7307,-21.4372,132.5923],[32.6914,-21.4124,132.7702],[32.6609,-21.398,134.5],[32.62,-21.3904,143.1853],[32.5442,-21.3826,146.8167],[32.5232,-21.3738,152.3069],[32.5138,-21.3648,149.7927],[32.5019,-21.3484,150.4512],[32.48,-21.326,155.2502],[32.48,-21.3281,151.4159],[32.4685,-21.3239,151.6817],[32.461,-21.3158,157.3334],[32.4527,-21.3109,153.203],[32.4402,-21.3091,161.3294],[32.4265,-21.3115,157.3519],[32.4112,-21.3181,160.9999],[32.3998,-21.3276,193.8589],[32.1596,-21.5734,381.7582],[32.1427,-21.5929,353.4502],[31.8657,-21.8805,385.0516],[31.9572,-21.8935,352.3591],[32.0757,-21.9516,285.1313],[32.0822,-21.9425,302.1076],[32.0942,-21.9379,282.9218],[32.1082,-21.9356,273.8327],[32.1097,-21.9298,270.6954],[32.1247,-21.945,259.6555],[32.1337,-21.96,259.8385],[32.1458,-21.9671,261.6716],[32.1779,-21.9777,255.5179],[32.2018,-21.9985,247.0894],[32.2211,-22.0123,240.0575],[32.2216,-22.0218,239.6609],[32.23,-22.0416,236.7223],[32.2412,-22.0527,233.0562],[32.2498,-22.0642,233.1125],[32.2544,-22.0795,229.6078],[32.2711,-22.0796,226.7548],[32.2859,-22.0889,225.0157],[32.3017,-22.0934,221.4839],[32.3096,-22.1021,221.7657],[32.3027,-22.1176,216.1888],[32.3098,-22.1343,214.7944],[32.3208,-22.1411,211.6197],[32.3326,-22.155,207.3282],[32.34,-22.1675,206.8046]]]]}}