{"type": "Feature","bbox": [33.7197,-19.1637,34.7063,-18.1206],"geometry": {"type": "MultiPolygon","coordinates": [[[[34.0391,-18.9211,213.2628],[34.0543,-18.9467,150.2984],[34.0731,-18.9574,96.0235],[34.0793,-18.9649,69.1327],[34.0891,-18.9921,90.4559],[34.0962,-18.9986,58.6985],[34.1526,-19.0138,61.0027],[34.2085,-19.0482,47.9313],[34.2514,-19.0722,42.266],[34.2648,-19.0634,40.2601],[34.2825,-19.0232,38.9252],[34.2961,-19.0135,37.191],[34.3031,-19.0055,39.3072],[34.3233,-19.0029,36.1101],[34.3313,-18.9985,36.214],[34.3368,-18.9911,44.8916],[34.3568,-18.9946,32.2436],[34.361,-18.9978,35.3001],[34.3667,-18.9974,42.2665],[34.3711,-18.9952,41.6992],[34.3745,-18.998,36.7898],[34.3798,-19.0142,33.9444],[34.3935,-19.0371,29.1806],[34.4078,-19.0562,29.277],[34.4738,-19.0822,26.663],[34.4771,-19.0946,23.7839],[34.4845,-19.0935,24.3683],[34.4929,-19.101,22.2166],[34.5002,-19.114,20.7047],[34.5276,-19.1362,20.5134],[34.5308,-19.1459,17.3594],[34.5282,-19.1596,16.7706],[34.53,-19.1624,16.0899],[34.534,-19.1637,14.5101],[34.5338,-19.1533,16.5561],[34.5549,-19.1289,19.8126],[34.557,-19.1133,16.9797],[34.5481,-19.0987,18.7077],[34.5541,-19.0933,21.3764],[34.5473,-19.0841,21.6465],[34.5561,-19.0761,18.83],[34.5498,-19.0615,21.2192],[34.554,-19.0498,22.5285],[34.5517,-19.0368,19.8729],[34.5595,-19.0279,19.7829],[34.5552,-19.0167,22.9447],[34.5602,-19.0093,20.3808],[34.5665,-18.9931,22.0897],[34.5678,-18.9851,19.4092],[34.5662,-18.9818,22.5609],[34.5567,-18.9754,22.23],[34.5416,-18.9468,23.1982],[34.5464,-18.938,23.9553],[34.545,-18.9124,18.7844],[34.5152,-18.903,18.0],[34.5086,-18.8985,18.0],[34.5011,-18.8868,18.0],[34.4949,-18.8812,18.0],[34.4767,-18.8766,18.0],[34.47,-18.8707,18.0],[34.4694,-18.8645,18.0],[34.4785,-18.8405,18.5749],[34.4908,-18.8368,20.0027],[34.5026,-18.8242,20.6601],[34.5155,-18.8197,22.4574],[34.5249,-18.8197,21.3907],[34.537,-18.8094,21.7174],[34.5434,-18.7873,22.9142],[34.5796,-18.7679,24.4797],[34.5937,-18.7588,24.6635],[34.6015,-18.7504,25.4056],[34.6018,-18.7297,27.0458],[34.6055,-18.7198,28.3151],[34.603,-18.708,28.2597],[34.61,-18.6988,28.7522],[34.6208,-18.6906,29.9003],[34.6212,-18.6804,30.9572],[34.6185,-18.6691,31.1992],[34.6248,-18.6645,31.59],[34.6348,-18.6535,32.6887],[34.6349,-18.6475,33.0223],[34.6324,-18.6385,32.1867],[34.6339,-18.6316,33.0977],[34.6409,-18.6266,33.4318],[34.6431,-18.6147,35.3634],[34.6391,-18.6012,38.0763],[34.6499,-18.5351,38.9734],[34.6462,-18.5121,42.8914],[34.6471,-18.5002,46.6338],[34.6511,-18.4911,45.996],[34.6537,-18.4743,50.1022],[34.6646,-18.4554,56.2077],[34.6854,-18.434,50.9839],[34.7063,-18.4173,55.5762],[34.5563,-18.3406,77.6719],[34.5556,-18.3272,88.3396],[34.553,-18.3181,86.311],[34.5405,-18.3021,88.415],[34.5236,-18.305,107.9796],[34.4738,-18.293,146.9189],[34.4525,-18.3029,169.2702],[34.4283,-18.3029,191.5921],[34.3963,-18.3127,162.3187],[34.3807,-18.3262,143.3904],[34.3795,-18.3416,136.097],[34.3637,-18.3109,166.8864],[34.3548,-18.3029,180.0419],[34.3288,-18.286,212.9894],[34.3117,-18.2894,234.0318],[34.2949,-18.2867,262.8884],[34.2681,-18.2586,329.5544],[34.2564,-18.2569,333.7247],[34.1497,-18.253,330.1078],[34.1368,-18.2587,332.7931],[34.1241,-18.2582,412.5114],[34.1119,-18.2523,365.7003],[34.1035,-18.2426,439.3963],[34.0725,-18.2145,391.3723],[34.0693,-18.2151,385.148],[34.0637,-18.2194,380.5878],[34.0584,-18.2143,386.4448],[34.0567,-18.2049,387.1039],[34.0502,-18.1973,388.8404],[34.045,-18.1865,392.686],[34.0456,-18.1778,396.2482],[34.0487,-18.1706,388.7576],[34.0439,-18.1656,391.1505],[34.0325,-18.1602,400.9132],[34.0273,-18.1544,415.3786],[34.026,-18.1391,400.0023],[34.0277,-18.1313,409.4312],[34.0261,-18.127,416.9459],[34.0138,-18.1206,425.1751],[34.0078,-18.1233,416.5219],[33.9992,-18.1323,410.8896],[33.952,-18.1259,431.0618],[33.9235,-18.1684,502.4866],[33.8673,-18.2253,550.3442],[33.8585,-18.2321,533.8845],[33.8468,-18.2366,524.6511],[33.837,-18.2624,503.7094],[33.8268,-18.2706,500.3814],[33.814,-18.2766,482.726],[33.8065,-18.2825,473.4238],[33.8062,-18.2897,470.0861],[33.8125,-18.2932,477.8727],[33.8237,-18.2921,477.0243],[33.8263,-18.3057,470.0833],[33.8237,-18.3175,462.2663],[33.8199,-18.3256,471.487],[33.8236,-18.344,470.5081],[33.8426,-18.3745,459.6101],[33.8315,-18.4074,446.6712],[33.8334,-18.4171,446.0607],[33.8412,-18.4202,438.3511],[33.8505,-18.4083,437.6094],[33.8588,-18.4058,435.9662],[33.8556,-18.4443,431.949],[33.8582,-18.4518,445.7431],[33.8701,-18.4622,421.3287],[33.8668,-18.4699,420.3717],[33.8681,-18.4914,411.1287],[33.8714,-18.5004,417.0674],[33.8821,-18.5173,407.6431],[33.8745,-18.5221,408.0725],[33.8627,-18.5137,408.0808],[33.8458,-18.5152,425.7344],[33.8379,-18.5225,437.4596],[33.836,-18.5267,433.1424],[33.8098,-18.5296,457.2556],[33.7854,-18.5258,488.8312],[33.7739,-18.522,510.0569],[33.7723,-18.601,447.1941],[33.7295,-18.6377,413.2056],[33.7283,-18.6657,384.3767],[33.7219,-18.6758,378.8062],[33.7197,-18.6844,370.8843],[33.7222,-18.6958,356.1276],[33.7411,-18.7154,341.5791],[33.7465,-18.7191,338.6258],[33.7522,-18.7166,323.2892],[33.7619,-18.7152,332.9942],[33.8041,-18.7441,284.9637],[33.8161,-18.7657,300.0814],[33.8363,-18.7834,296.7726],[33.8475,-18.7855,249.3653],[33.872,-18.7845,282.4728],[33.8904,-18.7869,239.0784],[33.9201,-18.8347,226.4898],[33.9217,-18.848,217.8001],[33.9294,-18.8677,210.8027],[33.951,-18.8863,168.8741],[33.9884,-18.9085,166.2122],[34.0056,-18.9199,151.5615],[34.0104,-18.9257,141.1087],[34.0145,-18.9215,145.8142],[34.0162,-18.9167,148.3866],[34.0229,-18.917,132.6731],[34.0282,-18.9209,164.928],[34.0391,-18.9211,213.2628]]]]}
,"properties": {"GID_2": "MOZ.9.7_1","GID_0": "MOZ","country": "Mozambique","GID_1": "MOZ.9_1","province": "Sofala","NL_NAME_1": "NA","county": "Gorongosa","VARNAME_2": "NA","NL_NAME_2": "NA","TYPE_2": "Distrito","ENGTYPE_2": "District","CC_2": "NA","HASC_2": "MZ.SO.GO","name": "Gorongosa.county","area_km2": 6779.102,"hist_schema_id": "Elevation0-9000","hist_area_km2": {"25": 977.334,"50": 883.549,"75": 507.629,"100": 268.64,"125": 207.467,"150": 185.529,"175": 162.292,"200": 145.186,"225": 143.206,"250": 161.568,"275": 184.908,"300": 199.597,"325": 207.952,"350": 224.64,"375": 248.069,"400": 288.264,"425": 298.909,"450": 288.469,"475": 253.274,"500": 206.113,"525": 169.132,"550": 102.849,"575": 29.337,"600": 16.676,"625": 16.615,"650": 16.193,"675": 13.72,"700": 12.693,"725": 12.934,"750": 12.512,"775": 12.472,"800": 12.934,"825": 13.698,"850": 12.793,"875": 12.049,"900": 9.655,"925": 9.857,"950": 10.359,"975": 11.103,"1000": 10.62,"1025": 10.399,"1050": 10.821,"1075": 11.143,"1100": 11.203,"1125": 9.614,"1150": 8.548,"1175": 8.83,"1200": 8.106,"1225": 6.959,"1250": 6.94,"1275": 6.699,"1300": 6.156,"1325": 5.653,"1350": 6.841,"1375": 6.478,"1400": 8.229,"1425": 9.516,"1450": 9.677,"1475": 10.442,"1500": 10.019,"1525": 8.289,"1550": 6.519,"1575": 5.553,"1600": 5.452,"1625": 4.748,"1650": 4.728,"1675": 4.266,"1700": 1.952,"1725": 1.207,"1750": 1.247,"1775": 0.805,"1800": 0.785,"1825": 0.483}}}