{"type":"Feature","properties":{"GID_3":"MOZ.8.1.1_1","GID_0":"MOZ","country":"Mozambique","GID_1":"MOZ.8_1","province":"Nassa","NL_NAME_1":"NA","GID_2":"MOZ.8.1_1","county":"Cuamba","NL_NAME_2":"NA","city":"Etatara","VARNAME_3":"NA","NL_NAME_3":"NA","TYPE_3":"Localidad","ENGTYPE_3":"Locality","CC_3":"NA","HASC_3":"NA","name":"Etatara.city"},
"geometry":{"type": "MultiPolygon","coordinates": [[[[36.7917,-14.893,548.567],[36.7841,-14.8946,548.1534],[36.7804,-14.8936,552.27],[36.7652,-14.8836,569.4086],[36.7582,-14.8832,580.6901],[36.7383,-14.8875,599.2155],[36.651,-14.8839,611.7692],[36.6471,-14.8751,609.7026],[36.639,-14.8826,618.2548],[36.633,-14.8839,621.9474],[36.6226,-14.8917,634.061],[36.6163,-14.8936,640.3707],[36.6014,-14.8943,656.6163],[36.5883,-14.8993,666.4352],[36.5722,-14.8993,683.027],[36.5411,-14.9074,790.2946],[36.5302,-14.8989,616.83],[36.522,-14.9012,608.0673],[36.5154,-14.8998,603.8583],[36.5075,-14.8957,593.9935],[36.5042,-14.8922,587.4067],[36.5002,-14.8912,583.4374],[36.496,-14.8935,583.7628],[36.4843,-14.9058,586.8234],[36.466,-14.9211,591.8511],[36.4642,-14.9309,593.8798],[36.4583,-14.939,597.1788],[36.4393,-14.9508,601.8664],[36.4227,-14.9568,606.4622],[36.4165,-14.9626,607.7169],[36.409,-14.9736,610.4117],[36.4054,-14.9902,614.7421],[36.3172,-14.9895,605.6093],[36.321,-14.9986,605.4332],[36.3149,-15.008,608.5015],[36.3149,-15.0147,609.588],[36.331,-15.0327,614.8777],[36.3348,-15.0442,617.052],[36.327,-15.0538,619.9015],[36.3171,-15.0773,624.7728],[36.3102,-15.1063,632.7136],[36.3018,-15.1159,635.7805],[36.2854,-15.1527,652.2856],[36.2707,-15.1762,669.3792],[36.2703,-15.1849,671.2313],[36.3014,-15.2243,912.5453],[36.4082,-15.2578,656.2459],[36.4307,-15.2589,645.2228],[36.44,-15.2687,634.5641],[36.4567,-15.2675,636.28],[36.4697,-15.2585,629.4028],[36.4708,-15.2531,628.3082],[36.4797,-15.2492,629.5592],[36.4964,-15.2477,624.9424],[36.5051,-15.2459,625.5876],[36.5112,-15.2428,616.1191],[36.5107,-15.2383,617.741],[36.5154,-15.2357,613.8217],[36.5201,-15.2283,611.6032],[36.5347,-15.223,612.4946],[36.5388,-15.215,611.3191],[36.562,-15.2045,612.5538],[36.5685,-15.1992,601.3104],[36.5774,-15.1788,601.4587],[36.5877,-15.1711,599.9178],[36.5954,-15.17,596.8478],[36.6164,-15.1541,592.4147],[36.6385,-15.1068,581.5798],[36.6601,-15.1072,582.6891],[36.6644,-15.0961,577.4849],[36.6684,-15.0771,572.3217],[36.6776,-15.0752,571.0184],[36.6824,-15.0664,572.2357],[36.6896,-15.0606,573.385],[36.6918,-15.0519,568.1384],[36.6969,-15.0454,570.2954],[36.6982,-15.0271,565.3142],[36.7007,-15.023,563.9945],[36.6995,-15.0175,570.7094],[36.7012,-15.0135,565.6082],[36.6973,-14.9992,561.2633],[36.7141,-14.9858,562.4123],[36.7312,-14.9692,561.9082],[36.7462,-14.9494,559.9798],[36.7571,-14.9398,553.4744],[36.7663,-14.9285,550.176],[36.7687,-14.9158,551.7222],[36.7665,-14.9112,547.381],[36.7717,-14.9069,547.0497],[36.7852,-14.9028,548.425],[36.7917,-14.893,548.567]]]]}}