{"type":"Feature","properties":{"GID_3":"MOZ.10.12.1_1","GID_0":"MOZ","country":"Mozambique","GID_1":"MOZ.10_1","province":"Tete","NL_NAME_1":"NA","GID_2":"MOZ.10.12_1","county":"Zumbu","NL_NAME_2":"NA","city":"Muze","VARNAME_3":"NA","NL_NAME_3":"NA","TYPE_3":"Localidad","ENGTYPE_3":"Locality","CC_3":"NA","HASC_3":"NA","name":"Muze.city"},
"geometry":{"type": "MultiPolygon","coordinates": [[[[31.4594,-15.1041,784.5795],[31.4535,-15.0954,790.9393],[31.4556,-15.0866,791.6611],[31.4599,-15.079,791.796],[31.4464,-15.0535,799.3467],[31.4428,-15.045,796.0442],[31.4411,-15.035,805.3314],[31.4273,-15.0156,811.8163],[31.4208,-14.999,812.8027],[31.4177,-14.995,820.0778],[31.3999,-14.9805,823.0714],[31.3918,-14.9718,837.4823],[31.3892,-14.9648,841.5668],[31.3924,-14.9542,833.5667],[31.3923,-14.9468,842.5231],[31.3812,-14.9252,846.3026],[31.3824,-14.9033,866.3794],[31.3788,-14.8914,860.4911],[31.3815,-14.8846,870.3491],[31.3816,-14.8779,867.889],[31.3628,-14.8622,878.3694],[31.3693,-14.8416,878.5741],[31.3717,-14.8258,897.1367],[31.3822,-14.8113,893.2903],[31.3848,-14.8009,908.8202],[31.3835,-14.7928,909.7257],[31.3785,-14.7891,903.574],[31.3632,-14.7844,907.3353],[31.3559,-14.78,911.3205],[31.3479,-14.7657,925.0331],[31.3454,-14.7573,926.9614],[31.3503,-14.7499,926.6443],[31.3588,-14.7444,938.7892],[31.3594,-14.7291,937.7279],[31.3629,-14.7254,946.5474],[31.365,-14.7198,960.6843],[31.3627,-14.7074,964.1301],[31.3741,-14.697,963.6746],[31.3764,-14.6887,960.7423],[31.3764,-14.6728,966.9135],[31.3737,-14.664,971.4224],[31.3757,-14.6547,970.5328],[31.3667,-14.6408,987.8344],[31.3252,-14.65,1040.0261],[31.2668,-14.6588,1114.184],[31.1902,-14.6795,1062.5103],[31.1714,-14.6908,1059.7197],[31.1531,-14.698,1062.2477],[31.0552,-14.7206,1011.7019],[30.9303,-14.7528,873.2167],[30.9465,-14.7773,910.3876],[30.9501,-14.7806,907.1249],[30.9611,-14.7848,913.7499],[30.9708,-14.7919,922.2518],[30.9727,-14.797,924.2921],[30.9736,-14.8078,953.4182],[30.9616,-14.9372,1004.5281],[30.9666,-14.9492,987.0981],[30.9738,-14.9606,970.9686],[30.972,-14.969,965.7291],[30.9748,-14.9756,959.9457],[30.9726,-14.9781,967.1655],[30.9739,-14.9864,950.712],[30.9724,-14.9894,948.63],[30.9758,-14.9948,944.5557],[30.9703,-15.063,888.0932],[30.9737,-15.0681,889.6228],[30.9752,-15.0756,881.1063],[30.9704,-15.0815,859.3489],[30.9611,-15.0854,856.2349],[30.9553,-15.1066,837.4975],[30.9502,-15.1108,836.9744],[30.9445,-15.1115,846.2762],[30.9369,-15.1168,821.8809],[30.9338,-15.1302,814.6936],[30.9346,-15.1381,804.9036],[30.9264,-15.1631,801.231],[30.9336,-15.1813,779.2814],[30.9188,-15.1984,771.8958],[30.919,-15.2052,761.5015],[30.9211,-15.2161,752.5469],[30.9391,-15.235,734.1086],[30.9387,-15.2412,713.3057],[30.9444,-15.2528,708.1213],[30.9403,-15.2584,707.1282],[30.9198,-15.2697,687.0241],[30.9122,-15.2755,686.5991],[30.8988,-15.2921,649.3893],[30.8995,-15.2985,657.784],[30.9056,-15.3112,634.6813],[30.916,-15.3006,633.6261],[30.9344,-15.2887,662.5983],[30.943,-15.2864,669.2803],[30.9564,-15.2807,693.3492],[30.9588,-15.2777,701.847],[30.9824,-15.2691,712.7558],[30.9997,-15.2521,756.2024],[31.0532,-15.2521,900.3741],[31.1387,-15.3216,740.9352],[31.14,-15.3262,743.7676],[31.1435,-15.3293,735.0616],[31.1464,-15.328,734.9766],[31.1504,-15.3205,741.5687],[31.1751,-15.3075,770.824],[31.1864,-15.3043,781.3622],[31.2585,-15.3017,1003.059],[31.2807,-15.3169,811.4382],[31.309,-15.3213,784.1965],[31.3166,-15.3243,764.116],[31.3244,-15.3256,755.0059],[31.33,-15.3223,765.1104],[31.3584,-15.3232,712.5072],[31.378,-15.3221,706.9808],[31.39,-15.3351,693.4832],[31.4112,-15.3352,673.0732],[31.418,-15.3369,668.0206],[31.4247,-15.3436,655.5822],[31.4323,-15.3596,646.2617],[31.4361,-15.363,640.8689],[31.4481,-15.3563,708.9521],[31.4459,-15.3484,676.3585],[31.4494,-15.3428,772.9752],[31.4554,-15.2921,697.1057],[31.4465,-15.2811,699.1337],[31.4499,-15.2775,701.0095],[31.453,-15.2701,742.2556],[31.438,-15.2512,739.0161],[31.4375,-15.2463,786.7229],[31.4301,-15.2432,739.9113],[31.4254,-15.235,736.5822],[31.4284,-15.2319,737.6176],[31.437,-15.228,768.9898],[31.4513,-15.2044,750.4273],[31.4391,-15.1881,754.8058],[31.4491,-15.1705,769.2353],[31.4458,-15.1522,782.1514],[31.4654,-15.1329,774.6935],[31.4692,-15.1262,781.6679],[31.4599,-15.1097,796.3784],[31.4594,-15.1041,784.5795]]]]}}