{"type": "Feature","bbox": [33.2681,-24.7997,33.5391,-24.4982],"geometry": {"type": "MultiPolygon","coordinates": [[[[33.4301,-24.4984,7.5],[33.3847,-24.4982,5.0],[33.3687,-24.5165,7.1435],[33.3242,-24.5281,13.9794],[33.3082,-24.5378,13.1901],[33.3011,-24.5443,13.3757],[33.283,-24.5562,14.4972],[33.2744,-24.6013,20.0012],[33.2812,-24.6152,16.2888],[33.2845,-24.639,12.9871],[33.2841,-24.6508,13.8936],[33.2709,-24.6792,18.3497],[33.2681,-24.6825,13.8571],[33.271,-24.6866,20.1137],[33.287,-24.6879,19.5591],[33.3018,-24.6665,13.5795],[33.3194,-24.666,8.0],[33.3395,-24.6697,16.7345],[33.3601,-24.6854,8.6086],[33.3868,-24.7106,15.721],[33.3979,-24.7161,15.4314],[33.4396,-24.7483,9.7845],[33.4496,-24.7601,13.7339],[33.4576,-24.7746,11.8149],[33.4775,-24.7807,13.5785],[33.4877,-24.7719,12.0314],[33.4956,-24.7597,6.3854],[33.5158,-24.7574,12.1448],[33.5226,-24.7618,9.8693],[33.523,-24.771,8.536],[33.5207,-24.7769,9.5501],[33.5186,-24.7938,12.4792],[33.5217,-24.7997,6.4702],[33.5301,-24.7899,8.5287],[33.5317,-24.7823,9.5325],[33.534,-24.7789,9.7298],[33.5391,-24.776,9.3262],[33.538,-24.7682,10.8184],[33.5238,-24.7436,9.6234],[33.5215,-24.7365,8.1229],[33.5239,-24.725,9.8836],[33.5321,-24.7294,10.2728],[33.5375,-24.7211,8.2806],[33.5372,-24.714,14.1284],[33.5309,-24.7,31.7508],[33.5034,-24.7011,8.2579],[33.5027,-24.6836,8.3766],[33.5064,-24.667,8.8819],[33.4983,-24.6593,8.6612],[33.5025,-24.6493,7.9986],[33.488,-24.6374,7.9212],[33.4865,-24.6147,6.7704],[33.4824,-24.5925,7.0926],[33.4879,-24.5782,7.0761],[33.4832,-24.5741,6.3559],[33.4927,-24.5656,6.4231],[33.4941,-24.561,6.1292],[33.4998,-24.5552,5.6846],[33.5028,-24.5446,6.188],[33.5096,-24.5422,5.9144],[33.5156,-24.5375,5.8482],[33.5179,-24.5322,6.2679],[33.5153,-24.5235,5.6261],[33.5124,-24.5195,5.6118],[33.5069,-24.5196,5.356],[33.4885,-24.5137,6.5242],[33.4712,-24.5123,7.8123],[33.4601,-24.5088,12.1623],[33.452,-24.5039,12.7228],[33.4301,-24.4984,7.5]]]]}
,"properties": {"GID_3": "MOZ.2.2.2_1","GID_0": "MOZ","country": "Mozambique","GID_1": "MOZ.2_1","province": "Gaza","NL_NAME_1": "NA","GID_2": "MOZ.2.2_1","county": "Chibuto","NL_NAME_2": "NA","city": "Chaimite","VARNAME_3": "NA","NL_NAME_3": "NA","TYPE_3": "Localidad","ENGTYPE_3": "Locality","CC_3": "NA","HASC_3": "NA","name": "Chaimite.city","area_km2": 513.8239,"hist_schema_id": "Elevation0-9000","hist_area_km2": {"0": 243.3328,"25": 270.4911}}}