{"type": "Feature","bbox": [35.217,-24.2772,35.5251,-23.9329],"geometry": {"type": "MultiPolygon","coordinates": [[[[35.3143,-24.0459,1.3869],[35.3043,-24.0588,2.7713],[35.3015,-24.0654,3.6468],[35.303,-24.0758,5.59],[35.2964,-24.109,3.8774],[35.3009,-24.1338,8.601],[35.2698,-24.1664,14.6637],[35.2753,-24.1665,15.0822],[35.2792,-24.1724,14.7039],[35.2653,-24.1998,35.3568],[35.2502,-24.2416,30.4944],[35.217,-24.2464,74.5238],[35.2174,-24.2571,59.2822],[35.2296,-24.2772,47.09],[35.3904,-24.2765,0.0],[35.3999,-24.2612,38.5906],[35.4074,-24.2551,1.4533],[35.4149,-24.2421,3.8507],[35.4162,-24.2435,0.0],[35.4188,-24.2399,3.8394],[35.4246,-24.2285,13.931],[35.4265,-24.216,33.3338],[35.4315,-24.2076,10.0791],[35.4535,-24.1846,16.9976],[35.4624,-24.1776,0.0],[35.4682,-24.1699,6.8211],[35.4779,-24.1535,7.9439],[35.4801,-24.1471,0.0],[35.4793,-24.1454,2.8966],[35.4807,-24.1449,0.0],[35.4882,-24.1274,37.177],[35.4963,-24.1162,18.4249],[35.5001,-24.1043,0.0],[35.5001,-24.1007,0.0],[35.4974,-24.0954,0.0],[35.4974,-24.0893,0.0],[35.499,-24.0762,21.384],[35.5007,-24.0751,0.0],[35.4951,-24.0718,8.3497],[35.4926,-24.0607,21.2103],[35.4965,-24.0343,37.2972],[35.5018,-24.0201,6.337],[35.4985,-24.011,0.0],[35.4982,-24.0015,1.5189],[35.4999,-24.0004,0.0],[35.5001,-23.9921,7.7027],[35.5062,-23.9724,1.7293],[35.5137,-23.959,0.0],[35.5165,-23.9485,3.7839],[35.5251,-23.9329,10.2281],[35.5142,-23.9393,33.3374],[35.4946,-23.9395,38.0485],[35.4472,-23.9613,20.4723],[35.4328,-23.9751,35.1478],[35.4158,-23.9743,31.9763],[35.3761,-23.9465,0.8786],[35.3718,-23.9488,0.163],[35.3613,-23.9554,0.4247],[35.3557,-23.9654,0.2844],[35.349,-23.9682,7.0414],[35.3551,-23.9746,0.0],[35.3546,-23.9821,0.1919],[35.3432,-23.9876,0.0],[35.3429,-23.9912,2.2437],[35.3404,-23.9946,3.6436],[35.3349,-23.9971,1.5916],[35.3318,-24.0039,5.3383],[35.3311,-24.0098,4.324],[35.3263,-24.0146,3.325],[35.3285,-24.0206,5.9384],[35.3178,-24.0364,1.7775],[35.3176,-24.0418,1.8492],[35.3143,-24.0459,1.3869]]]]}
,"properties": {"GID_3": "MOZ.3.6.3_1","GID_0": "MOZ","country": "Mozambique","GID_1": "MOZ.3_1","province": "Inhambane","NL_NAME_1": "NA","GID_2": "MOZ.3.6_1","county": "Jangamo","NL_NAME_2": "NA","city": "Jangamo","VARNAME_3": "NA","NL_NAME_3": "NA","TYPE_3": "Localidad","ENGTYPE_3": "Locality","CC_3": "NA","HASC_3": "NA","name": "Jangamo.city","area_km2": 651.2303,"hist_schema_id": "Elevation0-9000","hist_area_km2": {"0": 41.073,"25": 247.6663,"50": 266.5335,"75": 61.0032,"100": 27.5509,"125": 7.3648,"150": 0.0387}}}