{"type":"Feature","properties":{"GID_3":"MOZ.2.1.4_1","GID_0":"MOZ","country":"Mozambique","GID_1":"MOZ.2_1","province":"Gaza","NL_NAME_1":"NA","GID_2":"MOZ.2.1_1","county":"Bilene","NL_NAME_2":"NA","city":"Mazivila","VARNAME_3":"NA","NL_NAME_3":"NA","TYPE_3":"Localidad","ENGTYPE_3":"Locality","CC_3":"NA","HASC_3":"NA","name":"Mazivila.city"},
"geometry":{"type": "MultiPolygon","coordinates": [[[[33.1378,-24.9844,91.3175],[33.1702,-24.9102,71.8133],[33.2615,-24.9025,76.8186],[33.2883,-24.8887,75.5916],[33.3087,-24.8695,89.2148],[33.3597,-24.8314,46.3115],[33.3658,-24.8114,19.8279],[33.3691,-24.7849,11.7328],[33.368,-24.7754,12.4881],[33.3661,-24.7723,13.0768],[33.2881,-24.7747,17.9969],[33.2819,-24.776,16.5118],[33.2555,-24.8005,47.8708],[33.2069,-24.8339,60.8808],[33.1626,-24.8603,59.2137],[33.1451,-24.8636,56.3747],[33.0872,-24.858,35.5994],[33.0417,-24.8431,21.1724],[33.0271,-24.8398,20.7197],[32.9997,-24.8248,21.2877],[32.9889,-24.8161,21.6393],[32.9874,-24.8142,21.7173],[32.9842,-24.7874,22.1512],[32.9512,-24.763,23.1754],[32.9093,-24.8532,21.0974],[32.9985,-24.8623,22.6543],[33.0087,-24.8704,23.7625],[33.0367,-24.8771,25.1102],[33.0462,-24.8815,18.8421],[33.0852,-24.886,37.5766],[33.0967,-24.9024,43.9148],[33.0779,-24.9131,46.8284],[33.0953,-24.9797,87.6211],[33.1047,-24.9834,87.2985],[33.1368,-24.9859,93.6618],[33.1378,-24.9844,91.3175]]]]}}