{"type":"Feature","properties":{"GID_3":"MOZ.4.2.7_1","GID_0":"MOZ","country":"Mozambique","GID_1":"MOZ.4_1","province":"Manica","NL_NAME_1":"NA","GID_2":"MOZ.4.2_1","county":"Gondola","NL_NAME_2":"NA","city":"Matsinho2","VARNAME_3":"NA","NL_NAME_3":"NA","TYPE_3":"Localidad","ENGTYPE_3":"Locality","CC_3":"NA","HASC_3":"NA","name":"Matsinho2.city"},
"geometry":{"type": "MultiPolygon","coordinates": [[[[33.4931,-19.2032,649.4726],[33.4874,-19.2021,645.5612],[33.4823,-19.1944,659.8785],[33.4718,-19.1879,684.05],[33.4602,-19.1765,679.0948],[33.4499,-19.1751,644.965],[33.4388,-19.1859,637.0026],[33.4279,-19.1877,657.6966],[33.4084,-19.1692,656.1829],[33.401,-19.1569,639.0248],[33.375,-19.1476,594.0012],[33.3744,-19.1427,586.2672],[33.3837,-19.1359,587.5876],[33.3892,-19.1291,591.1177],[33.3861,-19.1209,615.2487],[33.386,-19.1071,632.9271],[33.3315,-19.0896,598.2365],[33.3242,-19.0965,598.9406],[33.3127,-19.101,608.8367],[33.2991,-19.1096,592.6003],[33.2909,-19.1195,580.6025],[33.2858,-19.1335,586.5994],[33.2759,-19.1452,577.7183],[33.2673,-19.1938,561.6895],[33.2732,-19.2061,563.0936],[33.278,-19.2113,560.9634],[33.2879,-19.216,572.8636],[33.2909,-19.2222,564.9563],[33.2864,-19.2336,553.0861],[33.29,-19.2441,561.4326],[33.2889,-19.2512,556.1487],[33.2929,-19.2693,549.21],[33.2822,-19.2692,559.6584],[33.2795,-19.2739,558.8073],[33.2875,-19.2779,565.0279],[33.2791,-19.2908,563.2188],[33.2916,-19.3007,566.4315],[33.3003,-19.3341,542.8129],[33.2999,-19.3454,549.7144],[33.329,-19.3595,543.3636],[33.3429,-19.3748,537.1531],[33.3494,-19.3656,535.2596],[33.3637,-19.333,547.6573],[33.362,-19.3226,549.2896],[33.3673,-19.303,568.1745],[33.3764,-19.2971,556.5349],[33.3849,-19.295,565.215],[33.405,-19.2815,565.7413],[33.4056,-19.2738,570.7277],[33.4252,-19.2588,585.743],[33.4443,-19.238,601.8242],[33.4789,-19.2148,621.2772],[33.4931,-19.2032,649.4726]]]]}}