{"type":"Feature","properties":{"GID_2":"MOZ.4.1_1","GID_0":"MOZ","country":"Mozambique","GID_1":"MOZ.4_1","province":"Manica","NL_NAME_1":"NA","county":"Barue","VARNAME_2":"NA","NL_NAME_2":"NA","TYPE_2":"Distrito","ENGTYPE_2":"District","CC_2":"NA","HASC_2":"MZ.MN.BA","name":"Barue.county"},
"geometry":{"type": "MultiPolygon","coordinates": [[[[33.3764,-17.9302,598.143],[33.3802,-17.8933,632.8085],[33.386,-17.8796,639.4697],[33.3955,-17.87,661.694],[33.3977,-17.8618,666.0051],[33.4002,-17.8358,698.2211],[33.3958,-17.8264,722.5562],[33.3753,-17.7353,707.5057],[33.3573,-17.7004,649.3406],[33.3643,-17.6864,667.5344],[33.3782,-17.6764,667.4053],[33.3783,-17.663,662.3716],[33.3855,-17.6276,688.1389],[33.3863,-17.6151,691.9277],[33.3824,-17.5861,717.9852],[33.3833,-17.5654,741.4003],[33.3809,-17.5549,765.3919],[33.3627,-17.5322,786.0638],[33.36,-17.5175,792.8991],[33.3404,-17.5178,796.3793],[33.3443,-17.4984,788.7733],[33.3376,-17.4897,772.7396],[33.3038,-17.459,720.8721],[33.2952,-17.4594,720.5292],[33.2673,-17.4401,699.1204],[33.2585,-17.4304,693.6702],[33.2267,-17.3591,639.0355],[33.2062,-17.361,624.8177],[33.1836,-17.3556,602.9047],[33.1776,-17.3489,598.3945],[33.1665,-17.3463,591.6036],[33.1646,-17.3377,599.5732],[33.1447,-17.3127,574.4658],[33.1275,-17.3074,562.4863],[33.1273,-17.3017,558.9868],[33.1314,-17.2856,543.001],[33.1372,-17.2804,541.2118],[33.1346,-17.2716,540.0649],[33.1286,-17.2673,552.9222],[33.1232,-17.2668,538.4915],[33.1079,-17.261,504.5095],[33.087,-17.2367,489.7043],[33.0757,-17.2468,483.0614],[33.0653,-17.2789,495.8719],[33.0495,-17.301,504.4781],[33.0489,-17.3136,507.6992],[33.051,-17.3377,518.5381],[33.0411,-17.3428,529.5878],[33.0453,-17.347,531.7054],[33.0344,-17.3577,518.9296],[33.0296,-17.3666,513.629],[33.02,-17.3773,528.1597],[33.0074,-17.4007,539.7874],[33.0019,-17.4154,546.1575],[32.9968,-17.4447,546.9241],[32.9981,-17.4531,552.936],[32.9836,-17.4559,569.0231],[32.9734,-17.4719,586.6115],[32.9623,-17.4814,578.1082],[32.9591,-17.4945,619.3261],[32.9602,-17.5156,624.364],[32.9627,-17.5271,606.7891],[32.9737,-17.5423,606.2737],[32.976,-17.5518,653.4132],[32.9814,-17.5628,646.6828],[32.99,-17.5668,818.1147],[33.0092,-17.5687,695.8657],[33.0342,-17.5914,804.9582],[33.0432,-17.6034,770.5533],[33.0415,-17.6126,904.4257],[33.0421,-17.6266,853.4164],[33.039,-17.636,907.0748],[33.0262,-17.6474,804.5109],[33.0179,-17.6712,767.8683],[33.012,-17.7021,944.2104],[33.0143,-17.7139,869.305],[33.0202,-17.7203,803.0781],[33.0125,-17.7235,819.92],[33.0033,-17.7196,962.2532],[33.002,-17.725,953.0746],[33.0017,-17.7383,817.6431],[33.0069,-17.7456,806.7234],[33.0161,-17.75,791.9169],[33.0265,-17.758,803.5541],[33.0267,-17.7628,795.4818],[33.0137,-17.7694,865.5544],[33.0155,-17.7811,804.3177],[33.0102,-17.7949,810.957],[33.0101,-17.8015,799.1546],[32.9904,-17.8051,813.4529],[32.9753,-17.8016,804.2601],[32.9693,-17.802,814.1616],[32.9601,-17.8175,807.6675],[32.9613,-17.855,824.9139],[32.953,-17.8776,823.8521],[32.9538,-17.907,850.3434],[32.9561,-17.9108,849.5402],[32.9725,-17.9136,852.3229],[32.9772,-17.9173,867.4464],[32.9768,-17.9232,871.5782],[32.9714,-17.9333,860.53],[32.9691,-17.9535,851.8167],[32.9625,-17.9629,1035.6252],[32.9515,-17.9601,1006.9222],[32.9476,-17.963,898.6486],[32.9428,-17.9743,1008.9778],[32.9422,-17.9889,876.2412],[32.949,-18.0113,1042.8599],[32.948,-18.0161,1040.226],[32.9491,-18.0324,991.1888],[32.9553,-18.043,1000.628],[32.9586,-18.0524,990.6956],[32.9594,-18.0717,1014.9866],[32.9741,-18.1083,1007.4079],[32.974,-18.1168,1052.3027],[32.9701,-18.1281,1134.7024],[32.9719,-18.1423,1172.563],[32.9783,-18.155,1219.344],[32.9875,-18.1566,1128.1766],[32.9932,-18.162,1093.6914],[32.9976,-18.1689,1139.9202],[32.9961,-18.1921,1250.1074],[33.0022,-18.2169,1043.829],[33.0084,-18.2287,981.5999],[33.0088,-18.2404,912.8568],[33.0005,-18.2589,809.5261],[32.9976,-18.2727,756.3273],[33.0021,-18.3048,677.3198],[33.0129,-18.3183,668.692],[33.0314,-18.3248,646.3385],[33.04,-18.3338,692.9847],[33.0395,-18.3376,680.5056],[33.0867,-18.3502,566.1475],[33.0868,-18.3617,563.2067],[33.0952,-18.3867,556.1161],[33.1048,-18.3894,558.3036],[33.1051,-18.4006,543.2292],[33.1127,-18.4102,547.7854],[33.123,-18.4124,534.3652],[33.1378,-18.452,530.9691],[33.1762,-18.505,503.7844],[33.2264,-18.4949,498.9726],[33.2586,-18.5275,490.4062],[33.2644,-18.5439,483.0651],[33.2837,-18.5547,480.9746],[33.3002,-18.5524,480.1406],[33.3069,-18.5398,475.0121],[33.3638,-18.5722,450.7651],[33.3713,-18.5896,458.9918],[33.3817,-18.5999,458.5115],[33.4013,-18.6492,444.0258],[33.4146,-18.6604,422.4231],[33.4375,-18.6675,399.7153],[33.4878,-18.6632,397.8969],[33.5506,-18.6722,389.5257],[33.5513,-18.6584,379.5983],[33.5499,-18.6527,391.1699],[33.5438,-18.6497,382.0514],[33.5427,-18.6442,398.3163],[33.5458,-18.6231,403.6884],[33.548,-18.6175,404.4038],[33.5446,-18.5944,425.5976],[33.5462,-18.5729,433.1789],[33.541,-18.5672,432.9239],[33.5404,-18.5428,420.3313],[33.5324,-18.5368,445.4326],[33.532,-18.5306,445.0381],[33.5326,-18.516,456.7838],[33.5445,-18.5007,457.6398],[33.5416,-18.4861,448.7503],[33.5373,-18.4834,441.798],[33.5417,-18.4776,449.9198],[33.5385,-18.4659,454.4279],[33.5297,-18.457,460.3109],[33.5076,-18.4014,467.0458],[33.5132,-18.3944,459.6617],[33.4995,-18.3859,461.0847],[33.4902,-18.3721,460.9166],[33.4877,-18.3578,469.7755],[33.4767,-18.3338,470.2322],[33.4716,-18.3055,472.1913],[33.458,-18.2647,493.7632],[33.4684,-18.21,497.9717],[33.4353,-18.1539,515.8233],[33.4363,-18.1402,522.5551],[33.4341,-18.1172,526.6605],[33.4294,-18.1074,538.7117],[33.4309,-18.0848,540.8622],[33.4295,-18.0672,554.7789],[33.4203,-18.0552,564.0464],[33.4144,-18.0417,575.0957],[33.4174,-18.0311,586.6116],[33.417,-18.0147,598.4659],[33.3764,-17.9302,598.143]]]]}}