{"type":"Feature","properties":{"GID_3":"MOZ.1.4.6_1","GID_0":"MOZ","country":"Mozambique","GID_1":"MOZ.1_1","province":"CaboDelgado","NL_NAME_1":"NA","GID_2":"MOZ.1.4_1","county":"Macomia","NL_NAME_2":"NA","city":"Quiterajo","VARNAME_3":"NA","NL_NAME_3":"NA","TYPE_3":"Localidad","ENGTYPE_3":"Locality","CC_3":"NA","HASC_3":"NA","name":"Quiterajo.city"},
"geometry":{"type": "MultiPolygon","coordinates": [[[[40.5663,-11.8226,0.0],[40.5638,-11.8226,0.0],[40.5646,-11.8251,0.0],[40.5674,-11.824,0.0],[40.5663,-11.8226,0.0]]],
[[[40.2801,-11.9691,247.7811],[40.2808,-11.97,286.518],[40.396,-11.9212,58.067],[40.4291,-11.8889,27.1906],[40.4627,-11.8859,14.0467],[40.478,-11.8829,6.7472],[40.4857,-11.8846,1.2405],[40.4874,-11.8799,0.0],[40.496,-11.8679,1.2904],[40.5026,-11.8621,3.8454],[40.5113,-11.8585,0.0],[40.5149,-11.8546,0.0],[40.5057,-11.8474,0.0],[40.4926,-11.846,0.0],[40.484,-11.8421,2.4293],[40.4701,-11.8299,1.9243],[40.4654,-11.8218,2.591],[40.4637,-11.8146,1.0372],[40.4613,-11.8154,0.5295],[40.4604,-11.8082,0.0],[40.4613,-11.8007,0.0],[40.4635,-11.7996,0.0],[40.4637,-11.7976,0.0],[40.4663,-11.7979,0.0],[40.4665,-11.7918,0.1387],[40.4701,-11.786,0.0],[40.4682,-11.7835,0.355],[40.469,-11.7782,0.0],[40.4601,-11.7729,1.3027],[40.461,-11.7726,3.3711],[40.4629,-11.774,0.6302],[40.4649,-11.7735,0.0],[40.4621,-11.7707,1.7982],[40.4643,-11.7696,0.0],[40.4657,-11.764,0.616],[40.4637,-11.754,0.7887],[40.4654,-11.7429,0.0],[40.4599,-11.7451,1.5271],[40.4493,-11.7449,3.1498],[40.4388,-11.7351,1.9059],[40.4371,-11.7287,0.0],[40.4349,-11.7268,0.0],[40.4365,-11.7254,0.0],[40.439,-11.7163,0.0],[40.4396,-11.706,0.0],[40.4354,-11.7032,2.6492],[40.4338,-11.7049,6.6885],[40.4346,-11.7099,5.1184],[40.4335,-11.709,5.5089],[40.4332,-11.7032,1.7519],[40.4362,-11.7029,0.8523],[40.4388,-11.6999,0.0],[40.4351,-11.694,0.0],[40.4315,-11.6935,0.0],[40.4251,-11.699,0.0],[40.4207,-11.6999,4.7228],[40.4201,-11.7018,2.0692],[40.4224,-11.7032,0.5],[40.4221,-11.7054,4.9019],[40.416,-11.7057,3.981],[40.4176,-11.7043,3.8825],[40.4207,-11.7046,2.7717],[40.4193,-11.699,0.5],[40.4238,-11.6985,0.0],[40.4265,-11.6962,0.0],[40.426,-11.6946,0.0],[40.4315,-11.6912,4.8026],[40.4399,-11.691,0.1429],[40.4429,-11.6865,1.2063],[40.4404,-11.6815,3.6083],[40.4429,-11.6807,1.473],[40.4424,-11.676,0.0],[40.4246,-11.6754,1.0],[40.4162,-11.6804,2.0385],[40.4243,-11.6737,3.5787],[40.4326,-11.6726,10.18],[40.4222,-11.6728,8.989],[40.4051,-11.6772,9.941],[40.3976,-11.6811,3.7457],[40.3915,-11.6809,4.5528],[40.3872,-11.6872,3.4993],[40.3816,-11.6916,4.0624],[40.3597,-11.6806,4.2173],[40.3516,-11.6798,4.654],[40.3463,-11.6749,5.6767],[40.3383,-11.6727,15.9936],[40.3314,-11.6791,8.7839],[40.3291,-11.6859,8.3304],[40.3213,-11.6958,9.1575],[40.3079,-11.7073,14.8313],[40.3011,-11.7002,12.3592],[40.2955,-11.6991,23.9474],[40.2959,-11.7119,11.6303],[40.294,-11.7201,15.4708],[40.2794,-11.7198,17.2864],[40.275,-11.7349,14.2298],[40.2777,-11.7442,24.0726],[40.2745,-11.7478,17.0081],[40.2581,-11.7567,15.3977],[40.2488,-11.7717,15.8572],[40.2433,-11.7849,17.8747],[40.2408,-11.7862,16.3913],[40.2247,-11.8913,279.7625],[40.2801,-11.9691,247.7811]]],
[[[40.6096,-11.8149,0.7403],[40.6026,-11.8149,1.7517],[40.6029,-11.8165,5.4729],[40.5993,-11.8179,0.0],[40.606,-11.8182,0.0],[40.609,-11.8168,0.0],[40.6096,-11.8149,0.7403]]]]}}