{"type":"Feature","properties":{"GID_3":"MOZ.2.3.3_1","GID_0":"MOZ","country":"Mozambique","GID_1":"MOZ.2_1","province":"Gaza","NL_NAME_1":"NA","GID_2":"MOZ.2.3_1","county":"Chicualacuala","NL_NAME_2":"NA","city":"Pafuri","VARNAME_3":"NA","NL_NAME_3":"NA","TYPE_3":"Localidad","ENGTYPE_3":"Locality","CC_3":"NA","HASC_3":"NA","name":"Pafuri.city"},
"geometry":{"type": "MultiPolygon","coordinates": [[[[31.369,-22.3808,300.7987],[31.3073,-22.4203,198.5062],[31.3094,-22.422,199.111],[31.3074,-22.4235,193.0],[31.5458,-23.1372,282.747],[31.5636,-23.1982,288.2188],[31.5616,-23.2216,259.3221],[31.5718,-23.226,262.4503],[31.5996,-23.23,233.6621],[31.6149,-23.3006,267.4939],[31.6278,-23.3185,216.2039],[31.6333,-23.335,244.8447],[31.6537,-23.3705,219.5562],[31.666,-23.4014,206.8057],[31.6815,-23.4046,192.7543],[31.7153,-23.4206,201.3512],[31.7259,-23.4282,213.7603],[31.7378,-23.4301,187.0579],[31.7544,-23.4258,197.1552],[31.7769,-23.4301,177.6031],[31.7901,-23.4297,175.6271],[31.7984,-23.4383,169.2346],[31.8076,-23.452,180.9536],[31.8168,-23.4537,173.0016],[31.8515,-23.4651,170.9325],[31.856,-23.4793,164.1912],[31.8654,-23.4823,167.1544],[31.883,-23.476,163.5288],[31.8983,-23.4681,158.7365],[31.9103,-23.5076,149.4735],[31.9109,-23.518,158.8233],[31.9181,-23.524,145.1924],[31.919,-23.5396,155.5404],[31.9379,-23.5586,163.2607],[31.958,-23.5671,185.429],[31.9758,-23.5685,195.2792],[31.9814,-23.5736,185.6347],[31.9903,-23.5771,177.2607],[32.2466,-23.5726,177.2855],[32.2951,-23.5657,174.3889],[32.3914,-23.5822,162.6239],[32.4093,-23.5774,122.6953],[32.4279,-23.5819,102.5925],[32.45,-23.5837,88.3559],[32.4592,-23.5725,73.6795],[32.4609,-23.5428,78.3057],[32.4661,-23.5247,75.1877],[32.4599,-23.494,83.1253],[32.4556,-23.4806,74.8461],[32.4487,-23.4663,86.4254],[32.4388,-23.4601,80.469],[32.4272,-23.4553,82.6645],[32.4131,-23.4457,86.3307],[32.3875,-23.4164,84.1054],[32.3645,-23.385,86.4303],[32.3362,-23.354,85.8852],[32.3242,-23.3473,88.4993],[32.2966,-23.3155,91.3693],[32.2888,-23.2996,89.7411],[32.2832,-23.2825,100.0208],[32.2769,-23.275,93.953],[32.2706,-23.2695,100.2171],[32.2493,-23.2566,98.5703],[32.2449,-23.2486,96.4035],[32.244,-23.2366,96.3901],[32.2461,-23.2081,98.9635],[32.2426,-23.2012,100.2497],[32.2233,-23.1868,104.2189],[32.2209,-23.1756,97.8359],[32.2234,-23.1684,98.6932],[32.2437,-23.1428,104.0226],[32.2492,-23.1314,100.2232],[32.2503,-23.1237,99.0],[32.2457,-23.1145,104.0442],[32.2172,-23.0933,102.2236],[32.2012,-23.076,109.6743],[32.1895,-23.0666,107.4402],[32.144,-23.0371,116.0092],[32.1209,-23.0249,116.8529],[32.11,-23.023,115.0311],[32.0936,-23.0234,115.4878],[32.0866,-23.0212,116.2826],[32.0827,-23.0165,117.4403],[32.0751,-23.0011,111.0],[32.0738,-22.9867,112.2755],[32.0693,-22.9769,117.9199],[32.0571,-22.9672,120.5758],[32.0431,-22.9596,121.5555],[32.0265,-22.9567,122.4585],[32.0158,-22.9507,125.4168],[32.0115,-22.9381,119.3494],[32.0159,-22.9263,120.1253],[32.025,-22.9127,120.9964],[32.0278,-22.8933,123.8573],[32.0201,-22.8877,124.4606],[32.005,-22.883,122.7729],[31.9609,-22.8762,129.2994],[31.9536,-22.8678,132.1786],[31.9466,-22.8464,134.5942],[31.9464,-22.8332,133.8116],[31.9419,-22.821,133.9022],[31.9268,-22.8126,135.9512],[31.9183,-22.7984,132.9137],[31.9077,-22.7669,140.5083],[31.8969,-22.7541,139.1824],[31.8432,-22.7036,145.3138],[31.8247,-22.6906,147.2943],[31.8112,-22.6622,149.0613],[31.812,-22.6438,144.073],[31.8162,-22.6405,151.0801],[31.8183,-22.6351,152.3038],[31.8118,-22.6279,155.154],[31.8012,-22.6212,155.3209],[31.8009,-22.6089,155.0082],[31.7852,-22.5852,156.9696],[31.7803,-22.5728,158.6572],[31.7748,-22.5656,159.8512],[31.7409,-22.4801,209.2023],[31.6529,-22.5507,170.7812],[31.6418,-22.5425,169.3633],[31.6188,-22.5341,169.3168],[31.6082,-22.525,168.3058],[31.5901,-22.4973,166.679],[31.5849,-22.4813,173.4622],[31.5769,-22.469,172.9768],[31.5609,-22.4613,179.5822],[31.5448,-22.4604,173.8856],[31.5252,-22.4632,181.0294],[31.4877,-22.4643,181.9749],[31.4716,-22.4615,182.7056],[31.4244,-22.4454,186.8617],[31.422,-22.4407,182.3894],[31.4203,-22.402,320.2365],[31.369,-22.3808,300.7987]]]]}}