{"type": "Feature","bbox": [32.5501,-25.8735,32.7813,-25.5835],"geometry": {"type": "MultiPolygon","coordinates": [[[[32.7246,-25.8204,3.0099],[32.7226,-25.8204,0.9619],[32.7115,-25.8285,1.4064],[32.7065,-25.8371,0.0],[32.7076,-25.8454,0.0],[32.7151,-25.8593,0.9031],[32.7187,-25.8585,0.0],[32.7212,-25.8551,1.2243],[32.7224,-25.8493,0.4214],[32.721,-25.8474,2.7502],[32.7212,-25.8426,3.0795],[32.7271,-25.8318,0.0],[32.7268,-25.8237,0.0],[32.7246,-25.8204,3.0099]]],
[[[32.7207,-25.7588,0.9377],[32.7071,-25.7676,0.6981],[32.7004,-25.7682,1.681],[32.6957,-25.7704,1.3606],[32.689,-25.7699,1.5193],[32.6874,-25.7715,0.0],[32.6885,-25.7935,0.6678],[32.6954,-25.7971,1.6542],[32.7026,-25.8046,0.9634],[32.7118,-25.806,1.0009],[32.7218,-25.8049,0.0],[32.7218,-25.7896,0.8231],[32.7254,-25.7824,0.0],[32.7318,-25.776,0.409],[32.7326,-25.7726,1.3693],[32.7218,-25.7618,1.8507],[32.7229,-25.7607,0.6066],[32.7207,-25.7588,0.9377]]],
[[[32.7307,-25.7635,1.1685],[32.729,-25.7643,0.0],[32.7329,-25.7671,0.4857],[32.7329,-25.7649,3.5913],[32.7307,-25.7635,1.1685]]],
[[[32.5754,-25.7998,33.1811],[32.5741,-25.8052,31.9935],[32.6968,-25.8535,1.1449],[32.6954,-25.8462,1.0237],[32.6976,-25.8429,3.5804],[32.6982,-25.8351,2.5313],[32.7012,-25.8293,0.0],[32.7007,-25.8221,1.7758],[32.7032,-25.824,0.0],[32.7071,-25.8215,0.4713],[32.714,-25.8221,0.8179],[32.7171,-25.8207,0.0],[32.721,-25.8143,1.4554],[32.7215,-25.8074,0.0],[32.7068,-25.8071,1.9307],[32.7018,-25.8054,0.9634],[32.6885,-25.7949,1.5675],[32.6857,-25.7865,1.2463],[32.6857,-25.7729,6.1161],[32.6899,-25.7685,0.9234],[32.6957,-25.7693,0.8752],[32.7151,-25.7621,0.8176],[32.7182,-25.7588,0.0],[32.7143,-25.7535,1.9267],[32.7168,-25.7515,0.0],[32.729,-25.7596,0.2018],[32.7354,-25.7665,0.0],[32.7365,-25.7776,0.0],[32.729,-25.7882,1.4717],[32.7279,-25.7943,2.1969],[32.729,-25.8021,0.0],[32.7332,-25.8126,0.0],[32.7332,-25.8204,0.0],[32.7363,-25.8282,0.0],[32.7346,-25.8426,0.0],[32.7385,-25.8515,4.6093],[32.7401,-25.8624,1.2313],[32.7454,-25.8668,2.2666],[32.7454,-25.871,1.8724],[32.7438,-25.8715,0.0],[32.7468,-25.8735,0.0],[32.7526,-25.8735,0.0],[32.7449,-25.8629,1.5481],[32.7374,-25.8376,5.8291],[32.7368,-25.8285,0.0],[32.7329,-25.8082,2.698],[32.7349,-25.784,3.7883],[32.7504,-25.7265,2.0838],[32.7701,-25.6796,15.4164],[32.7813,-25.6584,0.0],[32.7264,-25.6524,1.6484],[32.7187,-25.6503,2.726],[32.7246,-25.6433,1.4714],[32.7261,-25.635,1.7755],[32.7257,-25.6069,1.5925],[32.7214,-25.5982,1.4983],[32.7094,-25.5936,1.6822],[32.7094,-25.5963,0.5],[32.5818,-25.5913,61.1209],[32.5501,-25.5835,55.0368],[32.58,-25.6595,55.3723],[32.5651,-25.6991,53.2016],[32.5603,-25.7169,56.0459],[32.5628,-25.7228,56.1467],[32.5699,-25.7303,54.5477],[32.577,-25.7431,56.5336],[32.582,-25.7466,54.3959],[32.5919,-25.7694,46.7599],[32.5754,-25.7998,33.1811]]]]}
,"properties": {"GID_3": "MOZ.6.4.2_1","GID_0": "MOZ","country": "Mozambique","GID_1": "MOZ.6_1","province": "Maputo","NL_NAME_1": "NA","GID_2": "MOZ.6.4_1","county": "Marracuene","NL_NAME_2": "NA","city": "Marracuene","VARNAME_3": "NA","NL_NAME_3": "NA","TYPE_3": "Localidad","ENGTYPE_3": "Locality","CC_3": "NA","HASC_3": "NA","name": "Marracuene.city","area_km2": 444.9342,"hist_schema_id": "Elevation0-9000","hist_area_km2": {"0": 190.2214,"25": 56.7474,"50": 184.5204,"75": 13.3877,"100": 0.0573}}}