{"type":"Feature","properties":{"GID_3":"MOZ.9.3.2_1","GID_0":"MOZ","country":"Mozambique","GID_1":"MOZ.9_1","province":"Sofala","NL_NAME_1":"NA","GID_2":"MOZ.9.3_1","county":"Chemba","NL_NAME_2":"NA","city":"Chiramba","VARNAME_3":"NA","NL_NAME_3":"NA","TYPE_3":"Localidad","ENGTYPE_3":"Locality","CC_3":"NA","HASC_3":"NA","name":"Chiramba.city"},
"geometry":{"type": "MultiPolygon","coordinates": [[[[34.2247,-17.2432,219.3344],[34.2507,-17.2401,207.8441],[34.2911,-17.2216,194.5104],[34.3339,-17.2116,179.2299],[34.3526,-17.215,171.8079],[34.3572,-17.2179,169.4534],[34.3711,-17.2199,167.5719],[34.3794,-17.2159,164.7919],[34.3934,-17.2048,158.0249],[34.4163,-17.1922,150.4713],[34.4193,-17.2012,171.3865],[34.4178,-17.2113,181.6587],[34.4217,-17.2143,185.8845],[34.4244,-17.219,201.2307],[34.4583,-17.2331,250.7458],[34.4938,-17.1817,166.6217],[34.5312,-17.1416,189.3778],[34.5453,-17.1245,178.9201],[34.6794,-17.0315,150.7535],[34.6853,-16.9971,164.0527],[34.6899,-16.9931,156.6846],[34.7011,-16.9774,144.6208],[34.7101,-16.96,134.3272],[34.7256,-16.9431,98.3419],[34.731,-16.9347,82.8758],[34.7356,-16.9208,69.165],[34.7371,-16.8937,68.4705],[34.7304,-16.8908,69.0738],[34.6916,-16.8841,68.5197],[34.661,-16.8767,69.8909],[34.6294,-16.8603,70.5],[34.6012,-16.8404,72.5892],[34.5867,-16.8285,73.0],[34.5661,-16.8071,74.9424],[34.5335,-16.783,78.1742],[34.534,-16.8084,78.4889],[34.5308,-16.8188,78.6416],[34.5142,-16.837,76.9176],[34.5074,-16.8528,87.8498],[34.5074,-16.8639,96.005],[34.5349,-16.8664,103.9698],[34.4662,-16.9931,223.1731],[34.4496,-16.999,209.2107],[34.3042,-17.0316,306.2115],[34.2632,-17.0604,330.7361],[34.1748,-17.2225,262.2729],[34.2068,-17.239,229.7724],[34.2247,-17.2432,219.3344]]]]}}