{"type":"Feature","properties":{"GID_3":"MOZ.3.8.2_1","GID_0":"MOZ","country":"Mozambique","GID_1":"MOZ.3_1","province":"Inhambane","NL_NAME_1":"NA","GID_2":"MOZ.3.8_1","county":"Massinga","NL_NAME_2":"NA","city":"Massinga","VARNAME_3":"NA","NL_NAME_3":"NA","TYPE_3":"Localidad","ENGTYPE_3":"Locality","CC_3":"NA","HASC_3":"NA","name":"Massinga.city"},
"geometry":{"type": "MultiPolygon","coordinates": [[[[35.0068,-23.0628,124.447],[35.036,-23.0998,115.9874],[35.0536,-23.1269,118.0736],[35.0633,-23.1451,119.3953],[35.0681,-23.1637,105.231],[35.0754,-23.1733,105.6154],[35.0934,-23.1825,107.5078],[35.0945,-23.1875,107.1757],[35.0837,-23.23,115.5643],[35.0899,-23.2391,112.8617],[35.0976,-23.2447,110.8388],[35.1102,-23.2928,95.9361],[35.1145,-23.2997,99.1644],[35.114,-23.3048,97.5822],[35.0751,-23.3405,99.0245],[35.0242,-23.4474,125.8275],[35.0506,-23.4498,132.1419],[35.072,-23.4608,124.6767],[35.0974,-23.4624,124.9522],[35.1062,-23.4678,130.5329],[35.1149,-23.4798,144.4701],[35.1231,-23.4763,140.5891],[35.1291,-23.4488,117.107],[35.1336,-23.4458,119.8309],[35.1314,-23.4303,118.1507],[35.1136,-23.3944,104.5376],[35.1032,-23.3844,107.315],[35.0968,-23.3749,111.9658],[35.1393,-23.3214,102.2533],[35.1614,-23.3117,96.3453],[35.1619,-23.2995,103.5695],[35.1782,-23.3033,100.4512],[35.2577,-23.4073,115.0044],[35.2638,-23.4216,105.2342],[35.2735,-23.4372,107.6389],[35.3343,-23.4568,135.3834],[35.3442,-23.4586,102.5457],[35.3436,-23.4821,81.1708],[35.3768,-23.4813,73.2524],[35.3879,-23.4841,48.4995],[35.4147,-23.4855,95.7849],[35.4217,-23.4839,10.2505],[35.4267,-23.4796,10.4701],[35.4332,-23.4791,12.7218],[35.4382,-23.471,0.0],[35.4437,-23.4557,0.0],[35.4443,-23.4496,0.0],[35.4485,-23.4376,0.0],[35.4479,-23.4296,0.0],[35.4512,-23.4207,5.1489],[35.4515,-23.4154,9.5809],[35.4629,-23.389,0.0],[35.4715,-23.3626,2.5095],[35.4851,-23.3374,0.0],[35.4882,-23.3268,19.3357],[35.4882,-23.3196,15.0828],[35.4932,-23.3024,0.0],[35.4949,-23.2757,8.4125],[35.4926,-23.2732,32.0869],[35.496,-23.2493,8.6814],[35.4949,-23.2446,14.7599],[35.4957,-23.2368,0.0],[35.4907,-23.2304,6.0705],[35.4879,-23.221,7.7448],[35.4888,-23.2132,11.7711],[35.4851,-23.1768,4.1714],[35.4932,-23.1582,0.0],[35.4963,-23.1457,10.0844],[35.4976,-23.1451,0.0],[35.4965,-23.1421,14.4994],[35.5021,-23.1257,0.0],[35.5043,-23.1138,12.3312],[35.5174,-23.0832,10.0605],[35.5346,-23.0607,0.0],[35.5387,-23.0518,4.9877],[35.571,-23.0046,3.7054],[35.4131,-23.0095,130.5818],[35.4117,-23.0063,124.8829],[35.2695,-23.0024,93.735],[35.2429,-22.9812,97.2735],[35.2367,-22.9739,99.6329],[35.2119,-22.9839,105.4916],[35.1927,-22.9892,104.3814],[35.179,-22.9899,103.6735],[35.1697,-22.9928,104.6669],[35.1473,-22.9899,97.9127],[35.1429,-22.9985,96.1287],[35.1151,-23.0187,105.6417],[35.0615,-23.0311,115.5485],[35.0322,-23.044,113.921],[35.0161,-23.0534,125.0567],[35.0068,-23.0628,124.447]]]]}}