{"type":"Feature","properties":{"GID_2":"MOZ.1.7_1","GID_0":"MOZ","country":"Mozambique","GID_1":"MOZ.1_1","province":"CaboDelgado","NL_NAME_1":"NA","county":"MocimboadaPraia","VARNAME_2":"NA","NL_NAME_2":"NA","TYPE_2":"Distrito","ENGTYPE_2":"District","CC_2":"NA","HASC_2":"MZ.CD.MP","name":"Mocimboada_Praia.county"},
"geometry":{"type": "MultiPolygon","coordinates": [[[[40.2489,-11.7428,66.224],[40.2733,-11.7428,14.2792],[40.2777,-11.7442,24.0726],[40.275,-11.7349,14.2298],[40.2771,-11.7243,13.1108],[40.2794,-11.7198,17.2864],[40.294,-11.7201,15.4708],[40.2959,-11.7119,11.6303],[40.2955,-11.6991,23.9474],[40.3011,-11.7002,12.3592],[40.3079,-11.7073,14.8313],[40.3213,-11.6958,9.1575],[40.3291,-11.6859,8.3304],[40.3314,-11.6791,8.7839],[40.3383,-11.6727,15.9936],[40.3463,-11.6749,5.6767],[40.3516,-11.6798,4.654],[40.3597,-11.6806,4.2173],[40.3816,-11.6916,4.0624],[40.3872,-11.6872,3.4993],[40.3915,-11.6809,4.5528],[40.3976,-11.6811,3.7457],[40.4051,-11.6772,9.941],[40.4222,-11.6728,8.989],[40.436,-11.6726,1.6999],[40.4421,-11.6679,0.3365],[40.4404,-11.6618,1.7591],[40.4407,-11.6593,6.7383],[40.444,-11.6568,0.0],[40.4443,-11.6515,0.0],[40.4426,-11.6499,3.5745],[40.4382,-11.649,2.6115],[40.4343,-11.6515,7.357],[40.4365,-11.6474,1.9395],[40.4318,-11.6471,2.4139],[40.4307,-11.6496,7.7696],[40.4257,-11.6504,3.2542],[40.421,-11.6535,2.5648],[40.4176,-11.659,6.9939],[40.4174,-11.6574,5.6792],[40.426,-11.6462,2.5085],[40.4315,-11.6418,2.0186],[40.4318,-11.6401,0.9318],[40.4299,-11.6387,0.5],[40.4332,-11.636,4.0239],[40.4315,-11.634,6.6158],[40.4313,-11.6285,6.9503],[40.4346,-11.6351,0.375],[40.4368,-11.6343,5.812],[40.4399,-11.6357,0.5904],[40.4518,-11.6246,2.1302],[40.4568,-11.6265,0.0],[40.4585,-11.6251,0.0],[40.4607,-11.6162,0.0],[40.4607,-11.6099,0.0],[40.4554,-11.6007,0.4407],[40.4504,-11.6001,2.1722],[40.4493,-11.6012,2.1245],[40.4493,-11.5993,0.5763],[40.4465,-11.6004,1.7008],[40.4454,-11.596,0.1629],[40.4307,-11.589,1.4485],[40.4268,-11.5854,1.185],[40.4221,-11.5785,2.2326],[40.4235,-11.5746,0.0],[40.4224,-11.5699,2.8383],[40.4243,-11.5668,4.0928],[40.4235,-11.5629,0.0],[40.4207,-11.5632,3.43],[40.4176,-11.5546,0.0],[40.4276,-11.5426,1.039],[40.4351,-11.5387,0.1435],[40.4332,-11.5329,2.1116],[40.4362,-11.5368,0.5397],[40.4399,-11.5371,0.0],[40.4518,-11.5293,5.4322],[40.4518,-11.524,2.2075],[40.4421,-11.5143,0.3999],[40.4379,-11.5071,0.0],[40.4379,-11.5043,0.4683],[40.4429,-11.4982,0.4994],[40.4507,-11.4949,0.0],[40.456,-11.4874,2.8205],[40.4579,-11.4704,2.8888],[40.4568,-11.4685,1.1063],[40.4532,-11.469,2.2985],[40.4554,-11.4671,1.5702],[40.4585,-11.4671,0.3131],[40.459,-11.4643,0.0],[40.4588,-11.4585,0.4759],[40.4557,-11.4524,2.0226],[40.4557,-11.4463,1.6298],[40.4599,-11.441,4.147],[40.4621,-11.441,1.1391],[40.4665,-11.4374,1.4219],[40.4682,-11.4226,4.1226],[40.4751,-11.4085,0.0],[40.4732,-11.4065,1.3273],[40.4732,-11.4035,0.0],[40.4693,-11.4012,0.0],[40.4593,-11.401,0.0],[40.4551,-11.4032,1.5607],[40.456,-11.401,0.0],[40.4521,-11.401,0.0],[40.4493,-11.4054,0.25],[40.4507,-11.4096,3.4085],[40.449,-11.4126,0.5],[40.4454,-11.4138,2.9876],[40.4476,-11.4121,2.485],[40.4488,-11.4065,0.5],[40.4451,-11.406,0.3269],[40.4432,-11.4007,0.0],[40.4418,-11.4029,1.032],[40.431,-11.3979,0.0],[40.4265,-11.4037,1.7934],[40.4285,-11.4124,2.1249],[40.4276,-11.4143,1.6319],[40.4265,-11.4096,0.5],[40.4232,-11.4065,4.3438],[40.4232,-11.396,0.0],[40.4212,-11.396,4.9256],[40.4263,-11.3901,0.0],[40.424,-11.3882,0.8346],[40.4224,-11.3904,1.3231],[40.4138,-11.3885,2.3737],[40.4129,-11.3849,2.6392],[40.4151,-11.3774,1.6475],[40.4071,-11.366,0.0],[40.389,-11.3504,0.4507],[40.3863,-11.3501,1.3799],[40.3821,-11.3524,0.0],[40.381,-11.3549,0.0],[40.3829,-11.356,1.7283],[40.3788,-11.356,0.0],[40.3771,-11.3587,0.9196],[40.376,-11.3582,0.7743],[40.3774,-11.3562,0.0],[40.3704,-11.356,1.1595],[40.364,-11.3474,0.0],[40.3604,-11.331,0.0],[40.3524,-11.3285,2.7293],[40.3482,-11.324,0.5],[40.3454,-11.3165,1.2777],[40.3354,-11.3168,8.9508],[40.3312,-11.3107,1.0],[40.3274,-11.3099,3.0034],[40.3282,-11.3065,2.1769],[40.3282,-11.3079,2.1769],[40.3332,-11.3096,8.6366],[40.336,-11.3146,1.0],[40.346,-11.3129,3.5879],[40.3501,-11.3176,15.1474],[40.3521,-11.3226,4.9752],[40.3568,-11.3232,0.8881],[40.3649,-11.3271,0.9864],[40.3674,-11.3271,0.6581],[40.3699,-11.3243,0.0],[40.3707,-11.3199,1.3003],[40.3735,-11.319,2.8842],[40.3774,-11.3307,0.4134],[40.3815,-11.329,18.6047],[40.3957,-11.3135,3.0299],[40.4046,-11.3079,0.5683],[40.4049,-11.3026,1.9146],[40.4085,-11.3018,0.0],[40.4099,-11.2962,1.0731],[40.4126,-11.2951,0.0],[40.414,-11.2912,4.0099],[40.4168,-11.2907,0.0],[40.4207,-11.2851,0.0],[40.4201,-11.2832,0.0],[40.4185,-11.2832,0.0],[40.4204,-11.2821,0.0],[40.4207,-11.279,4.2242],[40.424,-11.2768,0.2218],[40.4226,-11.2743,5.8989],[40.4263,-11.2643,0.0],[40.4249,-11.2596,5.5034],[40.4257,-11.2529,0.0],[40.4315,-11.2401,3.0601],[40.4326,-11.2326,3.2911],[40.4253,-11.2331,3.6863],[40.4168,-11.2419,2.6061],[40.3982,-11.2424,39.9739],[40.3762,-11.2241,57.041],[40.3665,-11.2068,54.2176],[40.3568,-11.1969,60.9159],[40.3454,-11.1931,43.6045],[40.3405,-11.1779,56.0966],[40.3264,-11.1527,65.5872],[40.3035,-11.1438,85.0529],[40.2937,-11.1472,67.8256],[40.2834,-11.1454,83.4208],[40.2715,-11.1477,87.0595],[40.2572,-11.1474,54.1558],[40.2393,-11.1443,75.7795],[40.2359,-11.1385,91.8752],[40.2268,-11.1325,76.1729],[40.2146,-11.1206,89.1539],[40.1812,-11.0938,100.529],[40.1539,-11.0574,107.1106],[40.1346,-11.0562,106.1811],[40.1229,-11.0544,114.6875],[40.1123,-11.0502,113.7702],[40.1049,-11.0503,97.2776],[40.0948,-11.0588,108.7747],[40.0868,-11.0577,112.8546],[40.0835,-11.0667,113.7579],[40.0226,-11.111,125.1788],[40.0083,-11.1646,146.1111],[40.0182,-11.2463,152.4593],[40.0193,-11.3135,161.2697],[39.9767,-11.3304,182.2674],[39.947,-11.3376,211.3478],[39.9046,-11.3799,275.2224],[39.8816,-11.389,315.9635],[39.8582,-11.3955,367.4091],[39.8399,-11.4073,341.1176],[39.7928,-11.4434,374.4476],[39.8706,-11.5478,318.1744],[39.8541,-11.6262,175.7698],[39.8679,-11.6285,148.0541],[39.8807,-11.6278,164.0641],[39.8954,-11.6311,136.1652],[39.9097,-11.631,128.5695],[39.9265,-11.6341,117.5377],[39.9399,-11.6342,109.0311],[39.951,-11.6284,104.7838],[39.9739,-11.6224,95.4176],[40.0065,-11.626,87.4409],[40.0215,-11.6377,82.8918],[40.0562,-11.695,49.3686],[40.0633,-11.7006,46.4908],[40.0733,-11.7154,41.4809],[40.1002,-11.7302,35.4703],[40.1155,-11.7337,35.3577],[40.128,-11.7346,29.0087],[40.1282,-11.7303,34.0372],[40.1481,-11.7278,27.4306],[40.1762,-11.7196,29.6687],[40.1815,-11.7273,30.0016],[40.1906,-11.7232,25.765],[40.198,-11.7219,23.023],[40.2024,-11.719,52.5365],[40.2223,-11.7354,29.9633],[40.2336,-11.7368,37.0714],[40.2489,-11.7428,66.224]]],
[[[40.4946,-11.6099,0.0],[40.4912,-11.6093,0.0],[40.491,-11.6101,0.0],[40.4949,-11.6112,0.0],[40.4946,-11.6099,0.0]]],
[[[40.3676,-11.3374,0.0],[40.3688,-11.3376,0.7903],[40.371,-11.3357,0.0],[40.3676,-11.3357,0.0],[40.3676,-11.3374,0.0]]],
[[[40.5618,-11.6379,0.0],[40.559,-11.6374,0.0],[40.5582,-11.6396,0.0],[40.5621,-11.6404,0.0],[40.5618,-11.6379,0.0]]],
[[[40.524,-11.4193,0.0],[40.5213,-11.4187,1.7676],[40.519,-11.421,0.0],[40.5243,-11.4263,0.0],[40.5346,-11.4279,0.0],[40.531,-11.4221,0.0],[40.524,-11.4193,0.0]]],
[[[40.6501,-11.3657,0.0],[40.6426,-11.366,0.0],[40.639,-11.369,0.8896],[40.626,-11.3668,0.0],[40.6232,-11.3699,3.8181],[40.6243,-11.3721,0.773],[40.6288,-11.3715,0.0],[40.6296,-11.3701,0.0],[40.6465,-11.371,1.5714],[40.6535,-11.3676,1.5915],[40.6501,-11.3657,0.0]]],
[[[40.5282,-11.3551,2.3946],[40.5226,-11.3551,0.8565],[40.5232,-11.3571,0.7375],[40.5271,-11.3587,2.9374],[40.5262,-11.3654,0.0],[40.5274,-11.3665,0.0],[40.5363,-11.3646,0.0],[40.5404,-11.3657,0.0],[40.5412,-11.3635,0.0],[40.5385,-11.3596,0.0],[40.5329,-11.3585,1.3499],[40.5282,-11.3551,2.3946]]],
[[[40.5857,-11.3132,0.0],[40.5857,-11.311,0.0],[40.5757,-11.3112,0.0],[40.5818,-11.3149,0.0],[40.5857,-11.3132,0.0]]],
[[[40.6263,-11.2732,0.0],[40.6254,-11.2724,0.0],[40.6282,-11.2762,0.0],[40.6279,-11.2746,0.0],[40.6263,-11.2732,0.0]]],
[[[40.5143,-11.2762,0.0],[40.5113,-11.2779,0.0],[40.5126,-11.2801,0.0],[40.5196,-11.2807,0.0],[40.5193,-11.2793,0.0],[40.5143,-11.2762,0.0]]]]}}