{"type": "Feature","bbox": [34.0693,-16.9559,34.9867,-16.2481],"geometry": {"type": "MultiPolygon","coordinates": [[[[34.4232,-16.2481,300.6039],[34.3676,-16.2562,267.5242],[34.351,-16.275,265.397],[34.3281,-16.2853,259.4576],[34.3254,-16.2904,256.411],[34.3204,-16.2904,257.3714],[34.2881,-16.354,242.2304],[34.2829,-16.3557,248.9655],[34.2722,-16.3502,250.2846],[34.2682,-16.3514,243.5033],[34.2637,-16.356,244.0756],[34.2558,-16.3531,238.9529],[34.2419,-16.3569,239.4019],[34.2276,-16.3637,241.3348],[34.2228,-16.3676,241.3533],[34.2084,-16.368,236.4251],[34.1985,-16.3707,232.2563],[34.1879,-16.384,231.1148],[34.1833,-16.3949,221.1852],[34.1857,-16.428,218.5495],[34.1723,-16.4979,209.0496],[34.1028,-16.4986,239.1842],[34.086,-16.5139,188.886],[34.0743,-16.5372,169.8499],[34.0768,-16.5468,145.8281],[34.0843,-16.5613,123.3181],[34.086,-16.5806,103.0556],[34.0852,-16.5902,99.8619],[34.0827,-16.5958,98.4956],[34.0776,-16.6015,101.7748],[34.0693,-16.6047,97.0],[34.0832,-16.6117,188.1056],[34.1237,-16.6207,95.0],[34.1334,-16.6273,94.5],[34.1491,-16.6546,93.0],[34.172,-16.6801,95.8824],[34.1983,-16.6917,93.8629],[34.2094,-16.694,95.854],[34.2674,-16.6938,89.9218],[34.2879,-16.6986,89.0139],[34.3072,-16.7083,86.5],[34.3239,-16.7131,87.8333],[34.3582,-16.7162,86.3994],[34.4028,-16.7168,84.2652],[34.4182,-16.7201,83.0206],[34.4606,-16.736,81.206],[34.4724,-16.7476,80.5629],[34.4798,-16.7612,79.6275],[34.5359,-16.7843,77.8156],[34.5661,-16.8071,74.9424],[34.5867,-16.8285,73.0],[34.6012,-16.8404,72.5892],[34.6294,-16.8603,70.5],[34.661,-16.8767,69.8909],[34.6916,-16.8841,68.5197],[34.7304,-16.8908,69.0738],[34.7513,-16.8999,66.4509],[34.7653,-16.9109,66.2507],[34.797,-16.9444,63.0],[34.8049,-16.9559,63.746],[34.828,-16.9353,63.3126],[34.8324,-16.9295,64.5375],[34.8274,-16.9219,64.7153],[34.8296,-16.9188,66.628],[34.839,-16.9107,78.268],[34.8497,-16.9097,79.3742],[34.8841,-16.8784,107.8947],[34.9012,-16.866,119.8719],[34.9032,-16.8414,140.6397],[34.9095,-16.8238,153.8197],[34.923,-16.8075,173.1114],[34.9429,-16.8002,195.3192],[34.955,-16.7866,194.3002],[34.9686,-16.7808,208.13],[34.9758,-16.7746,214.2459],[34.9867,-16.7605,242.9393],[34.9843,-16.7498,275.8961],[34.9825,-16.7467,271.2432],[34.9715,-16.748,228.6338],[34.9694,-16.7423,232.1841],[34.9613,-16.7384,234.3566],[34.9389,-16.7443,267.4227],[34.9244,-16.7444,257.9141],[34.9203,-16.7354,250.0646],[34.9193,-16.7244,263.7676],[34.9166,-16.7145,286.8968],[34.9149,-16.713,286.8968],[34.9153,-16.6976,306.487],[34.9122,-16.6919,300.5231],[34.8902,-16.6844,308.4179],[34.8867,-16.6869,307.9226],[34.8808,-16.6866,307.8372],[34.8732,-16.678,327.5248],[34.8676,-16.6751,318.88],[34.8644,-16.6761,320.4667],[34.8608,-16.6735,328.1427],[34.8581,-16.6547,345.8953],[34.8578,-16.6336,348.4507],[34.8532,-16.6178,345.5837],[34.8464,-16.6098,380.8727],[34.8424,-16.6076,501.6544],[34.842,-16.604,415.9493],[34.838,-16.6028,388.2041],[34.8373,-16.5997,391.567],[34.8341,-16.598,402.3014],[34.8275,-16.6049,378.6237],[34.8207,-16.6016,381.0562],[34.8158,-16.6022,356.8517],[34.8117,-16.5951,357.0358],[34.7932,-16.585,311.9629],[34.7825,-16.5834,311.2687],[34.7784,-16.5801,322.3594],[34.7745,-16.5847,338.64],[34.7729,-16.5838,335.6877],[34.7717,-16.5802,348.0644],[34.7743,-16.5744,316.2947],[34.7808,-16.5689,334.9164],[34.7784,-16.5614,310.2177],[34.7783,-16.5503,290.4735],[34.7761,-16.5442,289.7253],[34.7663,-16.5366,274.6764],[34.7636,-16.5294,265.3578],[34.7686,-16.5291,264.533],[34.7588,-16.5177,265.4797],[34.7576,-16.5109,280.2794],[34.7405,-16.507,273.5516],[34.7256,-16.4949,281.9229],[34.7212,-16.4981,290.5468],[34.7201,-16.4954,290.9421],[34.7181,-16.4952,291.5403],[34.6952,-16.4998,314.7323],[34.6874,-16.4996,329.757],[34.6788,-16.4914,288.7182],[34.6747,-16.4779,267.653],[34.6782,-16.4662,260.5056],[34.6777,-16.4554,266.304],[34.6693,-16.4442,275.2224],[34.664,-16.4433,265.2705],[34.6534,-16.4507,282.4239],[34.6185,-16.4235,277.7522],[34.5942,-16.4112,282.6944],[34.5851,-16.3979,241.488],[34.5841,-16.3896,251.2068],[34.5888,-16.3736,266.1534],[34.5888,-16.3614,255.0139],[34.5726,-16.3459,292.889],[34.5718,-16.3378,285.0907],[34.5744,-16.3287,283.6233],[34.5732,-16.3211,317.3962],[34.5382,-16.2932,311.7349],[34.5286,-16.2815,302.8754],[34.5222,-16.2809,314.1407],[34.5118,-16.2864,274.8561],[34.5004,-16.2979,265.6888],[34.4899,-16.2945,274.7989],[34.4704,-16.2835,282.0511],[34.4587,-16.2728,282.0168],[34.4532,-16.2705,284.3464],[34.4456,-16.2707,292.8711],[34.4318,-16.2646,339.4506],[34.4314,-16.2623,325.4611],[34.4235,-16.254,325.5488],[34.4232,-16.2481,300.6039]]]]}
,"properties": {"GID_3": "MOZ.10.10.2_1","GID_0": "MOZ","country": "Mozambique","GID_1": "MOZ.10_1","province": "Tete","NL_NAME_1": "NA","GID_2": "MOZ.10.10_1","county": "Mutarara","NL_NAME_2": "NA","city": "Doa","VARNAME_3": "NA","NL_NAME_3": "NA","TYPE_3": "Localidad","ENGTYPE_3": "Locality","CC_3": "NA","HASC_3": "NA","name": "Doa.city","area_km2": 3609.27,"hist_schema_id": "Elevation0-9000","hist_area_km2": {"75": 431.509,"100": 477.018,"125": 257.577,"150": 251.203,"175": 252.692,"200": 261.998,"225": 310.263,"250": 372.139,"275": 379.615,"300": 226.333,"325": 91.962,"350": 47.219,"375": 43.87,"400": 38.73,"425": 34.645,"450": 29.523,"475": 25.315,"500": 22.632,"525": 20.966,"550": 15.821,"575": 8.419,"600": 5.206,"625": 1.993,"650": 1.017,"675": 0.996,"700": 0.59}}}