{"type": "Feature","bbox": [32.6691,-25.3761,32.9434,-25.0404],"geometry": {"type": "MultiPolygon","coordinates": [[[[32.6691,-25.2107,49.9822],[32.6741,-25.2208,50.0251],[32.6915,-25.2363,50.5115],[32.7205,-25.2522,48.4224],[32.7341,-25.2731,40.4657],[32.7415,-25.2881,38.7354],[32.7532,-25.3041,30.0713],[32.7622,-25.3061,19.301],[32.7724,-25.3044,18.0676],[32.7839,-25.3063,14.4782],[32.7922,-25.3111,18.2977],[32.7976,-25.3253,7.5097],[32.8123,-25.3347,4.6175],[32.8206,-25.3378,3.9131],[32.8277,-25.3433,3.8935],[32.8363,-25.347,3.8563],[32.8624,-25.3738,3.3403],[32.8711,-25.3761,2.7469],[32.8846,-25.3662,3.1349],[32.8887,-25.358,3.9617],[32.8892,-25.3489,4.256],[32.8931,-25.3409,3.8005],[32.9019,-25.3383,4.1234],[32.9076,-25.3296,4.8225],[32.9071,-25.312,4.3859],[32.8968,-25.297,5.7909],[32.8976,-25.2814,5.3535],[32.908,-25.2748,5.3899],[32.9151,-25.2621,5.9881],[32.9222,-25.2556,5.9582],[32.9258,-25.2492,6.1717],[32.94,-25.2396,6.5744],[32.9434,-25.2303,8.0135],[32.9434,-25.1852,8.3464],[32.9397,-25.1783,8.8854],[32.9329,-25.1721,9.5102],[32.9295,-25.1593,9.5856],[32.9329,-25.1528,10.2113],[32.9293,-25.1496,9.2933],[32.9187,-25.1496,9.7898],[32.8973,-25.14,10.7348],[32.8902,-25.1304,12.8262],[32.8918,-25.1265,11.6271],[32.8959,-25.1241,12.7464],[32.8953,-25.1207,11.7542],[32.8971,-25.1172,12.0325],[32.8904,-25.1014,13.6942],[32.9,-25.0989,14.249],[32.9003,-25.0946,13.6009],[32.898,-25.0903,15.4582],[32.8939,-25.0726,15.1183],[32.8973,-25.0726,16.3329],[32.9006,-25.0696,13.7178],[32.8971,-25.0637,13.7313],[32.8968,-25.0565,14.0429],[32.8904,-25.0531,14.683],[32.876,-25.0564,14.6665],[32.8719,-25.0661,17.226],[32.8474,-25.0661,14.4283],[32.8332,-25.0596,17.0593],[32.8331,-25.0532,16.4303],[32.8189,-25.0404,21.0106],[32.8154,-25.0404,19.8481],[32.7907,-25.0501,19.6573],[32.7905,-25.0634,18.6429],[32.7871,-25.0752,16.0012],[32.7731,-25.1011,17.1962],[32.7686,-25.1157,16.4054],[32.7496,-25.1183,26.0744],[32.7585,-25.1247,21.3278],[32.7621,-25.1376,12.0],[32.7385,-25.14,21.3435],[32.7326,-25.1479,24.6109],[32.7318,-25.157,19.1323],[32.7201,-25.1701,28.9303],[32.6992,-25.1734,30.8358],[32.6863,-25.172,32.3536],[32.6899,-25.184,38.8351],[32.6691,-25.2107,49.9822]]]]}
,"properties": {"GID_3": "MOZ.6.3.1_1","GID_0": "MOZ","country": "Mozambique","GID_1": "MOZ.6_1","province": "Maputo","NL_NAME_1": "NA","GID_2": "MOZ.6.3_1","county": "Manhiça","NL_NAME_2": "NA","city": "3DeFevereiro","VARNAME_3": "NA","NL_NAME_3": "NA","TYPE_3": "Localidad","ENGTYPE_3": "Locality","CC_3": "NA","HASC_3": "NA","name": "3_De_Fevereiro.city","area_km2": 570.9568,"hist_schema_id": "Elevation0-9000","hist_area_km2": {"0": 199.832,"25": 300.3755,"50": 70.4617,"75": 0.2876}}}