{"type": "Feature","bbox": [37.9404,-13.1369,39.4111,-11.7666],"geometry": {"type": "MultiPolygon","coordinates": [[[[38.5481,-12.9167,362.9679],[38.5473,-12.909,371.6386],[38.5609,-12.8916,364.8203],[38.5976,-12.8827,397.3812],[38.6068,-12.8559,362.9478],[38.6098,-12.8559,365.2267],[38.6129,-12.8231,372.7667],[38.619,-12.8171,384.1417],[38.6343,-12.8201,354.0734],[38.6556,-12.7873,342.9462],[38.6648,-12.7783,341.6644],[38.6831,-12.7783,354.5174],[38.6998,-12.76,362.3336],[38.724,-12.7092,369.1743],[38.7595,-12.6918,342.2043],[38.7687,-12.6767,325.248],[38.7656,-12.6531,325.9608],[38.7747,-12.6356,330.1249],[38.7906,-12.6381,324.7372],[38.8115,-12.6352,338.2256],[38.8359,-12.6024,308.7043],[38.8542,-12.6024,305.0054],[38.8665,-12.5964,340.1548],[38.8787,-12.5934,323.4613],[38.9276,-12.5934,315.5587],[38.9551,-12.5904,334.0261],[38.9787,-12.5818,325.6271],[39.0227,-12.5865,302.7984],[39.0376,-12.5785,285.3224],[39.059,-12.5546,296.205],[39.0742,-12.5457,274.9651],[39.0798,-12.5539,283.9142],[39.1383,-12.5547,266.3366],[39.1501,-12.5571,256.6257],[39.1681,-12.5579,260.252],[39.1712,-12.553,255.0776],[39.1744,-12.5287,261.6216],[39.1828,-12.5252,249.4994],[39.1863,-12.5196,250.2923],[39.1861,-12.5052,257.725],[39.1936,-12.5007,249.6679],[39.2133,-12.4959,255.9408],[39.2204,-12.4878,242.6591],[39.2178,-12.4728,242.9638],[39.2193,-12.4552,237.8815],[39.2231,-12.4426,241.9697],[39.249,-12.4288,221.6776],[39.263,-12.3946,230.9045],[39.2831,-12.3761,227.6513],[39.2996,-12.3687,230.4843],[39.3244,-12.3544,218.6198],[39.355,-12.3212,215.7797],[39.3693,-12.3088,201.7475],[39.3662,-12.2717,194.325],[39.3693,-12.2597,193.1894],[39.3691,-12.2417,188.9738],[39.3654,-12.2328,181.5017],[39.3691,-12.2164,177.5485],[39.381,-12.183,164.9321],[39.3912,-12.1688,165.6396],[39.3991,-12.1531,166.8405],[39.4026,-12.1398,152.2458],[39.4063,-12.1334,146.6359],[39.4111,-12.1051,140.6439],[39.3975,-12.1003,158.9732],[39.3755,-12.115,180.7338],[39.3675,-12.1099,187.3746],[39.3647,-12.0964,196.277],[39.3594,-12.0859,186.6836],[39.3535,-12.0793,200.5721],[39.3425,-12.0757,199.9753],[39.324,-12.0735,198.7212],[39.315,-12.0768,207.0686],[39.3096,-12.0709,209.3203],[39.3008,-12.0666,207.2059],[39.2808,-12.0724,213.4472],[39.2702,-12.0813,216.8787],[39.2691,-12.096,219.3856],[39.2586,-12.0968,225.8875],[39.2461,-12.1021,224.9634],[39.2162,-12.0906,228.3273],[39.2109,-12.0948,230.2483],[39.2002,-12.0977,231.7967],[39.1922,-12.0974,239.571],[39.1845,-12.0935,233.637],[39.1649,-12.0904,241.2704],[39.1396,-12.0824,261.8968],[39.1267,-12.0714,278.8568],[39.0976,-12.0537,291.4293],[39.0907,-12.0431,287.3269],[39.0738,-12.0387,299.2072],[39.0543,-12.0369,303.3725],[39.0429,-12.0322,309.8477],[39.0349,-12.0214,331.3063],[39.0259,-11.9986,339.871],[39.0154,-11.9617,377.5776],[39.0028,-11.9343,394.7675],[38.8972,-11.7904,433.4456],[38.8779,-11.7666,593.7416],[38.8318,-11.8728,467.381],[38.8176,-11.8696,430.1667],[38.7894,-11.8581,387.2429],[38.75,-11.8584,340.3984],[38.7394,-11.8622,332.8021],[38.7005,-11.8845,299.1573],[38.6903,-11.8861,291.5919],[38.6843,-11.884,290.4436],[38.6586,-11.8592,266.6153],[38.6318,-11.8463,252.484],[38.6048,-11.8479,235.6569],[38.5935,-11.8462,238.1814],[38.5869,-11.8387,228.5144],[38.5661,-11.8411,226.8915],[38.5541,-11.8456,223.9998],[38.5431,-11.8448,219.1507],[38.5336,-11.8376,211.7015],[38.525,-11.8341,213.0631],[38.5191,-11.8218,205.2236],[38.5187,-11.8172,198.4761],[38.5117,-11.8185,202.523],[38.4976,-11.8046,198.2938],[38.4858,-11.7897,189.2793],[38.4715,-11.7793,187.4667],[38.4612,-11.7822,185.1142],[38.4554,-11.7863,183.1269],[38.4471,-11.7872,178.3197],[38.435,-11.7854,176.8505],[38.4283,-11.7897,173.4641],[38.4182,-11.7907,172.1599],[38.4188,-11.8561,173.8837],[38.4177,-11.8648,169.163],[38.4212,-11.8866,163.5659],[38.4204,-11.9193,165.3403],[38.4077,-11.952,168.238],[38.401,-11.9996,172.0],[38.381,-12.0726,175.5],[38.3791,-12.0954,180.2429],[38.3719,-12.1057,178.5],[38.3543,-12.1147,182.4583],[38.3069,-12.1328,200.5839],[38.2531,-12.1608,205.9264],[38.222,-12.1868,202.0],[38.2309,-12.213,216.3939],[38.2266,-12.2561,226.7626],[38.2052,-12.286,242.2677],[38.2052,-12.3217,248.257],[38.1622,-12.3695,255.7439],[38.1284,-12.3963,267.955],[38.1131,-12.4172,274.8563],[38.0916,-12.4291,278.8762],[38.0858,-12.4427,290.1542],[38.0789,-12.4666,292.9174],[38.0864,-12.4874,302.4828],[38.0763,-12.507,301.8054],[38.0518,-12.5663,329.9071],[38.0518,-12.5837,320.9453],[38.0409,-12.6005,327.5222],[38.0355,-12.6143,338.6978],[38.0286,-12.6454,354.8586],[38.0456,-12.6647,375.4156],[38.0487,-12.6856,363.6019],[38.0334,-12.7631,380.3935],[38.0436,-12.7805,401.7937],[38.0409,-12.7986,405.8264],[38.0444,-12.8059,433.1367],[38.0496,-12.8115,466.2196],[38.0508,-12.8159,465.1411],[38.0331,-12.8512,442.8032],[38.0325,-12.8739,456.097],[38.0226,-12.8858,439.0449],[38.0168,-12.8978,476.8625],[38.0119,-12.9481,498.5626],[38.0027,-12.9689,552.9271],[37.9628,-13.0047,539.8337],[37.9506,-13.0256,576.0463],[37.9415,-13.0344,634.7753],[37.9404,-13.0435,629.8807],[37.9677,-13.0623,595.652],[37.9814,-13.0806,564.3556],[37.9925,-13.0905,548.7034],[38.023,-13.0942,506.8118],[38.0351,-13.0976,499.9025],[38.0548,-13.1061,481.826],[38.0875,-13.1273,461.2181],[38.1319,-13.1369,457.4349],[38.1439,-13.1327,443.9863],[38.1711,-13.1151,443.384],[38.1816,-13.1125,432.732],[38.2156,-13.1124,416.6418],[38.2201,-13.1019,414.8884],[38.2274,-13.0923,429.5811],[38.2362,-13.0975,424.748],[38.2546,-13.0952,425.6656],[38.2577,-13.0897,422.2672],[38.2582,-13.0786,438.4679],[38.2624,-13.0687,417.3086],[38.2744,-13.074,423.6262],[38.2828,-13.0692,412.7969],[38.2868,-13.0593,410.7116],[38.2864,-13.0481,407.0424],[38.2947,-13.0418,406.8242],[38.3003,-13.0401,406.0102],[38.3151,-13.0227,401.5709],[38.318,-13.0102,397.4905],[38.3215,-13.0081,405.9452],[38.3472,-13.0052,397.3413],[38.3508,-13.003,395.2749],[38.3503,-12.9972,389.3133],[38.3535,-12.993,395.9758],[38.3689,-12.9909,385.9487],[38.383,-12.9919,384.4754],[38.3987,-12.9853,386.1689],[38.4054,-12.9817,386.0953],[38.4105,-12.9711,384.1209],[38.4217,-12.9629,384.9518],[38.4284,-12.9625,385.0586],[38.44,-12.9655,387.1827],[38.4518,-12.9727,381.1505],[38.4631,-12.9745,381.244],[38.4782,-12.9729,372.63],[38.4913,-12.9667,380.9443],[38.5047,-12.9437,377.0672],[38.5153,-12.9458,376.7187],[38.5247,-12.9445,370.7712],[38.5322,-12.9379,367.8856],[38.5352,-12.9285,367.5828],[38.5481,-12.9167,362.9679]]]]}
,"properties": {"GID_3": "MOZ.1.8.4_1","GID_0": "MOZ","country": "Mozambique","GID_1": "MOZ.1_1","province": "CaboDelgado","NL_NAME_1": "NA","GID_2": "MOZ.1.8_1","county": "Montepuez","NL_NAME_2": "NA","city": "Nairoto","VARNAME_3": "NA","NL_NAME_3": "NA","TYPE_3": "Localidad","ENGTYPE_3": "Locality","CC_3": "NA","HASC_3": "NA","name": "Nairoto.city","area_km2": 12156.209,"hist_schema_id": "Elevation0-9000","hist_area_km2": {"150": 4.002,"175": 88.329,"200": 221.67,"225": 342.967,"250": 558.378,"275": 801.782,"300": 1108.759,"325": 1342.012,"350": 1453.297,"375": 1528.747,"400": 1593.911,"425": 1372.461,"450": 801.348,"475": 317.261,"500": 181.472,"525": 133.579,"550": 102.277,"575": 67.032,"600": 40.027,"625": 26.054,"650": 16.361,"675": 11.667,"700": 10.861,"725": 7.924,"750": 6.021,"775": 4.906,"800": 3.498,"825": 3.064,"850": 2.484,"875": 1.636,"900": 1.16,"925": 0.683,"950": 0.228,"975": 0.166}}}