{"type": "Feature","id": "1906","bbox": [35.13194,-18.90049,39.12908,-15.0041],"geometry": {"type": "Polygon","coordinates": [[[37.38493,-15.21886,844.5416],[37.37935,-15.21747,863.9095],[37.37356,-15.21116,877.3],[37.37015,-15.20569,864.3036],[37.36535,-15.19571,838.6597],[37.36209,-15.19199,814.2199],[37.32907,-15.17644,788.735],[37.32147,-15.17075,769.8491],[37.31682,-15.16517,781.9775],[37.29677,-15.11102,760.7318],[37.29166,-15.10223,794.1221],[37.28484,-15.09505,801.1953],[37.28189,-15.09107,822.969],[37.27956,-15.08652,840.444],[37.27708,-15.07577,796.3236],[37.27522,-15.07081,803.7624],[37.2729,-15.06632,812.3444],[37.26701,-15.05825,763.1426],[37.25347,-15.04373,725.4442],[37.23859,-15.03056,695.2704],[37.22184,-15.01851,807.3583],[37.21487,-15.01149,900.7139],[36.71474,-15.0041,575.3278],[36.71598,-15.0457,711.7314],[36.71195,-15.06089,856.0184],[36.67113,-15.12218,608.2028],[36.66415,-15.12884,626.7635],[36.65702,-15.13313,624.3673],[36.65004,-15.1384,609.2925],[36.64555,-15.14595,600.949],[36.64069,-15.15928,603.0645],[36.63619,-15.16564,600.1199],[36.62271,-15.17649,622.6818],[36.56715,-15.23664,648.2441],[36.53537,-15.25524,675.2855],[36.53041,-15.25726,681.1099],[36.52462,-15.25829,715.9774],[36.51207,-15.25907,658.1464],[36.50664,-15.26,661.8056],[36.49951,-15.26284,643.2931],[36.4638,-15.28739,660.2914],[36.4593,-15.28971,659.4385],[36.4469,-15.29142,667.1979],[36.44055,-15.29297,674.6942],[36.4238,-15.30242,697.0751],[36.41879,-15.30434,686.1674],[36.4129,-15.30491,673.0797],[36.40685,-15.30475,678.6286],[36.38918,-15.30056,664.3711],[36.38313,-15.30015,663.4568],[36.37569,-15.30211,662.3512],[36.37151,-15.30584,666.0952],[36.3681,-15.31033,674.3057],[36.34029,-15.36283,717.1601],[36.3189,-15.39002,996.0809],[36.31657,-15.39462,785.6274],[36.31487,-15.39958,727.6681],[36.31456,-15.40505,715.5159],[36.31502,-15.41064,710.545],[36.31626,-15.41616,707.805],[36.31735,-15.4281,738.2336],[36.31595,-15.4481,738.8765],[36.31285,-15.4572,748.3361],[36.30738,-15.46743,772.5614],[36.29513,-15.48577,799.3255],[36.2866,-15.49203,803.3702],[36.27901,-15.49435,799.2004],[36.27342,-15.49265,806.3682],[36.26366,-15.48779,825.2495],[36.25498,-15.48221,914.865],[36.24981,-15.48004,820.1001],[36.24438,-15.47812,834.8615],[36.23818,-15.47673,783.4064],[36.23291,-15.47482,758.0101],[36.22841,-15.47208,747.5785],[36.21694,-15.46154,727.3511],[36.21245,-15.4589,721.8702],[36.20609,-15.45683,713.2675],[36.1971,-15.45559,705.9672],[35.86317,-15.45828,627.4307],[35.83762,-15.45828,622.5],[35.83756,-15.4592,622.5],[35.83195,-15.53843,651.806],[35.82306,-15.66338,641.6377],[35.81676,-15.75196,656.1606],[35.80673,-15.89582,723.9072],[35.79659,-15.9332,694.2184],[35.78968,-15.95866,702.6713],[35.79009,-15.97448,692.9278],[35.79568,-16.00497,691.1658],[35.79464,-16.02067,702.6967],[35.78513,-16.04228,707.7211],[35.77004,-16.05881,651.6005],[35.69759,-16.10749,632.1561],[35.68705,-16.11266,632.5795],[35.67785,-16.11349,645.7982],[35.65894,-16.11007,631.2586],[35.6486,-16.11059,608.7652],[35.55321,-16.13839,595.259],[35.52902,-16.14077,615.169],[35.52406,-16.14666,617.5291],[35.52107,-16.16216,574.6016],[35.51456,-16.17136,584.851],[35.50205,-16.17085,580.4097],[35.48872,-16.16465,590.0632],[35.48014,-16.15689,596.5737],[35.4729,-16.14015,586.2491],[35.45637,-16.1294,569.3543],[35.4358,-16.12392,553.4318],[35.41606,-16.12289,532.3659],[35.39343,-16.12858,527.6343],[35.37462,-16.14098,531.3551],[35.30496,-16.20206,536.3715],[35.29916,-16.20872,393.7149],[35.27715,-16.234,437.7845],[35.25876,-16.27151,533.0776],[35.25194,-16.31781,405.779],[35.25421,-16.32836,432.4348],[35.2662,-16.35647,248.0244],[35.26227,-16.3666,216.2351],[35.23871,-16.39409,175.8735],[35.23725,-16.39909,170.4009],[35.23333,-16.41259,173.977],[35.23364,-16.45238,133.1741],[35.22816,-16.47026,109.8992],[35.21442,-16.48421,65.7682],[35.14466,-16.52907,48.638],[35.13194,-16.53765,47.0752],[35.14838,-16.58209,48.4951],[35.1644,-16.60679,45.4137],[35.16853,-16.61712,47.0193],[35.17432,-16.6255,45.5533],[35.18548,-16.62901,45.336],[35.19468,-16.63056,44.8287],[35.21659,-16.63872,43.9316],[35.223,-16.64214,43.4029],[35.22754,-16.64689,43.508],[35.23271,-16.65723,43.2723],[35.23664,-16.6626,43.1411],[35.23974,-16.66456,42.7977],[35.24821,-16.66818,42.6667],[35.25101,-16.67004,42.4997],[35.27509,-16.69547,43.0754],[35.27819,-16.70074,41.9771],[35.28108,-16.76688,48.7835],[35.28511,-16.78673,45.4986],[35.30516,-16.82569,49.0905],[35.31023,-16.8506,39.1439],[35.28522,-16.87106,38.8661],[35.28284,-16.89215,37.7462],[35.28511,-16.93008,36.6726],[35.28191,-16.93473,37.4615],[35.27581,-16.93917,37.3913],[35.27095,-16.94424,37.1069],[35.27137,-16.95054,37.3139],[35.27602,-16.95519,36.6607],[35.30837,-16.97369,34.8816],[35.31436,-16.98227,35.5313],[35.3093,-16.99529,36.5537],[35.29865,-17.01359,36.2374],[35.29741,-17.02971,35.9565],[35.3062,-17.06733,34.6388],[35.30754,-17.08759,34.349],[35.30496,-17.10423,34.262],[35.29948,-17.11797,33.862],[35.29193,-17.12934,35.2059],[35.29167,-17.12937,35.2059],[35.29576,-17.14453,35.577],[35.30082,-17.26029,30.9147],[35.30594,-17.27941,30.241],[35.32945,-17.32401,29.9838],[35.33663,-17.36008,29.2641],[35.33627,-17.36829,29.6719],[35.32397,-17.38674,29.6091],[35.32108,-17.39377,29.3121],[35.31984,-17.40199,28.1908],[35.31886,-17.42617,31.8551],[35.31927,-17.43051,32.0636],[35.33059,-17.48715,31.8869],[35.32961,-17.68119,28.1538],[35.32005,-17.72367,30.1353],[35.3326,-17.73132,29.4003],[35.34361,-17.74031,28.2022],[35.37684,-17.78005,25.7024],[35.39017,-17.78734,23.5],[35.39606,-17.79705,25.4503],[35.41332,-17.81147,23.0],[35.41782,-17.81922,25.1078],[35.42324,-17.82046,24.6246],[35.42913,-17.83679,24.6061],[35.43539,-17.87255,26.0231],[35.44045,-17.88888,24.0545],[35.44882,-17.89979,23.8139],[35.48546,-17.91911,23.153199999999998],[35.49771,-17.92955,21.8513],[35.50608,-17.94097,21.6433],[35.51807,-17.96805,20.1684],[35.52629,-17.97983,20.9134],[35.53745,-17.98665,20.3109],[35.55011,-17.99192,21.8177],[35.56272,-17.99916,19.0117],[35.59347,-18.02815,30.5515],[35.60695,-18.03352,32.0556],[35.61982,-18.03352,20.0716],[35.64519,-18.02732,15.8998],[35.65475,-18.02608,17.9152],[35.66928,-18.03011,15.6466],[35.6931,-18.0436,16.6514],[35.72467,-18.05084,14.0],[35.74493,-18.06164,13.5],[35.78136,-18.09125,14.8738],[35.83118,-18.11326,11.5],[35.85097,-18.12933,12.8422],[35.84032,-18.14959,11.0],[35.86658,-18.17496,12.0937],[35.87386,-18.18375,12.4774],[35.88906,-18.21057,8.5],[35.89557,-18.21785,12.888],[35.89293,-18.24354,10.0778],[35.91308,-18.26333,10.3858],[35.97432,-18.29273,5.5],[36.01721,-18.30787,9.2826],[36.02781,-18.31485,7.6475],[36.04135,-18.33206,6.6537],[36.05199,-18.34203,7.4238],[36.07339,-18.35201,5.4728],[36.08785,-18.36849,6.5968],[36.09793,-18.38709,6.0121],[36.10661,-18.4103,6.3233],[36.11235,-18.43464,8.9392],[36.11715,-18.44673,4.2417],[36.12398,-18.4519,9.7598],[36.12444,-18.46001,2.5],[36.13829,-18.4981,5.0107],[36.1448,-18.50993,4.9543],[36.14945,-18.52125,5.6993],[36.14821,-18.56734,6.3657],[36.15292,-18.58114,4.2993],[36.15803,-18.59194,5.7427],[36.15565,-18.59892,7.0861],[36.13798,-18.60145,5.9832],[36.11886,-18.61525,5.0271],[36.11493,-18.6463,3.0003],[36.11974,-18.67896,4.0967],[36.12708,-18.69767,2.9409],[36.10821,-18.70599,10.8593],[36.11214,-18.71596,1.5341],[36.13049,-18.72025,5.4243],[36.15503,-18.71131,3.8008],[36.1725,-18.73586,5.2391],[36.19038,-18.75431,7.6249],[36.19193,-18.76046,0.0],[36.17426,-18.78593,9.1487],[36.16258,-18.79673,2.8225],[36.14883,-18.80433,7.6515],[36.13457,-18.80753,4.3788],[36.13323,-18.80846,0.0],[36.13307,-18.80857,0.0],[36.13307,-18.81194,0.0],[36.12908,-18.82122,0.0],[36.12696,-18.82871,0.0],[36.13185,-18.88633,0.0],[36.14674,-18.90049,0.0],[36.18214,-18.89691,2.6332],[36.21144,-18.88828,8.1399],[36.24431,-18.88323,5.5805],[36.25815,-18.88934,0.0],[36.26694,-18.89088,0.0],[36.27084,-18.88641,0.0],[36.26938,-18.87721,13.0383],[36.26547,-18.87021,3.7436],[36.25904,-18.86541,4.9579],[36.25034,-18.86289,2.098],[36.26417,-18.83025,15.0139],[36.25856,-18.79437,6.8926],[36.23683,-18.72503,1.0018],[36.23813,-18.69411,0.0],[36.27223,-18.75848,8.9275],[36.29542,-18.78021,2.9013],[36.31373,-18.78607,10.8575],[36.33627,-18.7973,9.0744],[36.3589,-18.80413,0.0],[36.3777,-18.7973,0.7534],[36.3908,-18.79079,0.0],[36.40748,-18.78484,0.0],[36.41619,-18.775,0.0],[36.40317,-18.75213,0.0],[36.40301,-18.74245,0.0],[36.40187,-18.73935,0.0],[36.39877,-18.7374,0.0],[36.39186,-18.73463,0.0],[36.38819,-18.73252,0.0],[36.3899,-18.74041,0.0],[36.38054,-18.74456,10.6486],[36.37241,-18.74179,9.9198],[36.38111,-18.72047,0.0],[36.38429,-18.69866,0.0],[36.38819,-18.69085,0.0],[36.39625,-18.68646,8.6441],[36.40162,-18.68939,0.0],[36.40366,-18.69817,0.0],[36.40187,-18.71136,0.0],[36.41749,-18.68873,0.0],[36.45655,-18.60898,2.9645],[36.47446,-18.58815,1.0287],[36.4795,-18.57643,0.0],[36.47348,-18.56422,0.0],[36.47291,-18.55641,24.0819],[36.48666,-18.55291,11.553],[36.50506,-18.55242,1.4913],[36.51791,-18.55364,0.0],[36.51441,-18.54681,0.0],[36.51108,-18.52703,12.6223],[36.53191,-18.53623,0.0],[36.53834,-18.5407,0.0],[36.54477,-18.5263,0.0],[36.55201,-18.48602,1.8245],[36.58497,-18.47894,0.0],[36.63168,-18.43768,0.0],[36.7256,-18.33294,0.0],[36.76629,-18.30023,0.0],[36.8357,-18.21901,0.0],[36.8475,-18.19801,0.0],[36.83351,-18.20477,2.2197],[36.80421,-18.22536,3.5457],[36.78541,-18.23211,4.6731],[36.80104,-18.20135,1.2326],[36.81121,-18.18694,0.0],[36.82643,-18.1775,0.0],[36.84555,-18.17897,1.2535],[36.86842,-18.18621,0.0],[36.88738,-18.18906,0.0],[36.89527,-18.17693,0.0],[36.89845,-18.15887,0.0],[36.90699,-18.14471,0.0],[36.93287,-18.11883,0.0],[36.94663,-18.10182,0.0],[36.97722,-18.04656,0.0],[36.96355,-18.03826,2.8997],[36.95248,-18.02923,0.0],[36.94093,-18.02223,0.0],[36.90748,-18.01442,2.6296],[36.90008,-18.00164,1.8895],[36.89527,-17.96461,2.2434],[36.88746,-17.93255,2.343],[36.87355,-17.89902,2.5851],[36.85174,-17.88291,2.1906],[36.81959,-17.90325,0.5],[36.83277,-17.87762,3.1833],[36.85914,-17.87127,5.0478],[36.88795,-17.88104,7.0403],[36.90838,-17.90325,0.0],[36.91163,-17.91863,1.2107],[36.91147,-17.93255,7.4618],[36.91505,-17.94492,0.0],[36.92921,-17.95534,2.1195],[36.94239,-17.96201,2.5571],[36.95265,-17.9695,2.7949],[36.96144,-17.9791,1.9953],[36.97039,-17.99196,2.2908],[36.97722,-17.98512,2.7359],[36.98365,-18.00465,2.2812],[36.98406,-18.01238,3.8534],[37.01352,-17.98553,0.0],[37.08644,-17.86907,6.0156],[37.15659,-17.81024,0.0],[37.18507,-17.77565,3.3841],[37.18946,-17.7387,0.0],[37.21241,-17.74505,3.7271],[37.2422,-17.7365,1.7495],[37.26783,-17.72039,0.0],[37.27898,-17.70428,6.271],[37.28297,-17.69061,4.3821],[37.29314,-17.68475,4.1055],[37.31983,-17.68418,4.0133],[37.33399,-17.68108,0.0],[37.34392,-17.67311,2.9683],[37.36085,-17.65,2.2938],[37.3711,-17.65846,2.9076],[37.38559,-17.65488,0.0],[37.40065,-17.64446,0.0],[37.42742,-17.61875,0.0],[37.55592,-17.54567,6.8509],[37.58058,-17.51898,5.7026],[37.61524,-17.52386,6.808],[37.65512,-17.49782,6.144],[37.69207,-17.46705,5.9566],[37.71705,-17.45696,0.0],[37.71437,-17.46998,4.9484],[37.72446,-17.46836,4.3062],[37.85369,-17.38348,4.5069],[37.90886,-17.35516,7.3333],[38.03989,-17.32781,8.74],[38.10475,-17.30364,0.0],[38.12794,-17.28631,0.0],[38.10808,-17.27321,0.9551],[38.12965,-17.25661,1.0],[38.11817,-17.23455,1.5],[38.09474,-17.21111,1.5],[38.08082,-17.19069,3.4011],[38.09181,-17.19671,4.5641],[38.10401,-17.2011,5.8279],[38.11671,-17.20192,1.5],[38.12859,-17.19744,4.9624],[38.12176,-17.17693,1.5],[38.13624,-17.19647,3.928],[38.13771,-17.26385,25.3566],[38.15594,-17.2868,4.8227],[38.17286,-17.28753,0.0],[38.18702,-17.27801,0.0],[38.20981,-17.2527,0.0],[38.22283,-17.24358,1.9543],[38.50538,-17.13543,3.8215],[38.50082,-17.12713,0.0],[38.50034,-17.11858,0.0],[38.50424,-17.11094,0.0],[38.51222,-17.10467,8.201],[38.51881,-17.10654,8.3789],[38.52662,-17.11419,7.7409],[38.53745,-17.12151,5.267],[38.55307,-17.12176,4.5156],[38.59978,-17.0761,5.2638],[38.59547,-17.09441,3.2131],[38.62989,-17.08896,6.925],[38.66676,-17.07537,0.0],[38.68491,-17.05413,3.9485],[38.66293,-17.02557,0.5],[38.67945,-17.03021,5.1834],[38.70314,-17.05413,8.7999],[38.71827,-17.05967,10.6701],[38.8755,-17.04559,4.1505],[38.91261,-17.03387,5.8453],[38.97047,-16.99627,5.3875],[39.00367,-16.99326,2.7247],[39.03858,-16.99529,6.8939],[39.07455,-16.99139,5.1505],[39.09051,-16.98382,5.0441],[39.10499,-16.97096,0.0],[39.11622,-16.95477,0.0],[39.12233,-16.93678,0.7381],[39.12233,-16.91741,0.0],[39.11329,-16.91725,0.0],[39.09832,-16.92181,0.5],[39.08074,-16.9157,5.5444],[39.10043,-16.91041,1.25],[39.11793,-16.90179,6.1491],[39.12892,-16.88812,2.4621],[39.12908,-16.87184,1.4825],[39.12908,-16.87181,1.4825],[39.12767,-16.87049,2.6622],[39.12658,-16.86073,2.4033],[39.12875,-16.83577,7.3288],[39.1286,-16.82962,3.7664],[39.12782,-16.82393,7.1581],[39.12519,-16.81892,7.4352],[39.11713,-16.80859,9.2856],[39.11403,-16.80363,4.2746],[39.10752,-16.7889,6.4465],[39.08204,-16.75862,10.9216],[39.07739,-16.749,14.2612],[39.0746,-16.74068,8.3479],[39.07382,-16.73521,9.9567],[39.06468,-16.71691,19.3477],[39.05646,-16.7043,26.3639],[39.04602,-16.68058,19.0658],[39.04059,-16.67206,13.4693],[39.03548,-16.66756,19.7601],[39.02819,-16.66276,15.1896],[39.00029,-16.65077,16.4327],[38.9962,-16.64792,17.1176],[38.99124,-16.64312,18.0327],[38.98504,-16.63294,18.9355],[38.9821,-16.62565,28.918],[38.98024,-16.61873,32.1125],[38.97915,-16.60679,37.6462],[38.9807,-16.57367,34.3555],[38.9821,-16.56783,39.7597],[38.98427,-16.56281,40.2321],[38.98706,-16.55863,42.8452],[38.99047,-16.5548,39.5557],[38.99403,-16.55196,43.6013],[39.00463,-16.5469,30.7594],[39.01501,-16.5439,43.8343],[39.03083,-16.54132,66.5809],[39.03703,-16.53915,44.0866],[39.04183,-16.5362,42.4239],[39.04493,-16.53222,34.2523],[39.04695,-16.52721,33.3259],[39.04773,-16.52147,33.2085],[39.04835,-16.50897,39.8778],[39.04711,-16.49553,49.0268],[39.04571,-16.4884,51.7125],[39.04556,-16.48551,53.0488],[39.0423,-16.46421,30.3971],[39.03641,-16.44303,61.0858],[39.03253,-16.43331,64.8597],[39.02726,-16.42479,66.4134],[39.01517,-16.40897,65.1947],[39.01269,-16.40453,66.655],[39.01083,-16.39972,67.8874],[39.00494,-16.37208,56.5493],[39.00013,-16.35921,42.1519],[38.99868,-16.35642,42.3252],[38.98752,-16.3406,70.7718],[38.97993,-16.32097,79.2724],[38.97512,-16.31187,80.1829],[38.96396,-16.29544,96.425],[38.95156,-16.2804,83.0636],[38.94659,-16.27162,87.964],[38.94329,-16.26128,76.8837],[38.93383,-16.24345,80.2133],[38.92096,-16.20862,96.4828],[38.91957,-16.2034,98.3218],[38.91972,-16.19731,99.7293],[38.92174,-16.18511,114.3676],[38.92205,-16.17881,120.0384],[38.92127,-16.16697,101.1131],[38.92189,-16.16098,112.6351],[38.92329,-16.15565,110.4983],[38.93368,-16.13741,129.4774],[38.93554,-16.1323,116.842],[38.93709,-16.12672,113.6569],[38.93791,-16.11483,114.186],[38.93693,-16.10915,119.2485],[38.93554,-16.10398,133.5662],[38.91616,-16.05525,127.0228],[38.89476,-16.02124,137.5116],[38.8744,-15.99675,156.1466],[38.86867,-15.98776,154.8506],[38.86634,-15.98269,154.2169],[38.86557,-15.97727,150.8689],[38.86572,-15.97122,163.9619],[38.8682,-15.95949,177.3854],[38.86867,-15.95319,167.0112],[38.86851,-15.94724,173.8802],[38.86727,-15.94182,167.747],[38.8651,-15.93717,162.4164],[38.86045,-15.93143,167.4571],[38.84324,-15.91324,169.6743],[38.84014,-15.9059,192.296],[38.83921,-15.8998,189.696],[38.83983,-15.89484,215.0876],[38.83813,-15.8888,187.4955],[38.83425,-15.88254,182.5819],[38.82619,-15.8736,192.6315],[38.82242,-15.86683,180.0726],[38.82025,-15.86058,191.5658],[38.81513,-15.83883,207.9298],[38.81342,-15.83387,194.8515],[38.81094,-15.82937,194.7749],[38.79064,-15.80105,216.9363],[38.78428,-15.78679,217.247],[38.77932,-15.77826,240.576],[38.77203,-15.77237,203.0886],[38.71891,-15.73806,223.1025],[38.71581,-15.73413,230.6926],[38.7124,-15.73046,237.2815],[38.69937,-15.72162,227.4119],[38.6955,-15.71837,236.0315],[38.69224,-15.71465,246.1188],[38.68775,-15.7054,284.227],[38.68372,-15.68933,266.5195],[38.68186,-15.68447,255.0699],[38.6755,-15.67966,253.7869],[38.66558,-15.67532,258.6101],[38.61654,-15.66375,303.3992],[38.5706,-15.6438,365.8976],[38.55757,-15.63625,353.8081],[38.54982,-15.62954,350.9492],[38.54807,-15.62458,346.9468],[38.54486,-15.60794,358.943],[38.53923,-15.593,373.8774],[38.53675,-15.58861,390.6995],[38.53008,-15.58127,360.9636],[38.52621,-15.57802,360.8863],[38.51768,-15.57218,389.5074],[38.5107,-15.56985,385.8718],[38.48569,-15.5652,385.8261],[38.47577,-15.56169,396.3987],[38.46089,-15.5513,374.179],[38.4429,-15.54101,383.984],[38.43949,-15.53626,374.1781],[38.43696,-15.5312,373.0224],[38.43386,-15.52076,387.9474],[38.4303,-15.51611,396.5308],[38.42518,-15.51177,410.0583],[38.41572,-15.50706,387.0482],[38.40658,-15.50112,396.7059],[38.40534,-15.49978,396.7059],[38.40208,-15.49523,402.1654],[38.39557,-15.48841,420.9877],[38.38363,-15.47993,405.3638],[38.3765,-15.47394,415.7116],[38.37273,-15.47141,408.4615],[38.34281,-15.45627,425.0772],[38.33754,-15.45456,442.4894],[38.32994,-15.45559,420.4375],[38.30725,-15.46154,453.2545],[38.29532,-15.46324,448.4443],[38.28896,-15.4634,427.5649],[38.23573,-15.4558,431.9012],[38.22581,-15.45254,442.4109],[38.20969,-15.44464,446.1072],[38.19506,-15.43549,485.1807],[38.18173,-15.42056,485.0548],[38.17646,-15.41219,494.2008],[38.16731,-15.39389,475.6678],[38.16468,-15.38976,485.4915],[38.16018,-15.38588,495.2493],[38.14571,-15.37699,490.7616],[38.14246,-15.37188,514.2463],[38.14199,-15.3664,506.8301],[38.14339,-15.36128,506.5719],[38.14401,-15.35586,489.4199],[38.14261,-15.35105,483.5591],[38.13858,-15.34666,492.5455],[38.12137,-15.33725,520.3414],[38.1099,-15.3294,517.6705],[38.09703,-15.32444,501.5903],[38.08582,-15.32211,518.6863],[38.07187,-15.31095,558.389],[38.06148,-15.3048,541.0311],[38.01182,-15.28558,556.6904],[37.99802,-15.27798,537.4019],[37.98975,-15.27137,570.8642],[37.98758,-15.26666,569.2792],[37.985,-15.26232,550.0196],[37.98169,-15.2586,556.0806],[37.97022,-15.24878,614.9142],[37.96681,-15.24522,551.5396],[37.96154,-15.23747,562.8989],[37.95673,-15.23432,568.397],[37.94991,-15.23173,558.9269],[37.91389,-15.23111,547.5526],[37.90242,-15.23576,563.1111],[37.89668,-15.23654,587.4257],[37.88955,-15.23514,561.7208],[37.88072,-15.23034,597.1066],[37.87493,-15.22656,602.4449],[37.87074,-15.22243,616.6525],[37.86423,-15.21488,619.2488],[37.85012,-15.19432,592.0033],[37.84687,-15.1907,670.437],[37.84129,-15.18765,628.0815],[37.83354,-15.18579,843.1848],[37.81943,-15.1861,630.8051],[37.81132,-15.1876,609.0876],[37.80511,-15.18998,603.8694],[37.7969,-15.19582,639.7103],[37.78791,-15.20073,629.2285],[37.78279,-15.20233,633.6326],[37.77674,-15.20336,617.1378],[37.76155,-15.20429,591.6228],[37.75561,-15.206,599.7122],[37.75111,-15.2091,612.7634],[37.74119,-15.22047,597.3896],[37.73747,-15.22367,586.913],[37.71065,-15.23855,625.4629],[37.70021,-15.24191,617.8431],[37.69447,-15.24284,627.5317],[37.68688,-15.24227,611.223],[37.67851,-15.2399,621.4811],[37.6675,-15.23375,644.8789],[37.65742,-15.22414,638.7439],[37.6521,-15.22134,658.2206],[37.64497,-15.21969,644.1714],[37.63319,-15.21876,665.9938],[37.6259,-15.21607,668.6517],[37.61923,-15.20879,656.4411],[37.61536,-15.19587,676.255],[37.6104,-15.19106,683.7699],[37.60187,-15.18667,677.0221],[37.58523,-15.18083,702.6848],[37.57763,-15.17587,688.4492],[37.57252,-15.17106,686.8064],[37.57019,-15.16646,695.5329],[37.55934,-15.14982,725.7213],[37.55516,-15.14564,706.7294],[37.54911,-15.14192,730.4897],[37.53262,-15.13344,727.415],[37.52487,-15.13112,718.2828],[37.51216,-15.13179,707.6871],[37.50518,-15.13334,725.8843],[37.50022,-15.1352,711.9417],[37.48612,-15.14548,743.4411],[37.47929,-15.15282,727.3181],[37.45986,-15.18409,736.4813],[37.45366,-15.19179,756.9961],[37.44979,-15.19489,753.8247],[37.44529,-15.19742,758.2782],[37.44033,-15.19949,756.3352],[37.43506,-15.20093,751.8287],[37.41749,-15.20388,783.9363],[37.41237,-15.20558,798.9965],[37.38974,-15.21768,835.3792],[37.38493,-15.21886,844.5416]]]}
,"properties": {"ISO3166-1-Alpha-3": "MOZ","country": "Mozambique","fill": "#0F0","name": "Zambezia","area_km2": 103122.77,"hist_schema_id": "Elevation0-9000","hist_area_km2": {"0": 12221.16,"25": 5840.63,"50": 5561.36,"75": 5156.11,"100": 4708.94,"125": 4416.42,"150": 4251.3,"175": 3901.11,"200": 3628.63,"225": 3430.45,"250": 3306.02,"275": 3216.55,"300": 3105.78,"325": 2877.36,"350": 2753.56,"375": 2706.71,"400": 2295.52,"425": 1974.36,"450": 1800.32,"475": 1744.55,"500": 1727.92,"525": 1652.88,"550": 1562.96,"575": 1489.86,"600": 1492.97,"625": 1881.74,"650": 2391.42,"675": 2173.71,"700": 1837.23,"725": 1528.92,"750": 1272.36,"775": 1128.6,"800": 870.53,"825": 506.38,"850": 315.72,"875": 221.56,"900": 172.12,"925": 154.79,"950": 140.64,"975": 127.41,"1000": 116.04,"1025": 105.96,"1050": 104.13,"1075": 107.21,"1100": 95.98,"1125": 90.69,"1150": 84.44,"1175": 74.72,"1200": 71.54,"1225": 68.42,"1250": 64.8,"1275": 60.45,"1300": 57.81,"1325": 54.1,"1350": 48.33,"1375": 42.82,"1400": 38.3,"1425": 36.14,"1450": 32.07,"1475": 27.37,"1500": 22.87,"1525": 20.18,"1550": 18.07,"1575": 15.44,"1600": 16.05,"1625": 13.62,"1650": 12.13,"1675": 11.29,"1700": 10.53,"1725": 8.73,"1750": 7.89,"1775": 6.4,"1800": 5.33,"1825": 4.25,"1850": 4.25,"1875": 3.9,"1900": 2.64,"1925": 2.45,"1950": 1.76,"1975": 1.92,"2000": 1.08,"2025": 0.86}}}