{"type": "Feature","bbox": [35.145,-18.8626,39.137,-14.9959],"geometry": {"type": "MultiPolygon","coordinates": [[[[36.3863,-18.7237,2.3625],[36.3871,-18.7204,2.8213],[36.3846,-18.721,1.4712],[36.384,-18.7249,1.2771],[36.3863,-18.7237,2.3625]]],
[[[36.3926,-18.7179,0.0],[36.3913,-18.7171,0.7642],[36.3915,-18.7193,0.2927],[36.3932,-18.7193,0.0],[36.3926,-18.7179,0.0]]],
[[[36.3851,-18.6899,0.0],[36.3829,-18.689,0.0],[36.3815,-18.694,0.0],[36.3851,-18.6926,0.0],[36.3851,-18.6899,0.0]]],
[[[36.4607,-18.5585,0.0],[36.4679,-18.5576,1.9147],[36.4871,-18.5687,0.0],[36.491,-18.5599,4.418],[36.4857,-18.556,8.0736],[36.4896,-18.5565,5.2582],[36.4918,-18.5618,3.0324],[36.489,-18.5699,0.0],[36.496,-18.571,2.3233],[36.5004,-18.5571,3.6962],[36.5082,-18.5432,0.0],[36.5085,-18.5401,1.445],[36.5046,-18.5371,4.9235],[36.499,-18.5371,7.1664],[36.4951,-18.5351,8.3886],[36.4946,-18.5312,9.4008],[36.4974,-18.5263,0.0],[36.501,-18.5235,0.0],[36.5032,-18.5182,7.1185],[36.511,-18.5168,0.0],[36.5137,-18.5137,0.0],[36.5121,-18.5101,7.2877],[36.5068,-18.5082,5.951],[36.5082,-18.5043,0.5],[36.5107,-18.5037,2.1208],[36.5137,-18.5054,5.8782],[36.5187,-18.5126,3.239],[36.5168,-18.5168,6.5976],[36.5104,-18.5182,1.7263],[36.506,-18.5237,6.4023],[36.5085,-18.5293,0.0],[36.5113,-18.531,0.0],[36.514,-18.5293,0.0],[36.5249,-18.5293,0.0],[36.5379,-18.511,2.7735],[36.5357,-18.5018,0.0],[36.5376,-18.4935,0.0],[36.536,-18.4924,2.0255],[36.5363,-18.4887,0.0],[36.5321,-18.476,8.7102],[36.5396,-18.4896,0.0],[36.5412,-18.496,3.1404],[36.5435,-18.4982,1.3171],[36.5471,-18.4976,2.3328],[36.624,-18.4199,0.0],[36.621,-18.4112,3.5599],[36.616,-18.4054,2.5019],[36.6204,-18.4074,1.6073],[36.6237,-18.4146,0.0],[36.629,-18.4154,0.0],[36.6318,-18.414,0.0],[36.6554,-18.3924,2.0391],[36.6554,-18.3901,0.7341],[36.6521,-18.3865,2.084],[36.6521,-18.379,0.8605],[36.6496,-18.3796,5.6964],[36.6499,-18.3785,2.4539],[36.6529,-18.3785,0.8605],[36.654,-18.3865,0.0],[36.6563,-18.3843,1.2916],[36.6615,-18.3857,1.7508],[36.664,-18.3849,0.0],[36.6832,-18.3687,0.0],[36.6829,-18.3651,0.0],[36.6871,-18.3646,0.0],[36.6924,-18.361,0.0],[36.7265,-18.3243,1.375],[36.7613,-18.2901,0.0],[36.7613,-18.2887,0.0],[36.756,-18.2882,4.0345],[36.7526,-18.2851,1.6034],[36.7607,-18.2876,0.0],[36.7604,-18.2865,1.1554],[36.7751,-18.2765,0.0],[36.7993,-18.2496,0.511],[36.8096,-18.2407,0.0],[36.8096,-18.239,0.7221],[36.8329,-18.2115,0.0],[36.8332,-18.2071,1.4455],[36.8182,-18.2068,0.0],[36.816,-18.2093,0.0],[36.8121,-18.2101,3.272],[36.8074,-18.2185,2.681],[36.7971,-18.231,0.8834],[36.7793,-18.2351,3.4391],[36.7701,-18.2407,0.0],[36.7665,-18.2354,5.4565],[36.7704,-18.2274,9.5907],[36.7738,-18.226,4.5102],[36.7738,-18.2235,1.635],[36.7671,-18.2176,1.3601],[36.7637,-18.2126,1.0505],[36.7626,-18.2087,4.3313],[36.7626,-18.2035,3.9235],[36.7649,-18.2004,2.4801],[36.7668,-18.1999,2.4982],[36.7668,-18.1926,3.9817],[36.7649,-18.1874,0.3171],[36.7565,-18.1837,0.0],[36.7596,-18.1835,0.0],[36.766,-18.1868,0.3171],[36.7701,-18.2038,1.3223],[36.7765,-18.2085,0.0],[36.7796,-18.2085,0.0],[36.7849,-18.2057,7.2107],[36.7871,-18.201,1.9133],[36.794,-18.1935,0.0],[36.8071,-18.1851,0.3383],[36.8129,-18.1837,0.0],[36.8135,-18.1804,0.0],[36.8196,-18.1782,0.0],[36.826,-18.1718,0.0],[36.8307,-18.1737,0.0],[36.8335,-18.1704,0.0],[36.8338,-18.1668,0.7692],[36.8385,-18.1637,3.9044],[36.839,-18.1576,3.8958],[36.8351,-18.1571,1.7204],[36.8349,-18.1537,1.8763],[36.8357,-18.1565,1.7204],[36.8399,-18.1574,3.8958],[36.8393,-18.1637,4.415],[36.836,-18.1662,1.7098],[36.8365,-18.1674,0.0],[36.8396,-18.1657,1.1939],[36.8476,-18.1657,2.1416],[36.856,-18.1674,1.3893],[36.8685,-18.1643,0.4667],[36.8732,-18.1612,2.4827],[36.8749,-18.1582,0.0],[36.874,-18.1546,0.0],[36.8621,-18.149,2.1071],[36.8587,-18.1399,2.0899],[36.8599,-18.1349,0.7943],[36.8535,-18.1351,1.4413],[36.8518,-18.1293,0.6516],[36.846,-18.1215,2.3459],[36.8454,-18.119,2.3408],[36.8479,-18.1179,1.2294],[36.8479,-18.1162,1.1437],[36.8457,-18.1018,1.4672],[36.8468,-18.1021,1.4672],[36.8488,-18.116,1.1437],[36.8468,-18.1215,2.3459],[36.8526,-18.129,0.6516],[36.8546,-18.1343,0.0],[36.8607,-18.1338,0.9823],[36.8621,-18.1368,0.807],[36.8604,-18.1407,0.5257],[36.8624,-18.1426,1.7221],[36.869,-18.1382,0.0],[36.879,-18.1268,0.6504],[36.8801,-18.1235,0.0],[36.8788,-18.1143,1.2033],[36.8832,-18.1076,0.0],[36.8832,-18.1026,0.4965],[36.8788,-18.104,0.3128],[36.8751,-18.1001,1.2797],[36.8749,-18.0935,0.6233],[36.8657,-18.0924,0.666],[36.8662,-18.0888,1.2968],[36.8643,-18.0854,2.1975],[36.866,-18.0832,2.0031],[36.8682,-18.0824,1.7767],[36.871,-18.0837,0.4291],[36.8704,-18.0843,0.4291],[36.8668,-18.0835,2.0031],[36.8651,-18.0854,2.1975],[36.8671,-18.0888,1.2968],[36.8665,-18.0921,0.666],[36.8704,-18.091,2.011],[36.8754,-18.0929,2.766],[36.876,-18.1001,1.5773],[36.8785,-18.1029,2.032],[36.8807,-18.1018,0.5743],[36.884,-18.1026,0.4965],[36.8838,-18.1082,0.0],[36.8932,-18.1093,0.9157],[36.8937,-18.1043,0.6633],[36.891,-18.0979,2.2716],[36.8974,-18.0893,1.5098],[36.8993,-18.0888,0.7279],[36.904,-18.0907,0.9737],[36.9076,-18.0885,0.9173],[36.9065,-18.0804,1.7784],[36.9093,-18.076,0.8087],[36.9099,-18.0687,0.376],[36.9115,-18.0676,1.1365],[36.9229,-18.0679,2.3371],[36.9246,-18.0662,2.4567],[36.9226,-18.0604,1.2077],[36.9232,-18.0571,0.0],[36.9249,-18.0554,1.7312],[36.9299,-18.0554,0.0],[36.9321,-18.0532,0.6439],[36.9293,-18.0418,0.0],[36.9221,-18.0412,0.4155],[36.9212,-18.029,0.0],[36.9129,-18.0218,0.3798],[36.9074,-18.0135,2.6296],[36.9038,-18.0012,1.6987],[36.9024,-17.9801,1.1655],[36.8935,-17.9515,0.3023],[36.8926,-17.9329,0.0],[36.9085,-17.9321,0.0],[36.9096,-17.9387,3.2074],[36.9149,-17.9501,0.0],[36.9165,-17.9412,2.6534],[36.9249,-17.9415,0.7487],[36.9274,-17.9446,2.5634],[36.9274,-17.9471,2.1659],[36.9224,-17.9518,0.7266],[36.9226,-17.9535,0.0],[36.9321,-17.9476,0.4366],[36.9324,-17.9487,0.2919],[36.9296,-17.9512,0.8673],[36.9218,-17.9546,2.375],[36.921,-17.9512,3.1483],[36.9251,-17.9479,5.2516],[36.9257,-17.9443,1.7114],[36.9224,-17.9421,3.7526],[36.9174,-17.9429,4.5789],[36.9176,-17.9512,8.3724],[36.9212,-17.961,1.7733],[36.9354,-17.966,0.405],[36.9482,-17.9754,0.6591],[36.9579,-17.9868,0.0],[36.9637,-18.0007,0.0],[36.969,-18.006,0.0],[36.9682,-18.011,0.0],[36.9712,-18.0157,0.0],[36.9776,-18.0204,0.0],[36.9807,-18.021,0.0],[36.9849,-18.019,0.0],[37.0004,-18.0007,0.0],[37.0026,-17.9954,0.5445],[37.0443,-17.9387,3.182],[37.114,-17.8485,5.3796],[37.1512,-17.8096,5.692],[37.1862,-17.7821,5.1508],[37.1979,-17.7635,2.4853],[37.1915,-17.7543,0.5701],[37.1879,-17.7407,2.794],[37.186,-17.7385,1.2329],[37.1754,-17.7532,0.0],[37.1771,-17.7643,0.9719],[37.1712,-17.7696,2.8932],[37.1671,-17.7712,0.5095],[37.1568,-17.771,0.0],[37.1538,-17.7732,2.7574],[37.154,-17.7715,1.896],[37.1493,-17.7679,1.4297],[37.1496,-17.7651,0.0],[37.1515,-17.7629,4.0135],[37.1604,-17.7607,3.1216],[37.1615,-17.7576,0.0],[37.156,-17.7571,0.4855],[37.1543,-17.7532,0.0],[37.1426,-17.7576,0.5094],[37.1324,-17.7537,0.7729],[37.1235,-17.7632,2.6334],[37.1104,-17.7668,1.955],[37.1099,-17.7732,2.1997],[37.1037,-17.7749,1.1058],[37.1046,-17.7826,1.5502],[37.1021,-17.7838,3.0942],[37.0988,-17.781,1.1116],[37.0918,-17.7796,9.3895],[37.0921,-17.7768,2.6183],[37.0982,-17.771,0.9676],[37.0962,-17.7663,1.5676],[37.1013,-17.7607,2.7085],[37.0926,-17.7568,5.2461],[37.0915,-17.7546,6.474],[37.0924,-17.7512,3.9285],[37.0954,-17.7501,0.0],[37.099,-17.7537,0.5581],[37.1043,-17.7512,5.6747],[37.1071,-17.7532,0.0],[37.1126,-17.7507,1.9828],[37.1179,-17.7535,1.1619],[37.1204,-17.7518,0.0],[37.1157,-17.7435,3.9476],[37.1107,-17.7426,1.0118],[37.1051,-17.744,1.5055],[37.0993,-17.7318,0.7643],[37.0976,-17.7321,1.4154],[37.0974,-17.729,2.5122],[37.1129,-17.7224,0.0],[37.1182,-17.7176,1.9061],[37.1221,-17.7096,0.0],[37.1199,-17.6968,0.0],[37.1229,-17.6918,0.0],[37.1321,-17.6899,0.0],[37.1363,-17.691,2.4597],[37.1415,-17.6954,2.835],[37.1457,-17.7049,1.1231],[37.1535,-17.7096,0.0],[37.1596,-17.7043,2.2466],[37.166,-17.7015,0.0],[37.1718,-17.701,1.135],[37.1835,-17.7062,3.1571],[37.1879,-17.7138,0.4295],[37.1879,-17.7226,0.0],[37.1904,-17.7246,1.978],[37.1899,-17.7274,1.7638],[37.1999,-17.7396,1.2974],[37.2062,-17.7524,0.0],[37.2082,-17.7615,0.7112],[37.2151,-17.7629,4.5238],[37.2201,-17.7599,0.0],[37.2332,-17.7457,4.3302],[37.2526,-17.729,3.8441],[37.2954,-17.7001,4.0511],[37.2974,-17.6963,0.0],[37.2957,-17.6929,0.0],[37.2888,-17.7004,2.2313],[37.2776,-17.7018,5.0633],[37.2751,-17.706,1.2108],[37.2751,-17.7029,2.7538],[37.2771,-17.7004,0.5],[37.2882,-17.6987,1.1187],[37.2899,-17.691,1.555],[37.2957,-17.6849,0.808],[37.2938,-17.6782,1.0249],[37.2985,-17.6754,0.6649],[37.2996,-17.6724,2.9677],[37.3068,-17.6665,0.0],[37.3124,-17.6676,7.9742],[37.306,-17.6685,2.9711],[37.3035,-17.6721,0.731],[37.3007,-17.6732,1.8251],[37.2993,-17.6768,2.2426],[37.296,-17.6782,4.3893],[37.2974,-17.6854,0.808],[37.3007,-17.689,1.4273],[37.3154,-17.6918,0.9625],[37.3282,-17.6837,0.0],[37.3282,-17.6735,0.0],[37.341,-17.6646,0.0],[37.3462,-17.6696,1.6422],[37.3454,-17.6712,1.6422],[37.3507,-17.6707,2.3639],[37.3996,-17.6407,5.6794],[37.4196,-17.6301,0.0],[37.4254,-17.6238,0.0],[37.4329,-17.6204,0.0],[37.4382,-17.6207,0.0],[37.4679,-17.6032,6.4561],[37.5285,-17.5738,4.7425],[37.5326,-17.5729,1.4414],[37.561,-17.5582,1.8733],[37.5615,-17.5565,3.8485],[37.5715,-17.5526,2.9267],[37.5801,-17.5446,0.7032],[37.5807,-17.5418,2.746],[37.5796,-17.5412,0.4699],[37.5818,-17.5324,0.0],[37.5838,-17.5304,0.0],[37.5907,-17.5296,0.0],[37.5976,-17.5354,0.0],[37.6054,-17.5379,2.2891],[37.6418,-17.514,3.6167],[37.6743,-17.4988,0.9618],[37.6835,-17.4912,0.0],[37.6849,-17.4785,0.0],[37.689,-17.4726,0.5924],[37.6957,-17.4718,0.0],[37.7038,-17.4779,2.3772],[37.7079,-17.4793,3.7698],[37.7121,-17.4785,0.6513],[37.7576,-17.4551,0.0],[37.7929,-17.4332,4.3414],[37.8479,-17.4054,1.4817],[37.9051,-17.3821,0.0],[37.9637,-17.3549,1.3947],[38.0021,-17.3415,0.0],[38.0062,-17.3396,0.0],[38.0074,-17.3374,3.4707],[38.0129,-17.3379,7.0621],[38.0482,-17.3276,3.8646],[38.046,-17.3215,3.1664],[38.0376,-17.3115,1.9545],[38.0201,-17.3007,1.423],[38.0001,-17.284,2.5],[37.9907,-17.2851,3.9085],[37.984,-17.2821,2.9548],[37.9782,-17.2676,2.8411],[37.9715,-17.2612,2.7197],[37.9635,-17.2568,2.7403],[37.9615,-17.2532,3.1123],[37.9776,-17.2632,2.5],[37.9865,-17.2804,2.5],[37.9915,-17.2829,3.3811],[38.0007,-17.2807,3.421],[38.0051,-17.2829,2.8941],[38.009,-17.2876,2.5413],[38.0124,-17.2882,1.75],[38.0129,-17.2854,2.2142],[38.0099,-17.2779,1.5],[38.0104,-17.2721,2.7932],[38.0271,-17.2574,2.3944],[38.0288,-17.2529,1.8693],[38.0285,-17.2437,1.9366],[38.0354,-17.239,2.1238],[38.0354,-17.2404,2.9083],[38.0293,-17.2446,1.5],[38.031,-17.2538,1.885],[38.0293,-17.2574,2.1235],[38.0154,-17.2696,3.3269],[38.0132,-17.2735,1.5],[38.0126,-17.2782,1.5],[38.0176,-17.2899,1.5],[38.0257,-17.2962,2.8049],[38.0315,-17.2851,2.1708],[38.0282,-17.2985,0.5],[38.0412,-17.3054,2.7144],[38.046,-17.3099,0.0],[38.0499,-17.3151,1.5135],[38.0501,-17.3201,0.0],[38.0521,-17.3221,0.0],[38.0596,-17.3232,0.0],[38.0749,-17.3199,0.0],[38.0793,-17.3237,0.0],[38.086,-17.3232,0.0],[38.0868,-17.319,0.0],[38.0846,-17.3162,0.0],[38.0863,-17.3135,0.0],[38.0924,-17.309,0.0],[38.1079,-17.3018,0.0],[38.1129,-17.2968,0.0],[38.1129,-17.2943,0.0],[38.1071,-17.2932,3.3354],[38.0943,-17.2951,1.6412],[38.0807,-17.2929,1.847],[38.0846,-17.291,2.871],[38.1007,-17.2926,0.0],[38.0826,-17.2813,5.5052],[38.0668,-17.2813,4.4056],[38.0635,-17.2799,3.4561],[38.0588,-17.2746,2.8995],[38.0582,-17.2682,1.5],[38.0599,-17.2654,1.5],[38.0585,-17.2632,2.4638],[38.0429,-17.2563,2.3741],[38.0596,-17.2604,3.6745],[38.0618,-17.2635,4.5423],[38.0626,-17.274,1.0],[38.0671,-17.2774,1.0],[38.0715,-17.2774,4.2594],[38.0788,-17.2746,1.0],[38.0804,-17.2679,3.7156],[38.0832,-17.264,5.4246],[38.094,-17.2579,2.6243],[38.0918,-17.2612,3.2613],[38.0846,-17.264,3.0031],[38.081,-17.2735,1.0],[38.084,-17.2768,3.1064],[38.1007,-17.284,0.0],[38.1076,-17.2763,0.0],[38.1074,-17.2738,0.9551],[38.1093,-17.2729,0.5],[38.1096,-17.2707,2.575],[38.1179,-17.2632,1.9328],[38.1193,-17.2521,1.0],[38.1171,-17.2471,2.0209],[38.1121,-17.2421,1.8836],[38.0824,-17.2229,1.9257],[38.066,-17.2013,4.2501],[38.0626,-17.2007,2.4556],[38.0651,-17.1999,2.8551],[38.0674,-17.2007,4.812],[38.0699,-17.2051,3.1288],[38.0726,-17.206,4.0244],[38.064,-17.1924,2.905],[38.0632,-17.186,2.0637],[38.0668,-17.1824,5.0475],[38.069,-17.1837,3.7169],[38.0721,-17.1826,1.5],[38.0724,-17.1793,2.3558],[38.066,-17.1724,4.748],[38.0662,-17.1679,5.4888],[38.0679,-17.1654,2.0],[38.0743,-17.1632,2.0],[38.0768,-17.1585,2.0],[38.069,-17.1574,3.3291],[38.064,-17.1485,5.3073],[38.0593,-17.1482,3.8543],[38.0526,-17.1424,3.8495],[38.0513,-17.1371,5.8674],[38.0537,-17.1421,2.9698],[38.0596,-17.1474,2.7612],[38.0638,-17.1471,4.2197],[38.066,-17.1488,2.7302],[38.0701,-17.1562,8.06],[38.0754,-17.1554,5.873],[38.0779,-17.1582,9.132],[38.0776,-17.1626,9.98],[38.0707,-17.166,2.0],[38.0674,-17.1696,8.1722],[38.0679,-17.1724,5.8926],[38.0735,-17.1749,4.5516],[38.0743,-17.1815,2.2312],[38.0726,-17.184,1.5],[38.0668,-17.1871,1.5],[38.0665,-17.1912,1.5],[38.0735,-17.1979,4.0706],[38.0751,-17.1976,4.0706],[38.0751,-17.196,6.2206],[38.0726,-17.1907,6.2995],[38.0751,-17.1924,3.0426],[38.0779,-17.1988,3.167],[38.0843,-17.1996,2.3488],[38.091,-17.2026,2.1929],[38.1057,-17.2176,3.9452],[38.1154,-17.2185,1.5],[38.1176,-17.2046,3.2353],[38.1132,-17.1957,2.0],[38.1151,-17.1904,2.0],[38.1126,-17.1876,3.5517],[38.1162,-17.1907,2.0],[38.1146,-17.1965,3.7986],[38.1176,-17.201,2.8959],[38.1226,-17.1971,3.4448],[38.1246,-17.1915,4.5475],[38.1246,-17.1879,3.263],[38.1201,-17.1793,1.5],[38.1229,-17.1735,1.5],[38.1157,-17.1674,2.7431],[38.1168,-17.1624,3.0965],[38.1168,-17.1676,3.0915],[38.1246,-17.1715,1.5],[38.1232,-17.1818,3.2673],[38.1263,-17.1829,3.9719],[38.1349,-17.1815,2.01],[38.1265,-17.1846,1.5],[38.1276,-17.1924,5.1477],[38.1221,-17.2076,2.0592],[38.1237,-17.2221,1.9584],[38.1268,-17.2237,2.2203],[38.1354,-17.2196,1.5],[38.1496,-17.2046,2.887],[38.1493,-17.201,3.0324],[38.1504,-17.2012,3.3575],[38.1507,-17.2046,2.887],[38.1446,-17.2135,1.8857],[38.1382,-17.2204,2.8681],[38.1257,-17.229,1.5],[38.1268,-17.2349,1.5],[38.1471,-17.2382,2.1669],[38.1507,-17.2346,2.3791],[38.1474,-17.239,2.1669],[38.1329,-17.2362,1.5],[38.1282,-17.2362,1.5],[38.1271,-17.2376,2.5393],[38.1301,-17.2462,2.1717],[38.1315,-17.2585,1.336],[38.1315,-17.2796,0.7581],[38.139,-17.2954,0.0],[38.1437,-17.2962,6.7014],[38.1607,-17.2907,3.2183],[38.1774,-17.281,5.3624],[38.1821,-17.2804,4.6629],[38.1826,-17.2818,0.0],[38.1857,-17.2821,0.0],[38.1849,-17.2776,3.3889],[38.1874,-17.2746,0.0],[38.1862,-17.2685,12.4064],[38.199,-17.2571,0.0],[38.221,-17.2462,1.0304],[38.2257,-17.2415,0.0],[38.2588,-17.2251,1.0202],[38.2676,-17.2246,0.0],[38.2749,-17.2165,3.5593],[38.2754,-17.2174,2.4916],[38.2743,-17.2196,1.0],[38.2687,-17.2254,0.0],[38.2576,-17.2274,0.0],[38.254,-17.2313,0.0],[38.2479,-17.2326,0.0],[38.2454,-17.2351,0.0],[38.3151,-17.2101,0.0],[38.3335,-17.2018,3.0654],[38.4138,-17.1721,0.0],[38.421,-17.1679,7.9407],[38.4265,-17.1671,0.0],[38.4413,-17.1585,4.7511],[38.4885,-17.1465,0.0],[38.4996,-17.1424,0.0],[38.5051,-17.1357,3.8215],[38.5043,-17.1329,0.0],[38.4896,-17.1368,2.9273],[38.481,-17.1468,5.3046],[38.469,-17.1501,3.9524],[38.4554,-17.1493,0.0],[38.4465,-17.1465,2.6832],[38.4338,-17.1465,4.3037],[38.4263,-17.1501,2.8896],[38.4318,-17.1454,2.2868],[38.4376,-17.1454,0.0],[38.4354,-17.1449,2.4065],[38.4354,-17.1429,3.8134],[38.4488,-17.144,6.4417],[38.4499,-17.146,0.0],[38.4532,-17.1465,0.0],[38.4546,-17.1446,0.0],[38.4515,-17.1454,0.0],[38.4521,-17.1418,0.0],[38.4726,-17.141,0.0],[38.4757,-17.1385,0.9114],[38.4774,-17.1407,0.0],[38.4787,-17.1362,5.3012],[38.4846,-17.1315,1.5074],[38.4888,-17.1254,0.6399],[38.494,-17.1218,0.0],[38.4949,-17.1182,0.8313],[38.4935,-17.1171,0.4758],[38.4921,-17.1218,0.5937],[38.4865,-17.1229,1.0875],[38.4832,-17.1204,0.7983],[38.4821,-17.1171,0.5],[38.4854,-17.1215,1.0875],[38.4901,-17.1218,0.0],[38.4926,-17.1199,0.0],[38.4915,-17.1099,0.0],[38.4982,-17.1126,1.9359],[38.5018,-17.1121,0.0],[38.5026,-17.1087,2.7194],[38.5004,-17.1057,2.1186],[38.5001,-17.1021,1.8766],[38.5068,-17.0985,1.8685],[38.5054,-17.091,5.2364],[38.5132,-17.0865,3.3092],[38.514,-17.0871,3.4946],[38.5076,-17.0921,5.5693],[38.5093,-17.0971,0.5],[38.5082,-17.1007,3.1798],[38.5029,-17.1029,0.5],[38.5082,-17.1085,3.1821],[38.506,-17.1201,0.0],[38.5182,-17.1221,0.0],[38.5257,-17.121,0.0],[38.5218,-17.1235,0.0],[38.5257,-17.1287,0.5393],[38.5257,-17.1324,0.7453],[38.5226,-17.134,0.0],[38.5274,-17.1346,0.0],[38.5599,-17.1257,0.0],[38.5776,-17.1185,2.0759],[38.5774,-17.1151,3.0673],[38.576,-17.1146,3.0673],[38.5732,-17.1174,1.6495],[38.5626,-17.1154,0.7927],[38.5624,-17.1176,1.6583],[38.5646,-17.1199,4.9979],[38.5585,-17.119,0.0],[38.5601,-17.1143,3.1412],[38.5635,-17.1121,2.2629],[38.5696,-17.1107,0.0],[38.5713,-17.1146,0.0],[38.5732,-17.1146,0.0],[38.5751,-17.1118,0.0],[38.5746,-17.1099,0.0],[38.5835,-17.1032,1.9972],[38.5818,-17.0968,0.0],[38.5849,-17.0951,0.0],[38.5849,-17.0929,0.0],[38.5812,-17.090699999999998,2.8436],[38.581,-17.0882,1.9701],[38.5749,-17.0804,5.2914],[38.5732,-17.0754,4.7217],[38.5771,-17.069,4.1458],[38.5799,-17.0693,2.9515],[38.5768,-17.0724,2.9398],[38.5768,-17.0749,1.0],[38.5812,-17.0807,2.1585],[38.5821,-17.0843,0.5],[38.5851,-17.0868,3.3843],[38.5876,-17.0957,0.0],[38.5907,-17.0929,0.0],[38.5871,-17.0882,0.0],[38.5907,-17.0904,0.0],[38.5915,-17.0943,0.0],[38.5924,-17.0938,0.0],[38.5913,-17.0779,1.6773],[38.5926,-17.0782,5.2727],[38.5949,-17.0835,2.9352],[38.594,-17.1037,0.0],[38.5962,-17.1071,0.0],[38.5988,-17.1065,0.0],[38.6001,-17.1035,0.0],[38.5988,-17.1026,0.258],[38.6001,-17.101,4.4789],[38.6001,-17.0932,5.913],[38.6026,-17.0921,3.7878],[38.6049,-17.0932,2.9577],[38.6004,-17.0943,1.6155],[38.6021,-17.0987,0.0],[38.6057,-17.0982,2.894],[38.6026,-17.0996,7.3537],[38.6007,-17.1087,0.0],[38.6599,-17.094,0.0],[38.6818,-17.0851,0.0],[38.6849,-17.0824,0.0],[38.6849,-17.0804,0.0],[38.6824,-17.0779,0.0],[38.6782,-17.0779,0.0],[38.6715,-17.0801,0.0],[38.6665,-17.0854,2.0855],[38.6635,-17.0849,1.6503],[38.6568,-17.0879,1.8517],[38.654,-17.0874,2.6715],[38.6515,-17.0901,1.9302],[38.6451,-17.0929,5.9077],[38.6554,-17.0799,0.5],[38.6638,-17.0771,0.0],[38.6646,-17.0757,0.0],[38.6624,-17.0749,0.744],[38.6688,-17.0715,0.0],[38.6676,-17.0679,0.0],[38.6649,-17.0665,2.4607],[38.6576,-17.0679,0.5],[38.6535,-17.0671,5.9523],[38.6512,-17.0624,7.929],[38.6526,-17.0587,3.5339],[38.6496,-17.0565,1.6402],[38.6532,-17.0582,3.5339],[38.6524,-17.0632,0.5],[38.6563,-17.0663,0.5],[38.6635,-17.0632,0.0],[38.6693,-17.0635,0.0],[38.6707,-17.0593,3.8803],[38.6746,-17.0599,0.0],[38.6726,-17.0574,0.5],[38.6715,-17.0582,3.8803],[38.6721,-17.0537,8.436],[38.6707,-17.0515,5.0455],[38.6624,-17.049,0.5],[38.6601,-17.0421,1.1515],[38.6538,-17.0371,0.5],[38.6535,-17.034,3.2134],[38.6551,-17.0315,0.5],[38.6512,-17.0282,6.555],[38.6482,-17.0301,3.0505],[38.6468,-17.0293,5.4417],[38.6521,-17.0271,2.4393],[38.656,-17.0304,5.0833],[38.6557,-17.0371,0.5],[38.661,-17.0404,1.1983],[38.6635,-17.0468,0.5],[38.664,-17.0399,0.5],[38.6668,-17.0343,3.1268],[38.6715,-17.031,3.8712],[38.6813,-17.0307,0.5],[38.679,-17.0229,0.5],[38.6768,-17.0232,5.4724],[38.6721,-17.0276,0.5],[38.6676,-17.0282,3.8129],[38.6621,-17.0254,0.5],[38.6601,-17.0185,1.2264],[38.669,-17.0101,1.2463],[38.6712,-17.0051,3.5367],[38.6787,-17.0021,2.1877],[38.6818,-16.9899,2.1877],[38.6754,-16.9918,2.3583],[38.6651,-16.9901,3.1644],[38.6626,-16.9876,0.5],[38.6618,-16.9807,3.2766],[38.6585,-16.979,1.2582],[38.6529,-16.981,1.2795],[38.6521,-16.9837,2.4183],[38.6496,-16.9851,3.0944],[38.6446,-16.9851,4.1936],[38.6371,-16.9799,6.2422],[38.6357,-16.9762,2.7152],[38.6365,-16.974,5.0616],[38.6379,-16.9796,2.6157],[38.6446,-16.9843,1.6906],[38.6496,-16.984,1.8568],[38.6521,-16.9801,1.2795],[38.659,-16.9776,2.4671],[38.6635,-16.9801,1.94],[38.6651,-16.9887,1.695],[38.674,-16.9899,0.5],[38.681,-16.9874,2.8198],[38.684,-16.9893,1.4565],[38.6801,-17.0037,0.5],[38.6729,-17.0065,2.1297],[38.6693,-17.0129,0.5],[38.6626,-17.0185,4.9756],[38.6621,-17.0215,6.7531],[38.6646,-17.0246,0.5],[38.6696,-17.0254,2.6356],[38.6754,-17.021,2.7295],[38.679,-17.0207,2.1011],[38.686,-17.0271,1.0065],[38.6871,-17.0293,1.8642],[38.6862,-17.0346,0.5],[38.6896,-17.0368,0.5],[38.6929,-17.036,1.2756],[38.6924,-17.0371,2.4377],[38.6749,-17.0368,2.667],[38.6724,-17.0382,7.3525],[38.6724,-17.0404,7.4245],[38.6793,-17.0449,0.5],[38.6821,-17.0485,2.8601],[38.6849,-17.0643,1.775],[38.689,-17.0679,9.7809],[38.6885,-17.074,0.0],[38.6965,-17.0788,2.5234],[38.7118,-17.0824,0.0],[38.7418,-17.0743,6.9064],[38.8112,-17.0651,0.0],[38.8121,-17.064,0.0],[38.8096,-17.064,3.0424],[38.8085,-17.0607,1.3239],[38.8135,-17.0576,5.4446],[38.8201,-17.0576,3.3406],[38.8226,-17.0521,0.8647],[38.8332,-17.0535,0.5],[38.8357,-17.0507,3.7389],[38.8368,-17.046,6.3835],[38.8449,-17.046,5.7576],[38.849,-17.0435,0.5],[38.8499,-17.039,2.1817],[38.8468,-17.0385,1.0],[38.8443,-17.0399,2.3413],[38.8474,-17.0374,4.9417],[38.8513,-17.0396,3.6732],[38.8488,-17.0451,2.6009],[38.8393,-17.0479,1.8862],[38.8346,-17.0557,0.5],[38.8251,-17.0529,0.125],[38.8213,-17.0613,1.0394],[38.8335,-17.0601,0.0],[38.8812,-17.0485,1.269],[38.921,-17.034,4.493],[38.9235,-17.0324,0.0],[38.9207,-17.0304,1.2257],[38.9215,-17.0287,2.166],[38.9243,-17.0296,0.125],[38.9285,-17.0276,4.859],[38.9301,-17.0293,3.6685],[38.9579,-17.0179,11.0949],[38.9874,-17.0107,4.2673],[39.0132,-17.009,4.5601],[39.0446,-17.0107,2.9409],[39.0671,-17.0143,0.0],[39.0732,-17.0135,0.0],[39.0801,-17.0037,0.0],[39.0962,-16.9743,2.0581],[39.1218,-16.9407,1.7178],[39.1221,-16.9363,0.7381],[39.1193,-16.9385,3.1854],[39.1176,-16.9351,1.9785],[39.1113,-16.9307,0.0],[39.1001,-16.9285,0.5],[39.0965,-16.9315,4.5026],[39.0935,-16.9312,0.5],[39.0893,-16.9368,1.0],[39.0907,-16.9504,1.0],[39.0924,-16.9532,4.5],[39.0915,-16.9568,12.306],[39.0879,-16.9565,11.7283],[39.0812,-16.9624,2.5225],[39.0762,-16.9632,10.3644],[39.0818,-16.961,3.2576],[39.0829,-16.959,2.2297],[39.0774,-16.9599,10.1598],[39.0563,-16.9549,6.7222],[39.0563,-16.9504,5.4689],[39.0596,-16.946,2.7387],[39.0632,-16.944,1.5],[39.0612,-16.9401,1.5],[39.0626,-16.9343,3.6036],[39.0738,-16.9315,1.5],[39.0726,-16.926,2.0],[39.0682,-16.9218,3.025],[39.0618,-16.9226,4.206],[39.0649,-16.9212,5.787],[39.0685,-16.9212,6.8608],[39.0757,-16.9285,4.0004],[39.0815,-16.9293,5.289],[39.0904,-16.9215,0.5],[39.091,-16.9188,2.3825],[39.0893,-16.9149,2.6134],[39.0913,-16.9118,3.437],[39.0999,-16.9132,2.5055],[39.099,-16.9096,7.3233],[39.0932,-16.9079,2.4724],[39.0935,-16.9068,2.4724],[39.0996,-16.9076,3.1621],[39.1018,-16.9129,1.5438],[39.0979,-16.9149,6.3651],[39.0918,-16.9129,3.437],[39.0904,-16.916,4.0579],[39.0921,-16.9182,1.2634],[39.096,-16.9193,3.2418],[39.1049,-16.9157,0.6449],[39.114,-16.916,0.8689],[39.116,-16.9118,3.574],[39.1182,-16.911,4.0172],[39.1179,-16.9088,0.962],[39.1207,-16.9093,1.0054],[39.1213,-16.9049,0.0],[39.1257,-16.9015,0.5],[39.1268,-16.8987,3.0427],[39.126,-16.8985,3.0427],[39.1229,-16.8993,2.2528],[39.1207,-16.891,2.8292],[39.114,-16.889,2.4832],[39.1143,-16.8851,2.946],[39.1182,-16.8785,3.7906],[39.1188,-16.8796,2.6681],[39.1176,-16.8835,1.8794],[39.1149,-16.8879,3.5643],[39.1232,-16.8907,2.6384],[39.1235,-16.8957,1.2118],[39.126,-16.8979,3.1907],[39.1265,-16.8971,3.1907],[39.1249,-16.8962,1.2118],[39.1268,-16.8968,3.1907],[39.137,-16.8856,0.8476],[39.1297,-16.8724,1.4825],[39.1266,-16.8606,2.4033],[39.1294,-16.8518,1.485],[39.1208,-16.8197,6.4964],[39.1159,-16.8102,4.6045],[39.1132,-16.7984,5.2559],[39.0793,-16.7734,7.8331],[39.0747,-16.7599,8.3476],[39.0738,-16.7394,9.2325],[39.0698,-16.7309,12.6511],[39.0512,-16.7213,10.4873],[39.0479,-16.7108,11.2377],[39.0495,-16.691,13.1222],[39.0482,-16.6787,12.6731],[39.0444,-16.67,14.2726],[39.0356,-16.6628,14.4475],[39.0281,-16.6593,16.6317],[39.0,-16.6495,22.1325],[38.9889,-16.6361,17.6126],[38.9861,-16.6287,18.1585],[38.9851,-16.6199,18.4359],[38.9945,-16.5946,19.9909],[38.9966,-16.5737,25.4777],[39.0003,-16.5607,31.203],[39.0002,-16.5401,23.6003],[39.005,-16.5344,31.5713],[39.0096,-16.532,33.8233],[39.0407,-16.5209,26.598],[39.0398,-16.5139,26.992],[39.0291,-16.5,27.9899],[39.0215,-16.4829,33.2179],[39.0281,-16.4732,32.7364],[39.0351,-16.418,48.4078],[39.029,-16.4119,35.0973],[39.0231,-16.4005,52.5623],[39.0162,-16.3925,37.5687],[39.0149,-16.3778,48.3967],[39.0038,-16.3457,45.0653],[39.0051,-16.3316,44.6853],[38.9971,-16.3221,50.8476],[38.9867,-16.2882,59.8076],[38.9859,-16.2784,61.5562],[38.9794,-16.2744,67.6902],[38.9622,-16.2767,62.9649],[38.957,-16.2747,65.6223],[38.9463,-16.2628,73.9052],[38.9323,-16.239,82.9234],[38.9288,-16.221,95.2346],[38.9212,-16.2038,104.0313],[38.9179,-16.1849,100.9858],[38.9178,-16.1707,108.4812],[38.9235,-16.1622,105.3284],[38.9179,-16.146,109.3543],[38.9248,-16.1322,118.58],[38.9345,-16.1239,115.4701],[38.9375,-16.1192,114.7146],[38.9268,-16.1087,111.613],[38.9225,-16.0912,115.5945],[38.9134,-16.0751,124.3999],[38.9118,-16.0653,121.6024],[38.915,-16.0478,137.0042],[38.8973,-16.0294,128.6959],[38.8959,-16.0203,137.5116],[38.8841,-16.0046,135.6093],[38.8708,-15.9979,138.8999],[38.8691,-15.9826,146.378],[38.8739,-15.954,156.1667],[38.8715,-15.9417,163.5398],[38.8599,-15.9268,159.1202],[38.852,-15.9245,169.4491],[38.8448,-15.915,168.7317],[38.8483,-15.8915,167.1025],[38.839,-15.8865,174.6051],[38.8282,-15.8833,187.5234],[38.8246,-15.874,192.6315],[38.8215,-15.8412,190.9815],[38.8147,-15.8356,190.9868],[38.8071,-15.8261,193.4778],[38.8044,-15.8166,193.5932],[38.8043,-15.8012,198.797],[38.8018,-15.7916,207.9059],[38.7883,-15.7766,205.6111],[38.7891,-15.7755,212.8597],[38.7855,-15.7675,212.0376],[38.7765,-15.7681,203.183],[38.7605,-15.7719,207.3668],[38.7517,-15.7711,215.2503],[38.7363,-15.7562,212.0162],[38.727,-15.7443,232.5181],[38.7008,-15.727,219.6966],[38.6973,-15.7186,222.1467],[38.6973,-15.7072,230.5453],[38.693,-15.6925,235.9845],[38.6806,-15.6756,249.3704],[38.6537,-15.6789,263.4184],[38.6253,-15.6789,277.4745],[38.6187,-15.6756,288.3675],[38.6002,-15.6744,326.4696],[38.5838,-15.659,331.5563],[38.5643,-15.6466,340.3376],[38.5406,-15.6177,349.1049],[38.5238,-15.5879,362.3365],[38.5128,-15.5779,366.4818],[38.4493,-15.5532,375.3194],[38.44,-15.5421,374.168],[38.4339,-15.5247,378.1741],[38.3974,-15.5012,398.5127],[38.3747,-15.476,405.819],[38.3668,-15.4621,396.828],[38.3561,-15.4608,400.4596],[38.3416,-15.463,401.5521],[38.3292,-15.46,405.539],[38.319,-15.4475,409.3281],[38.2989,-15.4526,411.4269],[38.2758,-15.4526,421.5403],[38.2641,-15.4494,423.6416],[38.2592,-15.441,417.2213],[38.2533,-15.437,408.4197],[38.2386,-15.4453,434.4013],[38.2107,-15.4448,446.1072],[38.1875,-15.4323,478.0125],[38.1748,-15.4221,467.1072],[38.1675,-15.4076,472.9248],[38.1655,-15.3952,470.3062],[38.1605,-15.3916,473.9332],[38.1493,-15.391,476.6389],[38.1381,-15.3816,477.711],[38.1308,-15.3811,478.0998],[38.1272,-15.3728,476.309],[38.1306,-15.3612,493.7079],[38.1402,-15.349,478.7788],[38.1399,-15.3413,478.3365],[38.1339,-15.3402,502.6129],[38.1222,-15.3422,507.0041],[38.1083,-15.3421,488.5222],[38.0987,-15.3356,494.3554],[38.0952,-15.3241,497.9092],[38.0884,-15.3246,503.2799],[38.0748,-15.3291,514.7643],[38.0645,-15.3295,507.709],[38.0543,-15.3253,509.3685],[38.0507,-15.3158,511.1921],[38.0452,-15.3122,515.4539],[38.0358,-15.3192,526.3823],[38.0347,-15.3187,526.3823],[38.0041,-15.2926,521.5218],[38.0197,-15.2986,534.4534],[38.0047,-15.2915,521.5218],[38.0019,-15.2617,540.5452],[37.9802,-15.259,560.1227],[37.9492,-15.2383,549.812],[37.925,-15.2305,546.9529],[37.9056,-15.2308,548.6822],[37.9003,-15.2266,551.7352],[37.8844,-15.2367,552.3066],[37.8735,-15.2326,556.3413],[37.8671,-15.2262,577.3029],[37.8489,-15.2174,567.5702],[37.8447,-15.2111,567.6232],[37.8335,-15.2055,568.4542],[37.7967,-15.2166,575.9104],[37.7603,-15.2135,582.2231],[37.7402,-15.2224,585.5485],[37.7234,-15.2352,603.9771],[37.7108,-15.2424,601.6985],[37.6912,-15.2471,612.9564],[37.6832,-15.2439,622.1635],[37.675,-15.2439,622.0254],[37.634,-15.2368,628.1942],[37.6253,-15.232,650.8353],[37.6184,-15.2156,646.7182],[37.6175,-15.2073,648.7844],[37.5975,-15.1917,660.1962],[37.5924,-15.1913,661.5156],[37.5455,-15.1511,688.3672],[37.5384,-15.1477,692.3416],[37.5322,-15.1477,699.4975],[37.5168,-15.1328,714.0221],[37.4768,-15.1537,755.1359],[37.4645,-15.1656,768.3739],[37.4491,-15.1746,795.2949],[37.4368,-15.1805,791.5266],[37.4205,-15.1858,766.9275],[37.4153,-15.1845,798.605],[37.4085,-15.1766,811.2647],[37.406,-15.1597,1090.1382],[37.3999,-15.1395,1287.0228],[37.3805,-15.1183,1303.8149],[37.3624,-15.1055,1348.1821],[37.3557,-15.111,1247.5927],[37.3377,-15.133,786.4878],[37.3234,-15.1348,764.109],[37.3139,-15.1321,748.7648],[37.3085,-15.1252,729.7333],[37.309,-15.1239,728.0685],[37.2957,-15.1153,757.443],[37.2922,-15.1105,803.6346],[37.2883,-15.1004,807.7141],[37.2828,-15.0948,800.0337],[37.2645,-15.0983,917.4797],[37.2579,-15.0874,799.6748],[37.2469,-15.077,779.7471],[37.2444,-15.0687,852.946],[37.2399,-15.0481,719.8971],[37.2423,-15.0351,698.6048],[37.2419,-15.0208,679.9869],[37.2355,-15.0209,687.1439],[37.2244,-15.032,703.1271],[37.2178,-15.0291,716.5925],[37.215,-15.0252,733.7779],[37.2216,-15.0138,828.9099],[37.2202,-15.0075,849.5629],[37.2123,-15.005,953.5238],[37.2016,-15.0051,1389.0027],[37.192,-14.9973,1653.4681],[37.003,-14.9959,616.1622],[36.6973,-14.9992,561.2633],[36.7012,-15.0135,565.6082],[36.6995,-15.0175,570.7094],[36.7007,-15.023,563.9945],[36.6982,-15.0271,565.3142],[36.6969,-15.0454,570.2954],[36.6918,-15.0519,568.1384],[36.6896,-15.0606,573.385],[36.6824,-15.0664,572.2357],[36.6776,-15.0752,571.0184],[36.6684,-15.0771,572.3217],[36.6644,-15.0961,577.4849],[36.6601,-15.1072,582.6891],[36.6385,-15.1068,581.5798],[36.6164,-15.1541,592.4147],[36.5954,-15.17,596.8478],[36.5877,-15.1711,599.9178],[36.5774,-15.1788,601.4587],[36.5685,-15.1992,601.3104],[36.562,-15.2045,612.5538],[36.5388,-15.215,611.3191],[36.5347,-15.223,612.4946],[36.5201,-15.2283,611.6032],[36.5154,-15.2357,613.8217],[36.5107,-15.2383,617.741],[36.5112,-15.2428,616.1191],[36.5051,-15.2459,625.5876],[36.4964,-15.2477,624.9424],[36.4797,-15.2492,629.5592],[36.4708,-15.2531,628.3082],[36.4697,-15.2585,629.4028],[36.4567,-15.2675,636.28],[36.448,-15.269,637.4448],[36.4399,-15.2685,634.5641],[36.3585,-15.2893,648.7927],[36.347,-15.3113,655.1892],[36.3359,-15.3208,659.8463],[36.3221,-15.3388,669.6652],[36.3146,-15.3526,669.309],[36.2841,-15.3875,686.4537],[36.2676,-15.3998,695.4833],[36.2698,-15.4298,721.7726],[36.2875,-15.4486,815.4332],[36.2851,-15.4621,1024.894],[36.2827,-15.4663,1012.7494],[36.2363,-15.4684,779.1602],[36.1863,-15.4503,703.1409],[36.1781,-15.45,700.3949],[36.1399,-15.4347,690.0157],[36.1244,-15.4263,684.1463],[36.1133,-15.4283,674.1846],[36.0846,-15.4457,704.7186],[35.8506,-15.4441,625.0656],[35.8379,-15.5876,643.1935],[35.8356,-15.6329,634.6852],[35.8317,-15.6749,664.4623],[35.828,-15.6969,1353.9816],[35.8133,-15.9322,690.0161],[35.8114,-15.9294,685.6375],[35.804,-15.9459,684.0693],[35.8026,-15.976,680.3973],[35.804,-15.9808,674.3875],[35.8059,-15.9817,674.0893],[35.8063,-15.9901,671.1762],[35.8108,-15.9941,671.2879],[35.8165,-15.9946,669.1942],[35.8189,-16.0059,667.3445],[35.8178,-16.0075,668.2228],[35.8196,-16.0144,665.5729],[35.8186,-16.0242,663.6095],[35.8144,-16.0307,661.8466],[35.7787,-16.0499,676.2927],[35.7684,-16.0584,645.2855],[35.7667,-16.0665,635.9363],[35.7599,-16.072,639.8195],[35.7448,-16.0733,641.4075],[35.7376,-16.0766,630.0617],[35.7327,-16.0817,635.4826],[35.7206,-16.0864,632.3423],[35.7186,-16.0904,636.4467],[35.7112,-16.091,630.1066],[35.7092,-16.0995,634.7622],[35.7071,-16.1004,628.1763],[35.6964,-16.0988,624.3896],[35.691,-16.1013,619.3801],[35.6857,-16.1002,621.0389],[35.6841,-16.1036,616.2074],[35.6822,-16.104,613.3112],[35.6804,-16.1021,615.1044],[35.6837,-16.0987,617.3082],[35.6775,-16.0945,632.8911],[35.6771,-16.0972,615.1171],[35.6746,-16.0986,615.6288],[35.6724,-16.0938,621.6205],[35.6596,-16.1015,606.8577],[35.6296,-16.1131,595.3541],[35.6249,-16.1211,596.5115],[35.6206,-16.1207,603.7184],[35.6185,-16.1247,594.2646],[35.6059,-16.1243,600.1852],[35.6031,-16.1267,589.1566],[35.5955,-16.128,595.9512],[35.5925,-16.1323,589.9043],[35.5839,-16.1296,584.5003],[35.5791,-16.1234,585.7802],[35.5751,-16.126,586.4496],[35.5693,-16.1252,585.2377],[35.5709,-16.1302,581.4834],[35.5697,-16.1324,582.8276],[35.5643,-16.1287,585.2849],[35.5589,-16.1204,580.5464],[35.5571,-16.1202,585.4252],[35.555,-16.1221,584.3213],[35.5559,-16.1247,578.7468],[35.5525,-16.1325,582.9233],[35.5434,-16.1357,578.9518],[35.5439,-16.1394,577.4706],[35.542,-16.1442,578.5269],[35.5459,-16.1526,579.2933],[35.5408,-16.1609,615.4922],[35.5291,-16.1615,575.3003],[35.5254,-16.1668,573.08],[35.5187,-16.1656,574.0193],[35.5196,-16.159,573.5452],[35.5182,-16.1563,581.0532],[35.513,-16.1537,577.4078],[35.5059,-16.1552,574.8805],[35.5026,-16.1534,579.3278],[35.4986,-16.145,568.3542],[35.4918,-16.141,566.0096],[35.4886,-16.1419,566.8137],[35.4859,-16.1369,564.6294],[35.4877,-16.131,558.6818],[35.4854,-16.1266,551.2606],[35.4862,-16.1208,553.5344],[35.4851,-16.1196,553.5344],[35.4793,-16.1181,556.1758],[35.4732,-16.1209,550.8162],[35.4653,-16.1206,551.9469],[35.4514,-16.1158,541.0126],[35.4485,-16.1133,546.9819],[35.4297,-16.1119,546.1621],[35.4272,-16.1158,537.2527],[35.4212,-16.1175,552.6923],[35.4201,-16.1194,541.7505],[35.4142,-16.12,539.2208],[35.4053,-16.1238,531.7082],[35.4018,-16.1288,523.9258],[35.4022,-16.1329,519.7432],[35.398,-16.1371,532.8788],[35.3918,-16.148,508.9767],[35.3846,-16.154,509.1034],[35.3742,-16.1549,495.5734],[35.3496,-16.1771,442.9333],[35.3475,-16.1841,439.5925],[35.3446,-16.1855,438.4068],[35.3429,-16.1888,429.3755],[35.3399,-16.1905,423.6627],[35.3352,-16.1901,409.0167],[35.3316,-16.1955,395.7317],[35.3234,-16.1989,407.0307],[35.3202,-16.2035,381.7679],[35.3117,-16.2088,407.2794],[35.3084,-16.2125,390.5009],[35.3065,-16.2241,373.9063],[35.2967,-16.2297,364.692],[35.2927,-16.2404,358.5145],[35.2932,-16.2509,353.066],[35.2979,-16.265,325.4987],[35.2938,-16.2759,322.626],[35.2949,-16.2832,327.2489],[35.292,-16.2859,325.6413],[35.2779,-16.321,227.8269],[35.2871,-16.3397,313.5287],[35.2957,-16.3446,215.0226],[35.2976,-16.3492,205.375],[35.2972,-16.3547,173.198],[35.2879,-16.3672,162.5861],[35.2752,-16.3776,167.3157],[35.2648,-16.3917,132.5419],[35.2622,-16.4019,127.7801],[35.2636,-16.4053,125.8401],[35.2622,-16.4066,124.685],[35.2649,-16.4343,85.3825],[35.2624,-16.444,79.2485],[35.2635,-16.4593,71.4889],[35.2622,-16.4703,65.5616],[35.2558,-16.4807,73.8527],[35.2482,-16.4878,73.339],[35.2391,-16.4913,59.6202],[35.2192,-16.4933,58.0964],[35.2145,-16.4954,58.1095],[35.2125,-16.5,55.594],[35.2046,-16.5079,56.0396],[35.2103,-16.5138,55.6565],[35.2057,-16.5161,55.41],[35.199,-16.5146,62.1181],[35.1872,-16.517,53.9563],[35.1767,-16.5259,54.4135],[35.1781,-16.5347,52.1102],[35.1769,-16.5384,51.7301],[35.1629,-16.5461,50.0388],[35.1596,-16.5496,48.8576],[35.151,-16.5523,49.9632],[35.145,-16.5562,49.3279],[35.145,-16.5606,45.5103],[35.148,-16.5634,48.4948],[35.1472,-16.5686,48.3344],[35.1538,-16.5862,47.5998],[35.1548,-16.5972,46.592],[35.1575,-16.6,48.6885],[35.1587,-16.6055,44.6103],[35.1609,-16.6069,47.1785],[35.1705,-16.6048,47.855],[35.1719,-16.606,47.855],[35.1682,-16.6159,44.7384],[35.1701,-16.6203,45.9169],[35.1788,-16.6212,45.2253],[35.1831,-16.6245,46.0245],[35.187,-16.6252,45.558],[35.1983,-16.6349,45.6319],[35.2078,-16.6359,44.7814],[35.2155,-16.6532,45.3601],[35.2205,-16.6532,44.8542],[35.2247,-16.6509,45.4364],[35.2288,-16.6516,43.8557],[35.2318,-16.6616,44.232],[35.236,-16.6692,43.7054],[35.2446,-16.6749,43.983],[35.2422,-16.6811,44.1227],[35.2554,-16.6805,45.3014],[35.2613,-16.6922,42.0245],[35.2793,-16.7061,42.1424],[35.2853,-16.7154,42.0176],[35.2821,-16.732,42.2672],[35.2845,-16.7346,42.6196],[35.2944,-16.7372,42.8954],[35.2868,-16.7414,41.769],[35.2829,-16.7498,48.0712],[35.2894,-16.7594,41.8937],[35.2946,-16.7725,40.2792],[35.292,-16.7853,41.3354],[35.294,-16.7954,40.3923],[35.3055,-16.8063,39.5348],[35.3064,-16.8167,40.4206],[35.3122,-16.8279,38.5972],[35.3098,-16.8367,39.5099],[35.3052,-16.8426,38.7894],[35.3061,-16.8505,40.0957],[35.3044,-16.855,38.6364],[35.2948,-16.8684,38.1708],[35.2865,-16.8744,38.3996],[35.2831,-16.8851,37.4928],[35.2727,-16.8913,37.3313],[35.2734,-16.894,39.1147],[35.2778,-16.8944,38.6491],[35.2847,-16.898,38.3661],[35.2846,-16.8995,38.3661],[35.2743,-16.9141,37.6085],[35.2725,-16.9236,37.3275],[35.2678,-16.9266,39.2419],[35.2676,-16.9294,36.7117],[35.2706,-16.9327,37.7714],[35.2696,-16.9357,37.0099],[35.2654,-16.9361,37.2395],[35.2642,-16.9415,36.5387],[35.2651,-16.9451,37.2473],[35.2725,-16.9475,37.2723],[35.2741,-16.9496,36.2686],[35.2702,-16.9537,37.0927],[35.2699,-16.9586,37.1328],[35.2784,-16.9599,36.5857],[35.2828,-16.9647,36.811],[35.2968,-16.9625,36.464],[35.2978,-16.9725,36.7253],[35.3023,-16.981,36.3926],[35.3046,-16.9817,36.0302],[35.2959,-17.0015,35.3233],[35.2943,-17.0114,35.9049],[35.2951,-17.0219,37.1002],[35.2926,-17.0318,34.8623],[35.296,-17.038,35.8157],[35.2972,-17.0506,35.9319],[35.2954,-17.0543,35.1863],[35.2973,-17.0609,34.9864],[35.309,-17.0578,35.5827],[35.3126,-17.0603,35.2623],[35.3065,-17.0675,34.6388],[35.3077,-17.0785,34.9851],[35.3031,-17.0957,35.1715],[35.3064,-17.1032,35.5731],[35.3062,-17.1164,34.7622],[35.3101,-17.1209,35.5555],[35.3068,-17.1242,35.3599],[35.2988,-17.1241,34.7999],[35.297,-17.1262,34.0511],[35.2942,-17.1261,34.7727],[35.2909,-17.1376,34.5822],[35.2963,-17.1407,34.8805],[35.3036,-17.1407,34.9023],[35.3014,-17.1649,35.7677],[35.2951,-17.1696,35.0891],[35.3014,-17.1875,35.0503],[35.3081,-17.1946,34.0516],[35.3078,-17.2012,34.7216],[35.3115,-17.2081,35.3001],[35.3047,-17.2192,33.1042],[35.3035,-17.238,31.5858],[35.2959,-17.2413,31.7781],[35.2994,-17.2504,31.8725],[35.2948,-17.2681,31.049],[35.306,-17.2734,30.507],[35.3225,-17.2993,29.7297],[35.3251,-17.3156,29.5144],[35.3326,-17.3308,29.4156],[35.3188,-17.3329,29.4235],[35.3259,-17.4217,31.525],[35.3381,-17.4427,29.3901],[35.3345,-17.4507,29.2217],[35.3355,-17.4715,30.4532],[35.3344,-17.4802,29.7995],[35.3429,-17.4944,30.2683],[35.3395,-17.5168,32.1556],[35.335,-17.5276,33.5322],[35.3327,-17.5441,29.5229],[35.3307,-17.5485,30.2136],[35.3308,-17.5655,29.196],[35.3269,-17.5778,27.5],[35.3203,-17.587,29.8331],[35.3234,-17.597,28.4794],[35.3218,-17.6256,27.4632],[35.3362,-17.669,28.7036],[35.336,-17.6767,27.7249],[35.3297,-17.68,28.1538],[35.3178,-17.6796,27.0],[35.3146,-17.6857,28.8338],[35.318,-17.6914,28.4222],[35.3362,-17.6914,27.8003],[35.3623,-17.7238,26.9048],[35.3675,-17.7333,26.0],[35.3684,-17.74,26.0],[35.3649,-17.7582,25.5],[35.3903,-17.8021,23.5],[35.4198,-17.8361,22.5],[35.4467,-17.8742,24.6753],[35.4765,-17.9299,21.804],[35.4911,-17.9487,22.2344],[35.5026,-17.9577,20.1412],[35.5107,-17.9663,20.1525],[35.5209,-17.9837,20.8156],[35.5372,-17.9907,19.8333],[35.556399999999996,-17.9961,18.9786],[35.5599,-18.0041,19.3536],[35.5656,-18.0099,19.4767],[35.5838,-18.0181,17.6797],[35.677,-18.0344,15.0],[35.6905,-18.0422,16.7456],[35.7054,-18.0476,14.0],[35.7295,-18.0641,13.5],[35.7553,-18.0748,13.0],[35.7811,-18.0914,14.8738],[35.7941,-18.0977,15.4904],[35.8163,-18.1041,11.5],[35.8275,-18.1102,11.8881],[35.8374,-18.1225,11.0],[35.8414,-18.151,11.0],[35.8611,-18.174,12.5368],[35.8873,-18.2254,8.0],[35.8928,-18.2469,7.5],[35.903,-18.2616,10.4733],[35.909,-18.2658,6.5],[35.933,-18.2658,9.3079],[35.9494,-18.269,6.0],[35.9698,-18.2907,5.5],[35.9853,-18.3001,5.5],[35.9976,-18.3068,5.5],[36.0138,-18.3054,7.6863],[36.0259,-18.3248,7.1641],[36.0259,-18.3336,7.3763],[36.0326,-18.3394,5.0],[36.0585,-18.3423,6.5395],[36.0743,-18.355,5.6266],[36.0813,-18.3684,4.8013],[36.1187,-18.4643,3.4339],[36.1279,-18.4834,2.0],[36.1406,-18.5288,4.3327],[36.1425,-18.5458,5.4945],[36.1393,-18.566,4.5665],[36.1392,-18.5814,6.0705],[36.1458,-18.5928,6.7603],[36.1331,-18.5915,3.5373],[36.1272,-18.6086,4.4732],[36.1036,-18.6231,2.054],[36.1117,-18.6521,4.7125],[36.1074,-18.6656,3.3634],[36.1073,-18.6795,2.8327],[36.1478,-18.7139,1.9317],[36.1491,-18.7202,4.2356],[36.2551,-18.8123,2.8303],[36.2543,-18.8099,4.7774],[36.2632,-18.8046,1.1575],[36.2738,-18.8163,0.0],[36.2851,-18.8224,0.0],[36.291,-18.8285,0.0],[36.2982,-18.8326,1.4135],[36.301,-18.8371,0.0],[36.3007,-18.844,0.0],[36.3063,-18.8557,1.0755],[36.3093,-18.8585,0.0],[36.3079,-18.8626,0.0],[36.3151,-18.8604,0.0],[36.3251,-18.8521,0.0],[36.3726,-18.8065,0.0],[36.3749,-18.8015,0.0],[36.3735,-18.7965,0.0],[36.3718,-18.7949,0.0],[36.3688,-18.7957,0.0],[36.3654,-18.7924,5.1964],[36.3662,-18.7882,0.0],[36.3699,-18.7846,0.0],[36.3771,-18.7821,0.0],[36.381,-18.7835,0.0],[36.3835,-18.7879,0.0],[36.3865,-18.7868,0.0],[36.3876,-18.7879,0.0],[36.3893,-18.784,0.0],[36.3901,-18.779,2.0583],[36.3857,-18.7571,0.0],[36.389,-18.7393,0.0],[36.3935,-18.729,0.0],[36.3937,-18.7218,0.0],[36.3907,-18.7226,0.0],[36.3896,-18.7301,0.0],[36.3854,-18.7274,1.3893],[36.3821,-18.7282,7.8387],[36.3757,-18.7365,0.0],[36.374,-18.7435,8.2615],[36.3726,-18.7343,0.0],[36.3704,-18.7343,0.0],[36.3654,-18.7296,9.3644],[36.3715,-18.7185,2.9982],[36.3735,-18.7065,2.3523],[36.3801,-18.6985,0.0],[36.3807,-18.6826,3.8084],[36.3849,-18.6679,2.0971],[36.3863,-18.6668,3.5059],[36.3818,-18.6815,3.8084],[36.3835,-18.686,7.4585],[36.3863,-18.6849,7.1684],[36.3896,-18.6929,0.0],[36.4065,-18.6887,0.0],[36.4076,-18.6871,0.0],[36.4157,-18.6843,0.0],[36.4201,-18.6796,0.0],[36.4182,-18.6671,1.5772],[36.4276,-18.6451,1.2875],[36.4254,-18.6426,0.6577],[36.4226,-18.6451,0.0],[36.4246,-18.6468,2.9762],[36.4235,-18.6532,0.2929],[36.4174,-18.6537,2.0475],[36.4179,-18.6524,0.6312],[36.4235,-18.6518,0.734],[36.4221,-18.6476,2.4292],[36.4165,-18.6507,2.1641],[36.414,-18.6482,2.9089],[36.4115,-18.6499,4.2196],[36.4118,-18.6479,5.1344],[36.4188,-18.646,0.5428],[36.4207,-18.6424,1.7189],[36.4229,-18.6429,2.9996],[36.4265,-18.6387,2.5882],[36.4349,-18.636,0.0],[36.4343,-18.6315,0.4243],[36.4304,-18.6332,1.8683],[36.4293,-18.6324,3.8232],[36.4324,-18.631,2.4832],[36.4354,-18.6243,3.209],[36.4443,-18.6243,0.0],[36.4488,-18.6212,2.5824],[36.4512,-18.6154,3.078],[36.4576,-18.6101,2.7576],[36.464,-18.6115,2.9575],[36.4762,-18.6068,2.5526],[36.4793,-18.6035,0.0],[36.4813,-18.604,0.0],[36.484,-18.6015,0.0],[36.484,-18.5985,0.5132],[36.4785,-18.5982,6.355],[36.4754,-18.596,4.8422],[36.4732,-18.591,2.3411],[36.4693,-18.5912,3.2007],[36.4707,-18.5807,0.0],[36.4688,-18.5779,0.0],[36.4596,-18.5729,0.0],[36.4504,-18.5757,6.8655],[36.4521,-18.5732,7.2657],[36.4499,-18.5721,0.0],[36.4304,-18.5696,3.8679],[36.4301,-18.5626,2.3599],[36.4524,-18.5621,0.0],[36.4557,-18.559,3.3429],[36.4607,-18.5585,0.0]]],
[[[36.7885,-18.2313,2.7023],[36.7821,-18.2301,2.1239],[36.7801,-18.2335,0.628],[36.786,-18.2335,1.6754],[36.7893,-18.2318,2.7023],[36.7885,-18.2313,2.7023]]],
[[[36.7999,-18.2217,0.0],[36.7999,-18.2199,0.0],[36.7976,-18.2199,1.7154],[36.7854,-18.2237,1.4252],[36.7818,-18.2293,0.0],[36.7924,-18.2301,1.455],[36.7993,-18.2249,0.0],[36.7999,-18.2217,0.0]]],
[[[36.7679,-18.2032,9.1447],[36.7663,-18.2007,2.4801],[36.7635,-18.2035,5.2897],[36.7651,-18.2135,1.9629],[36.7751,-18.2218,5.1412],[36.7824,-18.2204,3.3122],[36.7854,-18.2151,0.0],[36.7846,-18.2115,2.6335],[36.7726,-18.2126,1.7228],[36.7679,-18.2032,9.1447]]],
[[[36.7907,-18.2115,0.0],[36.7907,-18.2099,0.0],[36.7888,-18.209,0.0],[36.7879,-18.2135,0.0],[36.7888,-18.2138,0.0],[36.7907,-18.2115,0.0]]],
[[[36.7715,-18.206,1.3119],[36.7701,-18.2049,3.4611],[36.7724,-18.2104,1.2776],[36.7765,-18.2121,0.0],[36.776,-18.2099,3.4183],[36.7715,-18.206,1.3119]]],
[[[36.8335,-18.2062,2.2197],[36.8349,-18.2065,0.0],[36.8349,-18.2024,0.0],[36.8324,-18.204,0.0],[36.8321,-18.2062,0.3302],[36.8335,-18.2062,2.2197]]],
[[[36.8001,-18.1993,0.0],[36.7974,-18.1985,0.4497],[36.7935,-18.201,0.0],[36.7968,-18.2087,0.0],[36.8007,-18.2076,0.0],[36.8015,-18.2049,1.8117],[36.8035,-18.2043,0.0],[36.8037,-18.2026,0.0],[36.801,-18.2021,1.2326],[36.8001,-18.1993,0.0]]],
[[[36.811,-18.2012,0.0],[36.8101,-18.1996,0.0],[36.8079,-18.1996,0.0],[36.8054,-18.2032,0.0],[36.8101,-18.2021,0.0],[36.811,-18.2012,0.0]]],
[[[36.5174,-18.5115,6.3862],[36.5157,-18.5107,1.2091],[36.5151,-18.5149,0.0],[36.5176,-18.5138,2.0391],[36.5174,-18.5115,6.3862]]],
[[[36.9451,-18.0279,0.0],[36.9437,-18.0265,0.0],[36.9404,-18.0274,0.0],[36.9401,-18.0335,1.5997],[36.9362,-18.0365,2.9749],[36.9376,-18.0424,2.1833],[36.9307,-18.0449,0.0],[36.9332,-18.0496,0.4635],[36.9326,-18.0546,1.4027],[36.9301,-18.0565,2.4656],[36.9243,-18.0574,0.0],[36.9254,-18.0671,1.0394],[36.921,-18.0696,2.0856],[36.9118,-18.0687,1.0499],[36.9104,-18.0699,1.0827],[36.9104,-18.0762,0.8087],[36.9076,-18.0807,0.0],[36.9087,-18.0888,0.9173],[36.904,-18.0915,1.8983],[36.8993,-18.0896,2.4657],[36.8968,-18.091,0.7353],[36.8918,-18.0979,2.2716],[36.8946,-18.1043,1.9374],[36.8937,-18.1099,2.5673],[36.884,-18.1093,0.0],[36.8829,-18.1104,1.9029],[36.8807,-18.1137,0.0],[36.8815,-18.126,0.0],[36.8726,-18.1382,1.2099],[36.8646,-18.1443,0.0],[36.8654,-18.1476,0.0],[36.8732,-18.1501,0.0],[36.8779,-18.154,2.9154],[36.8776,-18.1632,0.0],[36.8793,-18.1629,0.0],[36.886,-18.1507,2.7845],[36.909,-18.1224,0.0],[36.959,-18.0732,2.5879],[36.9674,-18.0624,3.5697],[36.9671,-18.0557,2.4974],[36.9651,-18.0532,2.6966],[36.9682,-18.044,1.2123],[36.9665,-18.0387,0.0],[36.959,-18.0332,1.2063],[36.9604,-18.0387,5.3883],[36.959,-18.0415,1.2572],[36.9574,-18.0412,1.2385],[36.9549,-18.0365,0.4866],[36.9451,-18.0279,0.0]]],
[[[36.9388,-18.034,1.7712],[36.9399,-18.0265,0.0],[36.9246,-18.0285,0.0],[36.9232,-18.0293,0.0],[36.9232,-18.0407,1.387],[36.9293,-18.0404,2.4132],[36.9365,-18.0424,1.1252],[36.9354,-18.0365,2.9502],[36.9388,-18.034,1.7712]]],
[[[36.9518,-18.0279,0.0],[36.9512,-18.0265,0.0],[36.9496,-18.0287,0.0],[36.9512,-18.0287,0.0],[36.9518,-18.0279,0.0]]],
[[[36.9549,-18.0274,0.0],[36.9546,-18.0257,0.0],[36.9529,-18.0265,0.0],[36.9538,-18.0287,0.0],[36.9549,-18.0274,0.0]]],
[[[36.9201,-17.9743,0.0],[36.906,-17.9746,0.0],[36.9085,-18.0001,0.0],[36.9157,-18.0196,0.0],[36.9212,-18.0254,1.333],[36.9257,-18.0257,0.0],[36.9282,-18.0212,0.9329],[36.9368,-18.0163,0.0],[36.9368,-18.014,0.0],[36.9388,-18.016,0.0],[36.9404,-18.0154,0.0],[36.9449,-18.006,0.0],[36.9501,-17.9993,0.0],[36.9482,-17.9954,0.0],[36.9463,-17.9965,0.0],[36.9454,-17.9999,0.0],[36.9429,-17.9982,0.7525],[36.9432,-17.9962,8.9648],[36.9471,-17.994,0.0],[36.9385,-17.9793,0.0],[36.9315,-17.9762,0.0],[36.9201,-17.9743,0.0]]],
[[[37.1335,-17.6951,1.1624],[37.1276,-17.6943,0.0],[37.1246,-17.6968,0.0],[37.1268,-17.709,0.0],[37.121,-17.719,1.8691],[37.1138,-17.7251,2.4403],[37.1076,-17.7268,0.6235],[37.0999,-17.7315,0.7643],[37.1051,-17.7432,1.5055],[37.1107,-17.7418,1.0118],[37.1157,-17.7426,1.9126],[37.1179,-17.7443,0.9444],[37.1213,-17.7518,2.7685],[37.1185,-17.7543,1.1619],[37.1126,-17.7515,2.1101],[37.1096,-17.754,0.9777],[37.1035,-17.7524,0.9109],[37.0999,-17.7546,2.3965],[37.0954,-17.751,0.0],[37.0926,-17.7521,0.0],[37.0935,-17.7568,5.2461],[37.0976,-17.759,0.6692],[37.101,-17.7588,1.4544],[37.1021,-17.7604,2.7085],[37.0971,-17.7663,1.5676],[37.099,-17.771,0.9676],[37.0929,-17.7768,2.6183],[37.0938,-17.7799,3.5239],[37.0988,-17.7801,1.1116],[37.1021,-17.7829,0.3485],[37.1035,-17.7824,0.5355],[37.1029,-17.774,0.3905],[37.1093,-17.7715,0.6404],[37.1099,-17.7654,2.1721],[37.1124,-17.7637,1.0662],[37.1215,-17.7626,0.7916],[37.131,-17.7526,1.4976],[37.1343,-17.7521,1.3359],[37.1393,-17.7551,1.5998],[37.1437,-17.7557,2.8322],[37.1493,-17.754,1.205],[37.1529,-17.7507,2.7529],[37.1565,-17.7504,0.7693],[37.1576,-17.7449,2.7657],[37.1624,-17.7418,1.6918],[37.1549,-17.7418,1.9992],[37.1535,-17.7363,3.4563],[37.1424,-17.7301,1.8335],[37.154,-17.7351,2.9977],[37.1551,-17.7407,1.7904],[37.1593,-17.7396,1.2059],[37.1635,-17.7412,1.4876],[37.1635,-17.7429,1.6918],[37.1585,-17.7465,2.5615],[37.1568,-17.7532,1.1326],[37.1576,-17.7554,0.0],[37.1629,-17.7557,3.7372],[37.164,-17.7599,3.6453],[37.1596,-17.7649,2.294],[37.1521,-17.7654,0.0],[37.1518,-17.7679,3.0271],[37.1632,-17.7693,1.6422],[37.1707,-17.7674,0.7129],[37.1746,-17.7637,0.0],[37.1738,-17.751,2.1165],[37.1785,-17.7457,0.0],[37.1779,-17.7376,3.9386],[37.1815,-17.734,0.0],[37.1771,-17.7226,0.8568],[37.176,-17.7118,1.7974],[37.1726,-17.7085,0.0],[37.169,-17.7079,0.0],[37.166,-17.7088,0.9805],[37.1596,-17.7143,0.4922],[37.1538,-17.7151,2.1375],[37.1501,-17.714,0.7626],[37.1424,-17.7076,1.5645],[37.1371,-17.6982,2.3192],[37.1335,-17.6951,1.1624]]],
[[[37.331,-17.6774,0.0],[37.3312,-17.6765,0.0],[37.3304,-17.6751,0.0],[37.3293,-17.6774,0.0],[37.331,-17.6774,0.0]]],
[[[37.5896,-17.539,0.0],[37.5882,-17.5371,0.0],[37.5874,-17.5401,0.0],[37.589,-17.5432,0.0],[37.591,-17.5415,0.0],[37.5896,-17.539,0.0]]],
[[[37.6043,-17.5404,0.0],[37.6043,-17.5396,0.0],[37.6013,-17.5396,0.0],[37.6015,-17.5404,0.0],[37.6043,-17.5404,0.0]]],
[[[37.5893,-17.5365,0.0],[37.5901,-17.5349,0.0],[37.5874,-17.5354,0.0],[37.5879,-17.5365,0.0],[37.5893,-17.5365,0.0]]],
[[[37.5926,-17.5351,0.0],[37.5918,-17.5337,0.0],[37.5907,-17.534,0.0],[37.5932,-17.5362,0.0],[37.5926,-17.5351,0.0]]],
[[[37.6996,-17.4785,0.0],[37.6974,-17.4765,0.0],[37.6904,-17.4821,0.0],[37.6907,-17.4849,0.0],[37.6924,-17.484,0.0],[37.6965,-17.4885,0.0],[37.7001,-17.489,0.0],[37.699,-17.4862,0.0],[37.7012,-17.4865,0.0],[37.6993,-17.4849,0.0],[37.7021,-17.4846,0.0],[37.7021,-17.4826,0.0],[37.7043,-17.4837,0.0],[37.6996,-17.4785,0.0]]],
[[[36.8174,-18.1954,0.0],[36.8179,-18.194,0.0],[36.816,-18.194,0.0],[36.8115,-18.2004,0.0],[36.8146,-18.1999,0.0],[36.8174,-18.1954,0.0]]],
[[[36.8754,-18.1682,0.4016],[36.8735,-18.1662,0.0],[36.8668,-18.1693,0.0],[36.856,-18.1712,0.0],[36.8424,-18.1704,0.8328],[36.8385,-18.1718,0.4606],[36.8382,-18.176,0.0],[36.8454,-18.1815,0.0],[36.8771,-18.1871,0.0],[36.8807,-18.1832,0.0],[36.8782,-18.1751,1.9956],[36.879,-18.171,0.0],[36.8754,-18.1682,0.4016]]],
[[[36.9079,-17.9657,1.2642],[36.9054,-17.9646,0.7809],[36.9051,-17.9674,1.144],[36.9099,-17.9724,0.7286],[36.9174,-17.9696,0.0],[36.9124,-17.9668,0.5061],[36.9079,-17.9657,1.2642]]],
[[[36.909,-17.9612,6.6459],[36.9087,-17.9607,10.0281],[36.9057,-17.9601,9.3622],[36.9063,-17.9615,1.5064],[36.909,-17.9612,6.6459]]],
[[[36.9065,-17.9374,3.6922],[36.9057,-17.934,0.0],[36.9012,-17.9363,3.2407],[36.8996,-17.9418,0.0],[36.8999,-17.9499,0.0],[36.904,-17.9587,8.952],[36.9115,-17.9607,0.0],[36.9107,-17.9504,0.0],[36.9065,-17.9374,3.6922]]],
[[[37.3374,-17.6765,0.0],[37.3365,-17.6754,0.0],[37.334,-17.6754,0.0],[37.3365,-17.6774,0.0],[37.3374,-17.6765,0.0]]],
[[[37.3379,-17.6726,0.0],[37.3371,-17.6715,0.0],[37.3357,-17.6718,0.0],[37.3374,-17.6732,0.0],[37.3379,-17.6726,0.0]]],
[[[37.6893,-17.4851,0.0],[37.6885,-17.4824,0.0],[37.6899,-17.4801,0.0],[37.6879,-17.4815,0.0],[37.6879,-17.4837,0.0],[37.6893,-17.4851,0.0]]],
[[[38.084,-17.2018,2.3123],[38.0788,-17.201,1.5],[38.0849,-17.2154,6.082],[38.0907,-17.2213,1.5],[38.0907,-17.219,3.3031],[38.0943,-17.2165,1.7362],[38.0935,-17.2112,1.5],[38.0899,-17.2057,1.5],[38.084,-17.2018,2.3123]]],
[[[38.076,-17.2068,1.5],[38.074,-17.2051,1.5],[38.0776,-17.2124,1.5],[38.0779,-17.2099,1.5],[38.076,-17.2068,1.5]]],
[[[38.8812,-17.2321,4.1186],[38.8754,-17.231,0.0],[38.874,-17.2337,8.398],[38.8768,-17.2371,0.0],[38.8846,-17.2357,0.0],[38.8846,-17.2335,0.0],[38.8812,-17.2321,4.1186]]],
[[[39.0779,-17.1201,0.0],[39.0776,-17.1188,0.0],[39.0721,-17.1182,3.4579],[39.0679,-17.1196,5.4323],[39.0674,-17.1212,5.4323],[39.0685,-17.1238,0.0],[39.0701,-17.1238,0.0],[39.0779,-17.1201,0.0]]],
[[[39.1229,-17.0876,0.0],[39.1185,-17.0865,0.0],[39.1157,-17.0899,0.0],[39.1201,-17.0929,3.9136],[39.1257,-17.0915,0.0],[39.1265,-17.0896,3.4348],[39.1229,-17.0876,0.0]]],
[[[38.6749,-17.0704,0.0],[38.6754,-17.0679,0.0],[38.6724,-17.0713,0.0],[38.6743,-17.0721,0.0],[38.6749,-17.0704,0.0]]],
[[[38.4676,-17.1482,0.0],[38.4657,-17.1468,0.0],[38.4635,-17.1487,0.0],[38.4665,-17.1493,0.0],[38.4676,-17.1482,0.0]]],
[[[38.4696,-17.1463,0.0],[38.4685,-17.1449,0.0],[38.4668,-17.1451,0.0],[38.4674,-17.1468,0.0],[38.4696,-17.1463,0.0]]],
[[[38.4618,-17.1457,0.0],[38.4613,-17.1443,0.0],[38.4571,-17.1443,0.0],[38.4543,-17.1471,3.6355],[38.4593,-17.1474,2.7134],[38.4618,-17.1457,0.0]]],
[[[38.5235,-17.1304,0.0],[38.5235,-17.1276,0.0],[38.5213,-17.1271,0.0],[38.521,-17.1287,0.0],[38.5235,-17.1304,0.0]]],
[[[38.4965,-17.1285,0.0],[38.4946,-17.1254,0.0],[38.4935,-17.1285,0.0],[38.4957,-17.1304,0.0],[38.4965,-17.1285,0.0]]],
[[[38.4993,-17.1251,0.0],[38.4976,-17.1224,0.0],[38.4971,-17.1249,0.0],[38.4987,-17.1276,0.0],[38.4993,-17.1251,0.0]]],
[[[38.4965,-17.1196,0.0],[38.4968,-17.1176,0.0],[38.4957,-17.1174,0.0],[38.496,-17.1201,0.0],[38.4965,-17.1196,0.0]]],
[[[38.4987,-17.1157,0.0],[38.4951,-17.114,0.0],[38.4982,-17.1168,0.0],[38.4982,-17.1196,0.0],[38.4996,-17.1171,0.0],[38.4987,-17.1157,0.0]]],
[[[38.5768,-17.1118,0.0],[38.579,-17.1112,0.0],[38.5793,-17.1104,0.0],[38.5774,-17.1104,0.0],[38.5768,-17.1118,0.0]]],
[[[38.5868,-17.0982,0.0],[38.5857,-17.0963,0.0],[38.5838,-17.0987,0.0],[38.5868,-17.0996,0.0],[38.5879,-17.1021,0.0],[38.5882,-17.1001,0.0],[38.5868,-17.0982,0.0]]],
[[[38.5938,-17.0974,0.0],[38.5921,-17.0957,0.0],[38.5904,-17.0993,0.0],[38.5915,-17.1018,0.0],[38.5926,-17.1021,0.0],[38.5938,-17.0974,0.0]]],
[[[38.5904,-17.0969,0.0],[38.5896,-17.0976,0.0],[38.5893,-17.0987,0.0],[38.591,-17.0974,0.0],[38.5904,-17.0969,0.0]]],
[[[38.6657,-17.0793,0.0],[38.659,-17.0799,0.125],[38.6624,-17.0799,0.0],[38.661,-17.0812,0.0],[38.6626,-17.0821,0.0],[38.6674,-17.079,0.0],[38.6657,-17.0793,0.0]]],
[[[38.5782,-17.0799,1.0],[38.5762,-17.0785,1.0],[38.5751,-17.0793,4.5246],[38.5785,-17.0815,0.5],[38.5782,-17.0799,1.0]]],
[[[38.6707,-17.074,0.0],[38.6701,-17.0724,0.0],[38.6688,-17.0729,0.0],[38.6699,-17.0746,0.0],[38.6707,-17.074,0.0]]],
[[[38.6701,-17.046,0.5],[38.6693,-17.0462,0.5],[38.6682,-17.0451,0.5],[38.6693,-17.0471,0.5],[38.6701,-17.046,0.5]]],
[[[38.6732,-17.0618,0.0],[38.671,-17.061,0.5],[38.671,-17.0687,0.0],[38.6743,-17.0663,0.0],[38.6732,-17.0618,0.0]]],
[[[38.6771,-17.0618,0.0],[38.6749,-17.0596,0.0],[38.6751,-17.0626,0.0],[38.6771,-17.0635,0.0],[38.6771,-17.0618,0.0]]],
[[[38.8382,-17.0482,1.0364],[38.8387,-17.0468,3.3428],[38.8371,-17.0468,3.3428],[38.8368,-17.0485,4.2867],[38.8382,-17.0482,1.0364]]],
[[[38.6726,-17.0421,1.2995],[38.6712,-17.041,0.5],[38.6696,-17.0412,0.5],[38.6704,-17.0432,2.2644],[38.6726,-17.0421,1.2995]]],
[[[38.6768,-17.0338,0.5],[38.6782,-17.0326,0.5],[38.674,-17.0324,0.5194],[38.6754,-17.0335,0.5],[38.6768,-17.0338,0.5]]],
[[[39.0849,-16.9474,1.0],[39.0835,-16.9457,8.9244],[39.0843,-16.9512,1.0],[39.0818,-16.9549,1.0],[39.0871,-16.9529,1.0],[39.0849,-16.9474,1.0]]],
[[[39.0713,-16.9349,7.636],[39.0679,-16.934,1.5],[39.0629,-16.9365,1.5],[39.0624,-16.9399,1.5],[39.0643,-16.9435,1.5],[39.0596,-16.9518,9.8853],[39.0776,-16.9546,1.25],[39.0829,-16.9499,1.0],[39.0832,-16.9371,1.0],[39.0788,-16.9374,2.0671],[39.0713,-16.9349,7.636]]],
[[[39.0824,-16.9315,1.125],[39.0829,-16.9299,1.25],[39.0815,-16.9318,2.004],[39.0818,-16.9337,1.0],[39.081,-16.9329,2.004],[39.0801,-16.9346,1.5],[39.0846,-16.9326,1.0],[39.084,-16.9324,1.0],[39.0824,-16.9329,1.125],[39.0824,-16.9315,1.125]]],
[[[39.0788,-16.9307,1.5],[39.0746,-16.9296,3.4984],[39.0765,-16.9332,1.5],[39.0793,-16.9326,1.5629],[39.0788,-16.9307,1.5]]],
[[[39.1079,-16.9262,0.0],[39.1093,-16.9254,0.0],[39.1079,-16.9254,0.0],[39.1065,-16.9271,0.0],[39.1076,-16.9271,0.0],[39.1079,-16.9262,0.0]]],
[[[39.1213,-16.9071,0.0],[39.1221,-16.9076,0.0],[39.1235,-16.9054,0.0],[39.1218,-16.906,0.0],[39.1213,-16.9071,0.0]]],
[[[39.1271,-16.8996,1.0159],[39.1268,-16.899,3.0427],[39.126,-16.9021,0.5],[39.1276,-16.9015,1.916],[39.1271,-16.8996,1.0159]]],
[[[39.1254,-16.8982,3.0427],[39.1237,-16.8971,1.1517],[39.1229,-16.8971,1.1517],[39.1237,-16.8987,2.2528],[39.1254,-16.8982,3.0427]]]]}
,"properties": {"GID_1": "MOZ.11_1","GID_0": "MOZ","country": "Mozambique","province": "Zambezia","VARNAME_1": "NA","NL_NAME_1": "NA","TYPE_1": "Provincia","ENGTYPE_1": "Province","CC_1": "NA","HASC_1": "MZ.ZA","ISO_1": "MZ-Q","name": "Zambezia.province","area_km2": 103312.11,"hist_schema_id": "Elevation0-9000","hist_area_km2": {"0": 12248.48,"25": 5842.25,"50": 5539.59,"75": 5163.01,"100": 4700.38,"125": 4401.21,"150": 4244.38,"175": 3897.34,"200": 3631.04,"225": 3427.9,"250": 3305.21,"275": 3213.13,"300": 3099.03,"325": 2868.21,"350": 2742.44,"375": 2692.48,"400": 2285.12,"425": 1972.63,"450": 1796.04,"475": 1734.13,"500": 1716.08,"525": 1635.83,"550": 1563.24,"575": 1509.63,"600": 1523.07,"625": 1932.23,"650": 2423.55,"675": 2197.88,"700": 1858.87,"725": 1539.17,"750": 1288.46,"775": 1141.84,"800": 883.78,"825": 519.8,"850": 326.03,"875": 228.23,"900": 176.76,"925": 158.31,"950": 142.87,"975": 129.46,"1000": 118.21,"1025": 108.21,"1050": 105.87,"1075": 109.05,"1100": 97.86,"1125": 93.05,"1150": 87.8,"1175": 78.36,"1200": 74.45,"1225": 71.54,"1250": 66.95,"1275": 62.01,"1300": 58.92,"1325": 54.75,"1350": 49.13,"1375": 43.41,"1400": 38.87,"1425": 36.55,"1450": 32.63,"1475": 27.64,"1500": 23.12,"1525": 20.46,"1550": 18.36,"1575": 15.6,"1600": 16.23,"1625": 13.97,"1650": 12.56,"1675": 11.72,"1700": 10.94,"1725": 8.83,"1750": 7.91,"1775": 6.4,"1800": 5.33,"1825": 4.25,"1850": 4.25,"1875": 3.9,"1900": 2.64,"1925": 2.45,"1950": 1.76,"1975": 1.92,"2000": 1.08,"2025": 0.86}}}