{"type":"Feature","properties":{"GID_3":"MOZ.7.17.2_1","GID_0":"MOZ","country":"Mozambique","GID_1":"MOZ.7_1","province":"Nampula","NL_NAME_1":"NA","GID_2":"MOZ.7.17_1","county":"Nampula","NL_NAME_2":"NA","city":"CidadeDeNampula","VARNAME_3":"NA","NL_NAME_3":"NA","TYPE_3":"Localidad","ENGTYPE_3":"Locality","CC_3":"NA","HASC_3":"NA","name":"Cidade_De_Nampula.city"},
"geometry":{"type": "MultiPolygon","coordinates": [[[[39.3595,-15.1033,365.0717],[39.3589,-15.0938,359.9541],[39.3633,-15.0762,325.6972],[39.3905,-15.031,279.9041],[39.3696,-15.0341,293.4081],[39.3491,-15.029,295.6095],[39.3271,-15.0258,316.8475],[39.3048,-15.0334,304.4964],[39.2951,-15.0339,319.208],[39.2872,-15.0276,316.7623],[39.2804,-15.0253,320.4693],[39.2596,-15.0261,341.6973],[39.2534,-15.0221,333.4778],[39.2381,-15.0264,339.6661],[39.2307,-15.0307,338.3964],[39.2267,-15.0298,349.6157],[39.2226,-15.0265,347.3247],[39.2132,-15.0298,349.8701],[39.1973,-15.0223,373.5827],[39.1875,-15.0248,377.4585],[39.182,-15.0351,384.5651],[39.1795,-15.048,409.6946],[39.1726,-15.0587,411.976],[39.1671,-15.0738,395.4246],[39.1694,-15.0834,368.6709],[39.1701,-15.1256,354.331],[39.1748,-15.1516,379.9986],[39.1825,-15.1604,387.4132],[39.1907,-15.1759,395.158],[39.2001,-15.1842,383.1789],[39.2208,-15.1873,329.4996],[39.2247,-15.1974,319.4246],[39.2305,-15.1998,296.9656],[39.2462,-15.1796,310.9767],[39.2542,-15.174,331.0974],[39.2623,-15.1748,325.231],[39.29,-15.1683,354.0914],[39.3083,-15.173,413.3763],[39.322,-15.1647,384.6992],[39.3561,-15.1502,379.8608],[39.3522,-15.1193,406.1592],[39.3595,-15.1033,365.0717]]]]}}