{"type":"Feature","properties":{"GID_3":"MOZ.7.1.4_1","GID_0":"MOZ","country":"Mozambique","GID_1":"MOZ.7_1","province":"Nampula","NL_NAME_1":"NA","GID_2":"MOZ.7.1_1","county":"Angoche","NL_NAME_2":"NA","city":"Namaponda","VARNAME_3":"NA","NL_NAME_3":"NA","TYPE_3":"Localidad","ENGTYPE_3":"Locality","CC_3":"NA","HASC_3":"NA","name":"Namaponda.city"},
"geometry":{"type": "MultiPolygon","coordinates": [[[[40.0462,-16.0739,1.7675],[40.0496,-16.0643,0.0],[40.0612,-16.0474,0.0],[40.0624,-16.0415,0.845],[40.061,-16.0285,1.4772],[40.0476,-16.029,1.6597],[40.0529,-16.0271,1.7678],[40.059,-16.0268,0.0],[40.0657,-16.021,0.0],[40.0654,-16.0185,0.0],[40.059,-16.0132,1.9662],[40.0521,-16.011,2.4091],[40.056,-16.0107,2.1264],[40.0618,-16.0151,0.0],[40.0649,-16.0151,0.0],[40.0707,-16.0063,0.7874],[40.0812,-15.9987,3.0489],[40.0901,-15.9971,1.1632],[40.0985,-15.9987,0.0],[40.0996,-15.9968,2.7617],[40.0965,-15.9924,1.113],[40.0965,-15.9896,1.625],[40.0976,-15.9882,0.5283],[40.1015,-15.9876,0.8821],[40.1021,-15.9854,1.0026],[40.0962,-15.9854,1.7019],[40.0979,-15.9843,4.3795],[40.1012,-15.984,1.8529],[40.1026,-15.9849,2.2361],[40.1024,-15.9882,1.9704],[40.0979,-15.9888,0.5283],[40.0971,-15.9901,1.625],[40.1015,-15.9976,1.8748],[40.1051,-15.9982,0.0],[40.109,-15.9957,1.5642],[40.1138,-15.9896,0.0],[40.114,-15.984,2.4316],[40.1218,-15.9682,0.0],[40.1165,-15.9607,1.4045],[40.1182,-15.9543,2.1667],[40.1174,-15.9493,3.983],[40.1199,-15.9457,1.8026],[40.1285,-15.9429,0.8533],[40.134,-15.9371,2.9686],[40.1401,-15.9365,0.0],[40.1424,-15.9268,1.7451],[40.1437,-15.9268,0.0],[40.1421,-15.921,1.8514],[40.1426,-15.9128,1.7621],[40.1375,-15.914,6.2678],[40.1329,-15.9174,5.981],[40.1297,-15.9171,4.1318],[40.1264,-15.9209,5.0704],[40.1163,-15.9184,2.2178],[40.1124,-15.915,3.8832],[40.0864,-15.9172,4.6284],[40.0725,-15.9144,5.2715],[40.0547,-15.9011,11.7231],[40.0454,-15.9016,11.4485],[40.0347,-15.905,12.7878],[40.0148,-15.8903,16.09],[40.0009,-15.8835,19.0411],[39.9972,-15.8831,20.4126],[39.9862,-15.8633,22.2213],[39.9788,-15.8604,20.4996],[39.9718,-15.8611,21.4941],[39.9578,-15.8546,24.0196],[39.9419,-15.8508,35.7628],[39.919,-15.8511,28.5105],[39.8966,-15.8355,43.2207],[39.8898,-15.8326,34.8886],[39.8879,-15.824,32.617],[39.8983,-15.8148,36.9742],[39.8981,-15.8095,47.8977],[39.8873,-15.8113,36.5302],[39.8797,-15.8086,42.3398],[39.8801,-15.7951,44.8002],[39.8727,-15.7847,46.6],[39.8745,-15.7686,59.0307],[39.8815,-15.7581,53.1086],[39.8779,-15.7481,50.1586],[39.8707,-15.738,51.2208],[39.8642,-15.7347,56.9575],[39.8582,-15.7189,56.2097],[39.8313,-15.7165,59.1859],[39.8151,-15.7178,62.1258],[39.8053,-15.7138,72.814],[39.7889,-15.7255,79.4826],[39.7841,-15.7331,90.1219],[39.777,-15.739,107.3755],[39.7661,-15.7643,84.6904],[39.7645,-15.7684,76.8694],[39.7823,-15.7814,75.1646],[39.7934,-15.7982,66.4239],[39.8122,-15.8053,53.2922],[39.8203,-15.8195,50.8285],[39.8172,-15.8225,49.7359],[39.7925,-15.8225,73.9687],[39.7832,-15.8255,82.9818],[39.7801,-15.8285,92.221],[39.7677,-15.8344,101.702],[39.743,-15.8292,86.0884],[39.7237,-15.8295,101.9712],[39.717,-15.8277,102.1747],[39.7055,-15.8195,107.1283],[39.689,-15.8209,106.5678],[39.6811,-15.8285,119.0968],[39.678,-15.8494,131.5121],[39.6996,-15.8792,92.6247],[39.7089,-15.8881,82.6192],[39.7337,-15.906,72.6511],[39.7383,-15.915,58.8138],[39.7244,-15.915,62.5037],[39.712,-15.918,72.7403],[39.7058,-15.9209,75.4404],[39.6996,-15.9269,89.9287],[39.6647,-15.9265,79.3399],[39.7051,-15.9712,86.7222],[39.7121,-15.977,110.5713],[39.7563,-15.9836,84.5428],[39.8191,-15.9876,50.3014],[39.8703,-15.9999,55.197],[39.9008,-16.001,36.0687],[39.9128,-16.0066,23.7465],[39.9181,-16.0124,36.0073],[39.9336,-16.0199,25.4603],[39.9408,-16.0336,19.7676],[39.9562,-16.0371,21.8473],[39.9645,-16.0309,14.5609],[39.9759,-16.0185,13.9023],[39.9891,-16.0101,12.0716],[39.9988,-15.9958,9.5586],[40.0086,-15.9855,3.8719],[40.0119,-15.9833,4.2728],[40.0238,-15.985,2.1272],[40.0429,-15.9983,2.7802],[40.0466,-16.0082,1.8657],[40.0481,-16.0086,2.1632],[40.0373,-16.0108,11.4636],[40.0348,-16.0143,11.4495],[40.0465,-16.017,11.846],[40.0502,-16.0215,3.1277],[40.0463,-16.0273,1.9956],[40.0412,-16.03,1.8734],[40.0413,-16.0325,1.8051],[40.0492,-16.0359,1.7102],[40.0505,-16.0387,2.4064],[40.041,-16.0713,1.4792],[40.0417,-16.0779,1.8262],[40.0462,-16.0739,1.7675]]]]}}