{"type": "Feature","bbox": [33.3891,-21.0057,34.4203,-19.7629],"geometry": {"type": "MultiPolygon","coordinates": [[[[33.8967,-21.0021,85.454],[33.9768,-21.0057,65.0633],[33.987,-20.9966,66.1519],[33.9979,-20.9919,63.1043],[34.0026,-20.9914,63.8689],[34.0157,-20.9793,68.5433],[34.0279,-20.9762,63.08],[34.0411,-20.9676,64.4336],[34.0483,-20.9546,60.4919],[34.0582,-20.9191,59.4213],[34.0644,-20.9077,60.2221],[34.0733,-20.8979,59.9578],[34.0913,-20.892,55.0269],[34.0984,-20.8873,52.9701],[34.1054,-20.8722,53.4007],[34.1128,-20.8631,52.0301],[34.1214,-20.8562,49.868],[34.1299,-20.8518,49.265],[34.1419,-20.8502,50.0358],[34.1488,-20.8475,47.4579],[34.155,-20.8284,48.6237],[34.1662,-20.8188,44.0505],[34.173,-20.8149,44.3855],[34.1886,-20.8149,42.5607],[34.1931,-20.8191,43.6203],[34.1977,-20.8278,41.3968],[34.2108,-20.8282,40.2556],[34.2249,-20.8258,38.249],[34.2303,-20.8195,38.993],[34.2394,-20.8131,35.5725],[34.2462,-20.7966,36.676],[34.2548,-20.7859,38.5719],[34.2597,-20.7871,35.1632],[34.2695,-20.7851,34.2802],[34.2768,-20.7887,34.2665],[34.361,-20.6657,57.9491],[34.4203,-20.5433,37.1109],[34.4101,-20.5356,40.9452],[34.3781,-20.5323,46.6004],[34.333,-20.5471,56.8553],[34.3006,-20.5257,58.9767],[34.2978,-20.5089,66.7889],[34.2851,-20.5017,62.6114],[34.2812,-20.4946,60.9217],[34.2769,-20.4773,64.3052],[34.2772,-20.4701,68.5529],[34.2795,-20.4636,68.9758],[34.2725,-20.4248,75.4063],[34.2677,-20.4068,78.9969],[34.237,-20.3971,93.2109],[34.2309,-20.3971,97.6556],[34.2186,-20.3912,103.8842],[34.1972,-20.3912,112.2084],[34.1789,-20.388,125.265],[34.168,-20.3824,135.9853],[34.1422,-20.3647,148.8971],[34.1285,-20.3577,156.6654],[33.9637,-20.153,243.5238],[33.943,-20.1249,239.99],[33.9355,-20.1126,230.1608],[33.9358,-20.104,216.327],[33.9375,-20.0999,213.3777],[33.9468,-20.0861,189.8387],[33.9646,-20.0685,172.1287],[33.9766,-20.0601,169.2516],[33.9859,-20.0451,154.2277],[33.9977,-20.0325,146.3609],[33.9993,-20.0236,131.116],[34.006,-20.0062,121.128],[34.0115,-20.0,119.9093],[34.0169,-19.9978,104.8378],[34.0236,-19.9622,94.6857],[34.0445,-19.9407,35.3044],[34.0434,-19.9323,31.5183],[34.0592,-19.8788,28.1518],[34.0659,-19.8683,26.5043],[34.0595,-19.8603,28.8974],[34.0463,-19.8272,26.1355],[34.0422,-19.8216,26.5908],[34.0329,-19.8195,31.4232],[34.0262,-19.8226,32.6253],[33.9995,-19.8157,37.5675],[33.9844,-19.8298,34.3184],[33.9729,-19.832,31.7253],[33.9648,-19.8219,36.298],[33.962,-19.8075,40.2187],[33.9544,-19.7987,36.2165],[33.938,-19.7955,45.3176],[33.9199,-19.7891,45.5797],[33.9084,-19.7686,54.8273],[33.8925,-19.7629,55.8657],[33.8679,-19.777,55.3904],[33.8594,-19.776,60.5292],[33.8518,-19.7707,64.7366],[33.8481,-19.77,50.9546],[33.827,-19.8123,119.1167],[33.8286,-19.9265,39.4294],[33.7857,-19.9511,52.8645],[33.7721,-19.9699,47.652],[33.7609,-19.9889,62.2582],[33.7324,-19.9877,68.2814],[33.6847,-19.9471,121.5176],[33.6647,-19.9328,131.3928],[33.631,-19.9448,129.3191],[33.6123,-19.9363,131.6436],[33.6009,-19.9188,135.5604],[33.5982,-19.9362,126.4115],[33.5546,-19.9594,131.3022],[33.5372,-19.9827,137.4321],[33.5301,-19.9883,138.0642],[33.5179,-19.9852,140.8869],[33.5103,-19.9886,138.7684],[33.5038,-20.0087,141.6817],[33.4854,-19.9937,140.7597],[33.4796,-19.9984,142.9624],[33.4768,-20.0038,144.8898],[33.4694,-20.0339,148.1714],[33.4568,-20.0502,155.4819],[33.4486,-20.0517,150.2146],[33.4378,-20.0499,150.1749],[33.4263,-20.0545,150.6843],[33.4187,-20.0614,154.6752],[33.4155,-20.0698,160.1034],[33.4096,-20.0735,158.7463],[33.3992,-20.0755,155.9086],[33.391,-20.0795,156.3403],[33.3891,-20.0892,157.3919],[33.4055,-20.1144,167.728],[33.4425,-20.1485,187.2858],[33.4594,-20.1673,171.4811],[33.4631,-20.1801,160.4482],[33.4787,-20.2057,139.5447],[33.4832,-20.2184,140.0612],[33.4912,-20.2325,128.5887],[33.4975,-20.255,121.2178],[33.5073,-20.2637,115.6745],[33.5114,-20.2708,108.6821],[33.4948,-20.2778,122.4942],[33.4784,-20.2931,119.053],[33.4756,-20.3,126.0564],[33.4742,-20.3081,124.4008],[33.476,-20.3181,128.7567],[33.4932,-20.3411,161.4745],[33.4961,-20.3477,160.1831],[33.4958,-20.3532,163.5327],[33.4934,-20.3554,165.0304],[33.4768,-20.4171,195.7546],[33.6087,-20.5417,270.7093],[33.6199,-20.5366,269.9075],[33.634,-20.5389,266.6163],[33.6453,-20.5375,264.8774],[33.661,-20.5285,250.5706],[33.6612,-20.5402,259.7737],[33.6552,-20.5543,268.4812],[33.6487,-20.5819,261.4808],[33.647,-20.5969,241.3049],[33.6577,-20.6043,236.0433],[33.6674,-20.6178,232.1126],[33.6824,-20.6272,219.1397],[33.7178,-20.6446,198.1054],[33.7241,-20.7024,170.1387],[33.7297,-20.7087,160.1652],[33.7529,-20.7194,141.6902],[33.7802,-20.7276,131.3302],[33.7967,-20.7288,126.0711],[33.8197,-20.7397,117.4162],[33.8329,-20.7377,113.144],[33.8463,-20.7381,108.9448],[33.8549,-20.7511,102.969],[33.8675,-20.7608,97.0656],[33.9106,-20.8048,72.1318],[33.8967,-21.0021,85.454]]]]}
,"properties": {"GID_2": "MOZ.9.5_1","GID_0": "MOZ","country": "Mozambique","GID_1": "MOZ.9_1","province": "Sofala","NL_NAME_1": "NA","county": "Chibabava","VARNAME_2": "NA","NL_NAME_2": "NA","TYPE_2": "Distrito","ENGTYPE_2": "District","CC_2": "NA","HASC_2": "MZ.SO.CB","name": "Chibabava.county","area_km2": 6787.048,"hist_schema_id": "Elevation0-9000","hist_area_km2": {"25": 68.353,"50": 698.625,"75": 1427.494,"100": 727.37,"125": 757.189,"150": 778.363,"175": 681.513,"200": 432.014,"225": 396.948,"250": 419.828,"275": 289.86,"300": 109.293,"325": 0.199}}}