{"type": "Feature","bbox": [33.0574,-25.0967,33.1775,-24.9797],"geometry": {"type": "MultiPolygon","coordinates": [[[[33.1378,-24.9844,91.3175],[33.1368,-24.9859,93.6618],[33.1047,-24.9834,87.2985],[33.0953,-24.9797,87.6211],[33.09,-24.981,82.45],[33.0837,-24.986,75.8735],[33.0752,-24.9963,88.3587],[33.0661,-25.0114,97.297],[33.0574,-25.0302,80.0526],[33.058,-25.0398,74.6203],[33.0692,-25.0539,23.6714],[33.0789,-25.0744,50.6775],[33.1069,-25.0967,58.746],[33.1245,-25.0935,65.2573],[33.1281,-25.0742,81.535],[33.1633,-25.0646,63.3481],[33.1775,-25.0421,68.0872],[33.1773,-25.01,62.3868],[33.1638,-25.0004,73.9104],[33.1597,-25.0001,79.4577],[33.1526,-24.9844,77.8376],[33.1456,-24.9812,89.4304],[33.1378,-24.9844,91.3175]]]]}
,"properties": {"GID_3": "MOZ.2.1.1_1","GID_0": "MOZ","country": "Mozambique","GID_1": "MOZ.2_1","province": "Gaza","NL_NAME_1": "NA","GID_2": "MOZ.2.1_1","county": "Bilene","NL_NAME_2": "NA","city": "BileneMacia","VARNAME_3": "NA","NL_NAME_3": "NA","TYPE_3": "Localidad","ENGTYPE_3": "Locality","CC_3": "NA","HASC_3": "NA","name": "Bilene_Macia.city","area_km2": 109.13516,"hist_schema_id": "Elevation0-9000","hist_area_km2": {"25": 3.97613,"50": 16.09641,"75": 70.61662,"100": 17.90799,"125": 0.53802}}}