{"type": "Feature","bbox": [38.9841,-15.1033,39.4319,-14.8432],"geometry": {"type": "MultiPolygon","coordinates": [[[[39.0144,-14.8663,470.2763],[39.0318,-14.8997,484.1822],[39.038,-14.9066,463.8737],[39.0246,-14.9123,473.7124],[38.9963,-14.9184,493.8837],[38.998,-14.9255,499.6194],[38.9966,-14.9309,496.3896],[39.0013,-14.9379,487.9133],[39.0,-14.9432,487.6539],[38.9926,-14.9488,491.1808],[38.9947,-14.9683,455.1036],[38.9861,-14.9828,478.4861],[38.9923,-14.9898,446.079],[38.988,-14.997,430.3568],[38.9926,-15.0022,425.4232],[38.9841,-15.0185,407.6658],[38.9857,-15.0238,402.4106],[38.9935,-15.0343,393.3988],[38.9893,-15.0433,388.849],[38.9969,-15.0466,396.2953],[39.0003,-15.0626,390.567],[38.9989,-15.0662,398.8253],[39.0141,-15.0729,380.7828],[39.0219,-15.0685,387.8987],[39.0698,-15.0512,396.2386],[39.0771,-15.0531,407.7736],[39.0904,-15.0635,522.512],[39.1096,-15.0872,399.3586],[39.123,-15.0964,337.1491],[39.1278,-15.1018,327.397],[39.1429,-15.0882,341.7285],[39.155,-15.0885,355.6317],[39.1694,-15.0834,368.6709],[39.1671,-15.0738,395.4246],[39.1726,-15.0587,411.976],[39.1795,-15.048,409.6946],[39.182,-15.0351,384.5651],[39.1875,-15.0248,377.4585],[39.1973,-15.0223,373.5827],[39.2132,-15.0298,349.8701],[39.2226,-15.0265,347.3247],[39.2267,-15.0298,349.6157],[39.2307,-15.0307,338.3964],[39.2381,-15.0264,339.6661],[39.2534,-15.0221,333.4778],[39.2596,-15.0261,341.6973],[39.2804,-15.0253,320.4693],[39.2872,-15.0276,316.7623],[39.2951,-15.0339,319.208],[39.3048,-15.0334,304.4964],[39.3271,-15.0258,316.8475],[39.3491,-15.029,295.6095],[39.3696,-15.0341,293.4081],[39.3905,-15.031,279.9041],[39.3633,-15.0762,325.6972],[39.3589,-15.0938,359.9541],[39.3595,-15.1033,365.0717],[39.4319,-15.0103,305.4175],[39.4183,-15.0077,301.613],[39.4118,-14.9983,300.5222],[39.4046,-14.9995,299.4706],[39.3966,-15.0036,317.9986],[39.3796,-14.9936,331.7155],[39.3653,-14.9894,333.4888],[39.3568,-14.9892,338.942],[39.3527,-14.9821,357.736],[39.3486,-14.9683,369.4358],[39.3375,-14.9519,388.8146],[39.3275,-14.9511,396.4047],[39.3179,-14.9535,401.2849],[39.3038,-14.9536,417.526],[39.2664,-14.9114,405.4775],[39.2626,-14.902,378.2839],[39.257,-14.8986,390.5362],[39.2478,-14.8967,406.5016],[39.2347,-14.8998,441.994],[39.2314,-14.8967,447.8054],[39.2249,-14.8743,396.6541],[39.1962,-14.89,420.7728],[39.1913,-14.8872,427.7741],[39.1818,-14.8899,439.0557],[39.165,-14.8763,470.0305],[39.1594,-14.8638,404.2019],[39.1516,-14.8575,388.8942],[39.1442,-14.856,397.3303],[39.1279,-14.8573,395.0992],[39.1202,-14.8544,396.4647],[39.112,-14.8481,406.3471],[39.102,-14.8432,408.2269],[39.0907,-14.8438,416.5936],[39.0709,-14.865,449.401],[39.0636,-14.8701,454.6438],[39.0418,-14.8728,471.7538],[39.0314,-14.8718,464.3901],[39.0144,-14.8663,470.2763]]]]}
,"properties": {"GID_3": "MOZ.7.17.5_1","GID_0": "MOZ","country": "Mozambique","GID_1": "MOZ.7_1","province": "Nampula","NL_NAME_1": "NA","GID_2": "MOZ.7.17_1","county": "Nampula","NL_NAME_2": "NA","city": "Rapale","VARNAME_3": "NA","NL_NAME_3": "NA","TYPE_3": "Localidad","ENGTYPE_3": "Locality","CC_3": "NA","HASC_3": "NA","name": "Rapale.city","area_km2": 718.4353,"hist_schema_id": "Elevation0-9000","hist_area_km2": {"275": 2.4982,"300": 13.1054,"325": 34.0137,"350": 50.1087,"375": 58.4443,"400": 90.8137,"425": 131.5015,"450": 145.8881,"475": 128.7877,"500": 31.5045,"525": 6.8211,"550": 4.5271,"575": 3.3592,"600": 2.7856,"625": 2.3145,"650": 1.8638,"675": 1.7205,"700": 1.4337,"725": 1.147,"750": 0.9627,"775": 0.7374,"800": 0.7988,"825": 0.8603,"850": 0.676,"875": 0.4302,"900": 0.3687,"925": 0.2663,"950": 0.2663,"975": 0.1434,"1000": 0.1639,"1025": 0.1229}}}