{"type": "Feature","bbox": [40.1148,-13.932,40.4414,-13.6069],"geometry": {"type": "MultiPolygon","coordinates": [[[[40.1468,-13.8756,191.3486],[40.1639,-13.9082,199.118],[40.1762,-13.9111,177.2569],[40.1948,-13.9082,164.7104],[40.2194,-13.9111,146.9668],[40.2348,-13.9231,178.9551],[40.2564,-13.9201,162.9212],[40.2688,-13.9111,142.0737],[40.2996,-13.9111,133.4042],[40.3212,-13.9171,108.9174],[40.3397,-13.932,89.8452],[40.4106,-13.932,68.6007],[40.4353,-13.9201,50.7733],[40.4414,-13.9111,64.478],[40.4383,-13.8965,70.9747],[40.4291,-13.8843,92.7466],[40.4106,-13.8753,164.4054],[40.3983,-13.8604,122.7613],[40.3767,-13.8604,161.9143],[40.3386,-13.868,169.5206],[40.3283,-13.8547,191.5409],[40.3245,-13.8423,236.5001],[40.3342,-13.8356,218.9931],[40.3187,-13.8356,223.956],[40.3193,-13.8277,248.9991],[40.3181,-13.8279,241.6555],[40.3181,-13.8259,248.5234],[40.3331,-13.7725,227.5977],[40.3242,-13.7501,221.3776],[40.3489,-13.7501,182.4433],[40.3595,-13.7526,194.817],[40.3671,-13.7496,191.5799],[40.3683,-13.7351,240.4063],[40.3833,-13.7322,268.134],[40.3828,-13.7054,115.0215],[40.3683,-13.6643,147.8764],[40.3785,-13.6562,92.4721],[40.3979,-13.6488,77.1332],[40.409,-13.6342,81.4741],[40.4086,-13.6326,68.9558],[40.3681,-13.6088,217.3671],[40.3551,-13.6069,238.3375],[40.323,-13.6114,199.6946],[40.2792,-13.6231,254.7208],[40.243,-13.6276,181.2493],[40.2406,-13.6369,182.9188],[40.2252,-13.6578,203.538],[40.2129,-13.6876,235.8483],[40.2038,-13.6942,255.9557],[40.2009,-13.7083,262.3627],[40.2017,-13.7402,417.2193],[40.1746,-13.7638,263.5536],[40.1712,-13.7643,270.5184],[40.1549,-13.7569,302.5672],[40.1352,-13.7618,310.1085],[40.1274,-13.77,321.4519],[40.1221,-13.7687,344.4677],[40.1177,-13.7799,391.7277],[40.1148,-13.7932,313.1796],[40.1184,-13.8031,296.9153],[40.128,-13.806,286.3832],[40.1399,-13.8042,279.9948],[40.1495,-13.8094,267.7761],[40.1567,-13.8321,237.2895],[40.1656,-13.8721,183.1197],[40.1468,-13.8756,191.3486]]]]}
,"properties": {"GID_3": "MOZ.7.7.1_1","GID_0": "MOZ","country": "Mozambique","GID_1": "MOZ.7_1","province": "Nampula","NL_NAME_1": "NA","GID_2": "MOZ.7.7_1","county": "Memba","NL_NAME_2": "NA","city": "Chipene","VARNAME_3": "NA","NL_NAME_3": "NA","TYPE_3": "Localidad","ENGTYPE_3": "Locality","CC_3": "NA","HASC_3": "NA","name": "Chipene.city","area_km2": 698.3268,"hist_schema_id": "Elevation0-9000","hist_area_km2": {"50": 3.5808,"75": 15.1937,"100": 34.5892,"125": 44.6184,"150": 64.4499,"175": 76.9305,"200": 87.9509,"225": 105.4575,"250": 112.4766,"275": 79.8144,"300": 41.1003,"325": 18.7796,"350": 5.1891,"375": 2.4504,"400": 1.6061,"425": 1.2356,"450": 0.8649,"475": 0.7619,"500": 0.4325,"525": 0.2677,"550": 0.2883,"575": 0.103,"600": 0.103,"625": 0.0206,"650": 0.0412,"675": 0.0206}}}