{"type": "Feature","bbox": [34.7893,-13.4945,35.1268,-13.0591],"geometry": {"type": "MultiPolygon","coordinates": [[[[34.9088,-13.081,937.7088],[34.9076,-13.0848,973.6774],[34.8956,-13.0863,968.2478],[34.8839,-13.0949,877.9321],[34.8716,-13.0979,876.1131],[34.8563,-13.1068,816.0319],[34.8363,-13.0928,721.2605],[34.8123,-13.102,475.3178],[34.8132,-13.1074,474.5],[34.8118,-13.1132,474.5],[34.8088,-13.1151,480.7221],[34.8054,-13.1218,497.2034],[34.8007,-13.1263,477.7802],[34.7965,-13.1357,480.6095],[34.7982,-13.1488,485.6256],[34.7968,-13.1518,482.7931],[34.7976,-13.1637,497.3778],[34.7996,-13.1668,496.0417],[34.8001,-13.1757,478.1394],[34.804,-13.1765,519.5813],[34.8043,-13.1782,499.9096],[34.804,-13.1843,501.6811],[34.8029,-13.1843,474.5],[34.804,-13.1901,544.9279],[34.8026,-13.1935,474.5],[34.804,-13.194,533.5551],[34.8043,-13.1985,501.5757],[34.8063,-13.2013,497.9135],[34.8057,-13.2079,505.6284],[34.8115,-13.2101,474.5],[34.8118,-13.2121,474.5],[34.8076,-13.219,474.5],[34.8112,-13.2201,476.9093],[34.8107,-13.2218,474.5],[34.8149,-13.2232,476.1972],[34.8171,-13.2265,480.3773],[34.8143,-13.2324,481.4623],[34.816,-13.2346,494.608],[34.816,-13.2396,498.8564],[34.8115,-13.246,474.5],[34.8049,-13.2613,476.6034],[34.8063,-13.2768,513.2065],[34.8015,-13.2885,474.5],[34.8032,-13.2929,474.5],[34.7993,-13.2963,474.5],[34.8001,-13.2982,524.8785],[34.7982,-13.299,480.3217],[34.7951,-13.306,474.5],[34.7932,-13.3149,474.5],[34.7946,-13.3179,474.5],[34.7893,-13.3265,479.5199],[34.7907,-13.3274,479.5199],[34.7929,-13.3376,474.5],[34.8001,-13.3443,543.1288],[34.8013,-13.3476,474.5],[34.804,-13.3479,574.9139],[34.8068,-13.3507,480.6464],[34.811,-13.3493,485.4948],[34.8129,-13.3521,474.5],[34.8115,-13.354,474.5],[34.8149,-13.3582,474.5],[34.8257,-13.3657,476.0262],[34.829,-13.3638,481.3774],[34.8288,-13.3671,475.4822],[34.8321,-13.3693,482.1595],[34.8349,-13.369,477.4368],[34.8349,-13.3729,504.6757],[34.8401,-13.3746,476.698],[34.8446,-13.3815,474.5],[34.8563,-13.3876,486.2019],[34.8593,-13.3926,515.9531],[34.8713,-13.4007,480.6174],[34.8671,-13.4113,477.7466],[34.8599,-13.4174,474.5],[34.859,-13.4199,474.5],[34.8615,-13.4237,475.0927],[34.8676,-13.4271,476.9547],[34.8696,-13.4299,517.5109],[34.8688,-13.4343,476.6146],[34.8665,-13.4368,476.629],[34.8654,-13.4457,480.4582],[34.8632,-13.449,474.5],[34.8635,-13.4557,480.4372],[34.8618,-13.4565,480.4611],[34.8601,-13.4699,474.5],[34.8671,-13.4757,482.4334],[34.8668,-13.4782,475.7589],[34.8688,-13.4799,476.8947],[34.8676,-13.4826,482.1129],[34.8778,-13.4895,537.2516],[34.9114,-13.4945,598.4709],[35.0125,-13.4886,649.7335],[35.1268,-13.4916,860.2559],[35.1075,-13.4647,822.3275],[35.0401,-13.408,926.8381],[35.0187,-13.3723,885.2062],[34.9582,-13.2985,967.311],[34.9237,-13.2649,812.2285],[34.9237,-13.2505,833.2612],[34.9431,-13.236,855.8746],[34.9511,-13.2205,837.3076],[34.9521,-13.1981,774.5505],[34.9788,-13.1605,770.9911],[34.9758,-13.1217,1053.8899],[34.9758,-13.0889,1160.2349],[34.9727,-13.0621,1274.6901],[34.9696,-13.0591,1230.6118],[34.9543,-13.077,1093.51],[34.936,-13.0889,977.6995],[34.9237,-13.0889,989.3719],[34.9114,-13.08,962.149],[34.9088,-13.081,937.7088]]]]}
,"properties": {"GID_3": "MOZ.8.3.5_1","GID_0": "MOZ","country": "Mozambique","GID_1": "MOZ.8_1","province": "Nassa","NL_NAME_1": "NA","GID_2": "MOZ.8.3_1","county": "Lichinga","NL_NAME_2": "NA","city": "Meponda","VARNAME_3": "NA","NL_NAME_3": "NA","TYPE_3": "Localidad","ENGTYPE_3": "Locality","CC_3": "NA","HASC_3": "NA","name": "Meponda.city","area_km2": 843.0508,"hist_schema_id": "Elevation0-9000","hist_area_km2": {"475": 7.3444,"500": 8.3138,"525": 10.5403,"550": 28.0083,"575": 53.3952,"600": 77.2208,"625": 82.6171,"650": 74.4954,"675": 47.1023,"700": 29.0498,"725": 18.8985,"750": 23.891,"775": 30.512,"800": 31.6038,"825": 29.2741,"850": 26.7409,"875": 26.2272,"900": 24.7233,"925": 25.1792,"950": 27.0604,"975": 21.2823,"1000": 25.4965,"1025": 28.5533,"1050": 28.5744,"1075": 21.9061,"1100": 12.3678,"1125": 9.725,"1150": 4.047,"1175": 2.5193,"1200": 1.7966,"1225": 1.4663,"1250": 1.4457,"1275": 1.3011,"1300": 0.3511,"1325": 0.0207}}}