{"type":"Feature","properties":{"GID_3":"MOZ.11.7.2_1","GID_0":"MOZ","country":"Mozambique","GID_1":"MOZ.11_1","province":"Zambezia","NL_NAME_1":"NA","GID_2":"MOZ.11.7_1","county":"Lugela","NL_NAME_2":"NA","city":"Manhamade","VARNAME_3":"NA","NL_NAME_3":"NA","TYPE_3":"Localidad","ENGTYPE_3":"Locality","CC_3":"NA","HASC_3":"NA","name":"Manhamade.city"},
"geometry":{"type": "MultiPolygon","coordinates": [[[[37.0788,-16.2541,278.2192],[37.0788,-16.2451,282.0676],[37.0732,-16.229,292.3421],[37.0722,-16.2199,304.9583],[37.065,-16.2157,317.3911],[37.045,-16.22,326.9077],[37.0409,-16.2187,322.4739],[37.0345,-16.1995,332.993],[37.0273,-16.1982,322.929],[37.019,-16.1997,332.8558],[37.0152,-16.1956,336.911],[37.0157,-16.188,328.8818],[37.0118,-16.1829,331.3001],[37.0067,-16.1714,339.5872],[37.0025,-16.1669,327.6628],[36.9824,-16.1575,340.0528],[36.9674,-16.1602,334.8639],[36.9587,-16.1543,342.4408],[36.9391,-16.1632,358.9487],[36.9105,-16.1698,357.8785],[36.896,-16.2096,934.1069],[36.8793,-16.2337,814.8361],[36.8813,-16.2379,957.0884],[36.8981,-16.2386,404.6167],[36.907,-16.2423,383.841],[36.8993,-16.2487,386.3071],[36.9061,-16.2747,386.9724],[36.8965,-16.2876,352.5062],[36.8946,-16.3002,336.4053],[36.8852,-16.3144,324.3785],[36.8694,-16.5076,225.4536],[36.8649,-16.5135,235.3114],[36.8568,-16.5151,237.5485],[36.8373,-16.5126,257.0292],[36.825,-16.5152,280.5968],[36.8058,-16.5304,304.894],[36.7752,-16.5412,277.7357],[36.6871,-16.5912,201.8456],[36.6959,-16.5972,192.9313],[36.6964,-16.6015,191.8531],[36.6835,-16.6114,184.0765],[36.6752,-16.6234,171.4488],[36.6829,-16.6321,169.7338],[36.6974,-16.6326,167.4665],[36.7027,-16.6353,158.9491],[36.706,-16.6436,153.9933],[36.7212,-16.6547,163.7434],[36.7312,-16.6545,160.2661],[36.7383,-16.652,160.4087],[36.7487,-16.6542,153.9014],[36.7562,-16.6618,158.3102],[36.7576,-16.6705,148.6392],[36.7613,-16.6784,161.8312],[36.7993,-16.6899,150.5121],[36.8303,-16.6875,149.5395],[36.8487,-16.7041,148.1141],[36.8875,-16.7005,143.484],[36.8996,-16.7071,132.0138],[36.9194,-16.7231,124.3348],[36.9256,-16.7311,124.6327],[36.9234,-16.7475,121.715],[36.9157,-16.7642,118.4511],[36.9412,-16.7694,118.8593],[36.9534,-16.7811,123.2867],[36.9577,-16.7881,113.1314],[36.9614,-16.7986,122.2695],[36.9607,-16.8133,108.2331],[36.9626,-16.818,107.1134],[36.9692,-16.8251,107.7155],[36.9741,-16.8277,114.7715],[36.9792,-16.8276,107.6935],[36.981,-16.8223,114.1234],[36.9787,-16.8176,105.7767],[36.9789,-16.809,108.4908],[36.9914,-16.7923,110.2246],[36.9941,-16.7774,115.1067],[37.0077,-16.7698,116.3569],[37.0104,-16.7658,125.5567],[37.0156,-16.7487,121.3059],[37.0147,-16.7183,132.3419],[37.013,-16.7097,136.7438],[36.9995,-16.6968,142.6034],[36.9965,-16.6919,134.9219],[36.993,-16.68,136.7885],[36.9972,-16.6595,135.0],[37.0043,-16.6481,137.7048],[37.0266,-16.6245,153.6148],[37.0406,-16.621,154.3097],[37.0556,-16.6064,160.6195],[37.0718,-16.5866,162.5333],[37.0891,-16.5729,162.8387],[37.1081,-16.5658,167.7534],[37.1207,-16.5583,162.9384],[37.123,-16.5525,162.8413],[37.1371,-16.5305,183.1824],[37.1399,-16.5146,193.1133],[37.1512,-16.5029,204.0623],[37.1463,-16.4847,201.25],[37.1338,-16.483,214.8081],[37.1252,-16.4777,212.7517],[37.0991,-16.4571,224.1781],[37.0938,-16.447,208.5091],[37.0938,-16.438,210.463],[37.0963,-16.427,213.75],[37.1116,-16.4122,233.1694],[37.1182,-16.4019,255.2298],[37.1224,-16.3932,238.3688],[37.1321,-16.3579,252.5619],[37.1074,-16.3175,266.3706],[37.1016,-16.3125,260.1376],[37.0955,-16.2945,263.3974],[37.0781,-16.2881,268.0009],[37.0759,-16.2848,271.6905],[37.0746,-16.2749,275.4024],[37.0788,-16.2541,278.2192]]]]}}