{"type": "Feature","bbox": [34.3371,-24.1577,35.0004,-23.7007],"geometry": {"type": "MultiPolygon","coordinates": [[[[34.371,-23.7007,108.7425],[34.3371,-23.8382,93.7955],[34.3531,-23.8543,81.0232],[34.3648,-23.8713,58.0013],[34.3762,-23.879,55.7209],[34.4082,-23.8847,49.7519],[34.4303,-23.8679,68.4095],[34.4483,-23.8703,70.5882],[34.4564,-23.8731,79.4763],[34.4793,-23.8755,92.1423],[34.5466,-23.8903,104.2014],[34.5673,-23.8981,115.8446],[34.5821,-23.9113,118.5628],[34.5941,-23.9196,116.6655],[34.6167,-23.9247,132.4921],[34.6343,-23.9313,130.0961],[34.6574,-23.9359,130.6543],[34.6722,-23.9329,125.5318],[34.6839,-23.9336,126.8123],[34.6969,-23.945,129.0164],[34.7018,-23.9544,123.0617],[34.6987,-23.9665,104.0801],[34.7012,-23.9813,105.221],[34.7015,-23.9979,129.8528],[34.6975,-24.0227,118.3725],[34.6989,-24.0289,85.3772],[34.7061,-24.0436,78.0825],[34.7286,-24.0606,154.5289],[34.7516,-24.0808,155.4526],[34.7573,-24.0914,143.5362],[34.7662,-24.094,144.3519],[34.776,-24.1005,95.2126],[34.7918,-24.1155,78.6301],[34.7949,-24.1152,76.3966],[34.8041,-24.1218,70.7077],[34.8247,-24.1277,82.698],[34.8496,-24.1487,85.6715],[34.8699,-24.1569,107.3329],[34.8747,-24.1577,107.9005],[34.8802,-24.1562,102.8422],[34.8958,-24.1478,99.1286],[34.9252,-24.1389,78.3765],[34.9451,-24.1287,85.9818],[34.9615,-24.1282,80.9062],[35.0004,-23.9997,68.8573],[34.9994,-23.9404,99.5301],[34.9058,-23.9058,118.7844],[34.8174,-23.8558,112.5647],[34.7991,-23.7022,105.5355],[34.371,-23.7007,108.7425]]]]}
,"properties": {"GID_3": "MOZ.3.10.3_1","GID_0": "MOZ","country": "Mozambique","GID_1": "MOZ.3_1","province": "Inhambane","NL_NAME_1": "NA","GID_2": "MOZ.3.10_1","county": "Panda","NL_NAME_2": "NA","city": "Urrene","VARNAME_3": "NA","NL_NAME_3": "NA","TYPE_3": "Localidad","ENGTYPE_3": "Locality","CC_3": "NA","HASC_3": "NA","name": "Urrene.city","area_km2": 1722.863,"hist_schema_id": "Elevation0-9000","hist_area_km2": {"50": 81.167,"75": 384.558,"100": 590.609,"125": 479.744,"150": 158.369,"175": 28.183,"200": 0.232}}}