{"type":"Feature","properties":{"GID_3":"MOZ.3.9.2_1","GID_0":"MOZ","country":"Mozambique","GID_1":"MOZ.3_1","province":"Inhambane","NL_NAME_1":"NA","GID_2":"MOZ.3.9_1","county":"Morrumbene","NL_NAME_2":"NA","city":"Morrumbene","VARNAME_3":"NA","NL_NAME_3":"NA","TYPE_3":"Localidad","ENGTYPE_3":"Locality","CC_3":"NA","HASC_3":"NA","name":"Morrumbene.city"},
"geometry":{"type": "MultiPolygon","coordinates": [[[[35.3268,-23.7099,3.6083],[35.3249,-23.7096,2.701],[35.324,-23.7104,0.7267],[35.3279,-23.7112,3.6083],[35.3268,-23.7099,3.6083]]],
[[[35.3262,-23.7301,2.6599],[35.3277,-23.7121,1.8709],[35.3235,-23.7107,0.7267],[35.3221,-23.7154,4.0175],[35.3229,-23.7101,0.7267],[35.3246,-23.709,1.3785],[35.3282,-23.7093,1.3448],[35.329,-23.7129,0.0],[35.3318,-23.7143,1.9815],[35.3415,-23.7024,0.0],[35.3399,-23.6974,0.0],[35.3376,-23.696,1.5465],[35.3379,-23.6863,3.1152],[35.3304,-23.6851,3.1881],[35.3354,-23.6829,3.5461],[35.3357,-23.684,0.9216],[35.3407,-23.6835,0.0],[35.3429,-23.6854,1.393],[35.349,-23.6863,0.0],[35.3515,-23.6826,0.0],[35.3499,-23.6765,0.6573],[35.3518,-23.6749,0.4448],[35.3515,-23.6729,2.6034],[35.3543,-23.6726,3.1404],[35.3579,-23.6754,1.4962],[35.3626,-23.6754,0.5806],[35.3635,-23.6726,0.0],[35.3615,-23.6688,0.0],[35.356,-23.6674,1.7514],[35.3549,-23.6654,13.9582],[35.3621,-23.6676,2.2257],[35.3665,-23.6729,2.5214],[35.3754,-23.6721,0.5245],[35.3838,-23.6749,0.0],[35.3899,-23.6732,0.5931],[35.3937,-23.6743,0.928],[35.394,-23.6701,2.4213],[35.3896,-23.666,7.9814],[35.3896,-23.6643,4.1676],[35.3924,-23.6626,1.311],[35.3904,-23.6654,1.0687],[35.3946,-23.6682,2.2868],[35.396,-23.6724,0.4218],[35.3949,-23.676,1.9197],[35.391,-23.6782,0.3332],[35.3963,-23.6876,2.6806],[35.3946,-23.6904,0.6192],[35.3965,-23.7007,2.6083],[35.3943,-23.7076,3.5574],[35.3937,-23.7201,0.7723],[35.3946,-23.7265,1.9242],[35.3971,-23.7296,0.0],[35.3949,-23.7318,1.4114],[35.3954,-23.7357,0.0],[35.4007,-23.7382,0.0],[35.4085,-23.7301,5.3617],[35.4135,-23.7151,0.0],[35.4149,-23.6979,6.7773],[35.4207,-23.6801,5.007],[35.4232,-23.6579,8.3101],[35.4257,-23.6487,7.0549],[35.4226,-23.6301,9.5074],[35.4235,-23.6235,2.9787],[35.4207,-23.601,6.647],[35.4221,-23.5818,0.0],[35.4207,-23.5785,8.5168],[35.4221,-23.5746,0.0],[35.4207,-23.569,3.8805],[35.4235,-23.5482,0.0],[35.4232,-23.5263,3.5721],[35.4254,-23.5193,0.0],[35.4238,-23.5088,4.4408],[35.4287,-23.4865,4.9161],[35.4321,-23.4801,3.2949],[35.4343,-23.4793,0.0],[35.4267,-23.4796,10.4701],[35.4217,-23.4839,10.2505],[35.4147,-23.4855,95.7849],[35.3879,-23.4841,48.4995],[35.3768,-23.4813,73.2524],[35.3436,-23.4821,81.1708],[35.3028,-23.4958,132.4898],[35.3115,-23.5043,85.0061],[35.3115,-23.5081,81.2458],[35.2939,-23.5144,107.3643],[35.2212,-23.5478,125.6229],[35.2153,-23.5548,132.7713],[35.2021,-23.5894,123.0713],[35.1937,-23.5955,131.8596],[35.193,-23.6008,119.9386],[35.1857,-23.6158,158.7598],[35.1875,-23.624,159.997],[35.2069,-23.6736,117.0655],[35.2224,-23.6904,57.7321],[35.2222,-23.7091,90.1171],[35.2622,-23.7869,34.9808],[35.2684,-23.7871,28.3752],[35.2734,-23.7913,7.997],[35.2839,-23.779,19.5543],[35.2945,-23.777,3.0682],[35.3057,-23.767,2.1658],[35.3094,-23.7584,1.3876],[35.3169,-23.7568,7.8545],[35.3178,-23.7503,1.4357],[35.3246,-23.7489,2.1978],[35.3262,-23.7301,2.6599]]]]}}