{"type":"Feature","properties":{"GID_3":"MOZ.11.14.1_1","GID_0":"MOZ","country":"Mozambique","GID_1":"MOZ.11_1","province":"Zambezia","NL_NAME_1":"NA","GID_2":"MOZ.11.14_1","county":"Namarroi","NL_NAME_2":"NA","city":"Namarroi","VARNAME_3":"NA","NL_NAME_3":"NA","TYPE_3":"Localidad","ENGTYPE_3":"Locality","CC_3":"NA","HASC_3":"NA","name":"Namarroi.city"},
"geometry":{"type": "MultiPolygon","coordinates": [[[[36.9265,-15.7851,528.752],[36.8865,-15.7896,539.1065],[36.8581,-15.8069,547.7205],[36.8457,-15.8389,593.556],[36.8164,-15.8562,584.0011],[36.805,-15.8726,651.5359],[36.7671,-15.8872,998.9247],[36.7112,-15.8653,601.2133],[36.7131,-15.9,708.3423],[36.6979,-15.9374,551.1973],[36.6988,-15.9593,546.19],[36.7036,-15.9785,611.8662],[36.7039,-16.0007,516.9243],[36.7093,-16.0051,530.2411],[36.7183,-15.9979,534.7222],[36.7293,-15.9971,515.6158],[36.7379,-16.004,501.1168],[36.7396,-16.0073,495.1702],[36.738,-16.0191,474.9586],[36.7457,-16.0205,474.4071],[36.7703,-16.0187,472.5346],[36.7735,-16.0222,468.6076],[36.7735,-16.0354,466.8507],[36.7804,-16.064,446.8295],[36.7898,-16.0634,458.1229],[36.7967,-16.0651,438.6992],[36.801,-16.0811,419.7469],[36.8075,-16.0826,410.1077],[36.8083,-16.0947,395.2135],[36.82,-16.1259,389.7827],[36.8391,-16.1297,388.1392],[36.8523,-16.1255,379.9589],[36.8622,-16.1291,383.7827],[36.8647,-16.1409,370.8629],[36.871,-16.144,363.7849],[36.8822,-16.1417,355.6787],[36.8972,-16.1337,365.2926],[36.9086,-16.1315,350.9636],[36.918,-16.1332,349.636],[36.9274,-16.1401,346.7958],[36.9333,-16.1358,363.084],[36.956,-16.1363,342.3452],[36.9597,-16.1416,353.5536],[36.9587,-16.1543,342.4408],[36.9674,-16.1602,334.8639],[36.9824,-16.1575,340.0528],[37.0025,-16.1669,327.6628],[37.0067,-16.1714,339.5872],[37.0118,-16.1829,331.3001],[37.0157,-16.188,328.8818],[37.0152,-16.1956,336.911],[37.019,-16.1997,332.8558],[37.0273,-16.1982,322.929],[37.0345,-16.1995,332.993],[37.0409,-16.2187,322.4739],[37.045,-16.22,326.9077],[37.065,-16.2157,317.3911],[37.0722,-16.2199,304.9583],[37.0732,-16.229,292.3421],[37.0788,-16.2451,282.0676],[37.0788,-16.2541,278.2192],[37.1088,-16.2112,306.3559],[37.1143,-16.2085,305.2243],[37.1193,-16.203,306.3683],[37.1283,-16.189,319.0742],[37.1262,-16.1768,329.3003],[37.1135,-16.1562,334.7557],[37.1045,-16.1337,344.9115],[37.1009,-16.1199,364.3613],[37.1082,-16.0956,379.9617],[37.1125,-16.0553,387.3472],[37.1097,-16.0346,406.1606],[37.0979,-16.0226,426.168],[37.0974,-16.012,440.241],[37.1037,-15.9992,400.3899],[37.1042,-15.9805,418.7669],[37.1097,-15.9671,415.5295],[37.0814,-15.9184,509.7818],[37.0534,-15.8937,465.9612],[37.0362,-15.8407,504.4086],[36.9265,-15.7851,528.752]]]]}}