{"type":"Feature","properties":{"GID_2":"MOZ.8.1_1","GID_0":"MOZ","country":"Mozambique","GID_1":"MOZ.8_1","province":"Nassa","NL_NAME_1":"NA","county":"Cuamba","VARNAME_2":"NA","NL_NAME_2":"NA","TYPE_2":"Distrito","ENGTYPE_2":"District","CC_2":"NA","HASC_2":"MZ.NS.CU","name":"Cuamba.county"},
"geometry":{"type": "MultiPolygon","coordinates": [[[[36.7852,-14.9028,548.425],[36.7917,-14.893,548.567],[36.7973,-14.8892,547.3414],[36.8005,-14.8812,551.0943],[36.814,-14.8684,542.0635],[36.8354,-14.8616,534.7939],[36.834,-14.8581,537.1191],[36.8295,-14.8557,535.6937],[36.8291,-14.8491,533.9603],[36.8317,-14.8407,536.4201],[36.8353,-14.8389,537.7443],[36.8418,-14.8398,531.4333],[36.8467,-14.8363,534.0864],[36.8456,-14.8328,539.0386],[36.84,-14.8287,541.2787],[36.8381,-14.8238,530.3007],[36.8397,-14.8171,533.2078],[36.8502,-14.8026,527.1982],[36.8617,-14.7915,528.7321],[36.8837,-14.7796,514.8966],[36.884,-14.7699,515.5472],[36.8862,-14.7671,512.6263],[36.8945,-14.7655,514.1989],[36.9019,-14.7621,508.7949],[36.9081,-14.7567,517.8055],[36.9372,-14.7445,518.4292],[36.9435,-14.7342,518.4948],[36.9426,-14.7257,506.4431],[36.9462,-14.7178,504.8896],[36.9526,-14.7121,506.3142],[36.9611,-14.7106,516.6107],[36.9639,-14.7071,510.4403],[36.9736,-14.7045,501.1041],[36.9852,-14.6953,502.3128],[36.9983,-14.6773,507.5281],[37.0057,-14.6734,514.5979],[37.0198,-14.6719,510.8824],[37.0302,-14.6674,508.387],[37.0431,-14.6682,509.9267],[37.0527,-14.6635,505.5503],[37.0789,-14.642,499.6337],[37.0752,-14.6381,508.6547],[37.0648,-14.6356,515.0883],[37.0248,-14.6155,511.8059],[36.979,-14.564,522.0856],[36.9747,-14.5563,525.9379],[36.9751,-14.5505,530.8469],[36.9542,-14.5333,525.9977],[36.9462,-14.5224,527.1162],[36.9301,-14.5133,524.719],[36.9053,-14.5133,548.4846],[36.9022,-14.5016,530.5485],[36.8874,-14.5182,533.2012],[36.871,-14.52,533.0396],[36.8582,-14.5178,537.593],[36.8526,-14.5155,537.8932],[36.824,-14.4926,547.5403],[36.8124,-14.4885,539.8306],[36.8093,-14.4802,541.3591],[36.7957,-14.4846,541.6979],[36.7877,-14.4799,545.1119],[36.7573,-14.4744,542.5126],[36.7525,-14.4713,547.8251],[36.7109,-14.467,547.7419],[36.7118,-14.458,547.8857],[36.7101,-14.4556,549.1556],[36.7056,-14.4578,550.72],[36.698,-14.4677,554.1097],[36.6684,-14.4653,563.812],[36.6572,-14.4675,560.1633],[36.6503,-14.4717,572.1708],[36.6411,-14.4743,569.3646],[36.6273,-14.4748,568.4072],[36.6235,-14.4705,569.8564],[36.6106,-14.4739,570.2733],[36.606,-14.4704,565.8362],[36.5932,-14.467,570.9417],[36.5921,-14.4638,569.2075],[36.5779,-14.4536,569.6224],[36.5693,-14.4519,582.5477],[36.5561,-14.443,582.3292],[36.5554,-14.4298,579.9458],[36.5491,-14.4245,580.0757],[36.538,-14.4289,589.6943],[36.5307,-14.4219,584.8464],[36.522,-14.4262,588.1443],[36.515,-14.4258,596.9572],[36.5061,-14.4176,594.2644],[36.4793,-14.4047,601.618],[36.4687,-14.4042,606.4453],[36.4562,-14.3963,611.4677],[36.4461,-14.3965,614.0018],[36.4403,-14.3937,625.3141],[36.4454,-14.3769,626.6326],[36.4373,-14.3643,629.1824],[36.4337,-14.3542,635.3833],[36.4332,-14.3479,633.499],[36.4248,-14.3425,636.4113],[36.4207,-14.3334,643.0647],[36.4122,-14.3211,643.0445],[36.4032,-14.3124,646.5011],[36.381,-14.2987,659.459],[36.3645,-14.2845,663.0681],[36.3597,-14.2749,667.6912],[36.3532,-14.2681,674.7354],[36.3476,-14.2428,689.4774],[36.3336,-14.2315,709.552],[36.3293,-14.224,721.9551],[36.2723,-14.2844,720.3726],[36.2981,-14.2823,724.6707],[36.314,-14.3395,708.2554],[36.2769,-14.3505,684.149],[36.2363,-14.3939,705.086],[36.2192,-14.4375,709.0071],[36.1393,-14.5395,670.9548],[36.1938,-14.5703,678.1645],[36.2071,-14.5719,667.7012],[36.215,-14.5768,662.0712],[36.2228,-14.587,653.6213],[36.2246,-14.6294,639.748],[36.2205,-14.6422,634.0342],[36.2257,-14.6642,629.6658],[36.2258,-14.6822,622.7994],[36.2294,-14.6943,616.4653],[36.239,-14.7129,613.4365],[36.2632,-14.7468,605.8787],[36.2676,-14.7509,606.4421],[36.288,-14.7514,601.1537],[36.2976,-14.7556,605.2053],[36.3165,-14.768,592.7034],[36.3387,-14.7697,589.2924],[36.3441,-14.7758,586.454],[36.3471,-14.7824,589.5645],[36.3626,-14.7966,582.165],[36.3671,-14.8051,581.1798],[36.3831,-14.8075,577.2808],[36.3897,-14.8113,575.6581],[36.3918,-14.8149,576.4958],[36.3897,-14.8194,575.9455],[36.3731,-14.8267,578.0508],[36.3709,-14.8343,578.1848],[36.3671,-14.8382,578.0804],[36.3567,-14.8346,582.7899],[36.3469,-14.8349,581.2545],[36.3429,-14.8433,580.1171],[36.3435,-14.8583,584.25],[36.3483,-14.8823,587.8091],[36.3442,-14.9331,596.8798],[36.3334,-14.9626,599.8204],[36.3172,-14.9895,605.6093],[36.321,-14.9986,605.4332],[36.3149,-15.008,608.5015],[36.3149,-15.0147,609.588],[36.331,-15.0327,614.8777],[36.3348,-15.0442,617.052],[36.327,-15.0538,619.9015],[36.3171,-15.0773,624.7728],[36.3102,-15.1063,632.7136],[36.3018,-15.1159,635.7805],[36.2854,-15.1527,652.2856],[36.2707,-15.1762,669.3792],[36.2703,-15.1849,671.2313],[36.3014,-15.2243,912.5453],[36.4082,-15.2578,656.2459],[36.4307,-15.2589,645.2228],[36.44,-15.2687,634.5641],[36.4567,-15.2675,636.28],[36.4697,-15.2585,629.4028],[36.4708,-15.2531,628.3082],[36.4797,-15.2492,629.5592],[36.4964,-15.2477,624.9424],[36.5051,-15.2459,625.5876],[36.5112,-15.2428,616.1191],[36.5107,-15.2383,617.741],[36.5154,-15.2357,613.8217],[36.5201,-15.2283,611.6032],[36.5347,-15.223,612.4946],[36.5388,-15.215,611.3191],[36.562,-15.2045,612.5538],[36.5685,-15.1992,601.3104],[36.5774,-15.1788,601.4587],[36.5877,-15.1711,599.9178],[36.5954,-15.17,596.8478],[36.6164,-15.1541,592.4147],[36.6385,-15.1068,581.5798],[36.6601,-15.1072,582.6891],[36.6644,-15.0961,577.4849],[36.6684,-15.0771,572.3217],[36.6776,-15.0752,571.0184],[36.6824,-15.0664,572.2357],[36.6896,-15.0606,573.385],[36.6918,-15.0519,568.1384],[36.6969,-15.0454,570.2954],[36.6982,-15.0271,565.3142],[36.7007,-15.023,563.9945],[36.6995,-15.0175,570.7094],[36.7012,-15.0135,565.6082],[36.6973,-14.9992,561.2633],[36.7141,-14.9858,562.4123],[36.7312,-14.9692,561.9082],[36.7462,-14.9494,559.9798],[36.7571,-14.9398,553.4744],[36.7663,-14.9285,550.176],[36.7687,-14.9158,551.7222],[36.7665,-14.9112,547.381],[36.7717,-14.9069,547.0497],[36.7852,-14.9028,548.425]]]]}}