{"type":"Feature","properties":{"GID_2":"MOZ.8.13_1","GID_0":"MOZ","country":"Mozambique","GID_1":"MOZ.8_1","province":"Nassa","NL_NAME_1":"NA","county":"N'gauma","VARNAME_2":"NA","NL_NAME_2":"NA","TYPE_2":"Distrito","ENGTYPE_2":"District","CC_2":"NA","HASC_2":"MZ.NS.NG","name":"N'gauma.county"},
"geometry":{"type": "MultiPolygon","coordinates": [[[[35.2826,-13.9434,1308.1515],[35.4147,-14.0895,1028.5154],[35.4401,-14.0883,963.7239],[35.45,-14.0925,943.3333],[35.4685,-14.1072,928.7003],[35.4761,-14.1067,929.6244],[35.4857,-14.1027,927.5156],[35.4925,-14.0978,922.9498],[35.5081,-14.0928,910.1727],[35.5176,-14.0943,917.2972],[35.53,-14.09,908.3488],[35.5554,-14.0913,897.1283],[35.562,-14.0888,882.1205],[35.5813,-14.0748,860.6403],[35.5903,-14.0632,848.3368],[35.5973,-14.0663,834.7418],[35.6027,-14.0709,841.8225],[35.608,-14.071,828.9407],[35.6196,-14.0595,820.8895],[35.6238,-14.0576,824.2993],[35.6305,-14.0587,823.6011],[35.6391,-14.0529,823.824],[35.6445,-14.0524,807.554],[35.6521,-14.0418,794.2714],[35.653,-14.0326,789.7473],[35.6572,-14.0245,796.3248],[35.6559,-14.0167,790.4281],[35.6639,-14.0104,784.3959],[35.6676,-13.9999,778.3301],[35.6802,-13.9814,783.6193],[35.6928,-13.969,773.7035],[35.6937,-13.9714,775.5562],[35.7233,-13.953,749.2026],[35.7391,-13.9173,718.0036],[35.7417,-13.9007,746.3912],[35.7578,-13.8879,737.5964],[35.7704,-13.8879,719.237],[35.826,-13.837,713.9548],[35.8393,-13.8231,703.4224],[35.8503,-13.8223,708.5506],[35.8727,-13.8006,688.4901],[35.9123,-13.8334,669.3018],[35.9363,-13.8283,692.2115],[35.9624,-13.8283,668.8647],[35.9734,-13.8214,678.532],[35.9771,-13.8133,679.3877],[36.0069,-13.8133,654.2537],[36.0161,-13.8044,659.8275],[36.0295,-13.8044,657.1371],[36.053,-13.7865,628.2107],[36.0554,-13.7794,648.4094],[36.0329,-13.7357,659.3831],[36.0038,-13.7328,668.1962],[35.9701,-13.7179,681.094],[35.9653,-13.7087,690.5784],[35.9424,-13.706,714.5002],[35.9292,-13.7012,744.4689],[35.9066,-13.6858,791.8],[35.8718,-13.6702,832.3782],[35.7674,-13.6374,810.6036],[35.7643,-13.6255,852.8412],[35.7643,-13.6046,1018.1613],[35.709,-13.5926,915.0374],[35.6691,-13.5807,843.4706],[35.6169,-13.5504,800.4264],[35.6025,-13.5597,817.0015],[35.5916,-13.5603,836.2606],[35.5291,-13.6008,895.4155],[35.5112,-13.6099,897.1868],[35.5047,-13.6111,897.6397],[35.479,-13.6273,909.5824],[35.4574,-13.6486,930.855],[35.4463,-13.6572,943.966],[35.4317,-13.6655,941.894],[35.4071,-13.6761,949.0573],[35.3895,-13.6966,966.0242],[35.3771,-13.7035,990.2573],[35.3677,-13.7015,1002.5114],[35.3381,-13.7096,1092.6957],[35.331,-13.7094,1112.2902],[35.3217,-13.7197,1126.5497],[35.3146,-13.7186,1146.4351],[35.3053,-13.7133,1145.3276],[35.2818,-13.7156,1164.4492],[35.2771,-13.7267,1167.6692],[35.2766,-13.7386,1165.0098],[35.2716,-13.7424,1184.6638],[35.2003,-13.7473,996.1278],[35.1824,-13.7741,805.0491],[35.1741,-13.7805,764.9184],[35.1699,-13.7784,911.2086],[35.1623,-13.7939,714.7803],[35.1623,-13.7968,716.1917],[35.2302,-13.8848,1302.4624],[35.2826,-13.9434,1308.1515]]]]}}