{"type": "Feature","bbox": [34.1404,-18.4173,34.8658,-17.2116],"geometry": {"type": "MultiPolygon","coordinates": [[[[34.1896,-18.1844,370.5789],[34.1497,-18.253,330.1078],[34.2564,-18.2569,333.7247],[34.2681,-18.2586,329.5544],[34.2949,-18.2867,262.8884],[34.3117,-18.2894,234.0318],[34.3288,-18.286,212.9894],[34.3548,-18.3029,180.0419],[34.3637,-18.3109,166.8864],[34.3795,-18.3416,136.097],[34.3807,-18.3262,143.3904],[34.3963,-18.3127,162.3187],[34.4283,-18.3029,191.5921],[34.4525,-18.3029,169.2702],[34.4738,-18.293,146.9189],[34.5236,-18.305,107.9796],[34.5405,-18.3021,88.415],[34.553,-18.3181,86.311],[34.5556,-18.3272,88.3396],[34.5563,-18.3406,77.6719],[34.7063,-18.4173,55.5762],[34.7407,-18.3819,53.2257],[34.7615,-18.3549,56.7484],[34.7737,-18.344,51.9944],[34.7864,-18.336,51.7295],[34.8052,-18.3154,50.1988],[34.8116,-18.3036,49.5865],[34.8658,-18.2333,42.5466],[34.832,-18.1222,59.1689],[34.8214,-18.1234,66.4938],[34.8189,-18.1211,67.4935],[34.7765,-17.9987,108.8557],[34.7688,-17.9616,136.4117],[34.7693,-17.9511,145.9787],[34.7628,-17.9459,152.5568],[34.7601,-17.9391,170.3652],[34.7532,-17.9027,199.6622],[34.7477,-17.8999,207.6979],[34.7419,-17.8999,199.8591],[34.7447,-17.8925,211.6893],[34.7627,-17.8799,189.2478],[34.7689,-17.8638,176.9043],[34.7831,-17.8471,175.7992],[34.798,-17.8328,171.8346],[34.801,-17.8236,163.5703],[34.7915,-17.8069,153.0742],[34.7586,-17.7679,222.8895],[34.7374,-17.7288,188.2647],[34.7283,-17.7079,173.0718],[34.7279,-17.6997,171.9563],[34.7388,-17.6961,167.2582],[34.7492,-17.6964,159.7036],[34.7632,-17.6933,149.5549],[34.7694,-17.6878,152.1218],[34.7813,-17.6817,159.5527],[34.7733,-17.6706,161.7706],[34.7569,-17.6695,163.1652],[34.7559,-17.663,162.9806],[34.7509,-17.6557,167.6083],[34.7333,-17.6479,176.8236],[34.7268,-17.6422,180.7757],[34.7224,-17.6357,182.2127],[34.7233,-17.6226,188.7482],[34.7178,-17.6132,199.3446],[34.7249,-17.6047,216.071],[34.7207,-17.5966,223.5082],[34.7147,-17.5912,233.4898],[34.7102,-17.5844,238.9154],[34.7038,-17.5612,261.1255],[34.6977,-17.5314,281.9723],[34.7012,-17.5044,237.6175],[34.6921,-17.4852,216.1384],[34.6846,-17.4852,224.4516],[34.6753,-17.4897,231.294],[34.6407,-17.4881,279.5571],[34.5713,-17.4818,266.2654],[34.539,-17.4753,290.6821],[34.5083,-17.465,309.3087],[34.4831,-17.4706,349.7451],[34.4555,-17.4622,349.0584],[34.4436,-17.4564,330.5151],[34.4365,-17.4497,317.7221],[34.4297,-17.4399,298.474],[34.4217,-17.3846,240.7529],[34.4116,-17.3557,252.2603],[34.4011,-17.3468,271.3117],[34.3867,-17.3442,291.2406],[34.3963,-17.3255,301.8418],[34.4104,-17.3031,285.0509],[34.4114,-17.2955,277.3893],[34.3972,-17.2707,249.8182],[34.3948,-17.2622,236.8106],[34.3893,-17.2542,221.5772],[34.3813,-17.2494,220.2839],[34.3608,-17.2436,183.3453],[34.358,-17.2382,175.6025],[34.3599,-17.2237,169.3421],[34.3572,-17.2179,169.4534],[34.3526,-17.215,171.8079],[34.3339,-17.2116,179.2299],[34.2911,-17.2216,194.5104],[34.2507,-17.2401,207.8441],[34.2247,-17.2432,219.3344],[34.2304,-17.2609,226.7504],[34.2292,-17.2688,233.2339],[34.2255,-17.2754,240.5273],[34.2076,-17.2905,275.1368],[34.1878,-17.3848,430.98],[34.202,-17.4118,340.9278],[34.2037,-17.422,303.1297],[34.1768,-17.5162,393.1235],[34.1404,-17.5927,453.9521],[34.1628,-17.6286,405.4287],[34.161,-17.6903,464.5283],[34.1718,-17.6996,437.3807],[34.2027,-17.7144,404.8038],[34.2086,-17.7449,401.9001],[34.1996,-17.8222,360.9056],[34.1926,-17.8452,349.2096],[34.194,-17.8716,361.8837],[34.2144,-17.87,351.3932],[34.2324,-17.8769,319.8269],[34.2394,-17.8776,325.6593],[34.2538,-17.8966,304.805],[34.2629,-17.9035,293.8641],[34.2718,-17.9077,282.0931],[34.2769,-17.9149,267.2556],[34.2787,-17.9205,264.5167],[34.2881,-17.9334,295.0992],[34.2793,-17.9539,328.6069],[34.2741,-17.9599,387.6405],[34.2651,-17.9766,395.2136],[34.2785,-17.9988,433.7843],[34.2902,-18.0671,335.3583],[34.2892,-18.0716,246.4329],[34.2822,-18.0792,225.8391],[34.2458,-18.2106,295.1254],[34.23,-18.2099,318.6812],[34.196,-18.1842,364.1736],[34.1896,-18.1844,370.5789]]]]}
,"properties": {"GID_2": "MOZ.9.9_1","GID_0": "MOZ","country": "Mozambique","GID_1": "MOZ.9_1","province": "Sofala","NL_NAME_1": "NA","county": "Maringue","VARNAME_2": "NA","NL_NAME_2": "NA","TYPE_2": "Distrito","ENGTYPE_2": "District","CC_2": "NA","HASC_2": "MZ.SO.MG","name": "Maringue.county","area_km2": 6201.516,"hist_schema_id": "Elevation0-9000","hist_area_km2": {"50": 239.742,"75": 409.017,"100": 285.533,"125": 181.109,"150": 290.42,"175": 482.797,"200": 610.359,"225": 600.748,"250": 624.965,"275": 566.231,"300": 501.321,"325": 434.737,"350": 386.873,"375": 301.112,"400": 168.735,"425": 84.764,"450": 28.103,"475": 4.404,"500": 0.525}}}