{"type":"Feature","properties":{"GID_3":"MOZ.7.14.2_1","GID_0":"MOZ","country":"Mozambique","GID_1":"MOZ.7_1","province":"Nampula","NL_NAME_1":"NA","GID_2":"MOZ.7.14_1","county":"Murrupula","NL_NAME_2":"NA","city":"Murrupula","VARNAME_3":"NA","NL_NAME_3":"NA","TYPE_3":"Localidad","ENGTYPE_3":"Locality","CC_3":"NA","HASC_3":"NA","name":"Murrupula.city"},
"geometry":{"type": "MultiPolygon","coordinates": [[[[38.9947,-15.3904,293.3581],[38.9935,-15.3857,304.0489],[38.9943,-15.3806,307.2425],[39.0017,-15.3649,311.799],[39.0075,-15.3578,314.6941],[39.0034,-15.3494,311.0729],[39.0091,-15.3351,323.0795],[38.9989,-15.3346,317.7864],[38.9898,-15.3316,321.2484],[38.9775,-15.32,325.0761],[38.9694,-15.3149,330.9486],[38.9479,-15.2907,341.5818],[38.8912,-15.2784,354.1108],[38.8829,-15.2719,359.7329],[38.8752,-15.2619,362.5614],[38.8601,-15.2604,378.5352],[38.8478,-15.2519,374.5078],[38.8418,-15.2503,392.3272],[38.8291,-15.2418,399.6305],[38.8255,-15.2289,386.7764],[38.8195,-15.2271,396.652],[38.801,-15.2325,405.7954],[38.7918,-15.2302,397.9203],[38.7844,-15.2309,397.5816],[38.7684,-15.2236,407.3163],[38.7669,-15.2196,417.3009],[38.7413,-15.2385,450.1456],[38.7358,-15.2404,460.1839],[38.7331,-15.2501,434.988],[38.7346,-15.2646,401.4485],[38.7075,-15.3247,363.2689],[38.7035,-15.3295,365.7394],[38.6807,-15.2942,377.4091],[38.6817,-15.2874,374.5474],[38.6577,-15.2623,388.6411],[38.6524,-15.2596,388.3632],[38.6078,-15.2519,431.7808],[38.5732,-15.237,491.9998],[38.5612,-15.2366,500.6516],[38.5352,-15.2482,483.235],[38.5169,-15.2343,546.592],[38.5005,-15.2074,514.14],[38.4867,-15.1928,522.6666],[38.4834,-15.1797,516.5619],[38.4738,-15.1684,511.6525],[38.4692,-15.1738,487.7847],[38.4686,-15.1848,476.864],[38.4637,-15.1903,482.5364],[38.4538,-15.2092,472.4378],[38.4526,-15.2311,474.0933],[38.4575,-15.2461,456.2112],[38.4556,-15.2543,453.1396],[38.4494,-15.2621,456.8052],[38.4543,-15.2738,474.9459],[38.4689,-15.29,441.2708],[38.4747,-15.2987,439.5356],[38.4722,-15.303,435.5068],[38.4806,-15.3099,431.9483],[38.4801,-15.3148,430.5511],[38.4715,-15.3111,443.2322],[38.4627,-15.3184,430.9594],[38.4666,-15.3243,427.2532],[38.4618,-15.3326,422.1402],[38.4394,-15.3338,488.8867],[38.421,-15.3455,491.6334],[38.3968,-15.383,610.215],[38.3822,-15.3912,482.247],[38.2868,-15.3943,541.8954],[38.2592,-15.441,417.2213],[38.2641,-15.4494,423.6416],[38.2758,-15.4526,421.5403],[38.2989,-15.4526,411.4269],[38.319,-15.4475,409.3281],[38.3292,-15.46,405.539],[38.3416,-15.463,401.5521],[38.3561,-15.4608,400.4596],[38.3668,-15.4621,396.828],[38.3747,-15.476,405.819],[38.3974,-15.5012,398.5127],[38.4339,-15.5247,378.1741],[38.44,-15.5421,374.168],[38.4493,-15.5532,375.3194],[38.5128,-15.5779,366.4818],[38.5227,-15.588,354.7555],[38.5344,-15.5863,384.8819],[38.5565,-15.5743,425.3512],[38.5719,-15.5683,453.7471],[38.5997,-15.5414,420.4472],[38.6042,-15.5289,444.0742],[38.6249,-15.5146,414.738],[38.6311,-15.4997,413.1183],[38.6373,-15.4997,410.3385],[38.6435,-15.5086,401.4606],[38.6558,-15.5146,419.4272],[38.6651,-15.5265,407.5178],[38.6815,-15.5331,400.4172],[38.6899,-15.5384,403.5563],[38.693,-15.5474,417.5764],[38.702,-15.5474,414.5335],[38.7026,-15.544,408.0606],[38.7084,-15.5384,422.179],[38.7146,-15.5265,433.437],[38.7207,-15.5206,423.1444],[38.727,-15.5176,408.8303],[38.7416,-15.5176,383.2205],[38.7463,-15.5212,381.1099],[38.7579,-15.5235,378.0157],[38.7734,-15.5325,380.8839],[38.7825,-15.5441,355.8653],[38.7895,-15.5601,369.4159],[38.8082,-15.5858,325.6035],[38.8281,-15.5852,305.5814],[38.8548,-15.5792,293.7661],[38.8535,-15.5544,318.9271],[38.8553,-15.5354,365.5284],[38.8528,-15.5284,356.939],[38.8553,-15.5207,372.3871],[38.8623,-15.5133,374.1115],[38.88,-15.4981,337.6342],[38.89,-15.4915,343.1576],[38.9034,-15.4779,327.7298],[38.9324,-15.4656,302.5394],[38.946,-15.4558,288.1771],[38.9648,-15.4486,266.5588],[38.9712,-15.4442,279.4347],[38.966,-15.4422,282.6504],[38.9579,-15.4426,319.7174],[38.9494,-15.4409,275.7263],[38.9378,-15.4257,303.3499],[38.9363,-15.4222,298.0598],[38.9366,-15.3971,316.463],[38.93,-15.3856,346.2608],[38.936,-15.3817,359.4788],[38.9586,-15.3797,375.2393],[38.962,-15.3805,360.2369],[38.9675,-15.3865,357.2736],[38.9947,-15.3904,293.3581]]]]}}