{"type": "Feature","bbox": [39.407,-16.4729,40.1437,-15.7138],"geometry": {"type": "MultiPolygon","coordinates": [[[[39.811,-16.3746,1.7517],[39.8076,-16.3749,0.0],[39.8118,-16.3785,1.2429],[39.8121,-16.3757,1.7517],[39.811,-16.3746,1.7517]]],
[[[39.8068,-16.3699,2.1436],[39.8024,-16.3693,0.0],[39.8046,-16.3724,1.1191],[39.8099,-16.3726,1.334],[39.8096,-16.3707,1.0019],[39.8068,-16.3699,2.1436]]],
[[[39.8099,-16.3685,0.955],[39.8096,-16.3679,0.0],[39.8074,-16.3676,0.0],[39.8093,-16.369,0.955],[39.8099,-16.3685,0.955]]],
[[[39.8043,-16.3679,0.0],[39.8043,-16.3665,0.0],[39.8018,-16.3665,0.8987],[39.8021,-16.3679,0.8914],[39.8043,-16.3679,0.0]]],
[[[39.7565,-16.2649,2.5191],[39.754,-16.256,0.6015],[39.7468,-16.2485,1.0596],[39.7538,-16.2537,1.0413],[39.7618,-16.266,2.3998],[39.7707,-16.2726,1.1016],[39.7718,-16.2729,0.5713],[39.7751,-16.266,2.7087],[39.7724,-16.2737,0.0],[39.7765,-16.2815,0.0],[39.7818,-16.2849,0.0],[39.7868,-16.2849,0.0],[39.8007,-16.2812,1.6295],[39.8093,-16.276,1.5746],[39.8201,-16.2746,0.0],[39.8301,-16.2704,0.2651],[39.8396,-16.2696,0.0],[39.849,-16.2646,0.0],[39.8551,-16.2646,0.0],[39.8607,-16.2585,0.0],[39.8635,-16.2482,2.2741],[39.8576,-16.239,0.0],[39.8515,-16.2401,1.1413],[39.8376,-16.249,0.0],[39.836,-16.251,0.0],[39.8354,-16.2576,0.5938],[39.8321,-16.2629,0.7127],[39.8226,-16.2582,1.066],[39.8157,-16.2571,1.4508],[39.8218,-16.2565,0.4277],[39.8301,-16.2601,0.0],[39.8324,-16.2599,0.0],[39.834,-16.2571,1.1901],[39.834,-16.2546,1.0718],[39.8318,-16.2521,0.2924],[39.8229,-16.2451,0.5065],[39.8132,-16.244,0.4763],[39.8168,-16.2424,0.9434],[39.8232,-16.2437,0.0],[39.8257,-16.2424,0.509],[39.826,-16.2379,0.4305],[39.8204,-16.2368,1.2131],[39.821,-16.236,0.6244],[39.8265,-16.2376,0.4305],[39.8271,-16.2407,0.9472],[39.8251,-16.2449,0.4127],[39.8315,-16.249,1.3919],[39.8393,-16.2451,0.0],[39.8457,-16.2385,0.6132],[39.8535,-16.2349,0.2769],[39.8782,-16.2435,0.8608],[39.881,-16.2476,0.4222],[39.8849,-16.2474,0.0],[39.8849,-16.2412,0.3243],[39.886,-16.2412,0.3243],[39.8868,-16.2365,0.3453],[39.884,-16.2368,0.5008],[39.8874,-16.2349,0.0],[39.8879,-16.2301,1.233],[39.8874,-16.2224,0.6454],[39.8854,-16.2193,0.0],[39.8799,-16.2193,0.0],[39.871,-16.224,0.0],[39.864,-16.2251,1.1512],[39.8479,-16.2215,0.8854],[39.8382,-16.214,0.0],[39.834,-16.2146,1.6108],[39.8293,-16.2176,1.3506],[39.8254,-16.2176,1.4773],[39.829,-16.2171,1.3506],[39.8329,-16.2121,0.641],[39.8379,-16.2115,0.0],[39.8457,-16.2185,0.0],[39.8638,-16.2229,1.0638],[39.8671,-16.2221,0.2727],[39.8699,-16.2187,0.4206],[39.8801,-16.2151,0.0],[39.8801,-16.211,0.0],[39.8771,-16.2068,0.3393],[39.869,-16.2007,0.4935],[39.861,-16.199,0.0],[39.8557,-16.1954,0.0],[39.8526,-16.1843,1.2281],[39.8537,-16.1837,0.2511],[39.856,-16.1893,0.7147],[39.8682,-16.1976,1.5268],[39.8735,-16.201,0.0],[39.8793,-16.2018,0.0],[39.8815,-16.1996,0.666],[39.8818,-16.1965,1.7135],[39.8815,-16.1849,1.4913],[39.8793,-16.1818,1.1123],[39.8838,-16.1851,0.0],[39.8857,-16.1812,0.7588],[39.8851,-16.1771,0.0912],[39.8874,-16.174,0.5338],[39.889,-16.1815,0.0],[39.894,-16.1762,0.4061],[39.8963,-16.1832,0.0],[39.8963,-16.1893,0.0],[39.8999,-16.1949,0.3816],[39.8974,-16.1918,0.2504],[39.894,-16.1912,0.0],[39.8896,-16.1968,0.0],[39.8946,-16.2024,0.8024],[39.8887,-16.1996,1.0323],[39.886,-16.1999,0.2345],[39.8849,-16.2082,0.0],[39.8996,-16.2249,2.223],[39.8985,-16.2268,0.0],[39.9012,-16.2301,5.2093],[39.9012,-16.2354,1.3678],[39.904,-16.2351,2.6557],[39.9043,-16.2382,1.9174],[39.9087,-16.2362,9.685],[39.906,-16.2399,1.8318],[39.9029,-16.2396,2.0752],[39.9018,-16.241,0.7127],[39.9049,-16.2457,1.433],[39.9093,-16.2457,0.2362],[39.9143,-16.2404,2.0309],[39.9154,-16.2424,0.45],[39.919,-16.2407,0.4896],[39.9193,-16.2376,0.9828],[39.9207,-16.2379,0.9828],[39.9199,-16.241,1.0032],[39.914,-16.246,0.0],[39.9362,-16.2421,2.7667],[39.9599,-16.2429,4.4864],[39.9699,-16.2371,0.9089],[39.9987,-16.2071,2.1269],[40.0224,-16.189,1.8064],[40.0274,-16.1871,0.6572],[40.0315,-16.1757,0.0],[40.0335,-16.1643,5.8909],[40.0507,-16.1287,1.4493],[40.0721,-16.1137,0.0],[40.0929,-16.0862,1.6602],[40.1043,-16.0779,0.3958],[40.1046,-16.0735,0.0],[40.1026,-16.0704,0.0],[40.0993,-16.0704,4.423],[40.0988,-16.0657,0.0],[40.1013,-16.0593,0.0],[40.109,-16.0507,0.0],[40.1063,-16.0485,11.9024],[40.106,-16.0454,9.3858],[40.1185,-16.024,12.615],[40.1274,-16.0146,0.0],[40.1357,-16.0012,0.0],[40.1365,-15.9857,0.0],[40.1387,-15.976,2.1113],[40.1335,-15.9718,0.7095],[40.1346,-15.979,0.0],[40.1326,-15.9846,7.4187],[40.1237,-15.9924,1.6322],[40.121,-15.9987,12.4281],[40.1138,-16.0054,2.765],[40.1035,-16.0062,0.0],[40.1013,-16.0085,1.0882],[40.1004,-16.0054,0.0],[40.0824,-16.0046,1.5962],[40.0804,-16.0057,0.0],[40.066,-16.0274,1.3695],[40.0668,-16.0329,1.7135],[40.0646,-16.0507,0.0],[40.0549,-16.0646,0.0],[40.0451,-16.0851,1.1073],[40.0332,-16.0954,1.4919],[40.0318,-16.0999,8.4634],[40.0265,-16.1051,8.6141],[40.0204,-16.1068,0.4389],[40.0276,-16.1015,0.2701],[40.0285,-16.0974,1.1992],[40.0388,-16.0882,0.0],[40.0454,-16.0776,0.0],[40.0482,-16.0668,0.9351],[40.0612,-16.0474,0.0],[40.0624,-16.0393,0.986],[40.061,-16.0285,1.4772],[40.0476,-16.029,1.6597],[40.0618,-16.0254,0.0],[40.0654,-16.0215,0.0],[40.0657,-16.019,0.0],[40.0574,-16.0121,0.9898],[40.0521,-16.011,2.4091],[40.056,-16.0107,2.1264],[40.0618,-16.0151,0.0],[40.0649,-16.0151,0.0],[40.0707,-16.0063,0.7874],[40.0812,-15.9987,3.0489],[40.0901,-15.9971,1.1632],[40.0985,-15.9987,0.0],[40.0996,-15.9968,2.7617],[40.0965,-15.9924,1.113],[40.0965,-15.9896,1.625],[40.0976,-15.9882,0.5283],[40.1015,-15.9876,0.8821],[40.1021,-15.9854,1.0026],[40.0962,-15.9854,1.7019],[40.0979,-15.9843,4.3795],[40.1012,-15.984,1.8529],[40.1026,-15.9849,2.2361],[40.1024,-15.9882,1.9704],[40.0979,-15.9888,0.5283],[40.0971,-15.9901,1.625],[40.1015,-15.9976,1.8748],[40.1051,-15.9982,0.0],[40.109,-15.9957,1.5642],[40.1138,-15.9896,0.0],[40.114,-15.984,2.4316],[40.1218,-15.9682,0.0],[40.1165,-15.9607,1.4045],[40.1182,-15.9543,2.1667],[40.1174,-15.9493,3.983],[40.1199,-15.9457,1.8026],[40.1285,-15.9429,0.8533],[40.134,-15.9371,2.9686],[40.1401,-15.9365,0.0],[40.1424,-15.9268,1.7451],[40.1437,-15.9268,0.0],[40.1421,-15.921,1.8514],[40.1426,-15.9128,1.7621],[40.1375,-15.914,6.2678],[40.1329,-15.9174,5.981],[40.1297,-15.9171,4.1318],[40.1264,-15.9209,5.0704],[40.1163,-15.9184,2.2178],[40.1124,-15.915,3.8832],[40.0864,-15.9172,4.6284],[40.0725,-15.9144,5.2715],[40.0547,-15.9011,11.7231],[40.0454,-15.9016,11.4485],[40.0347,-15.905,12.7878],[40.0148,-15.8903,16.09],[40.0009,-15.8835,19.0411],[39.9972,-15.8831,20.4126],[39.9862,-15.8633,22.2213],[39.9788,-15.8604,20.4996],[39.9718,-15.8611,21.4941],[39.9578,-15.8546,24.0196],[39.9419,-15.8508,35.7628],[39.919,-15.8511,28.5105],[39.8966,-15.8355,43.2207],[39.8898,-15.8326,34.8886],[39.8879,-15.824,32.617],[39.8983,-15.8148,36.9742],[39.8981,-15.8095,47.8977],[39.8873,-15.8113,36.5302],[39.8797,-15.8086,42.3398],[39.8801,-15.7951,44.8002],[39.8727,-15.7847,46.6],[39.8745,-15.7686,59.0307],[39.8815,-15.7581,53.1086],[39.8779,-15.7481,50.1586],[39.8707,-15.738,51.2208],[39.8642,-15.7347,56.9575],[39.8582,-15.7189,56.2097],[39.8313,-15.7165,59.1859],[39.8151,-15.7178,62.1258],[39.8053,-15.7138,72.814],[39.7889,-15.7255,79.4826],[39.7841,-15.7331,90.1219],[39.777,-15.739,107.3755],[39.7661,-15.7643,84.6904],[39.7645,-15.7684,76.8694],[39.7823,-15.7814,75.1646],[39.7934,-15.7982,66.4239],[39.8122,-15.8053,53.2922],[39.8203,-15.8195,50.8285],[39.8172,-15.8225,49.7359],[39.7925,-15.8225,73.9687],[39.7832,-15.8255,82.9818],[39.7801,-15.8285,92.221],[39.7677,-15.8344,101.702],[39.743,-15.8292,86.0884],[39.7237,-15.8295,101.9712],[39.717,-15.8277,102.1747],[39.7055,-15.8195,107.1283],[39.689,-15.8209,106.5678],[39.6811,-15.8285,119.0968],[39.678,-15.8494,131.5121],[39.6996,-15.8792,92.6247],[39.7089,-15.8881,82.6192],[39.7337,-15.906,72.6511],[39.7383,-15.915,58.8138],[39.7244,-15.915,62.5037],[39.712,-15.918,72.7403],[39.7058,-15.9209,75.4404],[39.6996,-15.9269,89.9287],[39.6656,-15.9269,79.3399],[39.6612,-15.9226,86.3647],[39.6509,-15.9231,83.1396],[39.6381,-15.9263,104.4014],[39.6323,-15.9313,104.5815],[39.6269,-15.9405,107.1925],[39.6227,-15.9533,96.2493],[39.6233,-15.9618,93.4474],[39.6318,-15.9749,76.3599],[39.6384,-15.9794,82.4618],[39.6379,-15.9837,71.394],[39.6324,-15.9871,73.6726],[39.6074,-15.9872,82.4865],[39.601,-15.9905,87.9506],[39.5947,-15.9992,98.9946],[39.5852,-16.0041,105.5533],[39.5734,-16.0077,115.3353],[39.5578,-16.0217,87.0805],[39.5526,-16.0294,82.5519],[39.5495,-16.047,68.8417],[39.5302,-16.0607,58.9841],[39.5146,-16.0746,54.5873],[39.5035,-16.0629,64.1677],[39.4448,-16.0464,81.5463],[39.4253,-16.0437,79.4129],[39.419,-16.0461,59.5286],[39.4142,-16.0508,49.1299],[39.4134,-16.058,47.9095],[39.407,-16.0723,54.3304],[39.4109,-16.0779,52.8323],[39.4189,-16.0844,60.9569],[39.4356,-16.0945,48.481],[39.4658,-16.1013,40.3146],[39.4851,-16.1196,43.9325],[39.5116,-16.1506,39.5721],[39.528,-16.1781,34.713],[39.5541,-16.1915,28.6341],[39.5634,-16.1987,30.2146],[39.5761,-16.2208,29.7467],[39.5864,-16.2352,26.3054],[39.5836,-16.2537,26.2741],[39.5836,-16.2776,23.6706],[39.5886,-16.2857,22.1734],[39.5916,-16.2959,22.967],[39.6075,-16.3195,19.5856],[39.6251,-16.3396,16.7426],[39.6363,-16.3476,14.4248],[39.6637,-16.3584,14.5661],[39.6751,-16.365,11.5886],[39.7016,-16.389,11.0006],[39.718,-16.3866,8.5166],[39.7354,-16.3992,7.8438],[39.7373,-16.4104,6.6253],[39.7363,-16.4263,5.678],[39.7406,-16.4375,3.8957],[39.7418,-16.4452,3.4019],[39.764,-16.4573,2.0963],[39.7739,-16.4598,1.486],[39.7818,-16.4605,4.8401],[39.7884,-16.4566,2.0222],[39.794,-16.4571,3.1313],[39.8001,-16.4621,2.425],[39.799,-16.4629,1.5256],[39.7974,-16.4607,1.3092],[39.7949,-16.4604,2.5957],[39.7929,-16.4626,1.006],[39.7932,-16.4721,0.5],[39.7946,-16.4729,3.8896],[39.8001,-16.4668,1.0124],[39.8101,-16.4612,3.8873],[39.8418,-16.4499,0.0],[39.8587,-16.4421,0.0],[39.8626,-16.4385,3.985],[39.8632,-16.4351,6.8456],[39.8593,-16.4335,2.0999],[39.8546,-16.436,1.1456],[39.8462,-16.4332,1.7815],[39.8382,-16.4329,2.1545],[39.8387,-16.4382,1.3081],[39.8374,-16.439,1.3081],[39.8368,-16.4332,4.4778],[39.8379,-16.4315,2.1545],[39.8407,-16.4326,2.3354],[39.8438,-16.4315,0.0],[39.844,-16.4268,0.5282],[39.8371,-16.4185,1.3312],[39.831,-16.4201,1.7572],[39.8301,-16.4185,2.0101],[39.8324,-16.4179,1.8742],[39.829,-16.4146,1.1648],[39.8232,-16.4157,1.1146],[39.8224,-16.4249,1.8198],[39.8199,-16.4279,0.8078],[39.8154,-16.4276,2.0136],[39.8215,-16.424,0.5],[39.8218,-16.416,0.5],[39.8182,-16.4137,0.7461],[39.7962,-16.4193,0.5],[39.794,-16.4212,2.0505],[39.7938,-16.4188,0.5],[39.791,-16.4185,3.1083],[39.804,-16.416,1.0638],[39.8101,-16.4135,0.5],[39.8121,-16.4107,3.2696],[39.8235,-16.4112,1.6933],[39.8251,-16.4096,0.375],[39.8224,-16.409,2.5225],[39.826,-16.4079,1.6482],[39.8224,-16.4024,1.8524],[39.8249,-16.4013,0.0],[39.8201,-16.399,0.7209],[39.8221,-16.3985,1.0916],[39.8229,-16.399,0.0],[39.8226,-16.3971,0.0],[39.8171,-16.3935,0.9083],[39.8112,-16.381,0.4746],[39.801,-16.3707,1.1725],[39.8007,-16.3685,0.7494],[39.7988,-16.369,0.467],[39.8013,-16.3662,0.0],[39.7993,-16.3657,0.3113],[39.7943,-16.3571,0.0],[39.7918,-16.3579,0.0],[39.7896,-16.354,0.0],[39.789,-16.3404,1.5767],[39.7954,-16.346,0.7052],[39.796,-16.3357,0.0],[39.8035,-16.3251,0.0],[39.8057,-16.3093,0.0],[39.804,-16.3079,0.0],[39.7993,-16.3085,0.605],[39.7857,-16.314,2.0238],[39.784,-16.3218,0.0],[39.7879,-16.3276,3.0885],[39.7887,-16.3343,2.1604],[39.7871,-16.3299,1.2433],[39.7863,-16.3371,3.8157],[39.7779,-16.339,1.4201],[39.776,-16.349,1.9069],[39.7762,-16.3401,1.7195],[39.7779,-16.3371,0.9081],[39.7799,-16.3346,0.9557],[39.7832,-16.3371,0.5],[39.7857,-16.336,2.4044],[39.786,-16.3276,0.5],[39.7821,-16.3229,0.9812],[39.781,-16.3168,0.3718],[39.7765,-16.324,0.0],[39.7788,-16.3329,1.4982],[39.7757,-16.3251,0.8591],[39.7601,-16.3249,1.8434],[39.7476,-16.3196,1.8553],[39.7401,-16.3146,1.9362],[39.7412,-16.3135,1.3092],[39.7579,-16.3226,0.9757],[39.7721,-16.3226,1.5624],[39.7743,-16.3213,0.0],[39.7768,-16.314,3.3743],[39.776,-16.3121,1.264],[39.7729,-16.3121,1.6181],[39.7765,-16.3115,1.264],[39.7774,-16.3129,0.2927],[39.7813,-16.3071,3.3298],[39.7854,-16.3049,1.1338],[39.7771,-16.2982,2.4212],[39.7743,-16.294,2.4656],[39.7732,-16.2846,0.0],[39.7699,-16.2768,0.0],[39.7663,-16.274,0.5831],[39.7565,-16.2771,1.5579],[39.7476,-16.2763,2.4818],[39.7385,-16.2793,0.9713],[39.7474,-16.2749,0.5593],[39.756,-16.2757,1.6729],[39.7663,-16.2726,1.9212],[39.7565,-16.2649,2.5191]]],
[[[39.7938,-16.346,0.7052],[39.7924,-16.3451,1.1],[39.7918,-16.3465,1.2832],[39.7949,-16.3512,1.1424],[39.7949,-16.354,0.0],[39.7957,-16.3485,1.2758],[39.7938,-16.346,0.7052]]],
[[[39.8163,-16.2996,1.7163],[39.8165,-16.2976,0.0],[39.8132,-16.2982,1.7146],[39.8079,-16.3029,0.0],[39.8088,-16.3096,0.0],[39.8115,-16.309,2.0931],[39.8115,-16.3065,2.8682],[39.8163,-16.2996,1.7163]]],
[[[39.8082,-16.2885,0.5286],[39.8068,-16.2871,0.0],[39.7982,-16.291,1.3403],[39.7863,-16.2915,2.6425],[39.7813,-16.2907,1.2633],[39.7751,-16.2871,0.0],[39.7746,-16.291,0.9397],[39.7793,-16.2982,2.4722],[39.7846,-16.3018,0.0],[39.7876,-16.3021,0.0],[39.7982,-16.2999,0.0],[39.8021,-16.2957,0.0],[39.8029,-16.2924,0.4993],[39.8079,-16.2901,0.5552],[39.8082,-16.2885,0.5286]]],
[[[39.8576,-16.4193,0.9264],[39.8568,-16.4204,1.1019],[39.859,-16.4185,0.9264],[39.8585,-16.4185,0.9264],[39.8576,-16.4193,0.9264]]],
[[[39.8226,-16.3832,0.0],[39.8224,-16.3807,0.7437],[39.8207,-16.3804,0.7437],[39.821,-16.3843,1.379],[39.8226,-16.3832,0.0]]],
[[[39.8863,-16.276,0.0],[39.8824,-16.2751,0.0],[39.874,-16.2801,2.8097],[39.8693,-16.2804,0.0],[39.8524,-16.2871,0.4182],[39.8454,-16.2868,0.689],[39.8285,-16.2915,0.0],[39.8193,-16.306,0.0],[39.8176,-16.3104,0.0],[39.8185,-16.3129,2.8021],[39.8165,-16.3124,0.6907],[39.8165,-16.3154,2.0392],[39.8176,-16.3162,2.0392],[39.8185,-16.3149,1.4507],[39.8218,-16.3221,0.922],[39.8268,-16.3235,3.6396],[39.8279,-16.3285,0.5],[39.8329,-16.3299,1.6299],[39.8329,-16.3312,1.6299],[39.8265,-16.3299,2.6572],[39.8257,-16.3265,1.1804],[39.8179,-16.3185,1.6371],[39.8176,-16.3215,1.2264],[39.8204,-16.3246,2.305],[39.8163,-16.3232,2.2476],[39.8146,-16.3104,0.0],[39.811,-16.3115,0.7059],[39.8088,-16.3157,1.2413],[39.8079,-16.3271,0.0],[39.8046,-16.3326,1.9947],[39.8071,-16.3357,1.4124],[39.8001,-16.3351,2.7522],[39.7988,-16.3371,0.4164],[39.7957,-16.3557,0.4438],[39.7982,-16.3563,2.1063],[39.8021,-16.361,3.5454],[39.8163,-16.3676,2.9741],[39.829,-16.3843,3.5902],[39.8365,-16.4015,0.0],[39.8396,-16.399,0.0],[39.8415,-16.3932,0.0],[39.8379,-16.386,3.3467],[39.8399,-16.3821,2.4822],[39.8393,-16.3862,4.3391],[39.8429,-16.3932,0.0],[39.8418,-16.3982,3.4012],[39.8382,-16.403199999999998,0.0],[39.8396,-16.409,3.8195],[39.849,-16.4143,1.7175],[39.8537,-16.419,0.535],[39.8568,-16.4162,7.7909],[39.8585,-16.4171,0.8684],[39.8568,-16.4182,0.7213],[39.8649,-16.4171,0.5298],[39.8688,-16.4124,1.809],[39.8732,-16.4129,1.5534],[39.8735,-16.414,2.1029],[39.8688,-16.4135,1.741],[39.866,-16.4182,3.9936],[39.8599,-16.4196,2.4524],[39.8549,-16.4237,0.0],[39.8599,-16.424,3.7606],[39.8632,-16.4224,5.6594],[39.886,-16.419,5.2503],[39.8926,-16.4212,1.2506],[39.8982,-16.4196,0.0],[39.9074,-16.4124,0.0],[39.9079,-16.4074,3.8296],[39.9126,-16.4029,4.5493],[39.9135,-16.3999,1.9365],[39.9118,-16.399,3.8017],[39.9085,-16.401,2.5214],[39.9029,-16.4126,4.4372],[39.899,-16.4154,4.9693],[39.9035,-16.4074,1.6311],[39.9026,-16.401,6.1341],[39.9046,-16.3979,1.5909],[39.8982,-16.3907,2.4938],[39.8968,-16.3812,0.7292],[39.889,-16.3846,3.0584],[39.889,-16.3818,1.4775],[39.8849,-16.3826,0.9776],[39.8807,-16.3801,2.3384],[39.8915,-16.381,1.9049],[39.8913,-16.3826,0.5],[39.8943,-16.3804,1.3043],[39.8954,-16.3743,1.2501],[39.894,-16.3735,1.7383],[39.8949,-16.3699,1.6904],[39.8937,-16.3679,1.8564],[39.8954,-16.3696,1.6904],[39.8946,-16.3732,1.2501],[39.8963,-16.3743,1.2501],[39.8951,-16.3768,0.9205],[39.8963,-16.3785,0.5],[39.8999,-16.3799,0.7778],[39.9015,-16.376,2.291],[39.904,-16.3743,1.9272],[39.9015,-16.3771,1.557],[39.9018,-16.3799,2.5391],[39.9029,-16.3793,5.2694],[39.9046,-16.3762,2.6267],[39.906,-16.3696,3.7894],[39.9132,-16.3576,1.0349],[39.9374,-16.3288,0.8543],[39.9512,-16.3074,3.2849],[39.951,-16.3035,0.6781],[39.9482,-16.3026,0.0],[39.9429,-16.306,0.0],[39.941,-16.3099,1.3353],[39.939,-16.3087,0.3956],[39.9371,-16.311,0.0],[39.9349,-16.3282,5.471],[39.9249,-16.3324,0.9389],[39.9224,-16.3296,1.0915],[39.9193,-16.3304,1.176],[39.9182,-16.334,1.4727],[39.9174,-16.329,0.5],[39.9149,-16.329,0.5],[39.9143,-16.3307,0.5],[39.9165,-16.3318,0.9571],[39.9146,-16.3332,0.5],[39.9149,-16.336,0.5],[39.9182,-16.3424,4.8228],[39.9176,-16.3482,6.7643],[39.9157,-16.3507,3.3919],[39.9107,-16.3543,0.927],[39.9046,-16.3532,1.4702],[39.9001,-16.359,1.9465],[39.8935,-16.3587,1.9751],[39.8932,-16.3568,1.2551],[39.8996,-16.3579,1.7177],[39.9046,-16.3515,2.5453],[39.9079,-16.3526,1.9553],[39.9079,-16.3515,1.9553],[39.9126,-16.3515,1.1194],[39.9162,-16.3446,2.4411],[39.9157,-16.3415,2.0144],[39.9118,-16.3396,1.2972],[39.9113,-16.331,0.5],[39.9176,-16.324,1.9765],[39.9243,-16.3229,3.1667],[39.9251,-16.3171,3.1221],[39.9315,-16.3054,0.7076],[39.9238,-16.3076,0.0],[39.9113,-16.319,1.4268],[39.9057,-16.3174,1.2842],[39.9015,-16.3229,0.8852],[39.901,-16.3274,2.7516],[39.8921,-16.3315,1.8918],[39.8921,-16.3362,0.5],[39.8871,-16.3362,0.8955],[39.8863,-16.334,1.3],[39.8876,-16.3318,1.9049],[39.8896,-16.3321,2.4407],[39.8901,-16.3349,0.5],[39.8915,-16.3293,1.7478],[39.899,-16.3276,0.5],[39.8996,-16.3237,0.0],[39.8957,-16.3235,2.1379],[39.8957,-16.3224,2.1143],[39.8976,-16.3224,0.5386],[39.9007,-16.3168,0.0],[39.9165,-16.3057,1.3022],[39.9074,-16.3049,1.4348],[39.9104,-16.3032,0.7038],[39.9204,-16.3026,1.1668],[39.926,-16.2976,0.0],[39.9238,-16.2946,1.3798],[39.9221,-16.2949,0.9541],[39.916,-16.2818,0.6692],[39.9076,-16.2771,0.8539],[39.8968,-16.2774,0.0],[39.8887,-16.2829,0.0],[39.8868,-16.2874,1.0499],[39.8885,-16.291,1.8239],[39.894,-16.2921,1.0323],[39.8951,-16.2949,1.9664],[39.8901,-16.2996,3.6748],[39.891,-16.2957,1.5674],[39.8937,-16.2935,1.0604],[39.8918,-16.2943,1.3752],[39.8915,-16.2924,0.7155],[39.8863,-16.2918,0.7494],[39.8807,-16.2996,2.4687],[39.8699,-16.3054,1.5834],[39.8701,-16.3082,0.6615],[39.8735,-16.3107,1.6395],[39.8693,-16.309,2.2276],[39.8682,-16.3065,0.6038],[39.8604,-16.3104,0.538],[39.8579,-16.3151,2.7824],[39.8574,-16.3304,0.718],[39.8557,-16.3301,0.718],[39.8563,-16.3099,0.0],[39.8629,-16.3035,1.8423],[39.8796,-16.2951,0.5832],[39.8829,-16.2901,0.0],[39.8829,-16.2824,0.0],[39.8863,-16.276,0.0]]],
[[[39.9207,-16.3265,1.1806],[39.9196,-16.3251,0.0],[39.9165,-16.3265,0.5],[39.9165,-16.3282,0.8217],[39.921,-16.3279,1.1806],[39.9207,-16.3265,1.1806]]],
[[[39.9126,-16.3124,1.9575],[39.9115,-16.311,0.0],[39.9063,-16.3157,0.0],[39.909,-16.316,0.3363],[39.9126,-16.3124,1.9575]]],
[[[39.9168,-16.2751,2.1709],[39.9126,-16.2746,0.0],[39.9165,-16.2785,0.0],[39.921,-16.2799,0.1932],[39.9199,-16.2771,0.0],[39.9168,-16.2751,2.1709]]],
[[[39.8599,-16.2629,0.0],[39.8579,-16.2626,0.0],[39.8568,-16.2643,0.2751],[39.8607,-16.264,0.3081],[39.8599,-16.2629,0.0]]],
[[[39.8707,-16.2471,1.1986],[39.8685,-16.2462,0.0],[39.8715,-16.251,0.5309],[39.8771,-16.2518,0.1173],[39.8768,-16.2501,0.0932],[39.8707,-16.2471,1.1986]]],
[[[39.7962,-16.2847,0.0],[39.7979,-16.2843,0.4522],[39.7985,-16.2832,0.4522],[39.794,-16.2843,1.321],[39.7962,-16.2847,0.0]]],
[[[39.7576,-16.2618,3.5325],[39.7557,-16.2612,0.2753],[39.7571,-16.2649,0.4427],[39.7596,-16.266,0.0],[39.7601,-16.2651,0.0],[39.7576,-16.2618,3.5325]]],
[[[40.0315,-16.3532,0.0],[40.0301,-16.3521,0.0],[40.0288,-16.354,0.0],[40.0313,-16.3549,0.0],[40.0315,-16.3532,0.0]]],
[[[39.9296,-16.3251,0.4547],[39.9301,-16.3237,1.0037],[39.9285,-16.3226,0.3033],[39.9276,-16.3257,1.8459],[39.9296,-16.3251,0.4547]]],
[[[39.9326,-16.3235,1.3131],[39.9332,-16.3232,1.3131],[39.9329,-16.3213,1.1924],[39.9315,-16.3254,0.4547],[39.9326,-16.3235,1.3131]]],
[[[39.9287,-16.3196,0.6989],[39.9279,-16.3162,0.0],[39.9257,-16.3229,1.4783],[39.9268,-16.3232,0.0],[39.9287,-16.3196,0.6989]]],
[[[39.9351,-16.3049,0.0],[39.9354,-16.3032,0.0],[39.9332,-16.3043,0.0],[39.9321,-16.3085,0.0],[39.9324,-16.3076,0.0],[39.9351,-16.3049,0.0]]],
[[[39.921,-16.2838,1.1959],[39.9185,-16.2829,0.0],[39.9199,-16.2871,1.3514],[39.9251,-16.291,0.5511],[39.9254,-16.2876,0.0],[39.921,-16.2838,1.1959]]],
[[[39.9257,-16.2768,0.0],[39.9229,-16.276,0.0],[39.9299,-16.281,0.1966],[39.9293,-16.279,0.3962],[39.9257,-16.2768,0.0]]],
[[[39.9179,-16.2699,0.8487],[39.9146,-16.2701,0.0],[39.9199,-16.2715,0.2019],[39.9332,-16.2804,0.0],[39.9449,-16.2768,0.0],[39.9446,-16.2743,0.0],[39.9426,-16.2732,1.3708],[39.9346,-16.2751,1.9604],[39.9362,-16.2729,2.1091],[39.9229,-16.2696,1.3699],[39.9179,-16.2699,0.8487]]],
[[[39.9693,-16.2612,0.0],[39.969,-16.2601,0.0],[39.9676,-16.2601,0.0],[39.969,-16.2626,0.0],[39.9693,-16.2612,0.0]]],
[[[40.0343,-16.1785,0.0],[40.0324,-16.176,0.0],[40.031,-16.179,0.0],[40.0335,-16.1885,0.0],[40.0351,-16.1851,0.0],[40.0343,-16.1785,0.0]]],
[[[39.8587,-16.1926,0.2112],[39.8571,-16.1918,0.2879],[39.8599,-16.1957,0.3206],[39.8624,-16.1957,0.2899],[39.8618,-16.194,0.0],[39.8587,-16.1926,0.2112]]],
[[[39.8896,-16.1899,1.3074],[39.8865,-16.1885,0.7075],[39.8829,-16.1924,3.5175],[39.8851,-16.1951,0.1738],[39.8893,-16.1946,0.0],[39.8896,-16.1899,1.3074]]]]}
,"properties": {"GID_2": "MOZ.7.1_1","GID_0": "MOZ","country": "Mozambique","GID_1": "MOZ.7_1","province": "Nampula","NL_NAME_1": "NA","county": "Angoche","VARNAME_2": "NA","NL_NAME_2": "NA","TYPE_2": "Distrito","ENGTYPE_2": "District","CC_2": "NA","HASC_2": "MZ.NM.AN","name": "Angoche.county","area_km2": 3006.801,"hist_schema_id": "Elevation0-9000","hist_area_km2": {"0": 754.187,"25": 710.362,"50": 642.73,"75": 484.665,"100": 332.624,"125": 80.396,"150": 1.775,"200": 0.041}}}