{"type":"Feature","properties":{"GID_2":"MOZ.1.11_1","GID_0":"MOZ","country":"Mozambique","GID_1":"MOZ.1_1","province":"CaboDelgado","NL_NAME_1":"NA","county":"Namuno","VARNAME_2":"NA","NL_NAME_2":"NA","TYPE_2":"Distrito","ENGTYPE_2":"District","CC_2":"NA","HASC_2":"MZ.CD.NM","name":"Namuno.county"},
"geometry":{"type": "MultiPolygon","coordinates": [[[[38.5475,-14.1407,330.9344],[38.556,-14.1441,330.2352],[38.5629,-14.1436,334.7357],[38.5756,-14.1463,326.4884],[38.6086,-14.157,322.5218],[38.6201,-14.151,325.3249],[38.6487,-14.1407,316.1444],[38.6624,-14.1329,315.812],[38.6699,-14.1358,308.1838],[38.6753,-14.1415,306.86],[38.6861,-14.1482,305.8782],[38.7035,-14.1525,300.5551],[38.7155,-14.1525,300.881],[38.7358,-14.132,309.6502],[38.7506,-14.1236,306.4063],[38.7672,-14.1181,298.1381],[38.7795,-14.106,304.5265],[38.7948,-14.1065,297.5559],[38.8106,-14.1129,303.9992],[38.8223,-14.1127,292.192],[38.8509,-14.0936,290.7679],[38.8798,-14.0713,286.5334],[38.9045,-14.059,287.5586],[38.9225,-14.0538,286.499],[38.955,-14.0373,281.0],[38.9862,-14.0172,286.5628],[39.006,-14.0101,290.0522],[39.0334,-14.0114,284.9557],[39.0481,-14.0075,279.6454],[39.0558,-14.0035,271.3076],[39.0756,-13.9859,283.084],[39.0856,-13.9722,276.2632],[39.1067,-13.9586,265.5],[39.1185,-13.9486,275.1944],[39.1421,-13.934,274.7953],[39.1631,-13.932,273.6943],[39.1723,-13.9385,274.4478],[39.1871,-13.9533,272.7965],[39.196,-13.9556,262.4099],[39.2422,-13.9306,258.2303],[39.2657,-13.9124,257.2937],[39.2803,-13.9034,251.5],[39.2991,-13.8954,254.0],[39.3111,-13.8926,253.6394],[39.3086,-13.8873,260.3718],[39.306,-13.8728,258.8492],[39.3011,-13.8697,261.2141],[39.2966,-13.8627,262.9276],[39.2838,-13.8642,265.8751],[39.2752,-13.8617,265.9977],[39.2658,-13.8561,268.3614],[39.2554,-13.8555,266.554],[39.2462,-13.8568,270.8377],[39.2447,-13.8524,271.6593],[39.2377,-13.8465,272.6077],[39.228,-13.8315,277.2107],[39.229,-13.8251,276.177],[39.2269,-13.8148,278.6655],[39.2204,-13.8079,282.9899],[39.2211,-13.7995,289.6891],[39.2197,-13.7897,295.6961],[39.2249,-13.773,299.3821],[39.2311,-13.7675,303.9716],[39.2414,-13.763,315.3817],[39.2455,-13.7529,319.5886],[39.2655,-13.7419,334.7693],[39.3167,-13.7243,315.9276],[39.32,-13.7184,314.533],[39.3186,-13.7063,306.4325],[39.328,-13.6988,313.2001],[39.3494,-13.6701,289.6573],[39.3646,-13.6635,290.5222],[39.3747,-13.6618,286.4551],[39.3781,-13.6586,284.1283],[39.368899999999996,-13.6367,297.145],[39.3761,-13.6282,299.8571],[39.3691,-13.6254,302.5677],[39.366,-13.604,311.5117],[39.3605,-13.6003,306.2424],[39.3326,-13.5391,322.8618],[39.3233,-13.5393,329.3712],[39.3071,-13.5255,344.4414],[39.3042,-13.5165,342.874],[39.3054,-13.5068,347.2616],[39.3014,-13.4958,340.0667],[39.295,-13.4925,344.6121],[39.2862,-13.4928,359.2503],[39.2808,-13.4868,357.4963],[39.2732,-13.4837,361.7914],[39.2675,-13.4735,357.2125],[39.2634,-13.4619,371.5782],[39.2719,-13.4531,375.1193],[39.2733,-13.4338,393.2412],[39.2566,-13.4096,428.4164],[39.2482,-13.4082,415.4328],[39.2426,-13.4041,423.3069],[39.2244,-13.379,475.9465],[39.2208,-13.3686,469.2416],[39.1977,-13.3312,437.1342],[39.186,-13.3047,403.9268],[39.1724,-13.3127,406.1378],[39.1686,-13.3215,400.0515],[39.1576,-13.3224,410.2628],[39.1505,-13.3273,405.6165],[39.1302,-13.3474,418.3176],[39.098,-13.3559,419.8825],[39.0835,-13.3566,424.8315],[39.0709,-13.3541,423.4662],[39.0633,-13.36,421.6982],[39.0567,-13.3628,427.0822],[39.0409,-13.3613,431.6684],[39.0204,-13.374,434.1981],[39.0148,-13.374,439.4796],[38.9962,-13.3894,441.4203],[38.9763,-13.3883,446.9863],[38.9676,-13.386,446.4469],[38.9604,-13.3801,448.0959],[38.9496,-13.3804,454.6971],[38.9387,-13.3829,454.075],[38.9231,-13.3821,459.6224],[38.8823,-13.376,498.0294],[38.8674,-13.381,508.8724],[38.7996,-13.4204,518.0112],[38.7499,-13.4537,570.4645],[38.7298,-13.4755,508.9002],[38.7069,-13.4911,504.1535],[38.6433,-13.5036,1081.8386],[38.5965,-13.5103,1127.1584],[38.5902,-13.57,744.9314],[38.5735,-13.6365,496.4817],[38.5477,-13.6499,541.0306],[38.5232,-13.6852,500.2738],[38.5177,-13.6968,489.2757],[38.5235,-13.7449,453.7549],[38.4977,-13.7887,429.9852],[38.4977,-13.8095,421.9922],[38.4877,-13.8361,410.0615],[38.4877,-13.8398,404.8344],[38.4742,-13.8644,394.7628],[38.4756,-13.8675,397.0701],[38.47,-13.8748,394.7563],[38.4694,-13.8807,391.913],[38.4614,-13.8893,393.3492],[38.447,-13.9142,384.679],[38.4462,-13.9235,382.4562],[38.4411,-13.9299,382.2475],[38.4401,-13.9479,375.7867],[38.4344,-13.9585,371.7506],[38.4326,-13.9663,371.8515],[38.4328,-13.9718,369.0188],[38.4444,-13.9804,364.5497],[38.4456,-13.9825,366.2273],[38.4434,-13.9851,365.4398],[38.4474,-13.9891,364.7525],[38.4516,-13.9976,364.1333],[38.459,-13.9984,362.4657],[38.4723,-14.0212,355.6972],[38.4827,-14.0516,353.232],[38.4954,-14.0531,348.4279],[38.5021,-14.0569,353.5204],[38.508,-14.058,349.0676],[38.5272,-14.0821,346.9882],[38.5275,-14.0885,343.0367],[38.5225,-14.0956,345.4319],[38.5151,-14.1015,343.1957],[38.5158,-14.111,338.7301],[38.5291,-14.1214,340.0975],[38.5362,-14.1321,333.273],[38.543,-14.136,340.9456],[38.5475,-14.1407,330.9344]]]]}}