{"type":"Feature","properties":{"GID_3":"MOZ.1.9.5_1","GID_0":"MOZ","country":"Mozambique","GID_1":"MOZ.1_1","province":"CaboDelgado","NL_NAME_1":"NA","GID_2":"MOZ.1.9_1","county":"Mueda","NL_NAME_2":"NA","city":"Negomano","VARNAME_3":"NA","NL_NAME_3":"NA","TYPE_3":"Localidad","ENGTYPE_3":"Locality","CC_3":"NA","HASC_3":"NA","name":"Negomano.city"},
"geometry":{"type": "MultiPolygon","coordinates": [[[[38.8779,-11.7666,593.7416],[38.875,-11.763,564.2947],[38.8475,-11.6687,338.2938],[38.8172,-11.6346,344.2608],[38.8476,-11.6049,321.219],[38.8567,-11.5572,295.218],[38.8659,-11.5244,279.5619],[38.8628,-11.4827,267.1527],[38.8628,-11.4499,268.9266],[38.8781,-11.426,225.7573],[38.878,-11.387,216.2646],[38.868899999999996,-11.3455,190.5704],[38.874,-11.3233,193.8171],[38.8993,-11.277,176.5587],[38.9242,-11.2616,178.1604],[38.9532,-11.2349,129.027],[38.9581,-11.1734,89.5353],[38.9266,-11.1687,91.6453],[38.8847,-11.1755,95.5902],[38.8556,-11.1943,98.9391],[38.841,-11.212,97.0],[38.8294,-11.2204,98.0],[38.7827,-11.2447,103.9299],[38.7739,-11.2542,104.9969],[38.7442,-11.2783,108.9882],[38.7257,-11.2767,113.3274],[38.7133,-11.2732,111.0],[38.6667,-11.2758,121.1566],[38.6521,-11.2788,116.5166],[38.6264,-11.2941,123.2261],[38.5744,-11.3471,126.8619],[38.5679,-11.3518,124.9896],[38.5616,-11.3524,125.0],[38.5544,-11.3557,125.7942],[38.5415,-11.3646,127.0452],[38.5313,-11.3688,131.5677],[38.5258,-11.3741,129.0892],[38.5182,-11.3865,128.125],[38.5109,-11.3948,129.0],[38.5023,-11.3988,134.045],[38.4861,-11.4149,135.4469],[38.4818,-11.4163,134.8734],[38.4659,-11.453,134.2458],[38.4509,-11.4801,138.6999],[38.4373,-11.5183,139.4969],[38.4239,-11.5475,143.031],[38.4187,-11.5625,144.5242],[38.4161,-11.5883,146.1091],[38.4114,-11.6103,145.5],[38.4114,-11.6299,150.0959],[38.4154,-11.6513,153.9779],[38.4063,-11.7105,152.0],[38.4049,-11.7299,168.7512],[38.4159,-11.7679,171.2064],[38.4182,-11.7907,172.1599],[38.4283,-11.7897,173.4641],[38.435,-11.7854,176.8505],[38.4471,-11.7872,178.3197],[38.4554,-11.7863,183.1269],[38.4612,-11.7822,185.1142],[38.4715,-11.7793,187.4667],[38.4858,-11.7897,189.2793],[38.4976,-11.8046,198.2938],[38.5117,-11.8185,202.523],[38.5187,-11.8172,198.4761],[38.5191,-11.8218,205.2236],[38.525,-11.8341,213.0631],[38.5336,-11.8376,211.7015],[38.5431,-11.8448,219.1507],[38.5541,-11.8456,223.9998],[38.5661,-11.8411,226.8915],[38.5869,-11.8387,228.5144],[38.5935,-11.8462,238.1814],[38.6048,-11.8479,235.6569],[38.6318,-11.8463,252.484],[38.6586,-11.8592,266.6153],[38.6843,-11.884,290.4436],[38.6903,-11.8861,291.5919],[38.7005,-11.8845,299.1573],[38.7394,-11.8622,332.8021],[38.75,-11.8584,340.3984],[38.7894,-11.8581,387.2429],[38.8176,-11.8696,430.1667],[38.8318,-11.8728,467.381],[38.8779,-11.7666,593.7416]]]]}}