{"type":"Feature","properties":{"GID_2":"MOZ.2.8_1","GID_0":"MOZ","country":"Mozambique","GID_1":"MOZ.2_1","province":"Gaza","NL_NAME_1":"NA","county":"Mandlakazi","VARNAME_2":"NA","NL_NAME_2":"NA","TYPE_2":"Distrito","ENGTYPE_2":"District","CC_2":"NA","HASC_2":"NA","name":"Mandlakazi.county"},
"geometry":{"type": "MultiPolygon","coordinates": [[[[34.4361,-24.8065,75.9224],[34.3021,-24.7931,77.1626],[34.3015,-24.7071,27.6245],[34.4551,-24.636,34.9185],[34.3541,-24.5273,51.5274],[34.4285,-24.4555,1.8088],[34.4223,-24.4489,24.8518],[34.396,-24.4595,26.2805],[34.3402,-24.4678,2.4827],[34.3263,-24.4792,10.3149],[34.3145,-24.4837,11.3803],[34.3073,-24.4791,13.8835],[34.3028,-24.4791,19.4994],[34.2875,-24.4845,6.1135],[34.2735,-24.4852,29.4415],[34.2587,-24.4881,9.0418],[34.2183,-24.5079,10.8176],[34.2066,-24.5165,7.3511],[34.1959,-24.5178,10.0188],[34.1808,-24.5171,9.4522],[34.1411,-24.5359,20.0992],[34.0012,-24.3515,72.1993],[34.0005,-24.0861,28.522],[33.9918,-24.0888,28.5055],[33.985,-24.0787,29.9944],[33.9728,-24.0734,25.3215],[33.9613,-24.072,29.7705],[33.9456,-24.0776,20.8069],[33.938,-24.0848,24.1039],[33.9306,-24.0879,22.0465],[33.921,-24.0825,18.2141],[33.9089,-24.0814,21.4675],[33.9048,-24.0912,18.7609],[33.8955,-24.1001,21.034],[33.8841,-24.0936,20.003],[33.8671,-24.0973,18.6439],[33.8509,-24.0963,19.5342],[33.8433,-24.1062,16.0069],[33.8406,-24.1136,21.2521],[33.8399,-24.1457,40.9793],[33.8367,-24.1655,41.7198],[33.8313,-24.272,56.8537],[33.8303,-24.4045,73.763],[33.8369,-24.4548,96.2584],[33.8328,-24.4859,82.2985],[33.8341,-24.4951,73.5125],[33.8292,-24.51,66.6529],[33.8372,-24.5289,66.4029],[33.8527,-24.5415,100.1434],[33.8567,-24.5467,97.6599],[33.8608,-24.5693,56.3795],[33.8486,-24.5788,60.954],[33.8422,-24.5889,56.4157],[33.8397,-24.5961,56.0382],[33.8363,-24.6286,62.7149],[33.834,-24.6322,66.4315],[33.8269,-24.6327,66.3219],[33.8209,-24.6298,66.5404],[33.8166,-24.6332,64.7479],[33.8175,-24.6404,67.8268],[33.8229,-24.653,69.2835],[33.8296,-24.6614,69.1593],[33.8321,-24.6688,75.5767],[33.8234,-24.6835,79.6762],[33.8187,-24.6875,80.1139],[33.8145,-24.6986,82.2571],[33.8079,-24.7022,83.1581],[33.8231,-24.7034,80.3123],[33.835,-24.7365,76.8846],[33.7873,-24.8137,74.4029],[33.78,-24.8224,70.7558],[33.7891,-24.8242,78.2304],[33.7972,-24.8236,76.0413],[33.8061,-24.8204,75.9165],[33.8343,-24.8227,73.3875],[33.8523,-24.834,77.8836],[33.8744,-24.8913,83.1529],[33.9721,-24.9752,40.6941],[33.9754,-25.0385,0.0],[33.986,-25.0365,0.0],[34.0015,-25.031,1.9429],[34.0112,-25.0249,2.5415],[34.0488,-25.0121,0.0],[34.0557,-25.0079,15.5952],[34.1015,-24.9954,6.5498],[34.1093,-24.9904,15.6721],[34.1368,-24.9815,1.1166],[34.1607,-24.9704,12.5444],[34.1676,-24.9696,0.0],[34.1746,-24.9651,6.1677],[34.1774,-24.9654,2.4524],[34.2074,-24.9524,5.6814],[34.2415,-24.9401,9.9109],[34.2649,-24.9376,7.1017],[34.304,-24.9276,0.0],[34.3088,-24.9249,3.2641],[34.3396,-24.916,3.0599],[34.3618,-24.906,12.301],[34.3757,-24.9026,0.0],[34.3899,-24.8918,8.7918],[34.4168,-24.8826,6.1221],[34.4265,-24.8768,1.507],[34.4493,-24.8707,6.4582],[34.4629,-24.8643,10.2629],[34.4736,-24.8626,8.7577],[34.4361,-24.8065,75.9224]]]]}}