{"type": "Feature","bbox": [39.1967,-15.6424,39.8493,-15.117],"geometry": {"type": "MultiPolygon","coordinates": [[[[39.5845,-15.117,285.9104],[39.5852,-15.1338,260.9885],[39.5873,-15.1414,251.6441],[39.5853,-15.1533,235.3343],[39.5792,-15.1541,235.6786],[39.5685,-15.1516,242.1523],[39.5588,-15.1519,247.1193],[39.5516,-15.1551,243.0933],[39.5421,-15.1642,252.725],[39.5227,-15.1728,279.7457],[39.5037,-15.1862,308.6202],[39.5028,-15.2069,305.3636],[39.4789,-15.2086,325.9318],[39.4807,-15.2423,312.5089],[39.4833,-15.2556,300.354],[39.4819,-15.2765,276.8804],[39.4895,-15.2867,273.0922],[39.4924,-15.2991,279.1454],[39.4929,-15.3055,262.9011],[39.4898,-15.3132,261.8336],[39.4752,-15.3236,260.1677],[39.451,-15.3216,260.2298],[39.4454,-15.3262,265.8241],[39.4332,-15.3413,272.4572],[39.4236,-15.3424,280.1224],[39.4197,-15.3412,283.2947],[39.4043,-15.3294,296.7151],[39.3962,-15.3256,312.3538],[39.3835,-15.3435,350.2949],[39.3764,-15.3479,329.7454],[39.3815,-15.3561,322.2783],[39.3814,-15.3639,292.5807],[39.3787,-15.3701,291.648],[39.3611,-15.379,275.1149],[39.3607,-15.3841,343.7147],[39.3671,-15.3975,274.801],[39.3754,-15.4016,257.9105],[39.3706,-15.4059,254.0297],[39.3635,-15.4054,272.4325],[39.3478,-15.3956,299.3159],[39.3402,-15.3939,301.7984],[39.3346,-15.395,302.7184],[39.3295,-15.4006,296.5766],[39.3246,-15.4154,285.6784],[39.3098,-15.4104,277.04],[39.3005,-15.4123,266.591],[39.2881,-15.4088,233.8041],[39.2828,-15.4095,234.9225],[39.2668,-15.4183,222.8023],[39.2473,-15.4349,209.2623],[39.2416,-15.4362,204.0142],[39.2375,-15.4337,209.652],[39.2283,-15.4426,203.6127],[39.2135,-15.45,193.5135],[39.2082,-15.4555,190.2443],[39.1967,-15.4784,192.7382],[39.1974,-15.4815,193.4765],[39.211,-15.4887,190.8488],[39.2178,-15.5119,190.3932],[39.2282,-15.5316,185.991],[39.2275,-15.5481,181.9572],[39.2363,-15.5625,168.0776],[39.2482,-15.5659,172.3466],[39.2454,-15.5742,167.1313],[39.245,-15.5803,192.7798],[39.2466,-15.5837,156.855],[39.2531,-15.5806,162.6931],[39.2595,-15.5829,165.2559],[39.2595,-15.5953,168.8027],[39.2628,-15.6043,153.3793],[39.2622,-15.6094,151.8287],[39.252,-15.6325,151.4065],[39.2547,-15.6301,135.4622],[39.2611,-15.6301,137.2473],[39.2829,-15.6424,140.7073],[39.2851,-15.6325,150.8584],[39.3093,-15.6379,157.3968],[39.327,-15.6141,198.7963],[39.3508,-15.617,164.7552],[39.3628,-15.6392,151.7174],[39.3753,-15.6412,144.4514],[39.3783,-15.639099999999999,155.8064],[39.3747,-15.6267,148.8982],[39.3844,-15.6211,159.4523],[39.3925,-15.5992,165.5033],[39.3957,-15.5962,161.8658],[39.4117,-15.6023,184.6318],[39.4181,-15.6023,186.997],[39.4426,-15.5922,222.2351],[39.4714,-15.5915,223.4842],[39.4791,-15.5932,212.7288],[39.4903,-15.6094,198.8074],[39.4965,-15.613,191.9454],[39.5085,-15.6264,185.9097],[39.5175,-15.6178,195.3732],[39.523,-15.6074,206.5221],[39.5331,-15.5966,230.6119],[39.5576,-15.6009,225.144],[39.5752,-15.6178,178.2131],[39.5763,-15.621,191.3405],[39.6099,-15.6406,159.8261],[39.62,-15.629,192.5705],[39.6454,-15.6251,171.5447],[39.6766,-15.6083,118.0895],[39.6936,-15.605,110.5854],[39.7014,-15.6064,107.57],[39.7117,-15.6158,103.771],[39.7361,-15.6307,92.0706],[39.7415,-15.6234,100.9683],[39.7418,-15.5932,149.5247],[39.7554,-15.5896,126.9651],[39.7633,-15.5795,113.9499],[39.7767,-15.5758,115.6935],[39.7844,-15.5757,105.9343],[39.7874,-15.5735,110.1054],[39.7876,-15.5685,111.0398],[39.7837,-15.557,122.722],[39.7772,-15.5428,131.6509],[39.7724,-15.5388,125.24],[39.7714,-15.5238,125.7037],[39.7726,-15.516,128.7275],[39.7708,-15.5,142.6142],[39.7729,-15.4908,154.4734],[39.771,-15.4829,151.6287],[39.7747,-15.4743,184.2058],[39.762,-15.4673,198.2396],[39.7667,-15.4603,132.9343],[39.774,-15.4553,130.7388],[39.8105,-15.4389,103.969],[39.8378,-15.4302,98.8377],[39.8493,-15.4341,111.3995],[39.8491,-15.4274,103.7056],[39.8399,-15.4187,105.2711],[39.8318,-15.4157,108.1984],[39.8214,-15.4003,122.9337],[39.7987,-15.3889,127.1185],[39.8172,-15.3412,143.0156],[39.8213,-15.338,151.8366],[39.8211,-15.3343,142.5485],[39.8172,-15.3269,145.273],[39.808,-15.326,148.6705],[39.7978,-15.3168,164.1724],[39.7979,-15.3127,156.277],[39.8027,-15.3073,162.3803],[39.7948,-15.2751,153.1997],[39.7992,-15.2705,148.9592],[39.8076,-15.2657,148.0922],[39.8115,-15.2656,143.1046],[39.7704,-15.2433,181.8243],[39.7415,-15.2055,194.485],[39.7249,-15.1691,211.8005],[39.6745,-15.1691,214.657],[39.6579,-15.1778,245.0973],[39.6387,-15.1778,223.8006],[39.6347,-15.1535,267.3154],[39.6264,-15.1404,274.8848],[39.6129,-15.1332,295.3983],[39.5924,-15.1277,293.7934],[39.5845,-15.117,285.9104]]]]}
,"properties": {"GID_3": "MOZ.7.5.2_1","GID_0": "MOZ","country": "Mozambique","GID_1": "MOZ.7_1","province": "Nampula","NL_NAME_1": "NA","GID_2": "MOZ.7.5_1","county": "Meconta","NL_NAME_2": "NA","city": "Corrane","VARNAME_3": "NA","NL_NAME_3": "NA","TYPE_3": "Localidad","ENGTYPE_3": "Locality","CC_3": "NA","HASC_3": "NA","name": "Corrane.city","area_km2": 2334.882,"hist_schema_id": "Elevation0-9000","hist_area_km2": {"100": 10.296,"125": 66.238,"150": 167.103,"175": 324.235,"200": 431.305,"225": 460.441,"250": 393.589,"275": 284.642,"300": 147.206,"325": 34.967,"350": 6.357,"375": 2.923,"400": 1.88,"425": 1.145,"450": 0.593,"475": 0.613,"500": 0.45,"525": 0.388,"550": 0.266,"575": 0.041,"600": 0.123,"625": 0.02,"650": 0.041,"675": 0.02}}}