{"type": "Feature","bbox": [33.4144,-18.7339,33.8821,-18.0119],"geometry": {"type": "MultiPolygon","coordinates": [[[[33.5506,-18.6722,389.5257],[33.5682,-18.6751,384.4446],[33.5842,-18.6874,375.2057],[33.6136,-18.6784,365.4633],[33.6355,-18.6694,354.269],[33.6477,-18.6748,346.6402],[33.6728,-18.7075,343.3192],[33.6968,-18.722,347.1332],[33.7161,-18.7307,340.2502],[33.7377,-18.7339,343.1932],[33.7522,-18.7166,323.2892],[33.7465,-18.7191,338.6258],[33.733,-18.7075,352.3565],[33.7222,-18.6958,356.1276],[33.7197,-18.6844,370.8843],[33.7219,-18.6758,378.8062],[33.7283,-18.6657,384.3767],[33.7295,-18.6377,413.2056],[33.7723,-18.601,447.1941],[33.7739,-18.522,510.0569],[33.7854,-18.5258,488.8312],[33.8098,-18.5296,457.2556],[33.836,-18.5267,433.1424],[33.8379,-18.5225,437.4596],[33.8458,-18.5152,425.7344],[33.8627,-18.5137,408.0808],[33.8745,-18.5221,408.0725],[33.8821,-18.5173,407.6431],[33.8714,-18.5004,417.0674],[33.8681,-18.4914,411.1287],[33.8668,-18.4699,420.3717],[33.8701,-18.4622,421.3287],[33.8582,-18.4518,445.7431],[33.8556,-18.4443,431.949],[33.8588,-18.4058,435.9662],[33.8505,-18.4083,437.6094],[33.8412,-18.4202,438.3511],[33.8334,-18.4171,446.0607],[33.8315,-18.4074,446.6712],[33.8426,-18.3745,459.6101],[33.8236,-18.344,470.5081],[33.8199,-18.3256,471.487],[33.8237,-18.3175,462.2663],[33.8263,-18.3057,470.0833],[33.8237,-18.2921,477.0243],[33.8125,-18.2932,477.8727],[33.8062,-18.2897,470.0861],[33.8065,-18.2825,473.4238],[33.8107,-18.2792,478.5527],[33.8074,-18.2693,484.8616],[33.7927,-18.2417,477.6057],[33.7813,-18.226,484.2029],[33.7784,-18.2182,488.8137],[33.7709,-18.211,491.1108],[33.7656,-18.1971,494.6896],[33.754,-18.1804,495.2328],[33.7511,-18.1726,498.618],[33.7308,-18.1572,509.5469],[33.7197,-18.1421,507.5005],[33.7155,-18.1043,514.6472],[33.7089,-18.0728,527.9074],[33.6897,-18.0378,534.9631],[33.5575,-18.023,1099.6152],[33.5209,-18.0386,555.889],[33.4841,-18.0187,568.1472],[33.4519,-18.0119,579.6711],[33.4171,-18.019,593.3102],[33.4174,-18.0311,586.6116],[33.4144,-18.0417,575.0957],[33.4203,-18.0552,564.0464],[33.4295,-18.0672,554.7789],[33.4309,-18.0848,540.8622],[33.4294,-18.1074,538.7117],[33.4341,-18.1172,526.6605],[33.4363,-18.1402,522.5551],[33.4353,-18.1539,515.8233],[33.4684,-18.21,497.9717],[33.458,-18.2647,493.7632],[33.4716,-18.3055,472.1913],[33.4767,-18.3338,470.2322],[33.4877,-18.3578,469.7755],[33.4902,-18.3721,460.9166],[33.4995,-18.3859,461.0847],[33.5132,-18.3944,459.6617],[33.5076,-18.4014,467.0458],[33.5297,-18.457,460.3109],[33.5385,-18.4659,454.4279],[33.5417,-18.4776,449.9198],[33.5373,-18.4834,441.798],[33.5416,-18.4861,448.7503],[33.5445,-18.5007,457.6398],[33.5326,-18.516,456.7838],[33.532,-18.5306,445.0381],[33.5324,-18.5368,445.4326],[33.5404,-18.5428,420.3313],[33.541,-18.5672,432.9239],[33.5462,-18.5729,433.1789],[33.5446,-18.5944,425.5976],[33.548,-18.6175,404.4038],[33.5458,-18.6231,403.6884],[33.5427,-18.6442,398.3163],[33.5438,-18.6497,382.0514],[33.5499,-18.6527,391.1699],[33.5513,-18.6584,379.5983],[33.5506,-18.6722,389.5257]]]]}
,"properties": {"GID_3": "MOZ.4.5.2_1","GID_0": "MOZ","country": "Mozambique","GID_1": "MOZ.4_1","province": "Manica","NL_NAME_1": "NA","GID_2": "MOZ.4.5_1","county": "Macossa","NL_NAME_2": "NA","city": "Nguawala","VARNAME_3": "NA","NL_NAME_3": "NA","TYPE_3": "Localidad","ENGTYPE_3": "Locality","CC_3": "NA","HASC_3": "NA","name": "Nguawala.city","area_km2": 2277.861,"hist_schema_id": "Elevation0-9000","hist_area_km2": {"325": 1.606,"350": 14.399,"375": 38.706,"400": 67.905,"425": 97.626,"450": 168.262,"475": 261.67,"500": 371.327,"525": 446.135,"550": 434.345,"575": 279.537,"600": 84.21,"625": 8.083,"650": 1.713,"675": 0.705,"700": 0.343,"725": 0.282,"750": 0.141,"775": 0.101,"800": 0.141,"825": 0.181,"850": 0.081,"875": 0.081,"900": 0.06,"925": 0.02,"950": 0.02,"975": 0.02,"1000": 0.04,"1025": 0.02,"1075": 0.04,"1175": 0.02,"1200": 0.02,"1250": 0.02}}}