{"type":"Feature","properties":{"GID_3":"MOZ.8.14.2_1","GID_0":"MOZ","country":"Mozambique","GID_1":"MOZ.8_1","province":"Nassa","NL_NAME_1":"NA","GID_2":"MOZ.8.14_1","county":"Nipepe","NL_NAME_2":"NA","city":"Nipepe","VARNAME_3":"NA","NL_NAME_3":"NA","TYPE_3":"Localidad","ENGTYPE_3":"Locality","CC_3":"NA","HASC_3":"NA","name":"Nipepe.city"},
"geometry":{"type": "MultiPolygon","coordinates": [[[[38.1831,-13.7862,434.6776],[38.1711,-13.7823,435.4135],[38.1645,-13.7837,436.4146],[38.1418,-13.8102,478.971],[38.1241,-13.8242,479.8661],[38.1142,-13.8426,461.2028],[38.1143,-13.849,456.7569],[38.1062,-13.8738,446.7581],[38.094,-13.8864,440.2686],[38.0921,-13.8923,442.3346],[38.0594,-13.925,424.4285],[38.048,-13.9435,416.546],[38.0416,-13.9493,411.8786],[38.0371,-13.9487,410.5691],[38.0286,-13.9576,406.5743],[38.0257,-13.957,412.8685],[38.0205,-13.948,407.6475],[38.0159,-13.9474,412.3954],[38.0076,-13.943,407.2082],[38.0051,-13.9387,408.3306],[38.0021,-13.9397,409.1501],[37.9942,-13.9381,408.0786],[37.979,-13.9259,420.2931],[37.9585,-13.9174,426.5872],[37.9206,-13.8971,424.1907],[37.8928,-13.889,445.2922],[37.8663,-13.8766,475.1923],[37.8537,-13.8811,447.3771],[37.847,-13.8741,456.5837],[37.8373,-13.8579,459.2672],[37.8177,-13.8548,461.2616],[37.8102,-13.8499,460.8753],[37.7941,-13.8577,462.4728],[37.7748,-13.859,466.4391],[37.76,-13.852,487.8873],[37.7549,-13.8519,465.0192],[37.747,-13.8595,485.2723],[37.7328,-13.8405,475.6823],[37.7169,-13.8407,477.1821],[37.6861,-13.8472,481.9559],[37.6621,-13.8577,500.2073],[37.6354,-13.858,494.6262],[37.6182,-13.855,501.6559],[37.5927,-13.8344,522.7383],[37.5659,-13.8406,529.1873],[37.5522,-13.8323,547.3528],[37.533,-13.8146,537.5233],[37.5223,-13.807,548.0083],[37.4934,-13.7787,563.7139],[37.4873,-13.7689,576.6439],[37.4744,-13.7624,588.6044],[37.4649,-13.7615,600.5706],[37.4412,-13.7661,622.8974],[37.4355,-13.8139,606.2836],[37.442,-13.8332,592.4409],[37.4487,-13.8425,578.8437],[37.4553,-13.8457,566.5093],[37.4603,-13.8815,549.6442],[37.4651,-13.8903,547.7736],[37.4599,-13.9042,536.3911],[37.4579,-13.9119,538.2073],[37.4594,-13.9134,534.9933],[37.4569,-13.9221,535.1769],[37.4439,-13.9523,529.7657],[37.4792,-14.0101,505.1718],[37.4692,-14.0369,494.2501],[37.4592,-14.047,489.5635],[37.4556,-14.0532,489.0203],[37.4546,-14.0697,488.4991],[37.4669,-14.0847,488.4029],[37.4653,-14.0883,479.0149],[37.4663,-14.091,474.112],[37.46,-14.1044,471.2885],[37.4609,-14.1087,470.9652],[37.47,-14.1175,472.7412],[37.4728,-14.1175,470.775],[37.4758,-14.1242,468.9274],[37.4777,-14.1392,465.9982],[37.4862,-14.1487,460.4706],[37.4915,-14.1652,465.1671],[37.5099,-14.1861,463.7729],[37.5222,-14.195,464.4094],[37.5285,-14.213,456.4564],[37.5407,-14.2219,468.0859],[37.5468,-14.2457,448.4079],[37.5684,-14.2666,439.2393],[37.6053,-14.2725,435.9806],[37.6145,-14.2785,437.2821],[37.6201,-14.2879,436.9327],[37.6313,-14.2904,422.427],[37.6454,-14.2876,420.3504],[37.6678,-14.2764,421.5771],[37.6832,-14.2743,419.1632],[37.6954,-14.2778,422.2382],[37.7107,-14.2966,419.1486],[37.7185,-14.2978,437.75],[37.7195,-14.2998,424.9341],[37.7245,-14.2949,424.4707],[37.7721,-14.2711,422.7705],[37.7787,-14.2651,415.2092],[37.7855,-14.2552,415.8941],[37.7965,-14.2487,416.3814],[37.8235,-14.2531,410.6174],[37.8403,-14.2532,408.8484],[37.8575,-14.2506,408.5317],[37.8677,-14.2563,412.3185],[37.8793,-14.2743,407.1441],[37.9128,-14.3092,399.6208],[37.928,-14.3164,391.2741],[37.9404,-14.3132,393.8143],[37.961,-14.2957,390.4849],[37.9833,-14.2736,385.2661],[37.9877,-14.2717,394.0469],[37.9991,-14.2596,393.7463],[38.0189,-14.2474,394.4643],[38.0319,-14.2477,389.3783],[38.0367,-14.2506,382.6247],[38.0489,-14.2535,389.9769],[38.0619,-14.2522,380.9039],[38.0708,-14.259,379.1959],[38.0844,-14.258,365.2469],[38.095,-14.2514,371.2854],[38.1062,-14.2516,373.4703],[38.1191,-14.2599,369.6398],[38.1253,-14.2562,376.7177],[38.1346,-14.2466,377.6569],[38.148,-14.2362,367.8543],[38.1617,-14.2281,364.7278],[38.1731,-14.2313,361.5393],[38.1832,-14.2289,371.623],[38.2121,-14.2021,363.52],[38.237,-14.1747,368.3837],[38.2485,-14.1669,365.4173],[38.2787,-14.1593,356.4263],[38.3041,-14.1469,352.5123],[38.3353,-14.1545,355.5743],[38.355,-14.1417,345.3794],[38.3733,-14.1384,350.3966],[38.3984,-14.1271,346.4903],[38.3867,-14.1084,348.8153],[38.3769,-14.1082,348.9703],[38.3633,-14.1048,349.9477],[38.3603,-14.0868,353.2216],[38.3467,-14.0673,354.5167],[38.3484,-14.0563,360.399],[38.3394,-14.0611,358.458],[38.337,-14.0591,362.9688],[38.3256,-14.0464,363.373],[38.3201,-14.0378,368.2235],[38.3107,-14.0319,367.0954],[38.3044,-14.0204,369.7658],[38.2817,-13.9989,377.8975],[38.2798,-13.9927,377.6985],[38.2878,-13.9766,378.9167],[38.2875,-13.9659,390.6039],[38.281,-13.9619,382.1355],[38.2756,-13.9529,390.3062],[38.2777,-13.9475,387.2574],[38.273,-13.9406,389.8742],[38.2687,-13.9377,388.6566],[38.2615,-13.9363,392.6218],[38.2578,-13.9311,394.1434],[38.2597,-13.9236,395.643],[38.2589,-13.911,401.3327],[38.2523,-13.8979,402.0115],[38.2509,-13.8885,403.4524],[38.242,-13.8811,405.795],[38.2397,-13.8734,406.9246],[38.2323,-13.8681,411.9148],[38.2274,-13.8592,410.5375],[38.2217,-13.8567,409.377],[38.2141,-13.8465,414.5896],[38.2117,-13.839,419.245],[38.2134,-13.8334,418.8152],[38.2082,-13.8312,424.4647],[38.2065,-13.8279,419.6202],[38.2032,-13.8269,419.0337],[38.2018,-13.8245,463.3141],[38.2012,-13.8139,437.171],[38.2027,-13.8063,425.8947],[38.201,-13.8022,435.5155],[38.1831,-13.7862,434.6776]]]]}}