{"type":"Feature","properties":{"GID_3":"MOZ.1.3.1_1","GID_0":"MOZ","country":"Mozambique","GID_1":"MOZ.1_1","province":"CaboDelgado","NL_NAME_1":"NA","GID_2":"MOZ.1.3_1","county":"Chiúre","NL_NAME_2":"NA","city":"ChiureVelho","VARNAME_3":"NA","NL_NAME_3":"NA","TYPE_3":"Localidad","ENGTYPE_3":"Locality","CC_3":"NA","HASC_3":"NA","name":"Chiure_Velho.city"},
"geometry":{"type": "MultiPolygon","coordinates": [[[[39.8615,-13.4901,225.4955],[39.9026,-13.4883,260.025],[39.9231,-13.4855,230.7177],[39.9453,-13.4644,257.3595],[39.9634,-13.4732,242.2601],[39.9697,-13.4732,232.5217],[39.9916,-13.4793,207.3636],[40.0261,-13.4966,165.6732],[40.0331,-13.4978,135.5697],[40.0747,-13.4855,98.34],[40.1079,-13.4729,93.3085],[40.1098,-13.4675,99.9383],[40.1095,-13.4596,78.1459],[40.1033,-13.448,73.38],[40.1165,-13.4415,106.0801],[40.1233,-13.4331,128.6254],[40.1121,-13.4185,91.4317],[40.1042,-13.3793,123.8227],[40.096,-13.3762,156.6943],[40.0895,-13.3766,174.9785],[40.0799,-13.3716,184.9888],[40.0751,-13.3657,189.9193],[40.0703,-13.3491,213.7685],[40.082,-13.332,232.3375],[40.0851,-13.3232,201.9696],[40.0881,-13.3083,143.5757],[40.0862,-13.2933,141.1487],[40.0639,-13.2807,141.0962],[40.0497,-13.2837,146.8549],[40.0474,-13.2786,144.953],[40.0448,-13.2777,148.8945],[40.0321,-13.2793,152.5143],[40.0273,-13.2777,149.6121],[40.0003,-13.2786,157.1638],[39.9919,-13.283,168.8763],[39.9753,-13.2781,171.1697],[39.9554,-13.2562,202.4972],[39.9435,-13.2487,192.3781],[39.9272,-13.2416,222.1959],[39.9129,-13.2532,217.6434],[39.9021,-13.2516,233.6153],[39.8943,-13.2654,250.0117],[39.8851,-13.2712,244.8741],[39.8864,-13.276,273.9648],[39.8901,-13.2799,258.052],[39.889,-13.2882,269.7704],[39.891,-13.3153,293.3825],[39.8975,-13.3326,264.627],[39.892,-13.3379,263.2196],[39.8539,-13.3514,289.6086],[39.8531,-13.3577,279.2581],[39.8656,-13.4023,243.9272],[39.8735,-13.4204,226.1272],[39.8881,-13.4301,218.4017],[39.8903,-13.4376,226.4953],[39.8879,-13.4436,238.3006],[39.884,-13.447,238.6593],[39.8861,-13.4533,256.8589],[39.8615,-13.4901,225.4955]]]]}}