{"type": "Feature","bbox": [33.8991,-24.7814,34.0907,-24.6566],"geometry": {"type": "MultiPolygon","coordinates": [[[[33.9621,-24.662,62.6841],[33.9465,-24.6859,58.4263],[33.9198,-24.6976,59.1383],[33.9039,-24.7025,63.4517],[33.8991,-24.7064,59.8757],[33.9,-24.7151,59.2785],[33.9141,-24.7227,60.0862],[33.926,-24.7511,69.429],[33.9378,-24.7531,85.5866],[33.968,-24.7531,63.5104],[33.9941,-24.7683,49.2268],[34.0012,-24.7631,51.4601],[34.0175,-24.7668,52.6767],[34.0287,-24.7814,41.4844],[34.0308,-24.7727,45.8698],[34.0412,-24.7682,44.3002],[34.0474,-24.7693,44.0653],[34.053,-24.7665,50.1256],[34.0586,-24.767,48.085],[34.0686,-24.7708,40.9238],[34.084,-24.7644,35.5352],[34.0817,-24.7524,46.5129],[34.0907,-24.7358,59.5975],[34.0748,-24.728,55.7531],[34.0663,-24.718,71.7806],[34.0646,-24.7109,50.6495],[34.0573,-24.6984,41.884],[34.0466,-24.6992,40.8145],[34.0364,-24.7021,40.8457],[34.0343,-24.6997,40.967],[34.0329,-24.6921,41.645],[34.0358,-24.6691,48.6667],[34.0334,-24.6635,42.5507],[34.0237,-24.6611,47.0458],[34.0145,-24.6566,43.7002],[34.0021,-24.6606,45.0789],[33.9663,-24.6603,62.6],[33.9621,-24.662,62.6841]]]]}
,"properties": {"GID_3": "MOZ.2.8.2_1","GID_0": "MOZ","country": "Mozambique","GID_1": "MOZ.2_1","province": "Gaza","NL_NAME_1": "NA","GID_2": "MOZ.2.8_1","county": "Mandlakazi","NL_NAME_2": "NA","city": "Chibonzane","VARNAME_3": "NA","NL_NAME_3": "NA","TYPE_3": "Localidad","ENGTYPE_3": "Locality","CC_3": "NA","HASC_3": "NA","name": "Chibonzane.city","area_km2": 153.3629,"hist_schema_id": "Elevation0-9000","hist_area_km2": {"25": 2.3489,"50": 107.3164,"75": 43.505,"100": 0.1926}}}