{"type":"Feature","properties":{"GID_2":"MOZ.1.5_1","GID_0":"MOZ","country":"Mozambique","GID_1":"MOZ.1_1","province":"CaboDelgado","NL_NAME_1":"NA","county":"Mecufi","VARNAME_2":"NA","NL_NAME_2":"NA","TYPE_2":"Distrito","ENGTYPE_2":"District","CC_2":"NA","HASC_2":"MZ.CD.MC","name":"Mecufi.county"},
"geometry":{"type": "MultiPolygon","coordinates": [[[[40.2677,-13.3161,81.0752],[40.2769,-13.3195,84.3484],[40.2953,-13.3195,60.392],[40.3106,-13.3225,100.6327],[40.3193,-13.3275,81.0625],[40.3463,-13.3336,57.0737],[40.3528,-13.3367,49.4264],[40.3719,-13.3553,58.8763],[40.3849,-13.3733,65.9471],[40.3874,-13.3881,41.5523],[40.4241,-13.3851,39.0494],[40.4394,-13.3971,27.6787],[40.4487,-13.412,25.5712],[40.464,-13.4299,20.557],[40.4855,-13.4299,15.6569],[40.4947,-13.4358,14.2141],[40.5008,-13.4448,12.3511],[40.5332,-13.4748,1.7595],[40.534,-13.4604,6.2646],[40.5374,-13.4465,5.3554],[40.5485,-13.4218,7.1184],[40.5596,-13.4096,0.0],[40.5649,-13.4057,7.4795],[40.5757,-13.4012,0.0],[40.5815,-13.3835,6.5733],[40.584,-13.3657,0.0],[40.5832,-13.3546,4.8352],[40.5801,-13.3529,2.7116],[40.5804,-13.3476,5.1072],[40.5824,-13.3449,1.9434],[40.5774,-13.3293,1.566],[40.5732,-13.3263,5.6907],[40.5685,-13.3188,2.5888],[40.5649,-13.3196,5.2693],[40.5632,-13.3182,4.5819],[40.5638,-13.3179,3.4097],[40.5651,-13.3182,1.612],[40.5638,-13.3112,4.1607],[40.5662,-13.3085,0.1626],[40.5649,-13.3007,1.8545],[40.5632,-13.2993,5.6838],[40.561,-13.2896,5.4808],[40.5579,-13.2887,3.8334],[40.5576,-13.2865,0.0],[40.554,-13.2837,3.1034],[40.5554,-13.2835,1.5065],[40.5604,-13.286,4.758],[40.5646,-13.271,0.922],[40.5601,-13.2571,2.0374],[40.559,-13.2443,4.9851],[40.561,-13.2396,2.2717],[40.5593,-13.2385,0.5963],[40.5568,-13.2287,7.0164],[40.5568,-13.221,10.1935],[40.5376,-13.2211,50.0343],[40.5069,-13.236,19.8833],[40.4814,-13.2704,67.5983],[40.467,-13.2509,102.2317],[40.4548,-13.2301,138.5152],[40.4298,-13.2154,155.7686],[40.4087,-13.2274,87.9699],[40.4047,-13.2416,104.4412],[40.3597,-13.2448,114.2683],[40.3391,-13.259,124.8717],[40.3097,-13.2545,192.941],[40.2891,-13.2688,321.9964],[40.2769,-13.2896,148.9017],[40.2677,-13.3161,81.0752]]]]}}