{"type": "Feature","bbox": [39.1967,-15.6424,40.0687,-14.8532],"geometry": {"type": "MultiPolygon","coordinates": [[[[39.7992,-15.2705,148.9592],[39.8076,-15.2657,148.0922],[39.8133,-15.2655,152.4406],[39.8188,-15.2683,135.9458],[39.8246,-15.2624,135.1716],[39.8296,-15.2605,143.4939],[39.835,-15.262,131.6427],[39.8394,-15.2606,128.9366],[39.8398,-15.2518,126.1795],[39.9096,-15.216,125.8904],[39.9127,-15.2028,142.4399],[39.9079,-15.1955,135.5262],[39.9012,-15.171,151.1016],[39.8931,-15.1598,170.5673],[39.8889,-15.1505,182.7013],[39.8966,-15.133,190.3616],[39.888,-15.1194,216.1696],[39.8833,-15.1087,247.1404],[39.9324,-15.0644,217.9887],[39.9407,-15.0619,227.3155],[39.9616,-15.0616,212.9483],[39.9615,-15.0508,213.5181],[39.9779,-15.0469,194.206],[39.9899,-15.0465,175.8973],[40.0001,-15.041,169.0428],[40.0096,-15.0407,155.1157],[40.0253,-15.0345,144.0509],[40.0485,-15.0209,117.8522],[40.0553,-15.0185,119.9191],[40.0508,-15.0108,125.654],[40.0433,-15.0079,123.7156],[40.031,-15.0069,129.1504],[40.0268,-15.0023,132.6991],[40.0299,-14.9988,140.4116],[40.0299,-14.9858,150.9303],[40.0367,-14.9616,153.3925],[40.0368,-14.9421,148.305],[40.0384,-14.9326,158.4787],[40.0473,-14.9036,182.1476],[40.0531,-14.8949,175.7676],[40.0672,-14.8843,156.9578],[40.0687,-14.8766,153.8253],[40.0666,-14.8686,144.5201],[40.0591,-14.8532,133.049],[40.0488,-14.8542,136.4564],[40.0429,-14.8571,132.6159],[40.018,-14.8635,145.1398],[39.998,-14.8563,155.358],[39.9857,-14.8623,165.8346],[39.9685,-14.8662,161.6082],[39.9673,-14.867,159.6651],[39.9764,-14.8802,167.4762],[39.9695,-14.893,162.2876],[39.9649,-14.889,165.2772],[39.9683,-14.8985,163.9947],[39.9447,-14.9068,161.8441],[39.9283,-14.9064,164.793],[39.9102,-14.8983,166.7021],[39.8881,-14.8956,180.4423],[39.8811,-14.8932,170.9951],[39.8762,-14.8895,187.5916],[39.8728,-14.8839,183.091],[39.8706,-14.8714,178.2826],[39.8675,-14.8661,187.1901],[39.858,-14.8675,181.0964],[39.8502,-14.8732,185.6912],[39.8398,-14.8771,188.9812],[39.8338,-14.8823,196.8563],[39.8278,-14.884,205.5676],[39.821,-14.8829,193.7013],[39.8128,-14.8865,193.9828],[39.8007,-14.8992,211.1741],[39.7689,-14.8935,205.5081],[39.749,-14.9046,206.1249],[39.7317,-14.9181,205.7806],[39.7058,-14.919,213.758],[39.6594,-14.9379,231.6151],[39.6409,-14.9695,233.6395],[39.6294,-14.9782,230.2136],[39.6256,-14.99,238.6482],[39.6141,-15.0058,247.3805],[39.6087,-15.0062,235.004],[39.5949,-15.0165,250.214],[39.579,-15.0318,263.3871],[39.5573,-15.0598,283.6996],[39.566,-15.081,323.2732],[39.5679,-15.0953,303.0744],[39.5782,-15.1058,282.2646],[39.5845,-15.117,285.9104],[39.5852,-15.1338,260.9885],[39.5873,-15.1414,251.6441],[39.5853,-15.1533,235.3343],[39.5792,-15.1541,235.6786],[39.5685,-15.1516,242.1523],[39.5588,-15.1519,247.1193],[39.5516,-15.1551,243.0933],[39.5421,-15.1642,252.725],[39.5227,-15.1728,279.7457],[39.5037,-15.1862,308.6202],[39.5028,-15.2069,305.3636],[39.4789,-15.2086,325.9318],[39.4807,-15.2423,312.5089],[39.4833,-15.2556,300.354],[39.4819,-15.2765,276.8804],[39.4895,-15.2867,273.0922],[39.4924,-15.2991,279.1454],[39.4929,-15.3055,262.9011],[39.4898,-15.3132,261.8336],[39.4752,-15.3236,260.1677],[39.451,-15.3216,260.2298],[39.4454,-15.3262,265.8241],[39.4332,-15.3413,272.4572],[39.4236,-15.3424,280.1224],[39.4197,-15.3412,283.2947],[39.4043,-15.3294,296.7151],[39.3962,-15.3256,312.3538],[39.3835,-15.3435,350.2949],[39.3764,-15.3479,329.7454],[39.3815,-15.3561,322.2783],[39.3814,-15.3639,292.5807],[39.3787,-15.3701,291.648],[39.3611,-15.379,275.1149],[39.3607,-15.3841,343.7147],[39.3671,-15.3975,274.801],[39.3754,-15.4016,257.9105],[39.3706,-15.4059,254.0297],[39.3635,-15.4054,272.4325],[39.3478,-15.3956,299.3159],[39.3402,-15.3939,301.7984],[39.3346,-15.395,302.7184],[39.3295,-15.4006,296.5766],[39.3246,-15.4154,285.6784],[39.3098,-15.4104,277.04],[39.3005,-15.4123,266.591],[39.2881,-15.4088,233.8041],[39.2828,-15.4095,234.9225],[39.2668,-15.4183,222.8023],[39.2473,-15.4349,209.2623],[39.2416,-15.4362,204.0142],[39.2375,-15.4337,209.652],[39.2283,-15.4426,203.6127],[39.2135,-15.45,193.5135],[39.2082,-15.4555,190.2443],[39.1967,-15.4784,192.7382],[39.1974,-15.4815,193.4765],[39.211,-15.4887,190.8488],[39.2178,-15.5119,190.3932],[39.2282,-15.5316,185.991],[39.2275,-15.5481,181.9572],[39.2363,-15.5625,168.0776],[39.2482,-15.5659,172.3466],[39.2454,-15.5742,167.1313],[39.245,-15.5803,192.7798],[39.2466,-15.5837,156.855],[39.2531,-15.5806,162.6931],[39.2595,-15.5829,165.2559],[39.2595,-15.5953,168.8027],[39.2628,-15.6043,153.3793],[39.2622,-15.6094,151.8287],[39.252,-15.6325,151.4065],[39.2547,-15.6301,135.4622],[39.2611,-15.6301,137.2473],[39.2829,-15.6424,140.7073],[39.2851,-15.6325,150.8584],[39.3093,-15.6379,157.3968],[39.327,-15.6141,198.7963],[39.3508,-15.617,164.7552],[39.3628,-15.6392,151.7174],[39.3753,-15.6412,144.4514],[39.3783,-15.639099999999999,155.8064],[39.3747,-15.6267,148.8982],[39.3844,-15.6211,159.4523],[39.3925,-15.5992,165.5033],[39.3957,-15.5962,161.8658],[39.4117,-15.6023,184.6318],[39.4181,-15.6023,186.997],[39.4426,-15.5922,222.2351],[39.4714,-15.5915,223.4842],[39.4791,-15.5932,212.7288],[39.4903,-15.6094,198.8074],[39.4965,-15.613,191.9454],[39.5085,-15.6264,185.9097],[39.5175,-15.6178,195.3732],[39.523,-15.6074,206.5221],[39.5331,-15.5966,230.6119],[39.5576,-15.6009,225.144],[39.5752,-15.6178,178.2131],[39.5763,-15.621,191.3405],[39.6099,-15.6406,159.8261],[39.62,-15.629,192.5705],[39.6454,-15.6251,171.5447],[39.6766,-15.6083,118.0895],[39.6936,-15.605,110.5854],[39.7014,-15.6064,107.57],[39.7117,-15.6158,103.771],[39.7361,-15.6307,92.0706],[39.7415,-15.6234,100.9683],[39.7418,-15.5932,149.5247],[39.7554,-15.5896,126.9651],[39.7633,-15.5795,113.9499],[39.7767,-15.5758,115.6935],[39.7844,-15.5757,105.9343],[39.7874,-15.5735,110.1054],[39.7876,-15.5685,111.0398],[39.7837,-15.557,122.722],[39.7772,-15.5428,131.6509],[39.7724,-15.5388,125.24],[39.7714,-15.5238,125.7037],[39.7726,-15.516,128.7275],[39.7708,-15.5,142.6142],[39.7729,-15.4908,154.4734],[39.771,-15.4829,151.6287],[39.7747,-15.4743,184.2058],[39.762,-15.4673,198.2396],[39.7667,-15.4603,132.9343],[39.774,-15.4553,130.7388],[39.8105,-15.4389,103.969],[39.8378,-15.4302,98.8377],[39.8493,-15.4341,111.3995],[39.8491,-15.4274,103.7056],[39.8399,-15.4187,105.2711],[39.8318,-15.4157,108.1984],[39.8214,-15.4003,122.9337],[39.7987,-15.3889,127.1185],[39.8172,-15.3412,143.0156],[39.8213,-15.338,151.8366],[39.8211,-15.3343,142.5485],[39.8172,-15.3269,145.273],[39.808,-15.326,148.6705],[39.7978,-15.3168,164.1724],[39.7979,-15.3127,156.277],[39.8027,-15.3073,162.3803],[39.7948,-15.2751,153.1997],[39.7992,-15.2705,148.9592]]]]}
,"properties": {"GID_2": "MOZ.7.5_1","GID_0": "MOZ","country": "Mozambique","GID_1": "MOZ.7_1","province": "Nampula","NL_NAME_1": "NA","county": "Meconta","VARNAME_2": "NA","NL_NAME_2": "NA","TYPE_2": "Distrito","ENGTYPE_2": "District","CC_2": "NA","HASC_2": "MZ.NM.MC","name": "Meconta.county","area_km2": 3703.995,"hist_schema_id": "Elevation0-9000","hist_area_km2": {"100": 10.296,"125": 90.271,"150": 292.796,"175": 526.966,"200": 658.79,"225": 696.554,"250": 630.816,"275": 471.508,"300": 252.38,"325": 57.099,"350": 7.155,"375": 3.271,"400": 2.331,"425": 1.206,"450": 0.593,"475": 0.613,"500": 0.45,"525": 0.388,"550": 0.266,"575": 0.041,"600": 0.123,"650": 0.041}}}