{"type": "Feature","bbox": [40.0703,-13.5086,40.5332,-13.2547],"geometry": {"type": "MultiPolygon","coordinates": [[[[40.0862,-13.2933,141.1487],[40.0881,-13.3083,143.5757],[40.0851,-13.3232,201.9696],[40.082,-13.332,232.3375],[40.0703,-13.3491,213.7685],[40.0751,-13.3657,189.9193],[40.0799,-13.3716,184.9888],[40.0895,-13.3766,174.9785],[40.096,-13.3762,156.6943],[40.1042,-13.3793,123.8227],[40.1121,-13.4185,91.4317],[40.1233,-13.4331,128.6254],[40.1162,-13.4415,106.0801],[40.1403,-13.4484,68.1559],[40.1486,-13.4563,77.2051],[40.1688,-13.4585,70.6677],[40.1933,-13.4736,52.8752],[40.2114,-13.492,69.7587],[40.2206,-13.492,62.1931],[40.2384,-13.4843,42.4873],[40.2921,-13.4714,18.3635],[40.3097,-13.4716,16.7524],[40.3431,-13.4586,15.2153],[40.3845,-13.454,12.5743],[40.4034,-13.4545,13.0322],[40.4168,-13.4569,10.3928],[40.4252,-13.4622,10.1034],[40.437,-13.4753,17.7681],[40.4507,-13.4996,5.915],[40.4635,-13.5078,17.8513],[40.4652,-13.5039,29.1937],[40.4705,-13.5086,11.004],[40.4754,-13.5085,10.8467],[40.4965,-13.5052,26.5837],[40.5162,-13.4986,5.6012],[40.5257,-13.4999,2.3444],[40.5285,-13.489,3.8572],[40.5315,-13.4835,0.0],[40.531,-13.4765,1.6073],[40.524,-13.4757,3.2684],[40.519,-13.4788,4.8153],[40.5163,-13.476,5.0542],[40.5201,-13.4776,4.8511],[40.5251,-13.4746,3.6101],[40.5332,-13.4748,1.7595],[40.5008,-13.4448,12.3511],[40.4947,-13.4358,14.2141],[40.4855,-13.4299,15.6569],[40.464,-13.4299,20.557],[40.4487,-13.412,25.5712],[40.4394,-13.3971,27.6787],[40.4241,-13.3851,39.0494],[40.3874,-13.3881,41.5523],[40.3849,-13.3733,65.9471],[40.3719,-13.3553,58.8763],[40.3528,-13.3367,49.4264],[40.3463,-13.3336,57.0737],[40.3193,-13.3275,81.0625],[40.3106,-13.3225,100.6327],[40.2953,-13.3195,60.392],[40.2769,-13.3195,84.3484],[40.262,-13.3155,74.8689],[40.2396,-13.3039,92.37],[40.2285,-13.2944,75.5276],[40.2317,-13.2806,109.0091],[40.2163,-13.286,100.0463],[40.2112,-13.2818,86.8698],[40.2102,-13.2684,94.4011],[40.2051,-13.2661,106.7849],[40.1801,-13.2683,108.6494],[40.1682,-13.266,121.369],[40.1502,-13.2547,116.2845],[40.1342,-13.2558,151.1679],[40.126,-13.2721,108.0316],[40.1151,-13.287,133.4725],[40.1079,-13.2892,125.2277],[40.0969,-13.2893,142.1316],[40.0862,-13.2933,141.1487]]]]}
,"properties": {"GID_3": "MOZ.1.3.3_1","GID_0": "MOZ","country": "Mozambique","GID_1": "MOZ.1_1","province": "CaboDelgado","NL_NAME_1": "NA","GID_2": "MOZ.1.3_1","county": "Chiúre","NL_NAME_2": "NA","city": "Mazeze","VARNAME_3": "NA","NL_NAME_3": "NA","TYPE_3": "Localidad","ENGTYPE_3": "Locality","CC_3": "NA","HASC_3": "NA","name": "Mazeze.city","area_km2": 695.2935,"hist_schema_id": "Elevation0-9000","hist_area_km2": {"0": 20.598,"25": 56.79,"50": 82.1811,"75": 65.2335,"100": 70.3968,"125": 82.283,"150": 94.4748,"175": 100.0445,"200": 76.0748,"225": 35.9747,"250": 8.0449,"275": 1.8771,"300": 0.722,"325": 0.2888,"350": 0.2063,"375": 0.0825,"400": 0.0206}}}