{"type": "Feature","bbox": [34.6945,-19.9546,35.1522,-19.6172],"geometry": {"type": "MultiPolygon","coordinates": [[[[34.8043,-19.9465,0.0],[34.8026,-19.9463,0.0],[34.8024,-19.9476,0.0],[34.8051,-19.9485,0.0],[34.8115,-19.9546,0.0],[34.8082,-19.949,0.0],[34.8043,-19.9465,0.0]]],
[[[34.9899,-19.786,2.5108],[34.9871,-19.7871,2.1645],[34.9849,-19.7938,3.3751],[34.9768,-19.7968,2.6046],[34.9749,-19.8001,3.3565],[34.9715,-19.8007,1.2089],[34.9724,-19.8054,0.8617],[34.9821,-19.7999,0.0],[34.9915,-19.791,0.0],[34.9924,-19.7887,1.758],[34.9899,-19.786,2.5108]]],
[[[34.8279,-19.8424,0.0],[34.8338,-19.8487,0.0],[34.8549,-19.8487,1.7726],[34.8774,-19.8524,3.1749],[34.8904,-19.8496,0.0],[34.9157,-19.8321,0.9041],[34.9329,-19.816,1.4841],[34.9451,-19.8099,0.0],[34.9596,-19.7999,2.9738],[34.9643,-19.7996,0.4],[34.9646,-19.7965,2.0877],[34.9685,-19.7915,0.0],[34.9807,-19.7893,1.8622],[34.9799,-19.7921,3.1779],[34.9815,-19.7921,0.7217],[34.9826,-19.7904,3.9884],[34.981,-19.7887,1.8622],[34.9829,-19.7854,2.9835],[34.9893,-19.7807,1.3374],[34.9946,-19.781,2.1374],[34.9996,-19.776,1.1286],[35.0024,-19.7801,3.2396],[34.9996,-19.7821,3.4273],[35.0029,-19.7807,3.2396],[35.0346,-19.7515,0.843],[35.0401,-19.7485,1.8589],[35.0407,-19.7454,0.0],[35.0443,-19.7457,0.0],[35.059,-19.7337,0.0],[35.0618,-19.7287,3.5581],[35.079,-19.721,0.0],[35.0818,-19.7182,0.2026],[35.0838,-19.7121,0.427],[35.0882,-19.7132,0.0],[35.0938,-19.7104,2.5436],[35.0965,-19.7129,6.0332],[35.1037,-19.7085,1.8539],[35.1049,-19.7054,4.2367],[35.1057,-19.7071,2.7844],[35.1049,-19.709,0.7412],[35.1063,-19.709,0.0],[35.1218,-19.6965,0.0],[35.1271,-19.6899,0.0],[35.1363,-19.6876,1.5665],[35.1364,-19.6823,0.0],[35.1439,-19.6636,0.5],[35.1522,-19.6505,4.4774],[35.1465,-19.6309,9.4412],[35.137,-19.6309,9.3315],[35.1362,-19.6201,13.8337],[35.1249,-19.6172,11.5726],[35.1026,-19.6207,3.564],[35.0884,-19.6268,2.6655],[35.0165,-19.6355,6.8975],[34.9998,-19.634,8.3533],[34.934,-19.6213,14.4218],[34.8945,-19.6276,18.5606],[34.8785,-19.6258,19.3236],[34.8677,-19.6305,21.1178],[34.8501,-19.6352,27.5843],[34.8368,-19.6425,25.1617],[34.8245,-19.6538,30.7673],[34.7658,-19.6961,21.3224],[34.753,-19.7117,14.7859],[34.7453,-19.7127,4.3682],[34.7385,-19.7086,4.3843],[34.6945,-19.707,1.6341],[34.696,-19.7167,0.5],[34.6986,-19.719,0.5],[34.6986,-19.726,0.5],[34.7091,-19.734,6.1925],[34.7303,-19.7333,4.6186],[34.7472,-19.7393,0.0],[34.7706,-19.7515,0.0],[34.7843,-19.7625,0.0],[34.7894,-19.7692,0.0],[34.7951,-19.7813,0.0],[34.8094,-19.7978,0.0],[34.8339,-19.8069,2.5903],[34.8344,-19.8143,0.0],[34.8271,-19.8388,0.0],[34.8279,-19.8424,0.0]]],
[[[34.9874,-19.7854,2.8969],[34.9865,-19.7849,3.8287],[34.9857,-19.7874,3.2234],[34.9871,-19.7868,2.1645],[34.9874,-19.7854,2.8969]]],
[[[35.0999,-19.7129,1.8551],[35.0893,-19.716,0.1615],[35.0887,-19.7174,2.0633],[35.0971,-19.7154,0.0],[35.0999,-19.7129,1.8551]]]]}
,"properties": {"GID_3": "MOZ.9.6.1_1","GID_0": "MOZ","country": "Mozambique","GID_1": "MOZ.9_1","province": "Sofala","NL_NAME_1": "NA","GID_2": "MOZ.9.6_1","county": "Dondo","NL_NAME_2": "NA","city": "CidadeDaBeira","VARNAME_3": "NA","NL_NAME_3": "NA","TYPE_3": "Localidad","ENGTYPE_3": "Locality","CC_3": "NA","HASC_3": "NA","name": "Cidade_Da_Beira.city","area_km2": 659.6923,"hist_schema_id": "Elevation0-9000","hist_area_km2": {"0": 446.4629,"25": 212.8301,"50": 0.3992}}}