{"type": "Feature","bbox": [34.6843,-12.5059,35.4036,-11.5565],"geometry": {"type": "MultiPolygon","coordinates": [[[[35.1748,-12.303,677.6036],[35.1916,-12.2736,677.4841],[35.1951,-12.2587,674.5178],[35.1901,-12.2529,670.2646],[35.1854,-12.2259,674.2875],[35.1827,-12.2191,664.9752],[35.1826,-12.1924,658.9963],[35.1621,-12.1739,660.599],[35.1604,-12.1682,661.7315],[35.166,-12.1482,664.0247],[35.1703,-12.1422,651.5443],[35.1832,-12.1363,651.8337],[35.1902,-12.1303,650.6455],[35.1934,-12.1222,653.1952],[35.2083,-12.1029,645.5346],[35.2028,-12.0852,645.1303],[35.1968,-12.0775,644.9412],[35.1857,-12.0726,641.7004],[35.1724,-12.0739,638.681],[35.1554,-12.0534,636.1182],[35.1554,-12.0412,633.5752],[35.1516,-12.0272,634.2231],[35.1371,-11.9978,628.4974],[35.1253,-11.9634,635.5876],[35.1314,-11.9457,642.989],[35.1516,-11.9544,631.1299],[35.1339,-11.9425,647.5311],[35.1417,-11.9407,635.1283],[35.1472,-11.936,648.0504],[35.1497,-11.9313,632.8557],[35.176,-11.9176,627.7108],[35.181,-11.9176,630.2548],[35.1949,-11.9048,620.691],[35.1967,-11.8937,624.0549],[35.2065,-11.8861,628.6916],[35.215,-11.882,616.573],[35.2256,-11.8729,619.0168],[35.2421,-11.8368,615.2113],[35.2647,-11.8118,609.8343],[35.2663,-11.8064,615.7629],[35.2845,-11.7818,595.9622],[35.2889,-11.7733,601.1995],[35.2936,-11.7686,607.9548],[35.3037,-11.7652,598.7391],[35.3022,-11.7388,600.7318],[35.309,-11.7164,604.9795],[35.3178,-11.7128,589.8704],[35.3177,-11.7069,590.5452],[35.3134,-11.7001,595.2377],[35.3159,-11.6884,598.9938],[35.3253,-11.6751,596.0787],[35.3232,-11.659,590.7642],[35.3264,-11.6508,591.8721],[35.3469,-11.6304,584.2542],[35.3631,-11.6326,581.5425],[35.366,-11.6273,579.0402],[35.3635,-11.6221,588.7824],[35.3661,-11.6183,586.4135],[35.375,-11.6126,582.4304],[35.3778,-11.6091,584.8324],[35.3749,-11.6001,591.8392],[35.3756,-11.5922,584.1782],[35.3861,-11.5951,584.7136],[35.3929,-11.5916,588.6176],[35.4036,-11.5758,577.7791],[35.3975,-11.5796,578.5942],[35.3963,-11.5819,572.7903],[35.3898,-11.58,587.6022],[35.3856,-11.577,592.6868],[35.384,-11.5713,596.0517],[35.3807,-11.5697,598.6103],[35.3589,-11.568,606.1331],[35.3504,-11.5611,614.0516],[35.3407,-11.5565,624.291],[35.1972,-11.5612,1129.0415],[35.1857,-11.563,1113.4709],[35.1542,-11.5616,1427.2351],[35.126,-11.5642,1384.853],[35.0602,-11.5662,1240.3616],[35.0398,-11.5684,1272.2601],[35.0247,-11.5678,1272.3982],[34.9998,-11.5707,1461.4285],[34.9923,-11.5689,1342.4556],[34.9694,-11.5719,520.913],[34.9585,-11.5714,475.1107],[34.9593,-11.5749,474.5],[34.9615,-11.5754,475.3998],[34.9654,-11.581,478.1729],[34.9629,-11.6007,495.2329],[34.9601,-11.6057,475.8686],[34.9607,-11.6088,477.9643],[34.9579,-11.611,474.5],[34.9574,-11.6154,475.5524],[34.9618,-11.6213,474.5],[34.9651,-11.631,494.5518],[34.9654,-11.6429,474.5],[34.9671,-11.6449,489.0182],[34.9674,-11.6504,478.9271],[34.9651,-11.6576,478.8057],[34.9668,-11.6587,484.2874],[34.9674,-11.664,476.4177],[34.9651,-11.6724,476.0161],[34.9657,-11.6782,486.0255],[34.9643,-11.6793,486.0255],[34.9654,-11.6824,485.9762],[34.9646,-11.6899,514.3488],[34.9613,-11.6957,474.5],[34.9618,-11.701,474.5],[34.9588,-11.7071,484.1014],[34.9562,-11.7079,474.5],[34.9546,-11.7113,496.5029],[34.9546,-11.7168,517.1619],[34.9515,-11.7218,474.5],[34.9512,-11.7326,474.5],[34.9496,-11.7354,474.5],[34.9512,-11.7463,474.5],[34.9501,-11.7507,474.5],[34.951,-11.7685,474.5],[34.9549,-11.7801,483.9947],[34.9521,-11.7907,485.2926],[34.949,-11.7943,474.5],[34.9476,-11.8101,478.0262],[34.9421,-11.8226,474.5],[34.9426,-11.8254,475.3517],[34.9401,-11.8271,479.863],[34.9396,-11.834,509.3441],[34.9371,-11.8385,474.5],[34.9371,-11.8446,485.8591],[34.9304,-11.856,474.5],[34.9274,-11.8668,476.3609],[34.9268,-11.8718,474.5],[34.9287,-11.8737,478.9655],[34.9268,-11.8757,474.5],[34.9271,-11.879,474.5],[34.9221,-11.8868,479.2449],[34.9149,-11.8888,475.4205],[34.9162,-11.8924,474.5],[34.9149,-11.8946,481.6558],[34.9063,-11.8993,474.5],[34.8996,-11.909,474.5],[34.901,-11.9174,495.6813],[34.9032,-11.9201,493.0268],[34.9015,-11.9243,475.7344],[34.9029,-11.9274,483.3405],[34.9001,-11.9421,474.5],[34.8957,-11.9476,474.5],[34.8971,-11.9563,479.4014],[34.894,-11.966,474.5],[34.8954,-11.976,477.9896],[34.8929,-11.9843,483.268],[34.889,-11.9904,475.2771],[34.8843,-11.9943,475.5583],[34.8818,-12.001,474.5],[34.8821,-12.006,474.5],[34.8868,-12.0138,475.9441],[34.8901,-12.0282,479.0282],[34.8812,-12.0437,474.5],[34.8707,-12.0551,474.5],[34.869,-12.059,475.3628],[34.8546,-12.069,475.3731],[34.8387,-12.074,477.6347],[34.829,-12.0743,474.5],[34.8232,-12.0718,474.5],[34.8157,-12.0718,474.5],[34.8107,-12.0785,475.1885],[34.8112,-12.0954,474.5],[34.806,-12.104,480.3574],[34.801,-12.1062,474.5],[34.7993,-12.1099,475.3757],[34.7951,-12.1126,474.5],[34.7776,-12.1151,480.5167],[34.7749,-12.1232,479.7612],[34.7696,-12.1265,480.5554],[34.761,-12.1268,474.5],[34.7571,-12.1396,477.9896],[34.751,-12.1426,474.5],[34.7451,-12.1521,475.7164],[34.7357,-12.156,474.5],[34.7326,-12.161,474.5],[34.7257,-12.1635,477.1406],[34.7168,-12.1735,474.5],[34.7085,-12.1793,474.5],[34.7071,-12.1829,483.2623],[34.7001,-12.1868,477.2856],[34.7004,-12.189,477.2775],[34.6963,-12.1918,474.5],[34.7018,-12.1926,478.5903],[34.6985,-12.2026,474.5],[34.7049,-12.2071,483.0391],[34.7051,-12.2099,474.5],[34.7082,-12.2104,490.951],[34.7079,-12.2146,476.5817],[34.7115,-12.2207,482.9114],[34.7107,-12.2324,474.5],[34.7143,-12.234,476.4598],[34.7149,-12.2376,474.5],[34.7174,-12.2379,490.8577],[34.7165,-12.241,474.5],[34.7232,-12.2501,474.5],[34.7215,-12.2535,475.5452],[34.7229,-12.2585,474.5],[34.7199,-12.2615,477.7125],[34.7218,-12.2679,476.4961],[34.721,-12.2743,474.5],[34.7163,-12.284,474.5],[34.7118,-12.2854,474.5],[34.7107,-12.2907,474.5],[34.7129,-12.2932,474.5],[34.7126,-12.2971,474.5],[34.7076,-12.3126,487.871],[34.7043,-12.3182,474.5],[34.7046,-12.3221,478.5685],[34.7004,-12.3287,474.5],[34.6987,-12.3382,514.8591],[34.6999,-12.3476,485.6538],[34.7032,-12.3549,476.1856],[34.7051,-12.356,533.8698],[34.709,-12.3693,480.1709],[34.7021,-12.3924,474.5],[34.7071,-12.4015,482.2696],[34.7065,-12.4051,474.5],[34.709,-12.4099,480.58],[34.7088,-12.414,475.9239],[34.7054,-12.4185,474.8705],[34.7046,-12.4235,475.0722],[34.6993,-12.4288,479.1764],[34.691,-12.4299,476.1158],[34.6843,-12.4282,477.1699],[34.6896,-12.4432,474.5],[34.6957,-12.4499,474.5],[34.6996,-12.4582,474.5],[34.6993,-12.4757,478.4437],[34.7012,-12.4807,483.4514],[34.699,-12.4796,475.8426],[34.699,-12.4768,476.7256],[34.6976,-12.4818,474.5],[34.7046,-12.4913,474.5],[34.704,-12.5013,475.3312],[34.7104,-12.5059,480.3886],[34.7583,-12.4449,685.2252],[34.8504,-12.3931,734.3498],[34.8875,-12.3394,765.6171],[34.9832,-12.3215,791.3696],[35.0789,-12.2828,798.544],[35.1067,-12.3006,821.3957],[35.1748,-12.303,677.6036]]]]}
,"properties": {"GID_3": "MOZ.8.2.1_1","GID_0": "MOZ","country": "Mozambique","GID_1": "MOZ.8_1","province": "Nassa","NL_NAME_1": "NA","GID_2": "MOZ.8.2_1","county": "Lago","NL_NAME_2": "NA","city": "Cobue","VARNAME_3": "NA","NL_NAME_3": "NA","TYPE_3": "Localidad","ENGTYPE_3": "Locality","CC_3": "NA","HASC_3": "NA","name": "Cobue.city","area_km2": 3517.898,"hist_schema_id": "Elevation0-9000","hist_area_km2": {"475": 49.625,"500": 48.263,"525": 50.17,"550": 57.284,"575": 62.714,"600": 123.768,"625": 240.757,"650": 431.559,"675": 566.355,"700": 424.787,"725": 302.347,"750": 203.964,"775": 124.03,"800": 56.052,"825": 41.842,"850": 34.318,"875": 32.684,"900": 30.279,"925": 26.835,"950": 26.339,"975": 27.627,"1000": 30.949,"1025": 33.792,"1050": 34.063,"1075": 28.957,"1100": 26.841,"1125": 26.323,"1150": 24.123,"1175": 22.027,"1200": 22.484,"1225": 21.341,"1250": 21.778,"1275": 23.688,"1300": 25.245,"1325": 28.526,"1350": 27.675,"1375": 23.855,"1400": 20.637,"1425": 19.226,"1450": 16.258,"1475": 15.324,"1500": 15.075,"1525": 11.732,"1550": 10.486,"1575": 7.621,"1600": 5.856,"1625": 4.444,"1650": 3.634,"1675": 2.429,"1700": 1.018,"1725": 0.374,"1750": 0.291,"1775": 0.125,"1800": 0.104}}}