{"type": "Feature","bbox": [35.1261,-13.4122,35.3593,-13.1955],"geometry": {"type": "MultiPolygon","coordinates": [[[[35.2949,-13.4122,1164.907],[35.2897,-13.3916,1197.5958],[35.3067,-13.3737,1268.6709],[35.3121,-13.3701,1296.2881],[35.3089,-13.3616,1312.5717],[35.3069,-13.3475,1376.6876],[35.3157,-13.3286,1332.8375],[35.3593,-13.3257,1237.9282],[35.273,-13.2334,1319.0406],[35.2697,-13.2189,1260.9281],[35.2664,-13.2148,1268.483],[35.2659,-13.2037,1241.6179],[35.2625,-13.1955,1234.7404],[35.2369,-13.2069,1266.3146],[35.2145,-13.2133,1295.115],[35.2065,-13.2184,1267.3525],[35.1956,-13.23,1233.8783],[35.161,-13.254,1132.8102],[35.1526,-13.2637,1062.4539],[35.1344,-13.265,1011.5778],[35.1261,-13.2781,994.3765],[35.1387,-13.2822,1029.3074],[35.15,-13.2835,1050.0394],[35.1784,-13.297,1166.215],[35.1864,-13.3069,1192.7559],[35.2008,-13.3367,1294.0951],[35.2068,-13.3429,1276.3148],[35.2379,-13.3639,1301.0127],[35.2445,-13.3843,1253.5408],[35.2724,-13.4005,1203.9089],[35.286,-13.4122,1188.9126],[35.2949,-13.4122,1164.907]]]]}
,"properties": {"GID_3": "MOZ.8.3.2_1","GID_0": "MOZ","country": "Mozambique","GID_1": "MOZ.8_1","province": "Nassa","NL_NAME_1": "NA","GID_2": "MOZ.8.3_1","county": "Lichinga","NL_NAME_2": "NA","city": "CidadeDeLichinga","VARNAME_3": "NA","NL_NAME_3": "NA","TYPE_3": "Localidad","ENGTYPE_3": "Locality","CC_3": "NA","HASC_3": "NA","name": "Cidade_De_Lichinga.city","area_km2": 258.0252,"hist_schema_id": "Elevation0-9000","hist_area_km2": {"975": 0.2064,"1000": 0.681,"1025": 1.3826,"1050": 2.1461,"1075": 1.7953,"1100": 2.1461,"1125": 3.8383,"1150": 6.5417,"1175": 7.1603,"1200": 11.4509,"1225": 18.0936,"1250": 25.358,"1275": 31.0754,"1300": 34.8528,"1325": 38.9574,"1350": 43.289,"1375": 23.9545,"1400": 4.8482,"1425": 0.2476}}}