{"type":"Feature","properties":{"GID_3":"MOZ.11.4.3_1","GID_0":"MOZ","country":"Mozambique","GID_1":"MOZ.11_1","province":"Zambezia","NL_NAME_1":"NA","GID_2":"MOZ.11.4_1","county":"Gurue","NL_NAME_2":"NA","city":"Nepuagiua(Mepuagiua)","VARNAME_3":"NA","NL_NAME_3":"NA","TYPE_3":"Localidad","ENGTYPE_3":"Locality","CC_3":"NA","HASC_3":"NA","name":"Nepuagiua(Mepuagiua).city"},
"geometry":{"type": "MultiPolygon","coordinates": [[[[37.2837,-15.3015,827.8955],[37.2679,-15.3092,1081.5835],[37.253,-15.3223,950.389],[37.239,-15.3377,1046.4846],[37.2314,-15.3417,1177.8033],[37.2117,-15.3455,1030.6211],[37.1977,-15.3502,1188.1758],[37.1926,-15.3562,1010.9029],[37.1878,-15.3715,951.5296],[37.0889,-15.3655,1160.9312],[37.0852,-15.3805,1196.5752],[37.0658,-15.4299,1200.917],[37.0666,-15.4388,1225.6136],[37.0699,-15.4446,1573.4307],[37.0953,-15.4616,931.5094],[37.1064,-15.4591,950.3986],[37.1243,-15.4473,798.1702],[37.1278,-15.468,697.3392],[37.1527,-15.5049,630.9847],[37.1603,-15.5205,626.5046],[37.1467,-15.519,635.1874],[37.1412,-15.5217,646.946],[37.1334,-15.5226,653.7304],[37.1235,-15.514099999999999,696.7867],[37.1033,-15.5089,715.319],[37.0936,-15.5346,686.8857],[37.0701,-15.5533,684.0543],[37.032,-15.559,661.2028],[37.0188,-15.5871,658.4227],[37.0103,-15.5971,644.26],[36.9958,-15.5993,623.8713],[36.9892,-15.6049,636.3115],[36.9786,-15.6094,624.4544],[36.9736,-15.6152,620.7325],[36.9648,-15.6198,613.4898],[36.9608,-15.6201,606.6443],[36.953,-15.6256,590.2288],[36.9466,-15.6264,585.7293],[36.9274,-15.6444,608.0031],[36.9417,-15.6777,548.3764],[36.9432,-15.7102,551.0521],[36.9333,-15.7331,519.5543],[36.9265,-15.7851,528.752],[37.0362,-15.8407,504.4086],[37.0534,-15.8937,465.9612],[37.0814,-15.9184,509.7818],[37.1097,-15.9671,415.5295],[37.1143,-15.9383,409.1216],[37.1208,-15.927,415.9376],[37.1197,-15.9171,418.6807],[37.1231,-15.908,418.0627],[37.1239,-15.8979,436.8514],[37.1129,-15.882,451.4093],[37.1152,-15.8729,471.8491],[37.1225,-15.8585,473.3472],[37.1222,-15.8545,474.6503],[37.12,-15.8515,475.4596],[37.1078,-15.8467,472.5331],[37.1059,-15.8382,482.1994],[37.1113,-15.825,492.1003],[37.1001,-15.8003,514.5118],[37.1046,-15.7957,515.2015],[37.1064,-15.7865,535.8497],[37.1132,-15.7786,527.6071],[37.109,-15.768,546.984],[37.1083,-15.7611,546.9595],[37.1041,-15.7592,537.0207],[37.1034,-15.7569,536.4397],[37.105,-15.7544,540.2166],[37.1238,-15.7447,543.4008],[37.1252,-15.7403,543.8441],[37.1251,-15.7254,555.363],[37.1323,-15.7228,547.1246],[37.134,-15.7156,553.1316],[37.132,-15.7107,554.9112],[37.1344,-15.7035,569.681],[37.132,-15.6889,591.5894],[37.1362,-15.6867,597.3031],[37.1466,-15.6753,592.058],[37.1516,-15.6647,600.121],[37.1603,-15.653,596.1078],[37.1626,-15.6377,608.1854],[37.1708,-15.6237,601.7031],[37.1828,-15.6181,599.3987],[37.1975,-15.6036,611.3572],[37.2082,-15.597,606.6152],[37.2244,-15.5671,612.7538],[37.2415,-15.5588,616.8932],[37.2619,-15.545,635.0739],[37.2864,-15.5321,647.9337],[37.3069,-15.5256,661.2657],[37.3232,-15.5045,704.1473],[37.3409,-15.4899,703.5509],[37.3462,-15.4753,736.7154],[37.3424,-15.467,746.8004],[37.3453,-15.4542,1097.3557],[37.3681,-15.3946,822.2683],[37.3605,-15.379,1189.657],[37.3871,-15.3588,1280.0353],[37.3358,-15.345,1117.6819],[37.3072,-15.3276,931.1213],[37.273,-15.3177,846.7958],[37.2837,-15.3015,827.8955]]]]}}