{"type":"Feature","properties":{"GID_2":"MOZ.10.10_1","GID_0":"MOZ","country":"Mozambique","GID_1":"MOZ.10_1","province":"Tete","NL_NAME_1":"NA","county":"Mutarara","VARNAME_2":"NA","NL_NAME_2":"NA","TYPE_2":"Distrito","ENGTYPE_2":"District","CC_2":"NA","HASC_2":"MZ.TE.MU","name":"Mutarara.county"},
"geometry":{"type": "MultiPolygon","coordinates": [[[[35.3477,-17.7493,28.4953],[35.3516,-17.7569,28.8057],[35.3649,-17.7582,25.5],[35.3681,-17.7459,25.625],[35.3675,-17.7333,26.0],[35.3623,-17.7238,26.9048],[35.3362,-17.6914,27.8003],[35.318,-17.6914,28.4222],[35.3146,-17.6857,28.8338],[35.3178,-17.6796,27.0],[35.3297,-17.68,28.1538],[35.336,-17.6767,27.7249],[35.3362,-17.669,28.7036],[35.3218,-17.6256,27.4632],[35.3234,-17.597,28.4794],[35.3203,-17.587,29.8331],[35.3269,-17.5778,27.5],[35.3308,-17.5655,29.196],[35.3307,-17.5485,30.2136],[35.3327,-17.5441,29.5229],[35.335,-17.5276,33.5322],[35.3395,-17.5168,32.1556],[35.3429,-17.4944,30.2683],[35.3344,-17.4802,29.7995],[35.3355,-17.4715,30.4532],[35.3345,-17.4507,29.2217],[35.3381,-17.4427,29.3901],[35.3259,-17.4217,31.525],[35.3188,-17.3329,29.4235],[35.3326,-17.3308,29.4156],[35.3251,-17.3156,29.5144],[35.3225,-17.2993,29.7297],[35.306,-17.2734,30.507],[35.2948,-17.2681,31.049],[35.2994,-17.2504,31.8725],[35.2959,-17.2413,31.7781],[35.3035,-17.238,31.5858],[35.3047,-17.2192,33.1042],[35.3115,-17.2081,35.3001],[35.3078,-17.2012,34.7216],[35.3081,-17.1946,34.0516],[35.3014,-17.1875,35.0503],[35.2951,-17.1696,35.0891],[35.3014,-17.1649,35.7677],[35.3036,-17.1407,34.9023],[35.2963,-17.1407,34.8805],[35.2909,-17.1376,34.5822],[35.2942,-17.1261,34.7727],[35.0974,-17.1272,437.0871],[35.0909,-17.1233,456.7052],[35.092,-17.1181,471.1273],[35.0894,-17.1127,413.9293],[35.0868,-17.112,426.7165],[35.0796,-17.1048,456.861],[35.085,-17.1022,469.4035],[35.0854,-17.0986,476.3463],[35.0906,-17.090699999999998,499.8517],[35.0927,-17.0913,510.97],[35.1031,-17.0865,636.7168],[35.0995,-17.0836,551.1458],[35.0986,-17.0797,532.278],[35.0858,-17.0751,486.41],[35.0828,-17.0703,488.3289],[35.0825,-17.0656,500.8893],[35.0854,-17.0632,521.3694],[35.0845,-17.0617,521.6422],[35.0766,-17.0643,496.283],[35.0743,-17.0604,504.9033],[35.0716,-17.0594,497.4596],[35.0631,-17.0509,462.874],[35.0591,-17.0381,412.7935],[35.0632,-17.0211,390.9758],[35.0621,-17.018,379.5754],[35.0569,-17.0163,415.9471],[35.0585,-17.0123,406.7997],[35.052,-17.0083,418.7614],[35.0549,-17.0078,424.7035],[35.0555,-17.0044,432.806],[35.0591,-17.003,439.6778],[35.0589,-17.0002,490.5213],[35.0633,-16.9921,509.3785],[35.0709,-16.9918,441.6905],[35.0831,-16.9836,531.9537],[35.0951,-16.9848,672.338],[35.0989,-16.9805,592.1856],[35.1099,-16.9747,603.0261],[35.1254,-16.9737,704.6229],[35.1363,-16.9681,675.9695],[35.1389,-16.9632,625.1166],[35.143,-16.9599,681.2197],[35.142,-16.9572,579.2339],[35.1501,-16.9409,547.4746],[35.1558,-16.9388,693.345],[35.1632,-16.9418,761.4835],[35.166,-16.9385,831.7248],[35.1697,-16.938,866.5151],[35.1723,-16.9353,891.86],[35.1681,-16.931,747.803],[35.1674,-16.9185,696.7014],[35.1527,-16.8865,564.5542],[35.1532,-16.8775,562.4675],[35.1502,-16.8748,547.6197],[35.1515,-16.8675,546.5402],[35.1568,-16.8601,592.1589],[35.1607,-16.8598,586.6345],[35.1616,-16.8583,583.0337],[35.1596,-16.8406,548.8263],[35.156,-16.8319,494.9184],[35.1471,-16.8258,446.9461],[35.134,-16.8233,621.045],[35.1156,-16.8149,318.7969],[35.1089,-16.8145,318.6859],[35.0991,-16.8174,284.8293],[35.0959,-16.8211,284.3073],[35.0943,-16.82,272.3499],[35.0917,-16.8211,269.6456],[35.0905,-16.8182,266.1942],[35.0724,-16.8186,259.8946],[35.0679,-16.8255,257.9242],[35.0644,-16.8276,240.6393],[35.0393,-16.8229,242.6586],[35.0338,-16.8184,239.7679],[35.0265,-16.8047,254.4782],[35.0035,-16.7957,243.4955],[35.0027,-16.7917,239.2852],[34.9955,-16.7902,226.2756],[34.9919,-16.7806,251.9564],[34.9937,-16.7694,249.2009],[34.9896,-16.7677,240.7976],[34.9895,-16.765,240.4362],[34.9864,-16.7629,241.3562],[34.9868,-16.7599,249.0741],[34.9825,-16.7467,271.2432],[34.9715,-16.748,228.6338],[34.9694,-16.7423,232.1841],[34.9613,-16.7384,234.3566],[34.9389,-16.7443,267.4227],[34.9244,-16.7444,257.9141],[34.9203,-16.7354,250.0646],[34.9193,-16.7244,263.7676],[34.9166,-16.7145,286.8968],[34.9149,-16.713,286.8968],[34.9153,-16.6976,306.487],[34.9122,-16.6919,300.5231],[34.8902,-16.6844,308.4179],[34.8867,-16.6869,307.9226],[34.8808,-16.6866,307.8372],[34.8732,-16.678,327.5248],[34.8676,-16.6751,318.88],[34.8644,-16.6761,320.4667],[34.8608,-16.6735,328.1427],[34.8581,-16.6547,345.8953],[34.8578,-16.6336,348.4507],[34.8532,-16.6178,345.5837],[34.8464,-16.6098,380.8727],[34.8424,-16.6076,501.6544],[34.842,-16.604,415.9493],[34.838,-16.6028,388.2041],[34.8373,-16.5997,391.567],[34.8341,-16.598,402.3014],[34.8275,-16.6049,378.6237],[34.8207,-16.6016,381.0562],[34.8158,-16.6022,356.8517],[34.8117,-16.5951,357.0358],[34.7932,-16.585,311.9629],[34.7825,-16.5834,311.2687],[34.7784,-16.5801,322.3594],[34.7745,-16.5847,338.64],[34.7729,-16.5838,335.6877],[34.7717,-16.5802,348.0644],[34.7743,-16.5744,316.2947],[34.7808,-16.5689,334.9164],[34.7784,-16.5614,310.2177],[34.7783,-16.5503,290.4735],[34.7761,-16.5442,289.7253],[34.7663,-16.5366,274.6764],[34.7636,-16.5294,265.3578],[34.7686,-16.5291,264.533],[34.7588,-16.5177,265.4797],[34.7576,-16.5109,280.2794],[34.7405,-16.507,273.5516],[34.7256,-16.4949,281.9229],[34.7212,-16.4981,290.5468],[34.7201,-16.4954,290.9421],[34.7181,-16.4952,291.5403],[34.6952,-16.4998,314.7323],[34.6874,-16.4996,329.757],[34.6788,-16.4914,288.7182],[34.6747,-16.4779,267.653],[34.6782,-16.4662,260.5056],[34.6777,-16.4554,266.304],[34.6693,-16.4442,275.2224],[34.664,-16.4433,265.2705],[34.6534,-16.4507,282.4239],[34.6185,-16.4235,277.7522],[34.5942,-16.4112,282.6944],[34.5851,-16.3979,241.488],[34.5841,-16.3896,251.2068],[34.5888,-16.3736,266.1534],[34.5888,-16.3614,255.0139],[34.5726,-16.3459,292.889],[34.5718,-16.3378,285.0907],[34.5744,-16.3287,283.6233],[34.5732,-16.3211,317.3962],[34.5382,-16.2932,311.7349],[34.5286,-16.2815,302.8754],[34.5222,-16.2809,314.1407],[34.5118,-16.2864,274.8561],[34.5004,-16.2979,265.6888],[34.4899,-16.2945,274.7989],[34.4704,-16.2835,282.0511],[34.4587,-16.2728,282.0168],[34.4532,-16.2705,284.3464],[34.4456,-16.2707,292.8711],[34.4318,-16.2646,339.4506],[34.4314,-16.2623,325.4611],[34.4235,-16.254,325.5488],[34.4232,-16.2481,300.6039],[34.3676,-16.2562,267.5242],[34.351,-16.275,265.397],[34.3281,-16.2853,259.4576],[34.3254,-16.2904,256.411],[34.3204,-16.2904,257.3714],[34.2881,-16.354,242.2304],[34.2829,-16.3557,248.9655],[34.2722,-16.3502,250.2846],[34.2682,-16.3514,243.5033],[34.2637,-16.356,244.0756],[34.2558,-16.3531,238.9529],[34.2419,-16.3569,239.4019],[34.2276,-16.3637,241.3348],[34.2228,-16.3676,241.3533],[34.2084,-16.368,236.4251],[34.1985,-16.3707,232.2563],[34.1879,-16.384,231.1148],[34.1833,-16.3949,221.1852],[34.1857,-16.428,218.5495],[34.1723,-16.4979,209.0496],[34.1028,-16.4986,239.1842],[34.086,-16.5139,188.886],[34.0743,-16.5372,169.8499],[34.0768,-16.5468,145.8281],[34.0843,-16.5613,123.3181],[34.086,-16.5806,103.0556],[34.0852,-16.5902,99.8619],[34.0827,-16.5958,98.4956],[34.0776,-16.6015,101.7748],[34.0693,-16.6047,97.0],[34.0832,-16.6117,188.1056],[34.1237,-16.6207,95.0],[34.1334,-16.6273,94.5],[34.1491,-16.6546,93.0],[34.172,-16.6801,95.8824],[34.1983,-16.6917,93.8629],[34.2094,-16.694,95.854],[34.2674,-16.6938,89.9218],[34.2879,-16.6986,89.0139],[34.3072,-16.7083,86.5],[34.3239,-16.7131,87.8333],[34.3582,-16.7162,86.3994],[34.4028,-16.7168,84.2652],[34.4182,-16.7201,83.0206],[34.4606,-16.736,81.206],[34.4724,-16.7476,80.5629],[34.4798,-16.7612,79.6275],[34.5359,-16.7843,77.8156],[34.5661,-16.8071,74.9424],[34.5867,-16.8285,73.0],[34.6012,-16.8404,72.5892],[34.6294,-16.8603,70.5],[34.661,-16.8767,69.8909],[34.6916,-16.8841,68.5197],[34.7304,-16.8908,69.0738],[34.7513,-16.8999,66.4509],[34.7653,-16.9109,66.2507],[34.797,-16.9444,63.0],[34.8187,-16.9762,61.5],[34.8262,-16.9968,61.6847],[34.8377,-17.0105,61.0409],[34.8648,-17.0299,59.815],[34.8886,-17.0684,58.4836],[34.8948,-17.0872,55.5],[34.9036,-17.1064,57.4486],[34.9156,-17.1546,53.6139],[34.9217,-17.1717,54.2158],[34.9581,-17.2391,48.5],[34.9545,-17.2475,49.372],[34.9598,-17.2592,47.5],[34.9711,-17.2671,47.941],[34.9757,-17.2821,46.5],[34.9783,-17.3136,46.8068],[34.9995,-17.352,45.0],[35.0084,-17.3523,45.6094],[35.0149,-17.355,44.9131],[35.0214,-17.3633,45.8692],[35.0568,-17.4354,41.0],[35.0631,-17.4543,40.7126],[35.0829,-17.4973,39.4956],[35.0951,-17.5134,37.8014],[35.1407,-17.5658,34.5],[35.1594,-17.6094,33.5],[35.1713,-17.6294,32.5],[35.1892,-17.6504,32.5512],[35.2102,-17.6655,32.1523],[35.229,-17.6759,31.8299],[35.284,-17.7012,29.3076],[35.3299,-17.7149,28.3371],[35.3445,-17.7257,26.5],[35.3496,-17.7373,27.5077],[35.3477,-17.7493,28.4953]]]]}}