{"type":"Feature","properties":{"GID_3":"MOZ.4.2.3_1","GID_0":"MOZ","country":"Mozambique","GID_1":"MOZ.4_1","province":"Manica","NL_NAME_1":"NA","GID_2":"MOZ.4.2_1","county":"Gondola","NL_NAME_2":"NA","city":"Gondola","VARNAME_3":"NA","NL_NAME_3":"NA","TYPE_3":"Localidad","ENGTYPE_3":"Locality","CC_3":"NA","HASC_3":"NA","name":"Gondola.city"},
"geometry":{"type": "MultiPolygon","coordinates": [[[[33.7349,-19.0371,484.0113],[33.7317,-19.0359,481.3414],[33.6612,-19.0429,578.7731],[33.6485,-19.0424,565.8597],[33.6304,-19.0445,609.2947],[33.6144,-19.059,648.4903],[33.6172,-19.0748,685.1207],[33.6318,-19.0789,591.7197],[33.641,-19.0895,570.7802],[33.6466,-19.1164,540.3003],[33.6534,-19.1304,532.3463],[33.6571,-19.1251,572.676],[33.6633,-19.1031,610.6201],[33.6671,-19.0977,600.9645],[33.6765,-19.0937,573.6788],[33.6818,-19.0884,571.5635],[33.7022,-19.0742,515.2327],[33.7184,-19.0653,505.382],[33.7235,-19.0595,509.1853],[33.7349,-19.0371,484.0113]]]]}}