{"type":"Feature","properties":{"GID_3":"MOZ.7.17.3_1","GID_0":"MOZ","country":"Mozambique","GID_1":"MOZ.7_1","province":"Nampula","NL_NAME_1":"NA","GID_2":"MOZ.7.17_1","county":"Nampula","NL_NAME_2":"NA","city":"Mutivaze","VARNAME_3":"NA","NL_NAME_3":"NA","TYPE_3":"Localidad","ENGTYPE_3":"Locality","CC_3":"NA","HASC_3":"NA","name":"Mutivaze.city"},
"geometry":{"type": "MultiPolygon","coordinates": [[[[38.78,-14.9142,584.8887],[38.7724,-14.9246,810.9475],[38.7786,-14.9356,588.6016],[38.7766,-14.9458,545.3799],[38.7838,-14.9494,541.6406],[38.7944,-14.9652,508.5929],[38.802,-14.9905,474.3291],[38.8006,-14.9986,459.2538],[38.8141,-15.0176,434.5031],[38.8154,-15.0253,437.2157],[38.8058,-15.0228,434.7829],[38.7962,-15.0158,447.4916],[38.7739,-15.0085,436.1438],[38.7612,-15.0076,454.4288],[38.7469,-15.0142,447.1246],[38.7349,-15.0076,462.4772],[38.7273,-15.0132,469.5065],[38.7219,-15.0204,489.433],[38.7108,-15.0245,485.2062],[38.6964,-15.0254,522.1396],[38.6756,-15.0336,557.5732],[38.6656,-15.0412,564.5704],[38.652,-15.0556,563.7451],[38.646,-15.0663,511.7463],[38.6549,-15.0701,505.7562],[38.6638,-15.0782,499.2965],[38.6736,-15.0825,505.1817],[38.693,-15.0825,504.1444],[38.717,-15.0894,502.8617],[38.7286,-15.1001,479.8748],[38.7346,-15.1083,475.5787],[38.7423,-15.1101,476.8538],[38.7617,-15.1107,482.8203],[38.7698,-15.1142,469.459],[38.7738,-15.1303,460.7508],[38.7802,-15.1369,464.1709],[38.7796,-15.1506,472.2075],[38.7756,-15.1597,443.6742],[38.7558,-15.1749,439.9695],[38.7543,-15.1789,442.7765],[38.7586,-15.1885,432.2009],[38.7857,-15.1822,452.6348],[38.8086,-15.1727,530.5603],[38.8451,-15.154,471.6864],[38.8728,-15.146,407.2856],[38.8807,-15.1408,392.4481],[38.8985,-15.1369,377.1147],[38.9101,-15.1308,370.7385],[38.9227,-15.128,359.4476],[38.9664,-15.1262,350.0063],[38.9685,-15.1301,351.799],[38.9873,-15.1417,351.9188],[38.9885,-15.1376,344.4707],[38.9876,-15.1136,366.5276],[38.9842,-15.0926,380.5775],[38.9882,-15.0875,395.9988],[38.9973,-15.0853,426.7137],[39.0141,-15.0729,380.7828],[38.9989,-15.0662,398.8253],[39.0003,-15.0626,390.567],[38.9969,-15.0466,396.2953],[38.9893,-15.0433,388.849],[38.9935,-15.0343,393.3988],[38.9857,-15.0238,402.4106],[38.9841,-15.0185,407.6658],[38.9926,-15.0022,425.4232],[38.988,-14.997,430.3568],[38.9923,-14.9898,446.079],[38.9861,-14.9828,478.4861],[38.9947,-14.9683,455.1036],[38.9926,-14.9488,491.1808],[39.0,-14.9432,487.6539],[39.0013,-14.9379,487.9133],[38.9966,-14.9309,496.3896],[38.998,-14.9255,499.6194],[38.9963,-14.9184,493.8837],[39.0246,-14.9123,473.7124],[39.038,-14.9066,463.8737],[39.0318,-14.8997,484.1822],[39.0144,-14.8663,470.2763],[39.0001,-14.8631,478.2162],[38.98,-14.8696,477.7307],[38.9479,-14.8725,492.9302],[38.9289,-14.8795,517.3006],[38.9207,-14.871,512.9736],[38.9128,-14.867,519.8749],[38.8946,-14.8693,531.7507],[38.8807,-14.8734,524.0978],[38.8684,-14.874,545.8945],[38.8464,-14.8689,554.9231],[38.8257,-14.8743,570.1097],[38.8087,-14.8806,571.137],[38.8062,-14.8929,547.2352],[38.799,-14.9041,554.3762],[38.7902,-14.9049,543.5138],[38.7884,-14.9026,538.1636],[38.78,-14.9142,584.8887]]]]}}