{"type":"Feature","properties":{"GID_2":"MOZ.7.8_1","GID_0":"MOZ","country":"Mozambique","GID_1":"MOZ.7_1","province":"Nampula","NL_NAME_1":"NA","county":"Mogovolas","VARNAME_2":"NA","NL_NAME_2":"NA","TYPE_2":"Distrito","ENGTYPE_2":"District","CC_2":"NA","HASC_2":"MZ.NM.MV","name":"Mogovolas.county"},
"geometry":{"type": "MultiPolygon","coordinates": [[[[39.6582,-15.9227,81.1102],[39.6612,-15.9226,86.3647],[39.6656,-15.9269,79.3399],[39.6996,-15.9269,89.9287],[39.7058,-15.9209,75.4404],[39.712,-15.918,72.7403],[39.7244,-15.915,62.5037],[39.7383,-15.915,58.8138],[39.7337,-15.906,72.6511],[39.7089,-15.8881,82.6192],[39.6996,-15.8792,92.6247],[39.678,-15.8494,131.5121],[39.6811,-15.8285,119.0968],[39.689,-15.8209,106.5678],[39.7058,-15.8195,107.1283],[39.717,-15.8277,102.1747],[39.7237,-15.8295,101.9712],[39.743,-15.8292,86.0884],[39.7677,-15.8344,101.702],[39.7801,-15.8285,92.221],[39.7832,-15.8255,82.9818],[39.7925,-15.8225,73.9687],[39.8172,-15.8225,49.7359],[39.8203,-15.8195,50.8285],[39.8122,-15.8053,53.2922],[39.7934,-15.7982,66.4239],[39.7823,-15.7814,75.1646],[39.7645,-15.7684,76.8694],[39.777,-15.739,107.3755],[39.7841,-15.7331,90.1219],[39.7889,-15.7255,79.4826],[39.8053,-15.7138,72.814],[39.7849,-15.7064,67.2045],[39.7739,-15.7002,72.8546],[39.7615,-15.6853,82.4442],[39.7439,-15.6724,82.7887],[39.7342,-15.6621,90.2122],[39.7399,-15.6376,108.188],[39.7361,-15.6307,92.0706],[39.7316,-15.6271,93.1577],[39.7117,-15.6158,103.771],[39.7014,-15.6064,107.57],[39.6872,-15.6057,116.3848],[39.6766,-15.6083,118.0895],[39.6454,-15.6251,171.5447],[39.62,-15.629,192.5705],[39.6099,-15.6406,159.8261],[39.5763,-15.621,191.3405],[39.5752,-15.6178,178.2131],[39.5576,-15.6009,225.144],[39.5331,-15.5966,230.6119],[39.523,-15.6074,206.5221],[39.5175,-15.6178,195.3732],[39.5085,-15.6264,185.9097],[39.4965,-15.613,191.9454],[39.4903,-15.6094,198.8074],[39.4789,-15.593,212.7288],[39.4714,-15.5915,223.4842],[39.4426,-15.5922,222.2351],[39.4181,-15.6023,186.997],[39.4117,-15.6023,184.6318],[39.3957,-15.5962,161.8658],[39.3925,-15.5992,165.5033],[39.3844,-15.6211,159.4523],[39.3747,-15.6267,148.8982],[39.3783,-15.639099999999999,155.8064],[39.3753,-15.6412,144.4514],[39.3628,-15.6392,151.7174],[39.3508,-15.617,164.7552],[39.327,-15.6141,198.7963],[39.3093,-15.6379,157.3968],[39.2851,-15.6325,150.8584],[39.2829,-15.6424,140.7073],[39.2611,-15.6301,137.2473],[39.2547,-15.6301,135.4622],[39.252,-15.6325,151.4065],[39.2622,-15.6094,151.8287],[39.2628,-15.6043,153.3793],[39.2595,-15.5953,168.8027],[39.2595,-15.5829,165.2559],[39.2531,-15.5806,162.6931],[39.2466,-15.5837,156.855],[39.245,-15.5803,192.7798],[39.2454,-15.5742,167.1313],[39.2482,-15.5659,172.3466],[39.2363,-15.5625,168.0776],[39.2275,-15.5481,181.9572],[39.2282,-15.5316,185.991],[39.2178,-15.5119,190.3932],[39.211,-15.4887,190.8488],[39.1974,-15.4815,193.4765],[39.1967,-15.4784,192.7382],[39.2029,-15.4645,197.6449],[39.2109,-15.4523,193.1201],[39.2283,-15.4426,203.6127],[39.234,-15.4374,204.8702],[39.2315,-15.4152,206.8267],[39.1736,-15.3823,231.9666],[39.1608,-15.3713,233.2638],[39.1509,-15.3722,233.1023],[39.1409,-15.3706,228.7761],[39.1366,-15.3729,235.3805],[39.1315,-15.3693,248.8823],[39.1276,-15.3688,230.7636],[39.1012,-15.3794,272.2661],[39.0904,-15.3806,290.2483],[39.0626,-15.3776,326.3384],[39.0471,-15.393,279.6121],[39.041,-15.4063,271.6411],[39.0272,-15.4025,289.4182],[39.0235,-15.4001,273.8246],[39.0207,-15.3968,284.1816],[39.0204,-15.3906,299.0897],[39.0186,-15.3883,286.8148],[39.0103,-15.3876,293.31],[38.9947,-15.3904,293.3581],[38.9875,-15.3902,301.5138],[38.9675,-15.3865,357.2736],[38.962,-15.3805,360.2369],[38.9554,-15.3795,455.9347],[38.936,-15.3817,359.4788],[38.93,-15.3856,346.2608],[38.9366,-15.3971,316.463],[38.9363,-15.4222,298.0598],[38.9378,-15.4257,303.3499],[38.9494,-15.4409,275.7263],[38.9579,-15.4426,319.7174],[38.966,-15.4422,282.6504],[38.9712,-15.4442,279.4347],[38.9648,-15.4486,266.5588],[38.946,-15.4558,288.1771],[38.9324,-15.4656,302.5394],[38.9034,-15.4779,327.7298],[38.89,-15.4915,343.1576],[38.88,-15.4981,337.6342],[38.8553,-15.5207,372.3871],[38.8528,-15.5284,356.939],[38.8553,-15.5354,365.5284],[38.8535,-15.5544,318.9271],[38.8548,-15.5792,293.7661],[38.8785,-15.582,286.5402],[38.8855,-15.5874,290.276],[38.8815,-15.5907,290.6173],[38.8726,-15.592,299.8112],[38.8548,-15.6018,330.4042],[38.8464,-15.6126,338.034],[38.8445,-15.61,346.9872],[38.8279,-15.6198,356.9297],[38.8265,-15.6285,360.3253],[38.8412,-15.6415,355.0958],[38.8412,-15.6513,323.3912],[38.8382,-15.667,294.8219],[38.8296,-15.6837,284.452],[38.8239,-15.6881,281.3545],[38.817,-15.6985,262.0854],[38.8158,-15.7081,258.5556],[38.8179,-15.7174,245.4844],[38.8125,-15.7363,249.2706],[38.8115,-15.7514,220.6841],[38.8048,-15.7517,222.5671],[38.8005,-15.7539,215.8854],[38.8002,-15.7612,212.7584],[38.7883,-15.7766,205.6111],[38.8018,-15.7916,207.9059],[38.8043,-15.8012,198.797],[38.8044,-15.8166,193.5932],[38.8071,-15.8261,193.4778],[38.8147,-15.8356,190.9868],[38.8215,-15.8412,190.9815],[38.8246,-15.874,192.6315],[38.8282,-15.8833,187.5234],[38.839,-15.8865,174.6051],[38.8483,-15.8915,167.1025],[38.8448,-15.9148,168.7317],[38.8597,-15.9174,219.7649],[38.8727,-15.9149,188.3051],[38.8808,-15.9162,183.9695],[38.8994,-15.9238,241.3573],[38.9043,-15.9229,258.371],[38.9102,-15.9165,262.1924],[38.9224,-15.9101,263.8593],[38.9512,-15.9022,217.6173],[38.9745,-15.8899,200.5087],[38.9991,-15.8905,188.1627],[39.0075,-15.8959,190.0717],[39.0143,-15.8946,172.9274],[39.0179,-15.8956,182.3104],[39.0274,-15.9158,151.7596],[39.0415,-15.9193,151.1529],[39.049,-15.9275,144.9461],[39.0593,-15.9297,138.1907],[39.0789,-15.9258,139.6143],[39.0847,-15.9267,133.5405],[39.0935,-15.938,129.6885],[39.0991,-15.9376,127.6228],[39.1075,-15.9335,130.6379],[39.1191,-15.9353,119.1233],[39.1205,-15.9291,114.937],[39.1265,-15.9288,114.8225],[39.1275,-15.9246,114.1003],[39.1324,-15.9204,125.5404],[39.1519,-15.9194,107.9784],[39.1568,-15.9145,104.7605],[39.1636,-15.9114,101.6119],[39.1727,-15.9243,99.7177],[39.1956,-15.9354,92.6739],[39.1972,-15.9413,92.514],[39.1943,-15.9481,88.1335],[39.2007,-15.9525,86.9388],[39.2081,-15.9533,84.0596],[39.2263,-15.9636,84.8421],[39.2344,-15.9656,80.8572],[39.2424,-15.9633,82.8209],[39.2481,-15.9652,85.3319],[39.2625,-15.9576,76.9686],[39.2768,-15.9601,75.8183],[39.2987,-15.9747,78.4522],[39.3048,-15.977,71.8476],[39.306399999999996,-15.9811,69.1561],[39.3022,-15.9979,70.8027],[39.3079,-16.0031,68.9268],[39.3351,-16.0119,69.8278],[39.3446,-16.0129,73.4608],[39.3567,-16.0075,60.11],[39.3655,-16.0011,66.053],[39.3764,-16.0018,54.2727],[39.3845,-16.0045,65.1228],[39.4068,-16.0154,53.8433],[39.4086,-16.0288,49.8358],[39.4148,-16.0447,57.4214],[39.4142,-16.0508,49.1299],[39.419,-16.0461,59.5286],[39.4253,-16.0437,79.4129],[39.4448,-16.0464,81.5463],[39.5035,-16.0629,64.1677],[39.5146,-16.0746,54.5873],[39.5302,-16.0607,58.9841],[39.5495,-16.047,68.8417],[39.5526,-16.0294,82.5519],[39.5578,-16.0217,87.0805],[39.5734,-16.0077,115.3353],[39.5852,-16.0041,105.5533],[39.5947,-15.9992,98.9946],[39.601,-15.9905,87.9506],[39.6074,-15.9872,82.4865],[39.6324,-15.9871,73.6726],[39.6379,-15.9837,71.394],[39.6384,-15.9794,82.4618],[39.6318,-15.9749,76.3599],[39.6233,-15.9618,93.4474],[39.6227,-15.9533,96.2493],[39.6269,-15.9405,107.1925],[39.6323,-15.9313,104.5815],[39.6381,-15.9263,104.4014],[39.6582,-15.9227,81.1102]]]]}}