{"type":"Feature","properties":{"GID_3":"MOZ.9.9.1_1","GID_0":"MOZ","country":"Mozambique","GID_1":"MOZ.9_1","province":"Sofala","NL_NAME_1":"NA","GID_2":"MOZ.9.9_1","county":"Maringue","NL_NAME_2":"NA","city":"Canxixe","VARNAME_3":"NA","NL_NAME_3":"NA","TYPE_3":"Localidad","ENGTYPE_3":"Locality","CC_3":"NA","HASC_3":"NA","name":"Canxixe.city"},
"geometry":{"type": "MultiPolygon","coordinates": [[[[34.161,-17.6903,464.5283],[34.2628,-17.666,450.0967],[34.2868,-17.6738,378.292],[34.2997,-17.6731,326.607],[34.3208,-17.6879,296.7784],[34.3926,-17.6417,399.3226],[34.526,-17.6307,328.7034],[34.5365,-17.6228,309.444],[34.5842,-17.6219,275.4688],[34.5921,-17.5936,259.6147],[34.617,-17.5894,251.5936],[34.6293,-17.5942,238.2998],[34.6424,-17.5955,232.1396],[34.6594,-17.6115,215.1712],[34.6697,-17.6071,216.8258],[34.6734,-17.626,206.8981],[34.682,-17.6295,207.2138],[34.6999,-17.6315,193.3897],[34.7074,-17.6348,197.4789],[34.7103,-17.6462,190.6405],[34.7151,-17.6497,186.1326],[34.7198,-17.6467,178.8655],[34.7264,-17.646,180.2116],[34.7333,-17.6479,176.8236],[34.7268,-17.6422,180.7757],[34.7224,-17.6357,182.2127],[34.7233,-17.6226,188.7482],[34.7178,-17.6132,199.3446],[34.7249,-17.6047,216.071],[34.7207,-17.5966,223.5082],[34.7147,-17.5912,233.4898],[34.7102,-17.5844,238.9154],[34.7038,-17.5612,261.1255],[34.6977,-17.5314,281.9723],[34.7012,-17.5044,237.6175],[34.6921,-17.4852,216.1384],[34.6846,-17.4852,224.4516],[34.6753,-17.4897,231.294],[34.6407,-17.4881,279.5571],[34.5713,-17.4818,266.2654],[34.539,-17.4753,290.6821],[34.5083,-17.465,309.3087],[34.4831,-17.4706,349.7451],[34.4555,-17.4622,349.0584],[34.4436,-17.4564,330.5151],[34.4365,-17.4497,317.7221],[34.4297,-17.4399,298.474],[34.4217,-17.3846,240.7529],[34.4116,-17.3557,252.2603],[34.4011,-17.3468,271.3117],[34.3867,-17.3442,291.2406],[34.3963,-17.3255,301.8418],[34.4104,-17.3031,285.0509],[34.4114,-17.2955,277.3893],[34.3972,-17.2707,249.8182],[34.3948,-17.2622,236.8106],[34.3893,-17.2542,221.5772],[34.3813,-17.2494,220.2839],[34.3608,-17.2436,183.3453],[34.358,-17.2382,175.6025],[34.3599,-17.2237,169.3421],[34.3572,-17.2179,169.4534],[34.3526,-17.215,171.8079],[34.3339,-17.2116,179.2299],[34.2911,-17.2216,194.5104],[34.2507,-17.2401,207.8441],[34.2247,-17.2432,219.3344],[34.2304,-17.2609,226.7504],[34.2292,-17.2688,233.2339],[34.2255,-17.2754,240.5273],[34.2076,-17.2905,275.1368],[34.1878,-17.3848,430.98],[34.202,-17.4118,340.9278],[34.2037,-17.422,303.1297],[34.1768,-17.5162,393.1235],[34.1404,-17.5927,453.9521],[34.1628,-17.6286,405.4287],[34.161,-17.6903,464.5283]]]]}}