{"type":"Feature","properties":{"ISO3166-1-Alpha-3":"MOZ","country":"Mozambique","fill":"#F00","id":"1199","name":"Niassa"},
"geometry":{"type": "Polygon","coordinates": [[[38.1669,-11.28375,210.9827],[38.15501,-11.28055,199.7475],[38.13538,-11.26639,211.075],[38.12566,-11.26319,214.0],[38.12246,-11.26122,218.2081],[38.11719,-11.25203,228.9661],[38.11543,-11.24954,228.4465],[38.10933,-11.24965,224.4106],[38.10427,-11.25203,221.2155],[38.10117,-11.25492,221.9227],[38.10117,-11.25647,219.9431],[38.09336,-11.25631,226.4839],[38.07078,-11.25585,249.5049],[38.01363,-11.26546,227.2641],[38.00422,-11.27528,240.0412],[37.99533,-11.27755,253.17],[37.95461,-11.28003,249.6906],[37.93808,-11.28396,301.2075],[37.87524,-11.3191,342.43],[37.86842,-11.32778,331.1145],[37.86583,-11.34246,405.3504],[37.85043,-11.38762,324.0378],[37.84103,-11.39982,344.421],[37.84248,-11.4178,320.8982],[37.8185,-11.45987,326.0157],[37.81323,-11.4823,323.8094],[37.81726,-11.49563,325.248],[37.82325,-11.50793,353.9186],[37.82511,-11.52023,347.925],[37.81695,-11.53356,338.5591],[37.80444,-11.54451,324.1665],[37.78367,-11.55888,339.9202],[37.71091,-11.5904,335.177],[37.66636,-11.62554,344.6701],[37.64776,-11.63598,354.2113],[37.62636,-11.6397,350.4768],[37.59464,-11.64001,328.83],[37.57293,-11.64415,341.6567],[37.53676,-11.66296,365.6056],[37.51588,-11.6673,363.263],[37.50379,-11.67267,368.2148],[37.49604,-11.68507,381.1755],[37.49035,-11.69892,385.4553],[37.48477,-11.70884,384.0149],[37.4764,-11.71598,376.7857],[37.46968,-11.71949,384.2498],[37.45066,-11.72259,381.3499],[37.42782,-11.72259,376.5101],[37.37832,-11.70884,350.4509],[37.37015,-11.70481,360.5518],[37.35238,-11.68631,353.6863],[37.3408,-11.68094,352.5606],[37.3314,-11.68156,354.2375],[37.32364,-11.68528,358.4431],[37.31579,-11.69024,370.2014],[37.30607,-11.69458,369.4484],[37.27021,-11.69841,381.0745],[37.2266,-11.69376,377.2169],[37.14164,-11.67474,407.76],[37.1065,-11.6581,397.7308],[37.07157,-11.62916,381.9577],[37.04438,-11.59567,376.2782],[37.0324,-11.56487,423.8044],[37.01669,-11.57397,391.4891],[37.0078,-11.58058,377.4243],[36.99839,-11.58461,372.1188],[36.90589,-11.59278,380.0385],[36.89111,-11.58999,381.42],[36.86631,-11.57418,411.7099],[36.84657,-11.57273,417.7],[36.83706,-11.56797,419.0844],[36.82011,-11.57356,417.593],[36.77484,-11.62627,417.6855],[36.74704,-11.66647,434.1371],[36.73805,-11.67474,448.8183],[36.72657,-11.68073,426.1987],[36.68968,-11.69458,425.404],[36.67996,-11.70244,424.5723],[36.67459,-11.70884,423.6048],[36.66725,-11.71339,428.3873],[36.64058,-11.71629,453.7629],[36.6257,-11.72135,445.4165],[36.56297,-11.73127,471.6682],[36.54571,-11.72941,501.8933],[36.52059,-11.71711,477.7766],[36.51501,-11.71505,475.5527],[36.50871,-11.70978,467.0906],[36.50271,-11.68631,466.9537],[36.49486,-11.68094,461.9543],[36.37807,-11.68094,473.7722],[36.37331,-11.68311,472.2927],[36.36815,-11.68776,475.2267],[36.36122,-11.69241,475.5414],[36.3298,-11.69706,543.3755],[36.29342,-11.70729,490.9147],[36.27875,-11.70884,474.8722],[36.26841,-11.70595,495.8383],[36.25291,-11.69665,481.1666],[36.24092,-11.69458,485.7716],[36.19968,-11.70151,488.0601],[36.18821,-11.69365,501.6077],[36.17922,-11.67557,534.0522],[36.17622,-11.655,501.0875],[36.18263,-11.64001,499.6788],[36.17591,-11.62006,505.8241],[36.17364,-11.59743,527.2869],[36.16806,-11.57872,526.1148],[36.15193,-11.57108,509.1933],[36.14284,-11.56901,524.0367],[36.13602,-11.56384,526.1798],[36.1295,-11.55712,516.7094],[36.12113,-11.55061,531.4802],[36.11152,-11.54658,529.6601],[36.0894,-11.5409,513.905],[36.07959,-11.53697,514.7783],[36.0431,-11.51485,539.6486],[36.02222,-11.50565,554.9459],[36.00786,-11.50658,553.8024],[35.98853,-11.51216,562.274],[35.96982,-11.50245,555.8199],[35.96083,-11.48354,546.612],[35.97034,-11.46121,544.2393],[35.95308,-11.44064,540.9236],[35.93975,-11.43413,545.6927],[35.90203,-11.43455,547.6239],[35.89562,-11.43279,552.1742],[35.8673,-11.4209,552.7483],[35.82637,-11.41346,551.8914],[35.81314,-11.42235,553.1887],[35.78193,-11.46121,549.3971],[35.76426,-11.47485,556.6875],[35.71403,-11.48385,556.4131],[35.69563,-11.49459,565.9453],[35.70338,-11.51651,558.6685],[35.69129,-11.52426,562.2116],[35.68023,-11.53759,563.7095],[35.67186,-11.55144,571.9347],[35.66483,-11.57201,578.1024],[35.65481,-11.57831,576.4814],[35.60085,-11.59226,594.1537],[35.59972,-11.59216,602.0984],[35.57626,-11.60518,600.2568],[35.55982,-11.60105,612.072],[35.5437,-11.59474,609.7695],[35.53275,-11.59557,600.3585],[35.53151,-11.61273,606.5214],[35.52014,-11.60911,609.1236],[35.51559,-11.60353,596.1099],[35.51301,-11.5966,591.5139],[35.50763,-11.58906,595.1989],[35.49874,-11.58234,586.1198],[35.49409,-11.58182,597.6752],[35.49016,-11.5841,599.5867],[35.48365,-11.58596,623.0631],[35.48345,-11.58689,617.1793],[35.47011,-11.59216,599.8185],[35.46577,-11.59257,597.6433],[35.44117,-11.59144,591.9077],[35.43187,-11.58844,599.2959],[35.42526,-11.58203,582.4794],[35.4235,-11.57655,580.8416],[35.38175,-11.57769,586.1514],[34.96461,-11.57356,492.2764],[34.65125,-11.57004,474.5],[34.61673,-11.57831,474.5],[34.60712,-11.59113,474.5],[34.60722,-11.60932,474.5],[34.61394,-11.65272,474.5],[34.61197,-11.69314,474.5],[34.60443,-11.73262,474.5],[34.56381,-11.8309,474.5],[34.48764,-11.94408,474.5],[34.38005,-12.10386,474.5],[34.35876,-12.1544,474.5],[34.35401,-12.19946,474.5],[34.35558,-12.20494,474.5],[34.38036,-12.29113,474.5],[34.43917,-12.49505,474.5],[34.49446,-12.68739,474.5],[34.50748,-12.79942,474.5],[34.52392,-12.93967,474.5],[34.53777,-13.05936,474.5],[34.54934,-13.15909,474.5],[34.54283,-13.24379,474.5],[34.54531,-13.32575,474.5],[34.57818,-13.39841,474.5],[34.57942,-13.40037,474.5],[34.58276,-13.40363,474.5],[34.59978,-13.42021,474.5],[34.61146,-13.43582,474.5],[34.63172,-13.47117,474.5],[34.63647,-13.48223,474.5],[34.63761,-13.48822,474.5],[34.6406,-13.49235,474.5],[34.65135,-13.49783,474.5],[34.66748,-13.50093,474.5],[34.79543,-13.49876,474.5],[34.82964,-13.50393,474.5],[34.86312,-13.51581,474.5],[34.8639,-13.51628,474.5],[34.89444,-13.53473,559.0361],[34.99655,-13.62599,538.049],[35.08409,-13.70423,572.7217],[35.17111,-13.80572,776.0009],[35.2787,-13.93088,1373.6295],[35.37007,-14.03723,1406.4952],[35.45575,-14.13697,956.7052],[35.52282,-14.26275,915.1896],[35.60943,-14.36941,796.9612],[35.71444,-14.4987,951.7557],[35.75054,-14.54314,712.7393],[35.78689,-14.58789,759.3943],[35.83557,-14.63585,644.3151],[35.84725,-14.65042,652.7008],[35.85304,-14.66748,630.6899],[35.86327,-14.87666,628.855],[35.86988,-14.88555,628.8743],[35.8828,-14.88751,628.8625],[35.9043,-14.88689,628.5989],[35.86678,-14.97309,635.0742],[35.83929,-15.03634,624.0073],[35.79082,-15.14683,622.5],[35.7842,-15.17184,622.5],[35.78451,-15.1952,622.5],[35.78858,-15.21143,622.5],[35.812,-15.30485,622.5],[35.84053,-15.4172,627.2047],[35.83762,-15.45828,622.5],[35.86317,-15.45828,627.4307],[36.1971,-15.45559,705.9672],[36.20609,-15.45683,713.2675],[36.21245,-15.4589,721.8702],[36.21694,-15.46154,727.3511],[36.22841,-15.47208,747.5785],[36.23291,-15.47482,758.0101],[36.23818,-15.47673,783.4064],[36.24438,-15.47812,834.8615],[36.24981,-15.48004,820.1001],[36.25498,-15.48221,914.865],[36.26366,-15.48779,825.2495],[36.27342,-15.49265,806.3682],[36.27901,-15.49435,799.2004],[36.2866,-15.49203,803.3702],[36.29513,-15.48577,799.3255],[36.30738,-15.46743,772.5614],[36.31285,-15.4572,748.3361],[36.31595,-15.4481,738.8765],[36.31735,-15.4281,738.2336],[36.31626,-15.41616,707.805],[36.31502,-15.41064,710.545],[36.31456,-15.40505,715.5159],[36.31487,-15.39958,727.6681],[36.31657,-15.39462,785.6274],[36.3189,-15.39002,996.0809],[36.34029,-15.36283,717.1601],[36.3681,-15.31033,674.3057],[36.37151,-15.30584,666.0952],[36.37569,-15.30211,662.3512],[36.38313,-15.30015,663.4568],[36.38918,-15.30056,664.3711],[36.40685,-15.30475,678.6286],[36.4129,-15.30491,673.0797],[36.41879,-15.30434,686.1674],[36.4238,-15.30242,697.0751],[36.44055,-15.29297,674.6942],[36.4469,-15.29142,667.1979],[36.4593,-15.28971,659.4385],[36.4638,-15.28739,660.2914],[36.49951,-15.26284,643.2931],[36.50664,-15.26,661.8056],[36.51207,-15.25907,658.1464],[36.52462,-15.25829,715.9774],[36.53041,-15.25726,681.1099],[36.53537,-15.25524,675.2855],[36.56715,-15.23664,648.2441],[36.62271,-15.17649,622.6818],[36.63619,-15.16564,600.1199],[36.64069,-15.15928,603.0645],[36.64555,-15.14595,600.949],[36.65004,-15.1384,609.2925],[36.65702,-15.13313,624.3673],[36.66415,-15.12884,626.7635],[36.67113,-15.12218,608.2028],[36.71195,-15.06089,856.0184],[36.71598,-15.0457,711.7314],[36.71474,-15.0041,575.3278],[36.76673,-14.95397,960.9829],[36.78022,-14.93418,649.1182],[36.78254,-14.927,595.4229],[36.78998,-14.91433,579.8585],[36.83453,-14.86948,540.7021],[36.84383,-14.8501,544.3995],[36.84786,-14.83961,544.9133],[36.86362,-14.80928,546.7516],[36.89023,-14.77496,530.1669],[36.94377,-14.75383,521.6737],[36.95013,-14.74726,529.2408],[36.95597,-14.73734,526.9774],[36.98558,-14.70587,517.5078],[36.99793,-14.69611,528.7206],[37.00785,-14.69202,514.8707],[37.02904,-14.68675,526.5809],[37.03953,-14.68241,520.6458],[37.05612,-14.66934,516.0273],[37.06495,-14.66401,508.4705],[37.07704,-14.66195,522.3949],[37.09632,-14.65482,526.2572],[37.16148,-14.60211,499.9828],[37.16495,-14.59771,491.82619999999997],[37.17063,-14.59451,496.9256],[37.18288,-14.59306,490.0099],[37.19507,-14.59508,503.3927],[37.2144,-14.605,494.8838],[37.22045,-14.60733,484.7946],[37.23977,-14.60366,496.29],[37.34194,-14.54867,480.5237],[37.37677,-14.52041,485.5609],[37.4054,-14.4894,482.5038],[37.44111,-14.44144,469.437],[37.48002,-14.40232,463.8599],[37.49511,-14.39442,466.3365],[37.57391,-14.39442,451.3968],[37.59278,-14.38186,453.6252],[37.61567,-14.35897,442.4881],[37.6322,-14.33416,454.2734],[37.63195,-14.31592,458.7829],[37.62264,-14.2952,437.1177],[37.63474,-14.28078,433.3277],[37.65654,-14.27272,436.8469],[37.67634,-14.27091,433.928],[37.75483,-14.27773,427.7455],[37.76904,-14.27153,417.8111],[37.79504,-14.24109,427.7589],[37.81287,-14.22993,439.4958],[37.85617,-14.23035,429.6956],[37.87932,-14.25608,417.8079],[37.9001,-14.2875,413.6912],[37.93642,-14.30507,411.3861],[37.95177,-14.30109,400.3669],[37.97001,-14.29045,391.7243],[37.98531,-14.27789,395.8401],[37.99167,-14.26781,384.0433],[38.00133,-14.26166,384.6966],[38.16969,-14.23071,366.3949],[38.18995,-14.21613,365.2786],[38.22442,-14.18151,358.2043],[38.26374,-14.16141,362.7607],[38.3504,-14.15164,347.3855],[38.38952,-14.14058,348.6204],[38.42037,-14.12689,335.2505],[38.36048,-14.07625,358.5574],[38.34637,-14.05831,357.8835],[38.34358,-14.04762,370.9296],[38.33909,-14.03852,372.7205],[38.27981,-13.95305,386.6472],[38.27346,-13.93222,398.0586],[38.2686,-13.92551,397.4695],[38.26023,-13.91651,394.6703],[38.25697,-13.90985,397.5392],[38.25589,-13.90329,396.4309],[38.2562,-13.89739,402.9812],[38.25542,-13.89192,403.5909],[38.25372,-13.88685,408.9393],[38.24085,-13.85941,432.6978],[38.23635,-13.85238,420.2646],[38.23077,-13.84629,423.8967],[38.21636,-13.83316,425.9015],[38.21155,-13.82556,426.4406],[38.18018,-13.74815,449.9201],[38.17879,-13.74211,459.4158],[38.17445,-13.72867,466.2432],[38.17305,-13.72231,457.5967],[38.17259,-13.71596,467.2352],[38.17398,-13.70345,467.2396],[38.17336,-13.6942,469.4269],[38.17119,-13.68304,459.1367],[38.16483,-13.66371,469.099],[38.15987,-13.6524,490.975],[38.14571,-13.62935,480.6987],[38.13083,-13.60987,513.1102],[38.12742,-13.60289,509.4964],[38.12587,-13.59597,515.0659],[38.12571,-13.58971,518.5615],[38.13238,-13.55245,508.4014],[38.13269,-13.54486,513.703],[38.13145,-13.53385,513.2247],[38.12525,-13.52274,517.7297],[38.11905,-13.50667,531.9498],[38.11254,-13.48279,555.7645],[38.1082,-13.47582,563.8887],[38.10272,-13.4721,555.7231],[38.09734,-13.47215,547.1495],[38.09218,-13.47365,549.34],[38.08737,-13.47571,559.3936],[38.08287,-13.47814,575.5349],[38.07869,-13.48093,579.7302],[38.07326,-13.48217,559.9959],[38.06722,-13.48176,569.61],[38.05807,-13.47582,539.098],[38.05404,-13.47013,549.3698],[38.0514,-13.46254,549.8438],[38.04298,-13.4198,540.7451],[38.04298,-13.41391,527.5103],[38.04412,-13.40854,517.7452],[38.04546,-13.40414,513.4214],[38.04722,-13.40115,514.1075],[38.04923,-13.39804,510.1148],[38.06567,-13.38022,515.3402],[38.08613,-13.36533,503.7841],[38.10479,-13.34906,513.6822],[38.11765,-13.3411,501.8995],[38.12509,-13.33474,528.9068],[38.14261,-13.31712,513.9227],[38.14556,-13.31304,500.0603],[38.14788,-13.30823,505.0792],[38.15098,-13.29697,493.5317],[38.15305,-13.29169,475.8032],[38.15584,-13.28735,480.082],[38.15894,-13.28353,473.9333],[38.16964,-13.2733,473.2615],[38.17259,-13.26906,465.2898],[38.17848,-13.25345,458.2236],[38.18142,-13.24927,459.9779],[38.18793,-13.24167,452.1915],[38.18995,-13.23692,453.2122],[38.19072,-13.23103,451.5744],[38.18995,-13.21961,459.7007],[38.19041,-13.21413,450.9231],[38.19243,-13.20953,460.1378],[38.19801,-13.20147,444.711],[38.19894,-13.19651,441.8555],[38.19879,-13.18519,446.9771],[38.19972,-13.18007,448.1021],[38.20173,-13.17547,455.2986],[38.21165,-13.16452,441.4475],[38.21403,-13.15971,435.8504],[38.21475,-13.15134,433.8266],[38.21341,-13.1238,429.9461],[38.21041,-13.11594,425.545],[38.20623,-13.11238,436.716],[38.1946,-13.11186,422.4336],[38.18266,-13.11326,429.1852],[38.17786,-13.11486,430.9656],[38.17321,-13.11703,423.745],[38.13734,-13.14023,443.8808],[38.13316,-13.14142,436.3574],[38.12944,-13.1408,439.9125],[38.11874,-13.1376,440.4926],[38.10634,-13.13522,461.7746],[38.09512,-13.1317,453.4102],[38.09032,-13.12938,455.1482],[38.08582,-13.12674,461.2181],[38.07869,-13.11982,478.9577],[38.07264,-13.11207,492.2137],[38.06908,-13.10861,483.2952],[38.06505,-13.10556,484.3799],[38.06024,-13.10308,487.3884],[38.03833,-13.09594,499.3274],[37.98696,-13.08638,544.2609],[37.98061,-13.08354,563.7324],[37.97472,-13.07719,568.8181],[37.9741,-13.07191,578.7719],[37.97549,-13.0669,569.8466],[37.99756,-13.03962,574.5211],[38.00283,-13.03032,569.6362],[38.00453,-13.02401,555.7186],[38.00562,-13.01714,564.3416],[38.00608,-12.99843,544.3406],[38.00856,-12.99027,521.4764],[38.00996,-12.9822,506.0599],[38.01058,-12.9712,554.3428],[38.00856,-12.93807,482.2798],[38.00887,-12.92851,473.1744],[38.01182,-12.91694,459.1011],[38.01259,-12.91006,459.0913],[38.0129,-12.90221,478.6814],[38.01166,-12.89125,472.8105],[38.01166,-12.88319,456.7573],[38.01523,-12.85844,433.6483],[38.01368,-12.83896,415.1169],[38.01477,-12.82898,434.4302],[38.01709,-12.82201,438.1914],[38.02376,-12.81462,407.2816],[38.02624,-12.81002,402.5893],[38.0281,-12.8047,408.1012],[38.02918,-12.79865,402.8087],[38.0298,-12.79229,393.2068],[38.02717,-12.76248,377.2606],[38.02779,-12.75659,374.9179],[38.02918,-12.75116,368.1821],[38.04164,-12.72796,380.4027],[38.04267,-12.72129,370.4267],[38.04071,-12.6754,355.6088],[38.03786,-12.66682,352.6058],[38.0329,-12.65726,348.0454],[38.03073,-12.6506,361.7439],[38.03011,-12.64367,358.8945],[38.0404,-12.59598,343.2325],[38.04381,-12.58528,334.1012],[38.04691,-12.56807,323.0905],[38.04753,-12.55143,312.9278],[38.0466,-12.54228,326.2258],[38.04484,-12.53531,321.9966],[38.03879,-12.52507,335.5088],[38.02996,-12.50471,330.9792],[38.0298,-12.49727,327.6281],[38.03182,-12.49195,327.2278],[38.036,-12.48916,333.0992],[38.05001,-12.48156,302.9308],[38.06644,-12.46988,298.4503],[38.07357,-12.46291,286.7391],[38.07962,-12.45495,285.9288],[38.08489,-12.44606,281.0021],[38.09109,-12.43826,347.2083],[38.11936,-12.41061,270.2894],[38.13781,-12.38679,266.5089],[38.14897,-12.37718,266.7298],[38.16654,-12.36731,256.4876],[38.17119,-12.36167,252.9698],[38.17522,-12.35273,253.9118],[38.18313,-12.29098,255.8745],[38.18747,-12.27362,252.7421],[38.20235,-12.23863,262.9914],[38.20716,-12.22086,250.0221],[38.20948,-12.2144,242.7689],[38.21403,-12.2114,225.4996],[38.22349,-12.2069,224.7603],[38.22752,-12.20401,213.2326],[38.24054,-12.19114,228.1425],[38.25186,-12.17626,229.3126],[38.25527,-12.173,222.5749],[38.25899,-12.17011,216.7479],[38.26317,-12.16763,222.4188],[38.2826,-12.15962,214.1097],[38.29532,-12.15228,231.3003],[38.33165,-12.12262,190.2431],[38.3349,-12.11306,201.9822],[38.33738,-12.09797,220.3427],[38.34002,-12.0636,259.3332],[38.34281,-12.04867,236.6105],[38.34622,-12.03921,230.4788],[38.35025,-12.03704,229.4828],[38.37071,-12.02924,210.6981],[38.37505,-12.02593,206.0117],[38.37898,-12.02154,202.2406],[38.38797,-11.99885,190.2195],[38.39216,-11.97544,203.4992],[38.39433,-11.97033,202.8593],[38.39743,-11.96692,196.2083],[38.40968,-11.95922,168.0],[38.42285,-11.94573,179.049],[38.42518,-11.9417,195.5695],[38.42688,-11.9371,188.0243],[38.43123,-11.90982,179.5444],[38.43293,-11.90475,179.2587],[38.43531,-11.90051,179.7799],[38.43841,-11.89023,188.864],[38.44507,-11.84005,182.1125],[38.44538,-11.82429,183.6269],[38.44461,-11.81354,182.2099],[38.43996,-11.80496,176.0144],[38.4289,-11.789,171.2992],[38.41944,-11.77851,178.758],[38.4103,-11.76125,155.5],[38.40766,-11.75737,170.6631],[38.40255,-11.74688,164.1657],[38.39665,-11.72394,186.6228],[38.39619,-11.715,194.3309],[38.40224,-11.64415,162.4838],[38.40937,-11.61536,146.6794],[38.412,-11.59449,144.5],[38.41433,-11.5841,145.0992],[38.41696,-11.57666,145.8912],[38.42208,-11.56906,154.785],[38.42471,-11.56348,162.0494],[38.42688,-11.55594,154.5587],[38.43045,-11.53485,141.7359],[38.44244,-11.50622,138.5],[38.44787,-11.47873,138.5372],[38.44957,-11.47392,139.1133],[38.45159,-11.46938,139.2339],[38.45407,-11.46524,137.5749],[38.49174,-11.41527,131.4513],[38.49225,-11.41346,132.0385],[38.49169,-11.41314,132.0385],[38.46239,-11.39631,163.6605],[38.38311,-11.37667,157.2175],[38.34766,-11.35879,157.2841],[38.29247,-11.30163,198.3629],[38.25661,-11.27714,192.6007],[38.21041,-11.27001,191.3865],[38.20049,-11.2727,189.9925],[38.17837,-11.28179,193.3632],[38.1669,-11.28375,210.9827]],
[[34.56257,-11.97798,474.5],[34.59844,-11.97053,474.5],[34.62748,-11.98728,474.5],[34.64122,-12.01787,474.5],[34.63172,-12.05249,474.5],[34.61115,-12.07254,474.5],[34.59606,-12.07192,474.5],[34.58355,-12.0589,474.5],[34.57074,-12.04102,474.5],[34.54407,-12.01136,474.5],[34.5418,-11.99462,474.5],[34.56164,-11.9786,474.5],[34.56257,-11.97798,474.5]],
[[34.68897,-12.12453,474.5],[34.66903,-12.11781,474.5],[34.65621,-12.09724,474.5],[34.6559,-12.07626,474.5],[34.66241,-12.0528,474.5],[34.68091,-12.0094,474.5],[34.69414,-12.0004,474.5],[34.71564,-12.00164,474.5],[34.73827,-12.0095,474.5],[34.75419,-12.02014,474.5],[34.76235,-12.0403,474.5],[34.75925,-12.06562,474.5],[34.74819,-12.09042,474.5],[34.73248,-12.10903,474.5],[34.71161,-12.12081,474.5],[34.68897,-12.12453,474.5]]]}}