{"type": "Feature","bbox": [34.4084,-15.4684,38.4818,-11.2571],"geometry": {"type": "MultiPolygon","coordinates": [[[[35.8664,-15.0041,624.8671],[35.7892,-15.1679,622.5],[35.8382,-15.3614,622.5],[35.843,-15.3738,622.5],[35.8418,-15.3738,622.5],[35.8448,-15.3887,622.5],[35.8521,-15.4175,629.6171],[35.8506,-15.4441,625.0656],[36.0846,-15.4457,704.7186],[36.1133,-15.4283,674.1846],[36.1244,-15.4263,684.1463],[36.1399,-15.4347,690.0157],[36.1781,-15.45,700.3949],[36.1863,-15.4503,703.1409],[36.2363,-15.4684,779.1602],[36.2827,-15.4663,1012.7494],[36.2851,-15.4621,1024.894],[36.2875,-15.4486,815.4332],[36.2698,-15.4298,721.7726],[36.2676,-15.3998,695.4833],[36.2841,-15.3875,686.4537],[36.3146,-15.3526,669.309],[36.3221,-15.3388,669.6652],[36.3359,-15.3208,659.8463],[36.347,-15.3113,655.1892],[36.3585,-15.2893,648.7927],[36.4399,-15.2685,634.5641],[36.448,-15.269,637.4448],[36.4567,-15.2675,636.28],[36.4697,-15.2585,629.4028],[36.4708,-15.2531,628.3082],[36.4797,-15.2492,629.5592],[36.4964,-15.2477,624.9424],[36.5051,-15.2459,625.5876],[36.5112,-15.2428,616.1191],[36.5107,-15.2383,617.741],[36.5154,-15.2357,613.8217],[36.5201,-15.2283,611.6032],[36.5347,-15.223,612.4946],[36.5388,-15.215,611.3191],[36.562,-15.2045,612.5538],[36.5685,-15.1992,601.3104],[36.5774,-15.1788,601.4587],[36.5877,-15.1711,599.9178],[36.5954,-15.17,596.8478],[36.6164,-15.1541,592.4147],[36.6385,-15.1068,581.5798],[36.6601,-15.1072,582.6891],[36.6644,-15.0961,577.4849],[36.6684,-15.0771,572.3217],[36.6776,-15.0752,571.0184],[36.6824,-15.0664,572.2357],[36.6896,-15.0606,573.385],[36.6918,-15.0519,568.1384],[36.6969,-15.0454,570.2954],[36.6982,-15.0271,565.3142],[36.7007,-15.023,563.9945],[36.6995,-15.0175,570.7094],[36.7012,-15.0135,565.6082],[36.6973,-14.9992,561.2633],[36.7141,-14.9858,562.4123],[36.7312,-14.9692,561.9082],[36.7462,-14.9494,559.9798],[36.7571,-14.9398,553.4744],[36.7663,-14.9285,550.176],[36.7687,-14.9158,551.7222],[36.7665,-14.9112,547.381],[36.7717,-14.9069,547.0497],[36.7852,-14.9028,548.425],[36.7917,-14.893,548.567],[36.7973,-14.8892,547.3414],[36.8005,-14.8812,551.0943],[36.814,-14.8684,542.0635],[36.8354,-14.8616,534.7939],[36.834,-14.8581,537.1191],[36.8295,-14.8557,535.6937],[36.8291,-14.8491,533.9603],[36.8317,-14.8407,536.4201],[36.8353,-14.8389,537.7443],[36.8418,-14.8398,531.4333],[36.8467,-14.8363,534.0864],[36.8456,-14.8328,539.0386],[36.84,-14.8287,541.2787],[36.8381,-14.8238,530.3007],[36.8397,-14.8171,533.2078],[36.8502,-14.8026,527.1982],[36.8656,-14.7887,524.7581],[36.8688,-14.7887,523.9474],[36.8837,-14.7796,514.8966],[36.884,-14.7699,515.5472],[36.8862,-14.7671,512.6263],[36.8945,-14.7655,514.1989],[36.9019,-14.7621,508.7949],[36.9081,-14.7567,517.8055],[36.9372,-14.7445,518.4292],[36.9435,-14.7342,518.4948],[36.9426,-14.7257,506.4431],[36.9462,-14.7178,504.8896],[36.9526,-14.7121,506.3142],[36.9611,-14.7106,516.6107],[36.9639,-14.7071,510.4403],[36.9736,-14.7045,501.1041],[36.9852,-14.6953,502.3128],[36.9983,-14.6773,507.5281],[37.0057,-14.6734,514.5979],[37.0198,-14.6719,510.8824],[37.0302,-14.6674,508.387],[37.0431,-14.6682,509.9267],[37.0527,-14.6635,505.5503],[37.0789,-14.642,499.6337],[37.0826,-14.6423,505.8239],[37.0957,-14.6386,501.6541],[37.1202,-14.6147,495.1473],[37.1648,-14.5938,497.9412],[37.1817,-14.5909,496.2352],[37.2001,-14.6088,491.149],[37.2339,-14.6088,494.6657],[37.2401,-14.5996,493.4835],[37.2549,-14.5909,482.079],[37.2584,-14.5909,490.1149],[37.283,-14.5759,487.8954],[37.2962,-14.5713,481.8474],[37.3014,-14.5721,488.203],[37.3321,-14.5542,481.3136],[37.3383,-14.5423,485.6106],[37.3475,-14.5304,481.5115],[37.3599,-14.5184,490.6695],[37.3968,-14.4946,483.8804],[37.4153,-14.4767,461.9778],[37.4245,-14.4648,468.7553],[37.4271,-14.45,466.6037],[37.4304,-14.4417,461.7785],[37.4703,-14.4149,453.1853],[37.4857,-14.394,460.8638],[37.5044,-14.3872,444.5023],[37.5155,-14.3872,458.5167],[37.5471,-14.4,452.9306],[37.5686,-14.391,450.4707],[37.5877,-14.3693,436.5465],[37.6,-14.3604,440.6567],[37.6114,-14.3493,438.2911],[37.6083,-14.2964,432.2676],[37.6201,-14.2879,436.9327],[37.6313,-14.2904,422.427],[37.6454,-14.2876,420.3504],[37.6678,-14.2764,421.5771],[37.6832,-14.2743,419.1632],[37.6954,-14.2778,422.2382],[37.7107,-14.2966,419.1486],[37.7185,-14.2978,437.75],[37.7195,-14.2998,424.9341],[37.7245,-14.2949,424.4707],[37.7721,-14.2711,422.7705],[37.7787,-14.2651,415.2092],[37.7855,-14.2552,415.8941],[37.7965,-14.2487,416.3814],[37.8235,-14.2531,410.6174],[37.8403,-14.2532,408.8484],[37.8575,-14.2506,408.5317],[37.8677,-14.2563,412.3185],[37.8793,-14.2743,407.1441],[37.9128,-14.3092,399.6208],[37.928,-14.3164,391.2741],[37.9404,-14.3132,393.8143],[37.961,-14.2957,390.4849],[37.9833,-14.2736,385.2661],[37.9877,-14.2717,394.0469],[37.9991,-14.2596,393.7463],[38.0189,-14.2474,394.4643],[38.0319,-14.2477,389.3783],[38.0367,-14.2506,382.6247],[38.0489,-14.2535,389.9769],[38.0619,-14.2522,380.9039],[38.0708,-14.259,379.1959],[38.0844,-14.258,365.2469],[38.095,-14.2514,371.2854],[38.1062,-14.2516,373.4703],[38.1191,-14.2599,369.6398],[38.1253,-14.2562,376.7177],[38.1346,-14.2466,377.6569],[38.148,-14.2362,367.8543],[38.1617,-14.2281,364.7278],[38.1731,-14.2313,361.5393],[38.1832,-14.2289,371.623],[38.2121,-14.2021,363.52],[38.237,-14.1747,368.3837],[38.2485,-14.1669,365.4173],[38.2787,-14.1593,356.4263],[38.3041,-14.1469,352.5123],[38.3353,-14.1545,355.5743],[38.355,-14.1417,345.3794],[38.3733,-14.1384,350.3966],[38.3984,-14.1271,346.4903],[38.3867,-14.1084,348.8153],[38.3769,-14.1082,348.9703],[38.3633,-14.1048,349.9477],[38.3603,-14.0868,353.2216],[38.3467,-14.0673,354.5167],[38.3484,-14.0563,360.399],[38.3394,-14.0611,358.458],[38.337,-14.0591,362.9688],[38.3256,-14.0464,363.373],[38.3201,-14.0378,368.2235],[38.3107,-14.0319,367.0954],[38.3044,-14.0204,369.7658],[38.2817,-13.9989,377.8975],[38.2798,-13.9927,377.6985],[38.2878,-13.9766,378.9167],[38.2875,-13.9659,390.6039],[38.281,-13.9619,382.1355],[38.2756,-13.9529,390.3062],[38.2777,-13.9475,387.2574],[38.273,-13.9406,389.8742],[38.2687,-13.9377,388.6566],[38.2615,-13.9363,392.6218],[38.2578,-13.9311,394.1434],[38.2597,-13.9236,395.643],[38.2589,-13.911,401.3327],[38.2523,-13.8979,402.0115],[38.2509,-13.8885,403.4524],[38.242,-13.8811,405.795],[38.2397,-13.8734,406.9246],[38.2323,-13.8681,411.9148],[38.2274,-13.8592,410.5375],[38.2217,-13.8567,409.377],[38.2141,-13.8465,414.5896],[38.2117,-13.839,419.245],[38.2134,-13.8334,418.8152],[38.2082,-13.8312,424.4647],[38.2065,-13.8279,419.6202],[38.2032,-13.8269,419.0337],[38.2018,-13.8245,463.3141],[38.2012,-13.8139,437.171],[38.2027,-13.8063,425.8947],[38.201,-13.8022,435.5155],[38.1831,-13.7862,434.6776],[38.1836,-13.7742,434.3757],[38.1709,-13.7701,433.5186],[38.169,-13.7594,433.5435],[38.1704,-13.7543,440.4413],[38.1642,-13.75,439.2183],[38.1626,-13.7459,444.2076],[38.1639,-13.7247,444.5901],[38.1663,-13.7204,449.8878],[38.1682,-13.6914,455.7322],[38.1736,-13.6802,461.7587],[38.1726,-13.6716,463.8282],[38.1588,-13.6668,470.2161],[38.1572,-13.6609,468.9462],[38.146,-13.6406,484.3575],[38.1489,-13.6232,485.7274],[38.1506,-13.5982,490.9099],[38.1449,-13.5762,496.6505],[38.1454,-13.552,505.6037],[38.1333,-13.5257,512.3842],[38.1144,-13.5123,522.2415],[38.1047,-13.4899,544.8267],[38.0859,-13.4945,578.8643],[38.0643,-13.5022,619.2236],[38.0402,-13.4154,516.1572],[38.0412,-13.4073,512.6891],[38.047,-13.4001,514.1075],[38.0615,-13.3875,507.1431],[38.1086,-13.3548,499.9503],[38.1274,-13.3527,496.6605],[38.1404,-13.348,489.4159],[38.1469,-13.3417,480.9795],[38.1561,-13.3238,477.6673],[38.1737,-13.3108,469.9658],[38.1784,-13.3052,470.8257],[38.1837,-13.291,485.3811],[38.1806,-13.2761,470.902],[38.2021,-13.2224,448.3513],[38.2002,-13.2206,446.496],[38.1999,-13.215,446.1395],[38.2064,-13.185,436.7142],[38.2186,-13.1694,434.258],[38.2183,-13.1449,430.8487],[38.2153,-13.1336,429.2211],[38.2169,-13.1276,427.8154],[38.2123,-13.1132,423.1614],[38.1816,-13.1125,432.732],[38.1711,-13.1151,443.384],[38.1439,-13.1327,443.9863],[38.1319,-13.1369,457.4349],[38.0875,-13.1273,461.2181],[38.0548,-13.1061,481.826],[38.0351,-13.0976,499.9025],[38.023,-13.0942,506.8118],[37.9925,-13.0905,548.7034],[37.9814,-13.0806,564.3556],[37.9677,-13.0623,595.652],[37.9404,-13.0435,629.8807],[37.9415,-13.0344,634.7753],[37.9506,-13.0256,576.0463],[37.9628,-13.0047,539.8337],[38.0027,-12.9689,552.9271],[38.0119,-12.9481,498.5626],[38.0168,-12.8978,476.8625],[38.0226,-12.8858,439.0449],[38.0325,-12.8739,456.097],[38.0331,-12.8512,442.8032],[38.0508,-12.8159,465.1411],[38.0496,-12.8115,466.2196],[38.0444,-12.8059,433.1367],[38.0409,-12.7986,405.8264],[38.0436,-12.7805,401.7937],[38.0334,-12.7631,380.3935],[38.0487,-12.6856,363.6019],[38.0456,-12.6647,375.4156],[38.0286,-12.6454,354.8586],[38.0355,-12.6143,338.6978],[38.0409,-12.6005,327.5222],[38.0518,-12.5837,320.9453],[38.0518,-12.5663,329.9071],[38.0763,-12.507,301.8054],[38.0864,-12.4874,302.4828],[38.0789,-12.4666,292.9174],[38.0809,-12.4562,285.9288],[38.0916,-12.4291,278.8762],[38.1131,-12.4172,274.8563],[38.1284,-12.3963,267.955],[38.1622,-12.3695,255.7439],[38.2052,-12.3217,248.257],[38.2052,-12.286,242.2677],[38.2266,-12.2561,226.7626],[38.2309,-12.213,216.3939],[38.222,-12.1868,202.0],[38.2531,-12.1608,205.9264],[38.3069,-12.1328,200.5839],[38.3543,-12.1147,182.4583],[38.3719,-12.1057,178.5],[38.3791,-12.0954,180.2429],[38.381,-12.0726,175.5],[38.401,-11.9996,172.0],[38.4077,-11.952,168.238],[38.4204,-11.9193,165.3403],[38.4212,-11.8866,163.5659],[38.4177,-11.8648,169.163],[38.4188,-11.8561,173.8837],[38.4182,-11.7907,172.1599],[38.4159,-11.7679,171.2064],[38.4049,-11.7299,168.7512],[38.4063,-11.7105,152.0],[38.4154,-11.6513,153.9779],[38.4114,-11.6299,150.0959],[38.4114,-11.6103,145.5],[38.4161,-11.5883,146.1091],[38.4187,-11.5625,144.5242],[38.4433,-11.5029,138.5],[38.4509,-11.4801,138.6999],[38.4659,-11.453,134.2458],[38.4818,-11.4163,134.8734],[38.4689,-11.4135,139.9068],[38.4539,-11.4134,135.8548],[38.4481,-11.4107,134.5],[38.4406,-11.4069,143.9846],[38.4273,-11.391,141.9457],[38.4144,-11.3881,143.0003],[38.3925,-11.3875,144.5401],[38.3782,-11.383,156.5331],[38.3636,-11.3678,154.4076],[38.3397,-11.3388,152.9619],[38.3291,-11.3293,162.3764],[38.3213,-11.3255,165.1521],[38.2885,-11.3288,169.5323],[38.2826,-11.3243,164.8403],[38.2741,-11.2968,158.125],[38.2619,-11.2884,164.4747],[38.2243,-11.2833,196.1409],[38.2102,-11.2752,191.3069],[38.2028,-11.2744,188.0],[38.1823,-11.2778,195.6631],[38.1398,-11.2732,205.3588],[38.1131,-11.2597,215.0],[38.1028,-11.2607,219.0584],[38.0748,-11.2711,219.5365],[38.0575,-11.274,220.5],[38.0497,-11.2707,226.5226],[38.03,-11.2677,223.0],[38.0175,-11.271,224.25],[37.999,-11.2616,226.0],[37.9844,-11.2615,235.3736],[37.9687,-11.2657,234.8219],[37.9599,-11.264099999999999,232.2715],[37.9458,-11.2579,237.0],[37.929,-11.2571,240.9276],[37.9151,-11.261,240.3042],[37.8976,-11.2716,242.9338],[37.8746,-11.2826,250.5303],[37.866,-11.2888,247.766],[37.8593,-11.298,249.2842],[37.8519,-11.3037,276.7603],[37.8336,-11.3066,256.6166],[37.8311,-11.3083,257.9625],[37.8274,-11.3439,273.3623],[37.8271,-11.3655,279.6464],[37.8157,-11.3778,278.25],[37.8142,-11.3886,280.25],[37.8079,-11.4063,283.5],[37.8022,-11.4122,295.1049],[37.7951,-11.414,299.2076],[37.788,-11.4187,287.5419],[37.7819,-11.432,295.0059],[37.7812,-11.4451,292.5],[37.7735,-11.4629,302.269],[37.7755,-11.4698,297.125],[37.7869,-11.4782,304.125],[37.7881,-11.4868,305.25],[37.7785,-11.5138,311.3134],[37.7638,-11.534,309.0121],[37.7479,-11.5487,308.0],[37.7406,-11.5517,308.0],[37.7289,-11.5526,308.5],[37.7184,-11.5554,309.8185],[37.7016,-11.5628,313.0336],[37.688,-11.5634,310.0],[37.6724,-11.5733,310.5],[37.6588,-11.5742,313.8679],[37.6226,-11.6043,323.3684],[37.5962,-11.6182,312.5],[37.5835,-11.6225,325.1898],[37.5727,-11.6219,313.7148],[37.5499,-11.6177,327.9579],[37.5345,-11.6107,322.9001],[37.5151,-11.6138,326.6117],[37.5006,-11.6118,329.0],[37.4964,-11.6134,334.3146],[37.4853,-11.6236,337.8469],[37.4771,-11.6248,333.4195],[37.4498,-11.6343,339.6076],[37.4389,-11.6412,334.0],[37.4307,-11.6489,340.6763],[37.423,-11.6657,336.7054],[37.4194,-11.68,336.8999],[37.4144,-11.6825,336.0],[37.3842,-11.6882,343.8518],[37.3773,-11.6863,337.9889],[37.3656,-11.6791,345.7572],[37.3586,-11.6769,346.3073],[37.338,-11.6752,344.25],[37.3317,-11.6723,354.2816],[37.3242,-11.6645,355.7155],[37.3182,-11.6632,348.5],[37.3169,-11.6582,350.3957],[37.2993,-11.6397,351.5],[37.2816,-11.6336,359.1142],[37.2724,-11.6326,360.2836],[37.2623,-11.6341,365.7691],[37.2292,-11.6511,357.2721],[37.2213,-11.6517,365.7647],[37.1988,-11.6469,369.5903],[37.1568,-11.6322,362.0],[37.1486,-11.6312,362.5],[37.1368,-11.633,363.0],[37.1176,-11.6285,364.0],[37.1131,-11.6257,364.6798],[37.0913,-11.6262,365.5],[37.0789,-11.6233,366.0],[37.0698,-11.612,366.0],[37.0536,-11.5995,368.5931],[37.0411,-11.5803,404.7229],[37.0332,-11.573,410.6495],[37.0251,-11.5692,416.1081],[37.0168,-11.5719,401.9154],[37.0115,-11.5805,374.6226],[37.0093,-11.5991,412.6667],[37.007,-11.6026,421.3073],[36.9848,-11.6004,407.7271],[36.9615,-11.6047,388.2299],[36.9445,-11.6025,382.3627],[36.8887,-11.6061,409.7669],[36.8817,-11.6041,410.6389],[36.8657,-11.5925,392.5342],[36.8606,-11.5922,405.5817],[36.8578,-11.5904,398.0852],[36.8414,-11.5903,417.8376],[36.8384,-11.5885,412.3849],[36.836,-11.5834,405.9965],[36.8266,-11.5782,413.2403],[36.8213,-11.5796,437.9615],[36.8108,-11.587,436.1902],[36.7761,-11.6323,412.8916],[36.7691,-11.6353,418.8938],[36.7624,-11.6413,425.7126],[36.7557,-11.6561,421.8364],[36.7283,-11.6859,441.1679],[36.7195,-11.6929,454.3858],[36.6993,-11.7015,431.2157],[36.6899,-11.7025,416.5],[36.6846,-11.7094,428.5327],[36.6727,-11.7184,432.8271],[36.6634,-11.7229,427.307],[36.651,-11.7257,425.9169],[36.6361,-11.726,441.5338],[36.6036,-11.7227,453.7838],[36.5824,-11.7313,490.3604],[36.5603,-11.7457,482.4491],[36.5496,-11.7455,471.1],[36.5359,-11.729,490.8216],[36.5165,-11.7264,486.4145],[36.5093,-11.7204,466.0685],[36.5036,-11.708,471.1159],[36.5014,-11.6928,469.762],[36.4995,-11.6903,467.3353],[36.493,-11.6881,478.6671],[36.4752,-11.6863,483.2942],[36.4412,-11.6885,477.0227],[36.4199,-11.6916,481.4214],[36.4111,-11.6903,480.2495],[36.3923,-11.6816,470.9647],[36.383,-11.6814,468.0337],[36.3779,-11.6842,466.3442],[36.3647,-11.7036,467.2281],[36.3425,-11.7041,483.7345],[36.3169,-11.702,496.3068],[36.2932,-11.7087,485.1872],[36.2841,-11.7076,483.1366],[36.276,-11.7101,482.1483],[36.2671,-11.718,489.0727],[36.2508,-11.7148,501.0598],[36.2394,-11.7066,487.9614],[36.2171,-11.7085,483.1557],[36.2013,-11.7162,491.2509],[36.1896,-11.7162,505.1916],[36.1837,-11.7139,502.1534],[36.1823,-11.7084,498.2631],[36.1886,-11.6967,495.7184],[36.1876,-11.6889,495.0908],[36.1731,-11.676,497.9273],[36.17,-11.6655,500.2759],[36.1811,-11.639,495.3406],[36.1748,-11.6241,505.5791],[36.178,-11.6141,521.9637],[36.1752,-11.6068,520.5916],[36.1768,-11.5981,526.4717],[36.1723,-11.5896,533.4962],[36.1604,-11.5822,525.5679],[36.1575,-11.577,519.6544],[36.1519,-11.5728,510.2704],[36.1386,-11.5703,530.5038],[36.1325,-11.5665,527.65],[36.1239,-11.552,530.9276],[36.1126,-11.5525,525.4193],[36.1059,-11.5488,520.2046],[36.0986,-11.5475,520.0494],[36.0891,-11.537,515.4563],[36.0507,-11.515,525.3505],[36.0254,-11.5026,552.4266],[36.0156,-11.4994,552.7988],[35.9948,-11.4979,575.5275],[35.957,-11.4831,547.153],[35.9539,-11.4773,545.9011],[35.9621,-11.4575,543.3228],[35.9613,-11.4426,543.3209],[35.958,-11.4373,552.3845],[35.9419,-11.4249,546.2368],[35.926,-11.4243,547.6043],[35.9097,-11.4261,548.377],[35.8836,-11.4223,553.5798],[35.8577,-11.424,549.2248],[35.854,-11.4226,549.5854],[35.8446,-11.4097,547.8321],[35.8343,-11.4072,554.2646],[35.8238,-11.4068,550.0329],[35.8203,-11.4096,552.9448],[35.8117,-11.4291,553.3314],[35.7955,-11.4496,562.9401],[35.7862,-11.457,552.4384],[35.7764,-11.4713,554.0038],[35.7542,-11.4766,556.8489],[35.7393,-11.4757,555.373],[35.7249,-11.4808,556.1894],[35.712,-11.4813,554.3832],[35.7027,-11.491,569.0564],[35.7049,-11.5137,557.8157],[35.7039,-11.5186,559.6524],[35.6938,-11.5201,559.7812],[35.6882,-11.525,562.1638],[35.681,-11.5473,576.2031],[35.6747,-11.5565,564.2305],[35.6659,-11.5595,584.4642],[35.6607,-11.5634,577.7758],[35.657,-11.5721,582.0701],[35.6496,-11.5786,584.7908],[35.6474,-11.5928,596.9512],[35.6439,-11.5931,606.9262],[35.6393,-11.5857,584.9498],[35.6054,-11.5961,583.7776],[35.5966,-11.5965,606.0811],[35.5921,-11.5945,623.3276],[35.5872,-11.5878,600.687],[35.5826,-11.5853,593.662],[35.5788,-11.5993,618.6985],[35.5756,-11.6035,599.612],[35.5676,-11.5991,610.1808],[35.5639,-11.6042,605.4045],[35.5604,-11.6032,613.4377],[35.5485,-11.5947,608.1618],[35.5464,-11.5993,606.396],[35.5387,-11.5924,598.5333],[35.535,-11.5931,596.1123],[35.5329,-11.5993,621.5313],[35.5336,-11.6042,630.6065],[35.5392,-11.6115,630.8787],[35.5324,-11.6111,614.1886],[35.5186,-11.6042,596.426],[35.5156,-11.5977,587.8735],[35.5144,-11.5883,579.7711],[35.5107,-11.5835,578.8304],[35.4936,-11.5754,595.2142],[35.4885,-11.5759,596.7922],[35.4888,-11.58,600.6002],[35.4948,-11.5867,601.2708],[35.4927,-11.5913,602.4793],[35.489,-11.5947,603.6138],[35.4747,-11.595,620.3623],[35.4652,-11.5908,595.711],[35.457,-11.5842,590.9429],[35.4547,-11.5911,606.6285],[35.4491,-11.5869,607.4052],[35.4425,-11.5858,582.1677],[35.4358,-11.5872,585.0049],[35.4311,-11.5842,582.4377],[35.4243,-11.5667,574.4575],[35.4199,-11.5665,578.2043],[35.4136,-11.574,575.7043],[35.4073,-11.5736,576.9669],[35.3975,-11.5796,578.5942],[35.3963,-11.5819,572.7903],[35.3856,-11.577,592.6868],[35.384,-11.5713,596.0517],[35.3807,-11.5697,598.6103],[35.3589,-11.568,606.1331],[35.3504,-11.5611,614.0516],[35.3407,-11.5565,624.291],[35.1972,-11.5612,1129.0415],[35.1857,-11.563,1113.4709],[35.1542,-11.5616,1427.2351],[35.126,-11.5642,1384.853],[35.0602,-11.5662,1240.3616],[35.0398,-11.5684,1272.2601],[35.0247,-11.5678,1272.3982],[34.9998,-11.5707,1461.4285],[34.9923,-11.5689,1342.4556],[34.9694,-11.5719,520.913],[34.883,-11.5744,474.5],[34.8553,-11.5725,474.5],[34.8466,-11.5743,474.5],[34.8116,-11.5763,474.5],[34.75,-11.5779,474.5],[34.7395,-11.5799,474.5],[34.7152,-11.5792,474.5],[34.7036,-11.5808,474.5],[34.6426,-11.5825,474.5],[34.6428,-11.6094,474.5],[34.6341,-11.6621,474.5],[34.5975,-11.766,474.5],[34.5825,-11.8041,474.5],[34.5705,-11.8262,474.5],[34.513,-11.9661,474.5],[34.4928,-12.0006,474.5],[34.4763,-12.037,474.5],[34.4253,-12.1595,474.5],[34.4146,-12.1982,474.5],[34.4084,-12.2546,474.5],[34.4086,-12.2927,474.5],[34.4138,-12.3497,474.5],[34.417,-12.367,474.5],[34.4339,-12.4319,474.5],[34.4479,-12.4754,474.5],[34.4565,-12.5129,474.5],[34.463,-12.5283,474.5],[34.4681,-12.5465,474.5],[34.4845,-12.6167,474.5],[34.4983,-12.6643,474.5],[34.519,-12.7101,474.5],[34.5239,-12.7297,474.5],[34.5255,-12.7529,474.5],[34.5237,-12.7681,474.5],[34.5108,-12.8092,474.5],[34.511,-12.8175,474.5],[34.5077,-12.8361,474.5],[34.5082,-12.849,474.5],[34.5167,-12.8902,474.5],[34.5324,-12.9273,474.5],[34.5363,-12.947,474.5],[34.5379,-12.965,474.5],[34.5502,-13.0294,474.5],[34.5521,-13.0471,474.5],[34.5513,-13.0625,474.5],[34.5442,-13.0809,474.5],[34.5407,-13.0979,474.5],[34.537,-13.1476,474.5],[34.5391,-13.157,474.5],[34.5394,-13.2492,474.5],[34.5363,-13.2768,474.5],[34.5311,-13.3016,474.5],[34.5209,-13.3372,474.5],[34.5237,-13.3581,474.5],[34.5274,-13.3669,474.5],[34.5384,-13.3777,474.5],[34.5448,-13.3885,474.5],[34.5487,-13.3892,474.5],[34.5614,-13.4031,474.5],[34.5773,-13.4289,474.5],[34.5951,-13.4723,474.5],[34.6035,-13.4818,474.5],[34.6792,-13.4822,474.5],[34.7589,-13.4788,474.5],[34.8369,-13.4808,474.5],[34.8484,-13.4787,474.5],[34.8614,-13.4792,474.5],[34.8664,-13.4819,474.5],[34.9638,-13.5809,572.1866],[35.0867,-13.6965,638.2184],[35.2302,-13.8848,1302.4624],[35.484,-14.1674,950.4058],[35.4946,-14.1892,935.9125],[35.508,-14.2248,946.5614],[35.5174,-14.2607,909.1169],[35.5776,-14.3315,821.3134],[35.637,-14.3948,769.9339],[35.7267,-14.5006,840.6415],[35.77,-14.5571,678.0493],[35.8703,-14.6745,627.5],[35.8707,-14.7092,627.5],[35.8694,-14.7074,627.5],[35.8684,-14.7236,627.5],[35.8698,-14.7296,627.5],[35.8705,-14.8946,629.1276],[35.915,-14.895,628.8911],[35.8664,-15.0041,624.8671]],
[[34.7496,-12.0668,474.5],[34.7476,-12.0676,474.5],[34.7468,-12.0663,474.5],[34.7504,-12.0649,477.7411],[34.7496,-12.0668,474.5]],
[[34.614,-12.0493,474.5],[34.6168,-12.0504,476.188],[34.6174,-12.0518,474.5],[34.6126,-12.0512,474.7351],[34.614,-12.0493,474.5]],
[[34.7604,-12.0471,474.5],[34.7604,-12.0485,479.4877],[34.7593,-12.0487,479.4877],[34.7588,-12.0474,474.5],[34.7604,-12.0471,474.5]],
[[34.7337,-12.034,474.5],[34.7329,-12.0368,490.0073],[34.7346,-12.0379,474.5],[34.7354,-12.044,476.0138],[34.7415,-12.0443,474.5],[34.7471,-12.0374,474.5],[34.7496,-12.0451,490.9137],[34.7565,-12.0435,474.5],[34.7588,-12.0507,482.3041],[34.7537,-12.0574,478.1643],[34.7521,-12.0571,474.5],[34.7521,-12.0535,474.5],[34.7454,-12.0562,477.2654],[34.7454,-12.0615,475.362],[34.7424,-12.0649,474.5],[34.7424,-12.0685,474.5],[34.7388,-12.0699,474.5],[34.7382,-12.0718,474.5],[34.7407,-12.0785,479.1924],[34.7432,-12.079,479.1945],[34.7457,-12.0774,474.5],[34.7463,-12.0787,474.5],[34.7429,-12.0846,474.5],[34.7443,-12.0904,474.5],[34.7432,-12.0924,476.9936],[34.7388,-12.0918,477.5025],[34.7315,-12.1001,474.5],[34.719,-12.0929,483.119],[34.7168,-12.0932,474.5],[34.7174,-12.0907,489.1141],[34.7149,-12.0893,474.5],[34.7149,-12.0876,482.644],[34.7085,-12.084,474.5],[34.7104,-12.0813,475.9803],[34.7171,-12.0793,474.5],[34.7174,-12.0707,494.032],[34.7221,-12.0651,482.5661],[34.721,-12.061,474.5],[34.7243,-12.0571,474.5],[34.7224,-12.056,474.5],[34.7232,-12.051,474.5],[34.729,-12.0418,488.6448],[34.7271,-12.0351,474.5],[34.7304,-12.031,474.5],[34.7335,-12.0324,485.3665],[34.7337,-12.034,474.5]],
[[34.6093,-12.0176,480.2369],[34.6068,-12.0162,477.11],[34.6074,-12.0129,474.5],[34.611,-12.0154,479.9689],[34.6093,-12.0176,480.2369]],
[[34.6293,-12.0232,474.5],[34.6246,-12.0274,479.0855],[34.6299,-12.0326,474.5],[34.6274,-12.0321,477.1308],[34.6251,-12.034,476.4342],[34.6237,-12.0379,481.1397],[34.6251,-12.0387,475.5068],[34.624,-12.0413,480.1143],[34.6251,-12.0426,475.2509],[34.6224,-12.0437,474.7931],[34.6207,-12.0429,478.075],[34.6221,-12.0407,477.8414],[34.6204,-12.0376,474.8021],[34.6224,-12.036,476.6152],[34.621,-12.0351,476.6152],[34.6193,-12.0371,474.8021],[34.6179,-12.0351,474.5],[34.6196,-12.0354,476.5338],[34.6188,-12.034,474.5],[34.6207,-12.0335,484.6902],[34.621,-12.0315,485.8366],[34.6193,-12.0304,474.5],[34.6221,-12.0301,479.5127],[34.6237,-12.0262,487.6627],[34.6174,-12.0232,474.5],[34.6171,-12.016,478.9679],[34.6138,-12.0162,478.4351],[34.6101,-12.0138,476.2252],[34.6087,-12.0085,476.113],[34.6135,-12.0079,474.5],[34.6126,-12.0101,477.4805],[34.6182,-12.0138,481.1382],[34.6226,-12.011,474.5],[34.6263,-12.0129,474.5],[34.629,-12.0176,474.5],[34.6293,-12.0232,474.5]]]]}
,"properties": {"GID_1": "MOZ.8_1","GID_0": "MOZ","country": "Mozambique","province": "Nassa","VARNAME_1": "Niassa","NL_NAME_1": "NA","TYPE_1": "Provincia","ENGTYPE_1": "Province","CC_1": "NA","HASC_1": "MZ.NS","ISO_1": "NA","name": "Nassa.province","area_km2": 129731.6,"hist_schema_id": "Elevation0-9000","hist_area_km2": {"125": 5.82,"150": 100.52,"175": 239.67,"200": 520.55,"225": 816.85,"250": 1044.62,"275": 1340.68,"300": 1500.6,"325": 1811.22,"350": 2397.26,"375": 2890.8,"400": 3146.06,"425": 3398.81,"450": 3573.83,"475": 11048.98,"500": 4971.16,"525": 5550.25,"550": 5766.86,"575": 5985.73,"600": 6695.01,"625": 8002.42,"650": 9214.03,"675": 7476.61,"700": 5666.91,"725": 4260.48,"750": 3259.81,"775": 2685.06,"800": 2214.87,"825": 1951.93,"850": 1765.35,"875": 1691.91,"900": 1656.64,"925": 1539.44,"950": 1426.25,"975": 1319.8,"1000": 1250.2,"1025": 1221.1,"1050": 1200.77,"1075": 1120.08,"1100": 1027.29,"1125": 949.15,"1150": 855.18,"1175": 767.29,"1200": 675.08,"1225": 601.1,"1250": 542.42,"1275": 541.08,"1300": 462.16,"1325": 349.46,"1350": 283.05,"1375": 198.31,"1400": 140.66,"1425": 108.56,"1450": 90.79,"1475": 82.32,"1500": 73.72,"1525": 65.37,"1550": 55.92,"1575": 39.35,"1600": 27.62,"1625": 17.86,"1650": 13.6,"1675": 10.86,"1700": 7.99,"1725": 5.0,"1750": 5.0,"1775": 3.18,"1800": 2.17,"1825": 1.01}}}