{"type":"Feature","properties":{"featurecla":"River","scalerank":6,"rivernum":301,"dissolve":"301River","name":"Ruvuma1","name_alt":null,"note":null,"min_zoom":5.0,"strokeweig":0.2,"name_en":"Ruvuma","min_label":6.0},
"geometry":{"type": "LineString","coordinates": [[35.198828125,-10.87883880000588,893.5159],[35.21044921875,-10.88543059688088,890.425],[35.2197265625,-10.900909112505886,958.5297],[35.242578125000023,-10.974151300005886,843.5975],[35.245996093750023,-10.996416925005889,836.8837],[35.23193359375,-11.030791925005886,864.5969],[35.244042968750023,-11.04705169063088,866.2814],[35.294189453125,-11.085967706255886,855.299],[35.299560546875,-11.08831145625588,855.7549],[35.302734375,-11.09246184688088,850.5692],[35.3056640625,-11.10540130000588,830.3028],[35.289941406250023,-11.165557550005886,788.8096],[35.291406250000023,-11.22893645625588,809.0582],[35.2880859375,-11.23503997188088,791.5591],[35.283203125,-11.24138762813088,785.6216],[35.28076171875,-11.24993255000588,767.3223],[35.284570312500023,-11.26311614375588,783.6964],[35.315527343750006,-11.29045989375588,741.7872],[35.363525390625,-11.34319426875588,653.8832],[35.3740234375,-11.358721612505889,637.9064],[35.375585937500006,-11.37517669063088,625.5104],[35.3671875,-11.423858331255886,614.9265],[35.396386718750023,-11.473663018755886,606.3656],[35.397558593750006,-11.482256768755889,602.6648],[35.395605468750006,-11.48748137813088,581.6939],[35.435449218750023,-11.51628997188088,604.3668],[35.4390625,-11.534209893755886,580.8156],[35.433496093750023,-11.552276300005886,582.9766],[35.421142578125,-11.57097747188088,577.2014],[35.4248046875,-11.581866143755889,573.3323],[35.431396484375,-11.58831145625588,599.2959],[35.440820312500023,-11.59124114375588,592.1882],[35.465234375000023,-11.59246184688088,597.6433],[35.469628906250023,-11.592120050005889,599.8185],[35.483007812500006,-11.586748956255889,617.1793],[35.483300781250023,-11.58587005000588,623.0631],[35.48974609375,-11.584014581255886,599.5867],[35.493554687500023,-11.58171965938088,597.6752],[35.498242187500011,-11.58220794063088,586.1198],[35.507080078125,-11.588897393755886,591.4562],[35.512451171875,-11.596514581255889,591.5139],[35.515039062500023,-11.603350518755889,596.1099],[35.519628906250006,-11.608916925005886,615.7532],[35.531005859375,-11.61248137813088,606.5214],[35.532324218750006,-11.59539153438088,600.3585],[35.543212890625,-11.59465911250588,609.7695],[35.559326171875,-11.600909112505889,612.072],[35.57568359375,-11.605010675005886,600.2568],[35.59921875,-11.592120050005889,602.0984],[35.600341796875,-11.59221770625588,594.1537],[35.654394531250006,-11.578155206255886,576.4814],[35.664306640625,-11.571807550005886,578.1024],[35.67138671875,-11.551299737505886,571.9347],[35.6796875,-11.537432550005889,563.7095],[35.69091796875,-11.52410247188088,562.2116],[35.703027343750023,-11.51628997188088,558.6685],[35.695214843750023,-11.494463800005889,566.0533],[35.713476562500006,-11.483721612505889,556.4131],[35.763671875,-11.47478606563088,556.6875],[35.781347656250006,-11.46111419063088,549.3971],[35.812597656250006,-11.422198175005889,553.1887],[35.82578125,-11.41326262813088,546.3394],[35.866796875,-11.420733331255889,552.7483],[35.895117187500006,-11.432647393755886,552.1742],[35.901562500000011,-11.434405206255889,547.6239],[35.939160156250011,-11.433916925005889,543.1266],[35.95263671875,-11.440459893755886,540.9236],[35.969824218750006,-11.46111419063088,544.2393],[35.96044921875,-11.48333098750588,546.612],[35.969335937500006,-11.502276300005889,555.8199],[35.988037109375,-11.512041925005889,562.274],[36.007421875,-11.506377862505886,553.8024],[36.021679687500011,-11.50554778438088,559.9858],[36.042578125,-11.514678643755886,539.6486],[36.0791015625,-11.53679778438088,516.4023],[36.0888671875,-11.540850518755889,513.905],[36.1109375,-11.546416925005886,529.6601],[36.120703125,-11.55046965938088,531.4802],[36.129003906250006,-11.556963800005889,516.7094],[36.135644531250023,-11.56365325313088,526.1798],[36.142333984375,-11.568877862505886,524.0367],[36.1513671875,-11.57097747188088,510.4836],[36.167578125,-11.578643487505886,519.6054],[36.173095703125,-11.597198175005886,527.2869],[36.175537109375,-11.619952081255889,505.8241],[36.18212890625,-11.63982512813088,494.8966],[36.17578125,-11.654815362505886,499.9046],[36.178808593750006,-11.67546965938088,534.0522],[36.187744140625,-11.69353606563088,501.6077],[36.19921875,-11.70134856563088,488.0601],[36.240478515625,-11.69451262813088,485.7716],[36.252343750000023,-11.69646575313088,481.1666],[36.267968750000023,-11.705889581255889,495.8383],[36.2783203125,-11.708819268755889,474.8722],[36.292871093750023,-11.70720794063088,490.9147],[36.329345703125,-11.69695403438088,543.3755],[36.360742187500023,-11.69231536250588,475.5414],[36.36767578125,-11.68767669063088,475.2267],[36.372802734375,-11.68303801875588,472.2927],[36.377685546875,-11.68084075313088,474.0689],[36.494384765625,-11.68084075313088,461.9543],[36.502197265625,-11.68621184688088,462.0164],[36.508203125000023,-11.70964934688088,467.0906],[36.514550781250023,-11.714873956255886,475.5527],[36.52001953125,-11.71697356563088,477.7766],[36.545166015625,-11.72918059688088,501.8933],[36.5625,-11.73113372188088,464.3516],[36.625097656250006,-11.721221612505886,443.3124],[36.640039062500023,-11.716143487505889,458.6006],[36.666796875000017,-11.713213800005889,428.3873],[36.673925781250006,-11.708819268755889,426.954],[36.679589843750023,-11.702178643755886,424.5723],[36.689160156250011,-11.69451262813088,425.404],[36.725976562500023,-11.68059661250588,426.1987],[36.737695312500023,-11.674639581255889,439.8521],[36.746484375000023,-11.666338800005889,434.1371],[36.774316406250023,-11.62615325313088,423.3885],[36.819726562500023,-11.57341887813088,417.593],[36.836669921875,-11.567901300005886,412.2949],[36.84619140625,-11.57268645625588,417.7],[36.86572265625,-11.574053643755889,411.7099],[36.890625,-11.58977630000588,381.42],[36.905371093750006,-11.592608331255889,380.0385],[36.997949218750023,-11.58440520625588,369.501],[37.00732421875,-11.580401300005889,375.206],[37.01611328125,-11.573760675005886,391.4891],[37.031835937500006,-11.564776300005889,434.0644],[37.043847656250023,-11.595538018755889,376.2782],[37.071191406250023,-11.62908294063088,382.579],[37.10595703125,-11.65789153438088,394.4777],[37.14111328125,-11.674639581255889,409.6389],[37.22607421875,-11.693682550005889,377.2169],[37.269628906250006,-11.698272393755886,381.0745],[37.305566406250023,-11.69451262813088,367.3922],[37.3154296875,-11.69011809688088,370.2014],[37.3232421875,-11.68523528438088,358.4431],[37.330957031250023,-11.681475518755889,354.2375],[37.34033203125,-11.68084075313088,352.5606],[37.351806640625,-11.68621184688088,352.9158],[37.36962890625,-11.70476653438088,359.3024],[37.3779296875,-11.708819268755889,350.4509],[37.42734375,-11.72234465938088,376.5101],[37.4501953125,-11.72234465938088,381.3499],[37.469140625000023,-11.719268487505886,384.2498],[37.475976562500023,-11.715850518755886,376.7857],[37.484375,-11.708819268755889,384.0149],[37.489990234375,-11.698760675005886,385.4553],[37.495507812500023,-11.684893487505889,381.1755],[37.503320312500023,-11.67253997188088,368.7051],[37.515380859375,-11.66716887813088,360.7076],[37.536230468750006,-11.66277434688088,368.8062],[37.572509765625,-11.64397551875588,341.6567],[37.59423828125,-11.63982512813088,328.83],[37.6259765625,-11.63958098750588,349.7927],[37.647216796875,-11.635772393755886,356.5073],[37.665722656250011,-11.62542083125588,346.7453],[37.710351562500023,-11.59026458125588,335.177],[37.783203125,-11.558623956255886,337.6241],[37.803955078125,-11.54436614375588,324.1665],[37.81640625,-11.53337981563088,338.5591],[37.824609375000023,-11.520049737505886,347.925],[37.82275390625,-11.507842706255886,356.7924],[37.816796875000023,-11.49553801875588,325.248],[37.812744140625,-11.482256768755889,323.8094],[37.81796875,-11.45964934688088,327.0892],[37.841894531250006,-11.41765715938088,320.8982],[37.840576171875,-11.399737237505889,343.6451],[37.85,-11.387530206255889,324.0378],[37.865332031250006,-11.34246184688088,336.9628],[37.867919921875,-11.32756926875588,331.1145],[37.874609375,-11.318877862505886,342.43],[37.937597656250006,-11.28386809688088,301.2075],[37.954199218750006,-11.279815362505886,249.6906],[37.994873046875,-11.277373956255886,252.3774],[38.003808593750023,-11.27507903438088,240.0412],[38.013085937500023,-11.26531340938088,227.2641],[38.0703125,-11.255694268755889,249.5049],[38.1005859375,-11.25628020625588,219.9431],[38.1005859375,-11.25481536250588,221.9227],[38.103759765625,-11.25188567500588,224.5764],[38.10888671875,-11.24944426875588,228.1049],[38.11484375,-11.24944426875588,228.4465],[38.11669921875,-11.251788018755889,228.9661],[38.121972656250023,-11.261065362505889,218.2081],[38.125097656250006,-11.26311614375588,214.0],[38.134863281250006,-11.26628997188088,213.0247],[38.154541015625,-11.28045012813088,199.7475],[38.16650390625,-11.28362395625588,210.9827],[38.177832031250006,-11.28167083125588,197.0039],[38.200097656250023,-11.272491143755886,189.9925],[38.209863281250023,-11.26995208125588,191.3865],[38.25625,-11.27703215938088,198.1669],[38.2919921875,-11.30144622188088,198.3629],[38.347070312500023,-11.358721612505889,165.3551],[38.382519531250011,-11.376495050005886,157.2175],[38.4619140625,-11.39617278438088,163.8713],[38.49169921875,-11.41326262813088,132.0385]]}}