{"type":"Feature","properties":{"featurecla":"River","scalerank":7,"rivernum":474,"dissolve":"474River","name":"Lúrio","name_alt":null,"note":null,"min_zoom":6.0,"strokeweig":0.2,"name_en":"Lúrio","min_label":7.0},
"geometry":{"type": "LineString","coordinates": [[36.01708984375,-14.991045831255889,651.0239],[36.032128906250023,-14.98015715938088,648.6472],[36.048730468750023,-14.973955987505889,644.9938],[36.067480468750006,-14.97112395625588,645.2153],[36.089599609375,-14.97039153438088,647.9824],[36.104394531250023,-14.966143487505889,632.9709],[36.174072265625,-14.93132903438088,621.2233],[36.181396484375,-14.929522393755889,623.3463],[36.1923828125,-14.92888762813088,622.8596],[36.203515625000023,-14.93108489375588,608.7767],[36.220800781250006,-14.94036223750588,616.7867],[36.226806640625,-14.94255950313088,618.5938],[36.23681640625,-14.93547942500588,608.9117],[36.245507812500023,-14.918291925005889,607.1208],[36.249121093750006,-14.897979425005886,608.5642],[36.244238281250006,-14.881182550005889,605.0221],[36.25146484375,-14.877276300005889,597.0217],[36.2685546875,-14.86516692500588,594.73],[36.2783203125,-14.86052825313088,598.819],[36.292871093750023,-14.858233331255889,604.5646],[36.302148437500023,-14.86101653438088,613.7883],[36.310449218750023,-14.865264581255886,605.647],[36.322656250000023,-14.86736419063088,589.4402],[36.34033203125,-14.85955169063088,586.149],[36.38818359375,-14.81218840938088,575.6581],[36.398681640625,-14.80608489375588,574.8442],[36.409277343750006,-14.80169036250588,576.6328],[36.43125,-14.796709893755889,577.5052]]}}