{"type":"Feature","properties":{"GID_3":"MOZ.1.2.3_1","GID_0":"MOZ","country":"Mozambique","GID_1":"MOZ.1_1","province":"CaboDelgado","NL_NAME_1":"NA","GID_2":"MOZ.1.2_1","county":"Balama","NL_NAME_2":"NA","city":"Kwekwe","VARNAME_3":"NA","NL_NAME_3":"NA","TYPE_3":"Localidad","ENGTYPE_3":"Locality","CC_3":"NA","HASC_3":"NA","name":"Kwekwe.city"},
"geometry":{"type": "MultiPolygon","coordinates": [[[[38.4216,-13.4269,556.6699],[38.3401,-13.4247,550.5405],[38.2928,-13.4375,586.2327],[38.2596,-13.4357,579.259],[38.2166,-13.4427,594.1033],[38.2079,-13.4456,599.8542],[38.2011,-13.4431,611.9296],[38.1847,-13.4597,595.825],[38.1144,-13.5123,522.2415],[38.1333,-13.5257,512.3842],[38.1454,-13.552,505.6037],[38.1449,-13.5762,496.6505],[38.1506,-13.5982,490.9099],[38.1489,-13.6232,485.7274],[38.146,-13.6406,484.3575],[38.1572,-13.6609,468.9462],[38.1588,-13.6668,470.2161],[38.1726,-13.6716,463.8282],[38.1736,-13.6802,461.7587],[38.1682,-13.6914,455.7322],[38.1663,-13.7204,449.8878],[38.1639,-13.7247,444.5901],[38.1626,-13.7459,444.2076],[38.1642,-13.75,439.2183],[38.1704,-13.7543,440.4413],[38.169,-13.7594,433.5435],[38.1709,-13.7701,433.5186],[38.1836,-13.7742,434.3757],[38.1831,-13.7862,434.6776],[38.201,-13.8022,435.5155],[38.2027,-13.8063,425.8947],[38.2012,-13.8139,437.171],[38.2018,-13.8245,463.3141],[38.2032,-13.8269,419.0337],[38.2065,-13.8279,419.6202],[38.2082,-13.8312,424.4647],[38.2134,-13.8334,418.8152],[38.2117,-13.839,419.245],[38.2141,-13.8465,414.5896],[38.2217,-13.8567,409.377],[38.2274,-13.8592,410.5375],[38.2323,-13.8681,411.9148],[38.2397,-13.8734,406.9246],[38.242,-13.8811,405.795],[38.2509,-13.8885,403.4524],[38.2523,-13.8979,402.0115],[38.2589,-13.911,401.3327],[38.2597,-13.9236,395.643],[38.2578,-13.9311,394.1434],[38.2615,-13.9363,392.6218],[38.2687,-13.9377,388.6566],[38.273,-13.9406,389.8742],[38.2777,-13.9475,387.2574],[38.2756,-13.9529,390.3062],[38.281,-13.9619,382.1355],[38.2875,-13.9659,390.6039],[38.2878,-13.9766,378.9167],[38.2798,-13.9927,377.6985],[38.2817,-13.9989,377.8975],[38.3044,-14.0204,369.7658],[38.3107,-14.0319,367.0954],[38.3201,-14.0378,368.2235],[38.3256,-14.0464,363.373],[38.337,-14.0591,362.9688],[38.3394,-14.0611,358.458],[38.3484,-14.0563,360.399],[38.3467,-14.0673,354.5167],[38.3603,-14.0868,353.2216],[38.3633,-14.1048,349.9477],[38.3769,-14.1082,348.9703],[38.3867,-14.1084,348.8153],[38.3984,-14.1271,346.4903],[38.4299,-14.1145,345.4547],[38.4406,-14.1139,341.2453],[38.4697,-14.1216,338.9105],[38.4815,-14.1269,338.0344],[38.5103,-14.1516,328.8763],[38.5224,-14.1555,333.4475],[38.5334,-14.1515,333.1233],[38.5437,-14.1451,332.7483],[38.556,-14.1441,330.2352],[38.5475,-14.1407,330.9344],[38.543,-14.136,340.9456],[38.5362,-14.1321,333.273],[38.5291,-14.1214,340.0975],[38.5158,-14.111,338.7301],[38.5151,-14.1015,343.1957],[38.5225,-14.0956,345.4319],[38.5275,-14.0885,343.0367],[38.5272,-14.0821,346.9882],[38.508,-14.058,349.0676],[38.5021,-14.0569,353.5204],[38.4954,-14.0531,348.4279],[38.4827,-14.0516,353.232],[38.4723,-14.0212,355.6972],[38.459,-13.9984,362.4657],[38.4516,-13.9976,364.1333],[38.4474,-13.9891,364.7525],[38.4434,-13.9851,365.4398],[38.4456,-13.9825,366.2273],[38.4444,-13.9804,364.5497],[38.4328,-13.9718,369.0188],[38.4326,-13.9663,371.8515],[38.4344,-13.9585,371.7506],[38.4401,-13.9479,375.7867],[38.4411,-13.9299,382.2475],[38.4462,-13.9235,382.4562],[38.447,-13.9142,384.679],[38.4614,-13.8893,393.3492],[38.4694,-13.8807,391.913],[38.47,-13.8748,394.7563],[38.4756,-13.8675,397.0701],[38.4742,-13.8644,394.7628],[38.4877,-13.8398,404.8344],[38.4877,-13.8361,410.0615],[38.4977,-13.8095,421.9922],[38.4977,-13.7887,429.9852],[38.5235,-13.7449,453.7549],[38.5177,-13.6968,489.2757],[38.5232,-13.6852,500.2738],[38.5477,-13.6499,541.0306],[38.5735,-13.6365,496.4817],[38.5902,-13.57,744.9314],[38.5965,-13.5103,1127.1584],[38.54,-13.4664,578.5518],[38.4754,-13.4611,653.3253],[38.4627,-13.4495,604.9835],[38.4342,-13.4311,566.2021],[38.4216,-13.4269,556.6699]]]]}}