{"type":"Feature","properties":{"GID_3":"MOZ.1.9.1_1","GID_0":"MOZ","country":"Mozambique","GID_1":"MOZ.1_1","province":"CaboDelgado","NL_NAME_1":"NA","GID_2":"MOZ.1.9_1","county":"Mueda","NL_NAME_2":"NA","city":"Chapa","VARNAME_3":"NA","NL_NAME_3":"NA","TYPE_3":"Localidad","ENGTYPE_3":"Locality","CC_3":"NA","HASC_3":"NA","name":"Chapa.city"},
"geometry":{"type": "MultiPolygon","coordinates": [[[[39.6756,-12.0785,112.7827],[39.6748,-12.0703,127.012],[39.6679,-12.0603,133.713],[39.6664,-12.0496,121.5614],[39.6689,-12.0402,221.3683],[39.6616,-12.0344,129.637],[39.6554,-12.0323,142.495],[39.6236,-12.0059,160.6675],[39.6037,-11.9924,160.0237],[39.5923,-11.9769,179.2039],[39.5897,-11.97,165.3058],[39.5889,-11.9609,180.3456],[39.5718,-11.9256,216.4585],[39.5672,-11.9121,206.4301],[39.5465,-11.9096,219.8404],[39.5424,-11.9039,227.7202],[39.5112,-11.9048,231.8082],[39.5071,-11.9012,234.668],[39.5069,-11.8936,227.4162],[39.5016,-11.885,245.4365],[39.5054,-11.8749,248.6236],[39.4987,-11.8793,245.0547],[39.4912,-11.8806,259.6791],[39.4906,-11.8736,265.1308],[39.4974,-11.858,281.8892],[39.4946,-11.8532,277.0683],[39.4979,-11.85,272.6994],[39.4954,-11.8345,285.2656],[39.4969,-11.8261,292.0084],[39.4912,-11.8006,316.2082],[39.4837,-11.7896,323.5298],[39.4845,-11.7804,329.3948],[39.4881,-11.7759,325.8911],[39.4897,-11.769,333.8971],[39.4897,-11.7532,345.5898],[39.4866,-11.7468,363.6415],[39.4503,-11.7373,426.8488],[39.4324,-11.7243,399.9322],[39.4132,-11.7182,424.719],[39.3676,-11.6932,399.7927],[39.3559,-11.7118,392.5285],[39.3442,-11.7251,376.458],[39.343,-11.7398,363.1028],[39.3463,-11.7492,357.3361],[39.3466,-11.7575,358.1987],[39.342,-11.7767,337.1788],[39.3449,-11.7841,338.1802],[39.3494,-11.7904,325.3938],[39.3407,-11.7902,333.4765],[39.3311,-11.7921,349.9453],[39.3257,-11.7965,361.0081],[39.2775,-11.7958,406.8658],[39.1922,-11.7779,392.1978],[39.1461,-11.7717,416.5483],[39.0181,-11.8598,440.5159],[38.9175,-11.8181,453.0592],[39.0028,-11.9343,394.7675],[39.0154,-11.9617,377.5776],[39.0259,-11.9986,339.871],[39.0349,-12.0214,331.3063],[39.0429,-12.0322,309.8477],[39.0543,-12.0369,303.3725],[39.0738,-12.0387,299.2072],[39.0907,-12.0431,287.3269],[39.0976,-12.0537,291.4293],[39.1267,-12.0714,278.8568],[39.1396,-12.0824,261.8968],[39.1649,-12.0904,241.2704],[39.1845,-12.0935,233.637],[39.1922,-12.0974,239.571],[39.2002,-12.0977,231.7967],[39.2109,-12.0948,230.2483],[39.2162,-12.0906,228.3273],[39.2461,-12.1021,224.9634],[39.2586,-12.0968,225.8875],[39.2691,-12.096,219.3856],[39.2702,-12.0813,216.8787],[39.2808,-12.0724,213.4472],[39.3008,-12.0666,207.2059],[39.3096,-12.0709,209.3203],[39.315,-12.0768,207.0686],[39.324,-12.0735,198.7212],[39.3425,-12.0757,199.9753],[39.3535,-12.0793,200.5721],[39.3594,-12.0859,186.6836],[39.3647,-12.0964,196.277],[39.3675,-12.1099,187.3746],[39.3755,-12.115,180.7338],[39.3975,-12.1003,158.9732],[39.4111,-12.1051,140.6439],[39.4131,-12.1008,164.101],[39.4213,-12.0952,185.8472],[39.434,-12.0947,136.1956],[39.4528,-12.0883,129.8643],[39.465,-12.0901,147.0862],[39.4796,-12.0845,130.6259],[39.4892,-12.0759,134.5793],[39.5128,-12.0717,125.168],[39.5236,-12.0642,138.3435],[39.5876,-12.0707,135.0957],[39.6231,-12.0698,134.6152],[39.6402,-12.0775,117.3822],[39.6756,-12.0785,112.7827]]]]}}