{"type":"Feature","properties":{"GID_3":"MOZ.8.4.1_1","GID_0":"MOZ","country":"Mozambique","GID_1":"MOZ.8_1","province":"Nassa","NL_NAME_1":"NA","GID_2":"MOZ.8.4_1","county":"Majune","NL_NAME_2":"NA","city":"Majune(MalangaSede)","VARNAME_3":"NA","NL_NAME_3":"NA","TYPE_3":"Localidad","ENGTYPE_3":"Locality","CC_3":"NA","HASC_3":"NA","name":"Majune(Malanga_Sede).city"},
"geometry":{"type": "MultiPolygon","coordinates": [[[[35.8643,-13.398,695.7876],[35.8626,-13.4018,714.8907],[35.9025,-13.4047,708.9066],[35.9332,-13.4137,683.3737],[35.9455,-13.4137,685.4696],[35.9917,-13.3884,669.299],[36.0192,-13.4018,659.1934],[36.0591,-13.4286,697.1104],[36.0197,-13.4551,686.1639],[36.0223,-13.4674,694.2468],[36.0131,-13.4823,691.9246],[36.017,-13.499,701.7048],[36.0376,-13.5479,675.5721],[36.1021,-13.5539,623.1573],[36.1486,-13.5877,630.7349],[36.1613,-13.5891,612.9667],[36.2535,-13.5838,598.6566],[36.259,-13.5792,602.2493],[36.3325,-13.4823,613.9594],[36.3299,-13.4556,595.4282],[36.3447,-13.4197,626.201],[36.3509,-13.3898,605.6143],[36.3969,-13.4018,610.0121],[36.4369,-13.369,594.9921],[36.4415,-13.369,571.6165],[36.4415,-13.3605,571.9236],[36.4482,-13.3306,556.8173],[36.4562,-13.3198,555.4037],[36.4565,-13.3119,544.3149],[36.4485,-13.3055,541.7256],[36.4987,-13.2582,546.0573],[36.51,-13.2432,541.1373],[36.5199,-13.2179,542.222],[36.5298,-13.2035,541.1835],[36.5405,-13.1923,536.4802],[36.5478,-13.1788,531.9626],[36.5569,-13.1487,520.1859],[36.5802,-13.1304,525.2084],[36.5909,-13.1182,534.1761],[36.6094,-13.087,522.6914],[36.6338,-13.0547,507.9045],[36.658,-13.0467,505.372],[36.6626,-13.0389,510.8541],[36.6636,-13.0289,499.9327],[36.6682,-13.0212,504.6338],[36.6791,-13.0185,505.407],[36.6892,-13.0101,507.1328],[36.7002,-12.9978,497.3228],[36.7068,-12.9997,501.927],[36.7057,-12.9948,501.3385],[36.7172,-12.974,501.0825],[36.7371,-12.9618,483.1598],[36.7427,-12.9558,473.6784],[36.7482,-12.931,478.3806],[36.7418,-12.9136,468.318],[36.7496,-12.9007,466.0598],[36.751,-12.8878,466.5465],[36.7463,-12.8691,458.0094],[36.7464,-12.8575,448.3101],[36.7478,-12.8445,454.8597],[36.7523,-12.8339,451.0623],[36.7597,-12.8288,462.3023],[36.77,-12.8247,472.1291],[36.7884,-12.8212,452.0771],[36.8081,-12.8004,445.0147],[36.8177,-12.7967,438.5832],[36.838,-12.794,440.1389],[36.8467,-12.7721,443.0838],[36.8648,-12.7633,442.2133],[36.8822,-12.7381,425.1261],[36.9147,-12.7135,425.2086],[36.9102,-12.7022,443.1024],[36.9025,-12.7001,428.7402],[36.8912,-12.708,429.3291],[36.8746,-12.7093,438.8465],[36.8624,-12.7061,448.9812],[36.8543,-12.6974,451.815],[36.8452,-12.6926,471.8335],[36.8397,-12.7069,439.6294],[36.8227,-12.7014,448.9027],[36.8134,-12.7113,443.5505],[36.8082,-12.701,441.7755],[36.7976,-12.6874,457.6682],[36.7924,-12.6975,449.5015],[36.7791,-12.71,457.2672],[36.7655,-12.7099,440.3153],[36.7574,-12.6976,457.4852],[36.7427,-12.6874,468.1908],[36.7144,-12.6839,478.3654],[36.7026,-12.688,484.9192],[36.6899,-12.6821,469.7179],[36.6851,-12.6759,473.0617],[36.6726,-12.6753,476.7992],[36.6598,-12.672,472.5223],[36.6575,-12.6642,483.4875],[36.6283,-12.682,503.7159],[36.6219,-12.689,509.2756],[36.6044,-12.6916,508.7302],[36.5847,-12.6906,511.8495],[36.576,-12.6927,514.6797],[36.5683,-12.6971,520.9163],[36.5602,-12.7046,518.7927],[36.5443,-12.7284,506.1597],[36.5367,-12.733,539.4927],[36.5373,-12.7393,517.4365],[36.5162,-12.7449,525.2673],[36.4995,-12.7433,532.5126],[36.4923,-12.7472,534.8484],[36.4847,-12.7431,539.8281],[36.4757,-12.7421,540.7334],[36.4475,-12.7532,536.6828],[36.445,-12.7431,546.4597],[36.4205,-12.7288,558.12],[36.4128,-12.7395,542.6438],[36.4096,-12.7467,569.6077],[36.3969,-12.7485,592.0447],[36.3573,-12.7818,649.7836],[36.353,-12.7924,679.8008],[36.3422,-12.7896,697.2225],[36.3256,-12.7898,688.0743],[36.3081,-12.7921,704.7653],[36.2779,-12.7896,690.2019],[36.236,-12.8072,738.5193],[36.2138,-12.7967,744.3964],[36.2112,-12.8085,743.9208],[36.2124,-12.8147,743.4045],[36.1882,-12.8026,747.4666],[36.1752,-12.8078,755.2703],[36.1545,-12.8195,763.4302],[36.1246,-12.8242,779.7083],[36.1005,-12.8173,794.2059],[36.0773,-12.8325,811.418],[36.0434,-12.8459,991.8868],[36.0227,-12.8396,837.008],[36.0179,-12.8413,838.3441],[36.0255,-12.8514,819.6164],[36.0282,-12.877,790.5714],[36.0224,-12.9027,788.4124],[36.0372,-12.9347,751.2161],[36.0365,-12.9543,746.4243],[36.0416,-12.9846,741.0245],[36.0417,-12.9918,744.4807],[36.0352,-13.0115,730.3323],[36.0202,-13.0293,728.9749],[36.0225,-13.0525,718.432],[36.0384,-13.0802,698.8671],[36.0319,-13.0929,708.3082],[36.0315,-13.1007,699.1116],[36.0273,-13.1114,685.452],[36.0286,-13.1465,672.2538],[36.0318,-13.1712,666.5077],[36.045,-13.2146,644.8761],[36.0559,-13.2257,650.0059],[36.0608,-13.2348,633.5797],[36.068,-13.2603,628.4647],[36.0766,-13.2753,629.3128],[36.0848,-13.278,626.6816],[36.103,-13.2708,618.9288],[36.1081,-13.2716,621.7937],[36.1152,-13.2762,623.6674],[36.11,-13.2834,616.8419],[36.0918,-13.291,605.8406],[36.0659,-13.297,622.7616],[36.0427,-13.315,636.2977],[36.0269,-13.312,630.6702],[36.0002,-13.3337,653.4083],[35.9988,-13.3288,663.0566],[35.9965,-13.3272,665.5168],[35.9914,-13.3295,648.8038],[35.9873,-13.3294,661.4672],[35.9856,-13.3255,659.1378],[35.9859,-13.3174,646.8357],[35.9746,-13.3101,677.5247],[35.9759,-13.3027,659.4746],[35.975,-13.2986,663.8762],[35.966,-13.2972,682.8329],[35.9625,-13.2928,676.313],[35.9657,-13.2815,688.2953],[35.9649,-13.2696,690.1259],[35.9567,-13.2583,701.176],[35.9436,-13.2563,724.4217],[35.9272,-13.2466,773.0984],[35.9197,-13.257,791.5757],[35.8975,-13.2648,784.3934],[35.8817,-13.2746,809.5822],[35.8668,-13.2808,812.0266],[35.8553,-13.2838,831.2479],[35.8398,-13.2812,867.6808],[35.8364,-13.3508,757.617],[35.8411,-13.362,739.8402],[35.8462,-13.3663,733.3726],[35.8542,-13.3699,742.7784],[35.8705,-13.3843,713.1155],[35.8643,-13.398,695.7876]]]]}}