{"type": "Feature","bbox": [39.8293,-12.6445,40.2375,-12.2525],"geometry": {"type": "MultiPolygon","coordinates": [[[[40.1311,-12.5761,66.5657],[40.132,-12.5629,64.5239],[40.1371,-12.5547,64.2256],[40.1415,-12.5507,61.4366],[40.1582,-12.5496,61.1558],[40.1782,-12.5447,55.6064],[40.211,-12.5496,53.7463],[40.2248,-12.5483,54.6984],[40.2371,-12.5389,45.1526],[40.2375,-12.5331,43.4857],[40.2348,-12.5297,50.7734],[40.2231,-12.5232,49.017],[40.2132,-12.5222,44.973],[40.196,-12.5172,50.2094],[40.1692,-12.4908,67.5412],[40.1573,-12.49,71.2598],[40.1451,-12.4842,83.9569],[40.1849,-12.4567,85.4971],[40.1822,-12.4425,107.0824],[40.197,-12.3914,145.0175],[40.1948,-12.3853,150.2769],[40.173,-12.3662,221.4432],[40.1266,-12.3672,383.4727],[40.0738,-12.2854,318.1526],[40.0005,-12.2525,371.8873],[39.9852,-12.2614,350.8198],[39.9397,-12.3057,225.8354],[39.9407,-12.3067,226.1138],[39.9231,-12.3285,226.2505],[39.8687,-12.3688,229.3638],[39.8687,-12.3897,193.0612],[39.8994,-12.4225,241.9361],[39.8871,-12.4404,263.8873],[39.8595,-12.4642,266.2208],[39.8411,-12.4732,278.303],[39.8595,-12.5,258.6016],[39.8648,-12.5275,250.7858],[39.8584,-12.5317,262.0379],[39.8681,-12.5443,244.6129],[39.8293,-12.5422,253.2692],[39.8433,-12.5622,215.6028],[39.867,-12.578,197.1595],[39.8692,-12.5917,173.2408],[39.8676,-12.6163,156.0245],[39.8776,-12.6233,163.4632],[39.8961,-12.6424,148.3633],[39.9132,-12.6445,156.7584],[39.9555,-12.6372,124.2582],[39.9892,-12.6393,112.9412],[39.9952,-12.6384,103.1994],[40.0149,-12.6437,98.1984],[40.0233,-12.6424,96.3391],[40.032,-12.6351,89.214],[40.0497,-12.6293,87.0723],[40.0577,-12.6217,86.1361],[40.0661,-12.6095,83.447],[40.0832,-12.5984,76.1079],[40.1161,-12.5904,69.5843],[40.1311,-12.5761,66.5657]]]]}
,"properties": {"GID_3": "MOZ.1.6.2_1","GID_0": "MOZ","country": "Mozambique","GID_1": "MOZ.1_1","province": "CaboDelgado","NL_NAME_1": "NA","GID_2": "MOZ.1.6_1","county": "Meluco","NL_NAME_2": "NA","city": "Muaguide","VARNAME_3": "NA","NL_NAME_3": "NA","TYPE_3": "Localidad","ENGTYPE_3": "Locality","CC_3": "NA","HASC_3": "NA","name": "Muaguide.city","area_km2": 1158.5269,"hist_schema_id": "Elevation0-9000","hist_area_km2": {"50": 28.9552,"75": 71.0137,"100": 97.9255,"125": 118.4442,"150": 144.9672,"175": 159.8577,"200": 177.5703,"225": 158.2172,"250": 100.9594,"275": 54.8152,"300": 17.7729,"325": 11.0001,"350": 5.6762,"375": 2.755,"400": 2.0301,"425": 1.678,"450": 1.3258,"475": 1.1394,"500": 0.7872,"525": 0.4558,"550": 0.2279,"575": 0.2279,"600": 0.145,"625": 0.2279,"650": 0.3522}}}