{"type": "Feature","bbox": [30.3634,-15.7252,31.6268,-15.2521],"geometry": {"type": "MultiPolygon","coordinates": [[[[31.233,-15.7151,321.0],[31.2735,-15.7002,321.0],[31.296,-15.6898,321.0],[31.3313,-15.6653,321.0],[31.3633,-15.6535,321.0],[31.384,-15.6502,321.0],[31.4287,-15.6572,321.0],[31.4817,-15.6585,321.0],[31.5043,-15.6558,321.0],[31.5293,-15.6555,321.0],[31.5542,-15.6587,321.0],[31.5837,-15.6681,321.0],[31.6072,-15.6792,321.0],[31.6025,-15.6679,321.0],[31.6112,-15.6522,321.0],[31.6234,-15.6394,321.0],[31.6268,-15.6277,321.0],[31.6143,-15.5966,351.3372],[31.6064,-15.5717,378.8618],[31.6044,-15.5607,372.5446],[31.598,-15.5473,380.1749],[31.5945,-15.5322,394.5773],[31.5886,-15.5181,403.7247],[31.5735,-15.5028,470.1356],[31.556,-15.508,491.4719],[31.5505,-15.5037,507.2632],[31.5378,-15.4877,517.0032],[31.5142,-15.4416,672.3864],[31.5065,-15.4303,565.5178],[31.492,-15.4208,569.239],[31.4701,-15.3985,591.4577],[31.4481,-15.3563,708.9521],[31.4361,-15.363,640.8689],[31.4323,-15.3596,646.2617],[31.4247,-15.3436,655.5822],[31.418,-15.3369,668.0206],[31.4112,-15.3352,673.0732],[31.39,-15.3351,693.4832],[31.378,-15.3221,706.9808],[31.3584,-15.3232,712.5072],[31.33,-15.3223,765.1104],[31.3244,-15.3256,755.0059],[31.309,-15.3213,784.1965],[31.2807,-15.3169,811.4382],[31.2585,-15.3017,1003.059],[31.1864,-15.3043,781.3622],[31.1751,-15.3075,770.824],[31.1504,-15.3205,741.5687],[31.1464,-15.328,734.9766],[31.1435,-15.3293,735.0616],[31.14,-15.3262,743.7676],[31.1387,-15.3216,740.9352],[31.0532,-15.2521,900.3741],[30.9997,-15.2521,756.2024],[30.9824,-15.2691,712.7558],[30.9588,-15.2777,701.847],[30.9564,-15.2807,693.3492],[30.943,-15.2864,669.2803],[30.9344,-15.2887,662.5983],[30.916,-15.3006,633.6261],[30.9056,-15.3112,634.6813],[30.8983,-15.3149,617.3024],[30.8977,-15.3173,628.3604],[30.9,-15.3229,615.8256],[30.8939,-15.3308,607.1056],[30.8903,-15.3435,585.5098],[30.8805,-15.3497,579.7642],[30.8693,-15.3671,568.6432],[30.8642,-15.3583,600.3639],[30.8552,-15.3326,635.5883],[30.8361,-15.2967,708.405],[30.8172,-15.2661,770.8876],[30.6528,-15.262,1395.3879],[30.5465,-15.3163,559.1473],[30.5318,-15.3205,538.8001],[30.5269,-15.3249,532.9659],[30.5219,-15.3377,508.7761],[30.5122,-15.3541,482.1801],[30.5059,-15.3601,450.3887],[30.4959,-15.3596,460.5417],[30.481,-15.3684,434.838],[30.4755,-15.3904,410.3839],[30.4734,-15.4143,404.4675],[30.4684,-15.415,412.2901],[30.4519,-15.3941,465.2207],[30.3845,-15.393,335.5],[30.3857,-15.3813,336.0],[30.3796,-15.3667,341.2617],[30.3757,-15.3426,344.7823],[30.3712,-15.3335,345.2523],[30.3671,-15.3304,344.5887],[30.3699,-15.334,345.2523],[30.376,-15.3522,344.1705],[30.3826,-15.383,336.0],[30.3828,-15.4024,337.1166],[30.38,-15.4276,338.5575],[30.3815,-15.4394,332.5],[30.389,-15.4553,331.5],[30.394,-15.473,343.4482],[30.3937,-15.4811,341.3991],[30.3645,-15.5382,349.1653],[30.3634,-15.5437,328.1789],[30.3706,-15.558,326.5],[30.3825,-15.5668,331.971],[30.3943,-15.5804,326.4975],[30.4115,-15.6107,332.2294],[30.4193,-15.6186,322.5],[30.4283,-15.6187,329.4147],[30.4673,-15.6321,321.5],[30.5892,-15.6378,325.0764],[30.6094,-15.6341,321.0],[30.6357,-15.6234,321.0],[30.6717,-15.6171,321.0],[30.6991,-15.6146,321.0],[30.7556,-15.6295,321.0],[30.8071,-15.6378,321.0],[30.827,-15.6449,321.0],[30.8559,-15.6498,321.0],[30.9028,-15.6634,321.0],[30.9867,-15.6902,321.0],[31.0121,-15.7029,321.0],[31.0403,-15.7148,321.0],[31.0723,-15.7231,321.0],[31.1433,-15.7252,321.0],[31.1904,-15.7169,321.0],[31.233,-15.7151,321.0]]]]}
,"properties": {"GID_3": "MOZ.10.12.3_1","GID_0": "MOZ","country": "Mozambique","GID_1": "MOZ.10_1","province": "Tete","NL_NAME_1": "NA","GID_2": "MOZ.10.12_1","county": "Zumbu","NL_NAME_2": "NA","city": "Zumbo","VARNAME_3": "NA","NL_NAME_3": "NA","TYPE_3": "Localidad","ENGTYPE_3": "Locality","CC_3": "NA","HASC_3": "NA","name": "Zumbo.city","area_km2": 4895.957,"hist_schema_id": "Elevation0-9000","hist_area_km2": {"325": 536.965,"350": 323.355,"375": 261.977,"400": 210.589,"425": 203.17,"450": 195.415,"475": 195.338,"500": 185.102,"525": 195.533,"550": 230.312,"575": 242.188,"600": 243.557,"625": 264.078,"650": 268.594,"675": 273.686,"700": 264.99,"725": 220.472,"750": 187.343,"775": 148.747,"800": 97.794,"825": 55.188,"850": 32.455,"875": 20.13,"900": 12.936,"925": 8.767,"950": 5.396,"975": 3.475,"1000": 2.33,"1025": 1.472,"1050": 1.043,"1075": 0.491,"1100": 0.511,"1125": 0.593,"1150": 0.347,"1175": 0.47,"1200": 0.245,"1225": 0.245,"1250": 0.164,"1275": 0.184,"1300": 0.082,"1325": 0.082,"1350": 0.041,"1375": 0.082}}}