{"type":"Feature","properties":{"GID_3":"MOZ.7.2.2_1","GID_0":"MOZ","country":"Mozambique","GID_1":"MOZ.7_1","province":"Nampula","NL_NAME_1":"NA","GID_2":"MOZ.7.2_1","county":"Erati","NL_NAME_2":"NA","city":"Nacaroa","VARNAME_3":"NA","NL_NAME_3":"NA","TYPE_3":"Localidad","ENGTYPE_3":"Locality","CC_3":"NA","HASC_3":"NA","name":"Nacaroa.city"},
"geometry":{"type": "MultiPolygon","coordinates": [[[[40.1298,-14.2274,127.2218],[40.1198,-14.2281,123.8587],[40.1108,-14.2192,126.0832],[40.107,-14.2115,122.8896],[40.1007,-14.204,141.6672],[40.0764,-14.1838,150.5229],[40.07,-14.1814,139.0368],[40.0616,-14.1833,141.6696],[40.0605,-14.1936,137.7652],[40.0534,-14.1902,143.3362],[40.0484,-14.1911,139.15],[40.0458,-14.2091,160.9309],[40.0392,-14.2151,165.9514],[40.0313,-14.2167,174.6663],[40.0244,-14.2229,157.4554],[40.0111,-14.2199,179.2405],[40.0004,-14.2228,173.6525],[39.9935,-14.2208,171.6174],[39.9839,-14.2262,173.9043],[39.9688,-14.2239,170.557],[39.9505,-14.2291,175.8789],[39.9488,-14.2351,181.6329],[39.9502,-14.2384,177.372],[39.9396,-14.2425,199.4106],[39.9379,-14.2474,199.4694],[39.9399,-14.2577,200.1053],[39.9444,-14.2644,194.335],[39.9255,-14.2715,197.5832],[39.915,-14.2798,198.6268],[39.9133,-14.284,200.6364],[39.8999,-14.2835,204.8292],[39.8934,-14.2894,215.6437],[39.8806,-14.2967,227.0486],[39.8689,-14.3095,223.4289],[39.8207,-14.3242,239.1215],[39.8104,-14.3329,245.6671],[39.8077,-14.3438,249.0644],[39.8001,-14.3488,249.9687],[39.7923,-14.3602,254.8934],[39.7817,-14.3642,259.7769],[39.7822,-14.3677,262.1382],[39.786,-14.3695,264.5492],[39.7821,-14.3738,262.2233],[39.7681,-14.376,263.2653],[39.7603,-14.3917,272.0588],[39.7493,-14.3869,281.1102],[39.7452,-14.3871,275.6663],[39.7398,-14.3982,280.9774],[39.7442,-14.4033,282.2029],[39.7447,-14.4077,285.3618],[39.7378,-14.4312,319.8374],[39.7275,-14.44,355.1162],[39.7259,-14.4461,354.1123],[39.7425,-14.4442,335.6968],[39.7583,-14.4356,320.5591],[39.769,-14.4327,304.383],[39.7761,-14.4283,305.7842],[39.7878,-14.4393,336.6498],[39.7992,-14.4656,341.4017],[39.8046,-14.4875,368.3672],[39.8309,-14.5681,337.0462],[39.8407,-14.5641,337.5465],[39.8531,-14.5492,321.7732],[39.8805,-14.5492,312.3304],[39.8855,-14.5593,305.7905],[39.8981,-14.5732,342.4489],[39.9104,-14.5757,323.737],[39.9506,-14.5669,308.1096],[39.9681,-14.5578,292.9497],[39.9814,-14.5554,292.9471],[40.0042,-14.5462,286.9712],[40.0279,-14.5487,259.2485],[40.0491,-14.5342,246.6755],[40.0536,-14.5342,248.3923],[40.0536,-14.5363,260.9905],[40.0539,-14.5315,246.6984],[40.0751,-14.4895,221.142],[40.0875,-14.4835,214.0761],[40.1095,-14.4685,190.2072],[40.106,-14.4661,207.0754],[40.0891,-14.4641,220.8602],[40.0763,-14.4548,252.933],[40.0675,-14.4586,237.4979],[40.0627,-14.4578,254.5823],[40.048,-14.4458,269.2252],[40.0416,-14.446,264.7511],[40.0255,-14.4501,282.6832],[40.0223,-14.4462,284.1144],[40.0038,-14.4331,242.3214],[40.004,-14.4164,217.7407],[40.0077,-14.4117,209.7843],[40.02,-14.4037,223.8247],[40.0283,-14.396,209.7403],[40.0331,-14.3883,196.3452],[40.0413,-14.3662,192.2468],[40.0395,-14.3563,179.9732],[40.035,-14.3441,185.995],[40.0361,-14.3305,169.5749],[40.034,-14.3149,167.0288],[40.0353,-14.3033,165.6248],[40.0406,-14.2933,161.1397],[40.0527,-14.2874,201.2863],[40.0699,-14.275,142.296],[40.0701,-14.2539,138.4105],[40.077,-14.2473,144.3393],[40.0884,-14.2438,145.3234],[40.0927,-14.2464,126.3553],[40.0991,-14.2423,143.5107],[40.1132,-14.2429,125.133],[40.1173,-14.2371,127.1653],[40.1241,-14.2342,128.267],[40.1298,-14.2274,127.2218]]]]}}