{"type":"Feature","properties":{"GID_3":"MOZ.1.8.5_1","GID_0":"MOZ","country":"Mozambique","GID_1":"MOZ.1_1","province":"CaboDelgado","NL_NAME_1":"NA","GID_2":"MOZ.1.8_1","county":"Montepuez","NL_NAME_2":"NA","city":"Namanhumbir","VARNAME_3":"NA","NL_NAME_3":"NA","TYPE_3":"Localidad","ENGTYPE_3":"Locality","CC_3":"NA","HASC_3":"NA","name":"Namanhumbir.city"},
"geometry":{"type": "MultiPolygon","coordinates": [[[[39.3242,-12.8291,347.2191],[39.306399999999996,-12.8316,352.3389],[39.2964,-12.842,350.8051],[39.2783,-12.8555,359.9152],[39.2657,-12.8482,361.9781],[39.2626,-12.8495,362.3124],[39.2269,-12.8745,390.0897],[39.2205,-12.9114,381.4531],[39.2148,-12.9215,389.1762],[39.2209,-12.9513,404.3059],[39.2291,-12.9789,433.993],[39.2217,-13.0099,477.2226],[39.212,-13.0407,480.6137],[39.2012,-13.0684,480.5553],[39.2002,-13.0769,473.7455],[39.2086,-13.1177,450.4765],[39.2379,-13.126,442.9857],[39.2584,-13.1599,449.6347],[39.2891,-13.1657,448.0879],[39.3217,-13.1601,428.6013],[39.3584,-13.166,409.0071],[39.3905,-13.1646,383.9087],[39.3955,-13.1625,384.5694],[39.395,-13.1087,422.7121],[39.3798,-13.0915,457.7961],[39.3767,-13.0795,479.6925],[39.3709,-13.0074,495.018],[39.3656,-12.9957,469.8671],[39.3716,-12.9402,400.0489],[39.3632,-12.9239,388.7218],[39.3583,-12.901,376.1844],[39.347,-12.8809,368.5739],[39.3401,-12.8618,359.4564],[39.3297,-12.8439,350.9496],[39.3242,-12.8291,347.2191]]]]}}