{"type":"Feature","properties":{"GID_3":"MOZ.9.5.1_1","GID_0":"MOZ","country":"Mozambique","GID_1":"MOZ.9_1","province":"Sofala","NL_NAME_1":"NA","GID_2":"MOZ.9.5_1","county":"Chibabava","NL_NAME_2":"NA","city":"Chibabava","VARNAME_3":"NA","NL_NAME_3":"NA","TYPE_3":"Localidad","ENGTYPE_3":"Locality","CC_3":"NA","HASC_3":"NA","name":"Chibabava.city"},
"geometry":{"type": "MultiPolygon","coordinates": [[[[33.5787,-20.5139,248.5517],[33.6096,-20.501,230.6916],[33.6233,-20.4923,235.4965],[33.6325,-20.4922,229.0924],[33.6425,-20.4943,226.9923],[33.6496,-20.493,226.0977],[33.7062,-20.4732,259.7049],[33.7216,-20.4611,249.481],[33.7387,-20.445,236.3735],[33.76,-20.4171,236.295],[33.7729,-20.3907,227.1856],[33.7782,-20.3719,241.9441],[33.7771,-20.3633,242.6544],[33.7788,-20.3482,242.0728],[33.7831,-20.3323,255.5972],[33.8047,-20.3122,243.1205],[33.8287,-20.2955,254.6261],[33.8403,-20.2832,238.5945],[33.8507,-20.2596,235.4864],[33.8417,-20.2581,215.5407],[33.8209,-20.2581,214.3354],[33.8058,-20.2543,204.6822],[33.7915,-20.2471,168.5767],[33.7795,-20.2387,150.5734],[33.7763,-20.2333,144.4559],[33.7716,-20.231,140.0664],[33.7503,-20.2244,122.1978],[33.7408,-20.2232,117.4495],[33.733,-20.2108,106.3717],[33.7254,-20.2028,105.127],[33.7164,-20.1999,94.7548],[33.7075,-20.1998,91.8711],[33.7035,-20.1946,90.5091],[33.7024,-20.1868,81.7132],[33.6966,-20.1935,84.4522],[33.6946,-20.1876,89.0271],[33.6674,-20.1885,117.4616],[33.6579,-20.1869,119.4287],[33.6445,-20.179,142.7899],[33.6353,-20.176,159.1028],[33.6253,-20.1667,173.7645],[33.6127,-20.1628,189.9999],[33.6055,-20.152,203.3102],[33.5604,-20.1808,197.391],[33.5409,-20.1614,183.9068],[33.534,-20.1439,190.8455],[33.4807,-20.1638,174.6694],[33.4667,-20.1845,160.3372],[33.4684,-20.1907,161.5031],[33.4787,-20.2057,139.5447],[33.4832,-20.2184,140.0612],[33.4912,-20.2325,128.5887],[33.4975,-20.255,121.2178],[33.5073,-20.2637,115.6745],[33.5114,-20.2708,108.6821],[33.4948,-20.2778,122.4942],[33.4784,-20.2931,119.053],[33.4756,-20.3,126.0564],[33.4742,-20.3081,124.4008],[33.476,-20.3181,128.7567],[33.4932,-20.3411,161.4745],[33.4961,-20.3477,160.1831],[33.4958,-20.3532,163.5327],[33.4934,-20.3554,165.0304],[33.4768,-20.4171,195.7546],[33.5787,-20.5139,248.5517]]]]}}