{"type":"Feature","properties":{"GID_3":"MOZ.3.2.2_1","GID_0":"MOZ","country":"Mozambique","GID_1":"MOZ.3_1","province":"Inhambane","NL_NAME_1":"NA","GID_2":"MOZ.3.2_1","county":"Govuro","NL_NAME_2":"NA","city":"Save","VARNAME_3":"NA","NL_NAME_3":"NA","TYPE_3":"Localidad","ENGTYPE_3":"Locality","CC_3":"NA","HASC_3":"NA","name":"Save.city"},
"geometry":{"type": "MultiPolygon","coordinates": [[[[34.7896,-21.0962,11.0269],[34.7722,-21.1127,9.9921],[34.7519,-21.1221,15.3603],[34.7216,-21.122,14.2158],[34.7043,-21.1126,12.6844],[34.6935,-21.102,13.5071],[34.6717,-21.092,14.3806],[34.6409,-21.0931,14.6101],[34.621,-21.1022,17.7981],[34.6113,-21.1081,16.8308],[34.6007,-21.1176,17.5613],[34.5783,-21.1308,16.3622],[34.5661,-21.1351,20.1368],[34.5288,-21.1385,18.0143],[34.5132,-21.1435,18.6962],[34.4982,-21.1599,19.02],[34.4843,-21.1643,19.0353],[34.4671,-21.165,20.7701],[34.4507,-21.1793,24.3574],[34.4401,-21.214,24.1237],[34.386,-21.2561,29.6228],[34.3741,-21.2737,24.0594],[34.3478,-21.2937,33.493],[34.3361,-21.3091,27.2417],[34.324,-21.3141,29.2428],[34.2999,-21.3073,32.1533],[34.2929,-21.3005,28.3156],[34.2669,-21.284,33.8764],[34.2564,-21.2732,32.9417],[34.2445,-21.265,37.8401],[34.2286,-21.2607,33.0835],[34.2094,-21.2673,36.4603],[34.2033,-21.2808,42.6652],[34.1875,-21.3079,37.8767],[34.1723,-21.3137,37.2929],[34.1428,-21.3166,39.4845],[34.1292,-21.3104,43.2035],[34.1047,-21.2901,41.5696],[34.0808,-21.2938,45.0426],[34.0508,-21.3018,42.7524],[34.0388,-21.3068,48.1552],[34.028,-21.3185,58.1488],[34.022,-21.3278,64.9817],[34.0199,-21.3376,70.991],[34.0217,-21.3515,80.5438],[34.0211,-21.3649,85.8615],[34.0295,-21.3994,128.6751],[34.037,-21.4065,126.9523],[34.0607,-21.4053,130.076],[34.0657,-21.4019,129.3342],[34.0714,-21.4039,125.0342],[34.0876,-21.399,110.4872],[34.1143,-21.3704,79.5525],[34.1264,-21.351,75.623],[34.1365,-21.3399,59.0817],[34.1527,-21.3594,110.0984],[34.1605,-21.3647,112.353],[34.2,-21.3674,118.4766],[34.2146,-21.3782,97.6195],[34.2581,-21.3709,63.0444],[34.2661,-21.3723,85.61],[34.2707,-21.3815,121.2601],[34.2785,-21.3915,124.2595],[34.2883,-21.3995,124.4379],[34.3234,-21.4101,149.1702],[34.3619,-21.4335,122.5183],[34.3771,-21.4516,117.3312],[34.3888,-21.4628,118.0559],[34.3685,-21.5261,127.4296],[34.3678,-21.5704,146.5112],[34.3512,-21.605,173.6875],[34.3516,-21.6144,176.416],[34.3578,-21.6427,181.224],[34.3653,-21.6685,181.7209],[34.3722,-21.6833,173.7498],[34.4724,-21.6237,128.5258],[34.4818,-21.6205,127.4519],[34.4969,-21.6259,123.3043],[34.5647,-21.6271,137.578],[34.6209,-21.5921,138.8979],[34.7606,-21.5648,96.2647],[34.7628,-21.5391,95.4347],[34.6922,-21.5021,112.198],[34.6946,-21.4942,108.8606],[34.6941,-21.4668,105.8497],[34.6992,-21.459,103.766],[34.702,-21.4343,101.8021],[34.7212,-21.3645,89.59],[34.6908,-21.2976,85.8883],[34.7752,-21.233,55.3808],[34.778,-21.1958,40.6377],[34.7803,-21.1863,41.8289],[34.7794,-21.168,43.9857],[34.7885,-21.1449,36.876],[34.7896,-21.0962,11.0269]]]]}}