{"type": "Feature","bbox": [36.1463,-16.8277,37.1512,-15.8244],"geometry": {"type": "MultiPolygon","coordinates": [[[[37.0746,-16.2749,275.4024],[37.0788,-16.2541,278.2192],[37.0788,-16.2451,282.0676],[37.0732,-16.229,292.3421],[37.0722,-16.2199,304.9583],[37.065,-16.2157,317.3911],[37.045,-16.22,326.9077],[37.0409,-16.2187,322.4739],[37.0345,-16.1995,332.993],[37.0273,-16.1982,322.929],[37.019,-16.1997,332.8558],[37.0152,-16.1956,336.911],[37.0157,-16.188,328.8818],[37.0118,-16.1829,331.3001],[37.0067,-16.1714,339.5872],[37.0025,-16.1669,327.6628],[36.9824,-16.1575,340.0528],[36.9674,-16.1602,334.8639],[36.9587,-16.1543,342.4408],[36.9597,-16.1416,353.5536],[36.956,-16.1363,342.3452],[36.9333,-16.1358,363.084],[36.9274,-16.1401,346.7958],[36.918,-16.1332,349.636],[36.9086,-16.1315,350.9636],[36.8972,-16.1337,365.2926],[36.8822,-16.1417,355.6787],[36.871,-16.144,363.7849],[36.8647,-16.1409,370.8629],[36.8622,-16.1291,383.7827],[36.8523,-16.1255,379.9589],[36.8391,-16.1297,388.1392],[36.82,-16.1259,389.7827],[36.8083,-16.0947,395.2135],[36.8075,-16.0826,410.1077],[36.801,-16.0811,419.7469],[36.7967,-16.0651,438.6992],[36.7898,-16.0634,458.1229],[36.7804,-16.064,446.8295],[36.7735,-16.0354,466.8507],[36.7735,-16.0222,468.6076],[36.7703,-16.0187,472.5346],[36.7457,-16.0205,474.4071],[36.738,-16.0191,474.9586],[36.7396,-16.0073,495.1702],[36.7379,-16.004,501.1168],[36.7293,-15.9971,515.6158],[36.7183,-15.9979,534.7222],[36.7093,-16.0051,530.2411],[36.7017,-15.999,509.8584],[36.6984,-15.9998,517.6278],[36.6869,-16.0077,512.5682],[36.6744,-16.0098,516.7192],[36.6638,-16.0188,525.5483],[36.6538,-16.0186,524.8206],[36.6282,-16.0139,530.4781],[36.6218,-16.0073,528.5263],[36.6169,-16.0049,538.7994],[36.6064,-16.0082,531.1902],[36.598,-16.0033,540.3385],[36.5926,-16.0039,542.9922],[36.5881,-16.0017,536.3586],[36.5894,-15.993,540.8702],[36.5855,-15.9897,563.1247],[36.5719,-15.9941,539.6733],[36.5675,-15.9789,552.7552],[36.5533,-15.9513,563.6292],[36.5403,-15.9145,590.5912],[36.5396,-15.901,608.4709],[36.5368,-15.8985,602.7719],[36.5217,-15.8967,616.4364],[36.5177,-15.894,607.0963],[36.5179,-15.8853,610.8479],[36.5072,-15.881,626.7693],[36.5013,-15.8808,619.446],[36.5026,-15.8836,614.4977],[36.4972,-15.886,620.3713],[36.4794,-15.888,633.1292],[36.4401,-15.8715,625.764],[36.4132,-15.8723,639.2555],[36.4068,-15.8687,639.2722],[36.4027,-15.861,646.9303],[36.3562,-15.8311,655.5587],[36.3412,-15.8244,649.8812],[36.3328,-15.8418,657.9777],[36.3133,-15.8598,611.6544],[36.2941,-15.8878,594.408],[36.2724,-15.9117,653.5815],[36.2599,-15.9385,532.2181],[36.2506,-15.9445,534.9527],[36.2475,-15.9534,556.6906],[36.2475,-15.9713,533.3913],[36.2413,-15.9981,487.9301],[36.2444,-16.0124,507.6334],[36.2324,-16.0263,486.2835],[36.2284,-16.0371,481.3133],[36.2018,-16.0486,457.6743],[36.1928,-16.0492,458.1391],[36.1771,-16.0584,455.334],[36.1696,-16.0716,429.6055],[36.1591,-16.0762,435.6681],[36.1463,-16.0866,421.4364],[36.1511,-16.0968,415.6442],[36.2126,-16.1579,394.6058],[36.1965,-16.1651,408.6589],[36.1901,-16.1786,388.0344],[36.1966,-16.1948,368.8813],[36.1949,-16.2004,372.8034],[36.2064,-16.2098,371.8442],[36.2088,-16.2266,373.9131],[36.2131,-16.2389,373.773],[36.2225,-16.2463,390.1824],[36.2268,-16.2652,361.2244],[36.2404,-16.2895,355.7747],[36.3158,-16.3531,307.6084],[36.3318,-16.3687,356.3125],[36.3218,-16.3695,329.3876],[36.3038,-16.3761,327.6988],[36.3049,-16.3767,319.2874],[36.3007,-16.3794,342.4098],[36.2963,-16.3791,359.8625],[36.2909,-16.3837,343.4571],[36.2903,-16.3921,297.3727],[36.2837,-16.4016,291.2823],[36.2755,-16.404,309.1065],[36.2667,-16.4089,293.6777],[36.2576,-16.418,323.4598],[36.2541,-16.4426,362.908],[36.2676,-16.4559,383.0464],[36.2789,-16.4597,361.2396],[36.3023,-16.463,335.3716],[36.3309,-16.4704,303.478],[36.3309,-16.4783,288.9948],[36.3349,-16.4837,284.9936],[36.3512,-16.4885,290.9954],[36.3556,-16.5037,272.8533],[36.3717,-16.5054,271.3009],[36.3837,-16.517,274.191],[36.391,-16.5145,265.9739],[36.3934,-16.5234,261.9659],[36.3971,-16.5265,252.596],[36.4021,-16.5232,264.0443],[36.4148,-16.5282,254.4718],[36.43,-16.5396,251.8695],[36.4361,-16.5459,261.8843],[36.4422,-16.549,244.8453],[36.4827,-16.557,245.3947],[36.4868,-16.557,238.6745],[36.5027,-16.5503,235.7198],[36.505,-16.5621,237.4897],[36.5395,-16.563,226.8623],[36.5457,-16.5648,212.9815],[36.5522,-16.5699,226.4018],[36.5599,-16.5683,214.7994],[36.5685,-16.56,206.4267],[36.5811,-16.5665,210.655],[36.6052,-16.5724,202.9586],[36.6141,-16.5777,190.24],[36.6344,-16.6011,170.6951],[36.6541,-16.611,167.8662],[36.667,-16.6143,178.1405],[36.6773,-16.6204,178.2817],[36.6752,-16.6234,171.4488],[36.676,-16.6255,173.552],[36.6829,-16.6321,169.7338],[36.6974,-16.6326,167.4665],[36.7027,-16.6353,158.9491],[36.706,-16.6436,153.9933],[36.7212,-16.6547,163.7434],[36.7312,-16.6545,160.2661],[36.7383,-16.652,160.4087],[36.7487,-16.6542,153.9014],[36.7562,-16.6618,158.3102],[36.7576,-16.6705,148.6392],[36.7613,-16.6784,161.8312],[36.7993,-16.6899,150.5121],[36.8303,-16.6875,149.5395],[36.8487,-16.7041,148.1141],[36.8877,-16.7006,143.484],[36.8996,-16.7071,132.0138],[36.9108,-16.7155,126.2006],[36.9194,-16.7231,124.3348],[36.9256,-16.7311,124.6327],[36.9234,-16.7475,121.715],[36.9157,-16.7642,118.4511],[36.9412,-16.7694,118.8593],[36.9534,-16.7811,123.2867],[36.9577,-16.7881,113.1314],[36.9614,-16.7986,122.2695],[36.9607,-16.8133,108.2331],[36.9626,-16.818,107.1134],[36.9692,-16.8251,107.7155],[36.9741,-16.8277,114.7715],[36.9792,-16.8276,107.6935],[36.981,-16.8223,114.1234],[36.9787,-16.8176,105.7767],[36.9789,-16.809,108.4908],[36.9914,-16.7923,110.2246],[36.9941,-16.7774,115.1067],[37.0077,-16.7698,116.3569],[37.0104,-16.7658,125.5567],[37.0156,-16.7487,121.3059],[37.0147,-16.7183,132.3419],[37.013,-16.7097,136.7438],[36.9995,-16.6968,142.6034],[36.9965,-16.6919,134.9219],[36.993,-16.68,136.7885],[36.9972,-16.6595,135.0],[37.0043,-16.6481,137.7048],[37.0266,-16.6245,153.6148],[37.0406,-16.621,154.3097],[37.0556,-16.6064,160.6195],[37.0718,-16.5866,162.5333],[37.0891,-16.5729,162.8387],[37.1081,-16.5658,167.7534],[37.1207,-16.5583,162.9384],[37.123,-16.5525,162.8413],[37.1371,-16.5305,183.1824],[37.1399,-16.5146,193.1133],[37.1512,-16.5029,204.0623],[37.1463,-16.4847,201.25],[37.1338,-16.483,214.8081],[37.1252,-16.4777,212.7517],[37.0991,-16.4571,224.1781],[37.0938,-16.447,208.5091],[37.0938,-16.438,210.463],[37.0963,-16.427,213.75],[37.1116,-16.4122,233.1694],[37.1182,-16.4019,255.2298],[37.1224,-16.3932,238.3688],[37.1321,-16.3579,252.5619],[37.1074,-16.3175,266.3706],[37.1016,-16.3125,260.1376],[37.0955,-16.2945,263.3974],[37.0781,-16.2881,268.0009],[37.0759,-16.2848,271.6905],[37.0746,-16.2749,275.4024]]]]}
,"properties": {"GID_2": "MOZ.11.7_1","GID_0": "MOZ","country": "Mozambique","GID_1": "MOZ.11_1","province": "Zambezia","NL_NAME_1": "NA","county": "Lugela","VARNAME_2": "NA","NL_NAME_2": "NA","TYPE_2": "Distrito","ENGTYPE_2": "District","CC_2": "NA","HASC_2": "MZ.ZA.LU","name": "Lugela.county","area_km2": 6154.056,"hist_schema_id": "Elevation0-9000","hist_area_km2": {"100": 1.725,"125": 35.304,"150": 101.213,"175": 162.052,"200": 242.579,"225": 314.986,"250": 348.713,"275": 378.901,"300": 433.407,"325": 393.23,"350": 317.339,"375": 255.793,"400": 204.6,"425": 186.611,"450": 170.969,"475": 170.185,"500": 197.731,"525": 218.36,"550": 222.217,"575": 217.015,"600": 204.222,"625": 219.053,"650": 227.792,"675": 226.804,"700": 162.908,"725": 91.103,"750": 62.213,"775": 46.164,"800": 36.715,"825": 30.259,"850": 27.591,"875": 25.33,"900": 23.09,"925": 22.254,"950": 19.79,"975": 17.958,"1000": 17.082,"1025": 13.396,"1050": 9.996,"1075": 8.917,"1100": 8.815,"1125": 7.939,"1150": 7.532,"1175": 6.576,"1200": 7.023,"1225": 5.659,"1250": 6.331,"1275": 6.392,"1300": 5.74,"1325": 4.966,"1350": 4.844,"1375": 3.562,"1400": 3.216,"1425": 2.483,"1450": 1.649,"1475": 1.425,"1500": 1.262,"1525": 0.936,"1550": 0.834,"1575": 0.651,"1600": 0.366,"1625": 0.163,"1650": 0.081}}}