{"type": "Feature","bbox": [37.0746,-16.3602,37.7384,-15.8533],"geometry": {"type": "MultiPolygon","coordinates": [[[[37.4411,-15.8533,534.6998],[37.4047,-15.8711,520.594],[37.3919,-15.8875,506.3886],[37.3672,-15.8935,483.9144],[37.3387,-15.9028,461.7203],[37.3006,-15.9204,472.6479],[37.2767,-15.9338,430.2521],[37.2665,-15.9356,428.7178],[37.2639,-15.9344,429.6097],[37.2405,-15.8953,1005.7983],[37.2249,-15.9051,509.9297],[37.2076,-15.9124,544.3655],[37.1958,-15.9231,507.2533],[37.1818,-15.9306,484.1646],[37.1731,-15.9327,488.3772],[37.1534,-15.9311,448.465],[37.1368,-15.9365,415.8738],[37.1236,-15.9438,428.3941],[37.1146,-15.9418,412.3019],[37.1097,-15.9671,415.5295],[37.1042,-15.9805,418.7669],[37.1037,-15.9992,400.3899],[37.0974,-16.012,440.241],[37.0979,-16.0226,426.168],[37.1097,-16.0346,406.1606],[37.1125,-16.0553,387.3472],[37.1082,-16.0956,379.9617],[37.1009,-16.1199,364.3613],[37.1045,-16.1337,344.9115],[37.1135,-16.1562,334.7557],[37.1262,-16.1768,329.3003],[37.1283,-16.189,319.0742],[37.1193,-16.203,306.3683],[37.1143,-16.2085,305.2243],[37.1088,-16.2112,306.3559],[37.1029,-16.2213,297.7847],[37.0821,-16.2484,284.2228],[37.0788,-16.2541,278.2192],[37.0746,-16.2749,275.4024],[37.0759,-16.2848,271.6905],[37.0781,-16.2881,268.0009],[37.0955,-16.2945,263.3974],[37.1016,-16.3125,260.1376],[37.1074,-16.3175,266.3706],[37.118,-16.3335,256.8995],[37.132,-16.3582,252.2166],[37.1361,-16.3602,253.2173],[37.1439,-16.3534,259.0708],[37.1798,-16.3375,282.8254],[37.1875,-16.3362,302.6656],[37.192,-16.3387,280.809],[37.1964,-16.3317,302.7437],[37.2135,-16.3316,287.158],[37.2205,-16.3176,324.2051],[37.2313,-16.3154,322.401],[37.2476,-16.2983,332.1657],[37.2658,-16.3099,346.3345],[37.2771,-16.3147,363.2134],[37.2838,-16.3204,369.4317],[37.2992,-16.3116,401.3746],[37.3178,-16.2938,390.5696],[37.3338,-16.271,408.9243],[37.3356,-16.2642,418.7302],[37.3369,-16.2343,386.6371],[37.3427,-16.2311,363.0352],[37.3706,-16.2311,332.7781],[37.3799,-16.2281,350.2854],[37.3799,-16.2162,348.8834],[37.383,-16.2043,371.0645],[37.4017,-16.2043,332.292],[37.4203,-16.2103,351.8627],[37.4482,-16.2043,362.4133],[37.4576,-16.2013,387.721],[37.5079,-16.1685,347.5186],[37.5153,-16.1689,368.2036],[37.527,-16.1723,370.2061],[37.5399,-16.1801,392.7297],[37.5543,-16.1801,402.8589],[37.5564,-16.1788,407.619],[37.5623,-16.1736,379.2418],[37.5632,-16.1605,397.5923],[37.5508,-16.1446,421.7701],[37.5352,-16.1357,391.7432],[37.5294,-16.1151,418.6465],[37.5321,-16.0999,444.4847],[37.5694,-16.0999,426.6913],[37.5756,-16.1121,390.254],[37.5756,-16.1386,405.816],[37.5847,-16.1474,359.9477],[37.5932,-16.1434,364.8939],[37.6038,-16.1358,362.8608],[37.6204,-16.1431,339.3853],[37.6428,-16.1617,338.7799],[37.6533,-16.1625,323.8414],[37.6594,-16.1535,330.0321],[37.672,-16.1535,307.1446],[37.6781,-16.162,304.564],[37.6956,-16.1774,271.4044],[37.7154,-16.163,275.7162],[37.7278,-16.1566,283.949],[37.7235,-16.1347,291.4299],[37.7288,-16.1319,273.6379],[37.729,-16.1215,276.9127],[37.7384,-16.113,274.509],[37.7299,-16.0996,275.345],[37.7249,-16.0956,288.6325],[37.7177,-16.0933,300.8676],[37.7116,-16.0892,297.0481],[37.707,-16.0819,299.4638],[37.6857,-16.0739,341.5665],[37.6935,-16.0674,324.9938],[37.6981,-16.0585,320.2802],[37.7045,-16.0368,328.8406],[37.6963,-16.0368,340.9247],[37.6905,-16.0343,337.9092],[37.6818,-16.0255,345.4339],[37.6803,-16.0193,346.9558],[37.6721,-16.0088,354.3233],[37.6749,-16.0005,358.8958],[37.6735,-15.9924,364.4711],[37.6834,-15.9851,371.7258],[37.6852,-15.9742,370.6456],[37.6805,-15.9711,380.7096],[37.6654,-15.9678,369.8047],[37.6589,-15.9747,370.5494],[37.6501,-15.9733,372.1948],[37.6443,-15.976,385.3441],[37.6098,-15.9717,382.3351],[37.5974,-15.976,393.5953],[37.5801,-15.979,398.1887],[37.5593,-15.9742,421.4127],[37.5459,-15.976,413.7631],[37.5393,-15.9719,424.7845],[37.5178,-15.9698,435.9139],[37.5081,-15.9645,457.9404],[37.5042,-15.9567,464.1966],[37.5074,-15.9438,513.201],[37.4959,-15.9102,578.1455],[37.478,-15.8901,1106.7059],[37.4501,-15.8698,608.7373],[37.4411,-15.8533,534.6998]]]]}
,"properties": {"GID_3": "MOZ.11.5.1_1","GID_0": "MOZ","country": "Mozambique","GID_1": "MOZ.11_1","province": "Zambezia","NL_NAME_1": "NA","GID_2": "MOZ.11.5_1","county": "Ile","NL_NAME_2": "NA","city": "Ile","VARNAME_3": "NA","NL_NAME_3": "NA","TYPE_3": "Localidad","ENGTYPE_3": "Locality","CC_3": "NA","HASC_3": "NA","name": "Ile.city","area_km2": 2163.58,"hist_schema_id": "Elevation0-9000","hist_area_km2": {"250": 1.852,"275": 32.344,"300": 77.236,"325": 128.406,"350": 227.603,"375": 305.778,"400": 320.683,"425": 281.647,"450": 243.77,"475": 215.424,"500": 143.532,"525": 81.373,"550": 42.525,"575": 22.304,"600": 13.048,"625": 7.074,"650": 4.546,"675": 3.16,"700": 2.222,"725": 1.61,"750": 1.264,"775": 1.223,"800": 0.836,"825": 0.632,"850": 0.571,"875": 0.387,"900": 0.51,"925": 0.326,"950": 0.387,"975": 0.245,"1000": 0.224,"1025": 0.326,"1050": 0.102,"1075": 0.204,"1100": 0.102,"1125": 0.082,"1150": 0.02}}}