{"type":"Feature","properties":{"GID_3":"MOZ.11.7.4_1","GID_0":"MOZ","country":"Mozambique","GID_1":"MOZ.11_1","province":"Zambezia","NL_NAME_1":"NA","GID_2":"MOZ.11.7_1","county":"Lugela","NL_NAME_2":"NA","city":"Tacuane","VARNAME_3":"NA","NL_NAME_3":"NA","TYPE_3":"Localidad","ENGTYPE_3":"Locality","CC_3":"NA","HASC_3":"NA","name":"Tacuane.city"},
"geometry":{"type": "MultiPolygon","coordinates": [[[[36.6904,-16.378,891.649],[36.6904,-16.362,623.213],[36.6534,-16.3425,570.5293],[36.6432,-16.3194,546.4037],[36.6325,-16.3113,492.0984],[36.62,-16.3113,641.757],[36.6107,-16.3083,833.4995],[36.5983,-16.2994,872.3571],[36.5921,-16.2904,658.2413],[36.5704,-16.2725,585.6818],[36.5362,-16.2725,890.1866],[36.5269,-16.2636,1015.858],[36.5269,-16.2248,623.3817],[36.5243,-16.2197,682.8737],[36.5083,-16.2188,592.6479],[36.5052,-16.2208,564.8652],[36.4674,-16.2555,553.4837],[36.4489,-16.2794,426.5268],[36.435,-16.2901,720.4741],[36.3779,-16.2755,1355.7664],[36.3211,-16.2544,1003.8615],[36.3003,-16.2487,440.2748],[36.2906,-16.2333,607.6115],[36.2724,-16.2227,853.9905],[36.2721,-16.2048,1276.7925],[36.2638,-16.196,782.5978],[36.2647,-16.1729,551.3974],[36.2721,-16.1605,524.766],[36.2713,-16.1532,509.0645],[36.232,-16.1532,411.2522],[36.2126,-16.1579,394.6058],[36.1965,-16.1651,408.6589],[36.1901,-16.1786,388.0344],[36.1966,-16.1948,368.8813],[36.1949,-16.2004,372.8034],[36.2064,-16.2098,371.8442],[36.2088,-16.2266,373.9131],[36.2131,-16.2389,373.773],[36.2225,-16.2463,390.1824],[36.2268,-16.2652,361.2244],[36.2404,-16.2895,355.7747],[36.3158,-16.3531,307.6084],[36.3318,-16.3687,356.3125],[36.3218,-16.3695,329.3876],[36.3038,-16.3761,327.6988],[36.3049,-16.3767,319.2874],[36.3007,-16.3794,342.4098],[36.2963,-16.3791,359.8625],[36.2909,-16.3837,343.4571],[36.2903,-16.3921,297.3727],[36.2837,-16.4016,291.2823],[36.2755,-16.404,309.1065],[36.2667,-16.4089,293.6777],[36.2576,-16.418,323.4598],[36.2541,-16.4426,362.908],[36.2676,-16.4559,383.0464],[36.2789,-16.4597,361.2396],[36.3023,-16.463,335.3716],[36.3309,-16.4704,303.478],[36.3309,-16.4783,288.9948],[36.3349,-16.4837,284.9936],[36.3512,-16.4885,290.9954],[36.3556,-16.5037,272.8533],[36.3717,-16.5054,271.3009],[36.3837,-16.517,274.191],[36.391,-16.5145,265.9739],[36.3934,-16.5234,261.9659],[36.3971,-16.5265,252.596],[36.4021,-16.5232,264.0443],[36.4148,-16.5282,254.4718],[36.43,-16.5396,251.8695],[36.4361,-16.5459,261.8843],[36.4422,-16.549,244.8453],[36.4827,-16.557,245.3947],[36.4868,-16.557,238.6745],[36.5027,-16.5503,235.7198],[36.505,-16.5621,237.4897],[36.5395,-16.563,226.8623],[36.5457,-16.5648,212.9815],[36.5522,-16.5699,226.4018],[36.5599,-16.5683,214.7994],[36.5685,-16.56,206.4267],[36.5811,-16.5665,210.655],[36.602,-16.5713,204.0259],[36.6101,-16.575,199.6172],[36.6141,-16.5777,190.24],[36.6344,-16.6011,170.6951],[36.6541,-16.611,167.8662],[36.667,-16.6143,178.1405],[36.6773,-16.6204,178.2817],[36.6835,-16.6114,184.0765],[36.6964,-16.6015,191.8531],[36.6959,-16.5972,192.9313],[36.6871,-16.5912,201.8456],[36.6761,-16.5903,199.0147],[36.6781,-16.579,211.099],[36.6747,-16.565,206.8386],[36.6821,-16.5588,211.5505],[36.6867,-16.5453,243.1165],[36.6961,-16.528,231.7736],[36.679,-16.5141,243.3242],[36.6473,-16.4952,245.9818],[36.6449,-16.4902,240.8878],[36.648,-16.4634,256.4755],[36.6537,-16.4531,251.4434],[36.6644,-16.4524,270.0661],[36.6865,-16.4379,268.3428],[36.7029,-16.404,386.1397],[36.6904,-16.378,891.649]]]]}}