{"type": "Feature","bbox": [34.3722,-22.0951,35.499,-21.3415],"geometry": {"type": "MultiPolygon","coordinates": [[[[35.1091,-21.342,3.1104],[35.0932,-21.3438,0.5],[35.0913,-21.3521,1.5681],[35.0904,-21.3512,7.4743],[35.0918,-21.3493,1.8055],[35.0915,-21.344,4.7005],[35.0867,-21.3491,2.1668],[35.0805,-21.3687,5.0622],[35.0733,-21.3823,2.1802],[35.0744,-21.3933,3.3825],[35.0708,-21.4033,2.178],[35.0023,-21.3976,21.4062],[34.9857,-21.4055,34.2684],[34.9845,-21.4454,36.7617],[34.9311,-21.4594,47.3547],[34.9192,-21.4643,43.732],[34.9062,-21.465699999999998,48.4835],[34.8848,-21.4759,51.7156],[34.8503,-21.4689,63.6447],[34.8193,-21.4583,69.221],[34.7973,-21.4769,84.8563],[34.7821,-21.4789,88.3234],[34.6948,-21.5029,111.241],[34.7628,-21.5391,95.4347],[34.7606,-21.5648,96.2647],[34.6209,-21.5921,138.8979],[34.5647,-21.6271,137.578],[34.4969,-21.6259,123.3043],[34.4818,-21.6205,127.4519],[34.4724,-21.6237,128.5258],[34.3722,-21.6833,173.7498],[34.4734,-21.7827,152.647],[34.4366,-21.8526,166.7612],[34.4268,-21.8829,156.5757],[34.41,-21.9017,155.371],[34.3957,-21.9226,156.152],[34.399,-21.9416,154.1674],[34.4656,-22.001,147.7022],[34.625,-22.0951,166.2679],[34.6361,-22.0392,163.2076],[34.9607,-22.0465,69.0123],[35.0277,-21.9989,56.3882],[35.1047,-21.9192,26.7839],[35.1023,-21.9077,20.7753],[35.1214,-21.9086,14.0822],[35.1285,-21.9026,23.8637],[35.1297,-21.8917,14.343],[35.1274,-21.874,14.9301],[35.1308,-21.8693,13.1584],[35.1454,-21.8719,19.5267],[35.1566,-21.8591,13.7123],[35.1669,-21.8531,12.0785],[35.1714,-21.8414,12.0471],[35.1608,-21.8053,10.8252],[35.2851,-21.8056,20.7459],[35.2857,-21.7988,2.2303],[35.2826,-21.7946,20.1852],[35.2846,-21.7849,2.5416],[35.2821,-21.7846,13.8705],[35.2801,-21.7821,4.5632],[35.2779,-21.7671,0.189],[35.2801,-21.7443,5.5567],[35.2846,-21.7337,5.4297],[35.2826,-21.7251,0.4133],[35.2743,-21.7204,1.5222],[35.2738,-21.7176,0.0],[35.2715,-21.7163,2.456],[35.2718,-21.7126,0.0],[35.2699,-21.7118,0.1656],[35.2704,-21.709,0.2519],[35.2685,-21.7082,6.3855],[35.2707,-21.6896,0.6274],[35.2696,-21.6887,0.0],[35.2732,-21.6771,0.0698],[35.274,-21.6668,0.7598],[35.2724,-21.6368,0.2844],[35.2654,-21.6293,0.548],[35.2621,-21.6232,1.8873],[35.2593,-21.6124,0.0],[35.2576,-21.6107,4.3744],[35.2557,-21.5937,1.429],[35.2501,-21.5832,4.1792],[35.2254,-21.5615,5.9084],[35.2113,-21.5451,0.0],[35.1976,-21.5237,14.0861],[35.1924,-21.5104,2.2401],[35.1465,-21.4368,5.7989],[35.1263,-21.3901,21.5642],[35.1171,-21.3604,9.3607],[35.1132,-21.3415,0.0],[35.1091,-21.342,3.1104]]],
[[[35.4824,-21.514,0.0],[35.4746,-21.5151,0.832],[35.4787,-21.5196,6.4736],[35.4796,-21.5249,6.321],[35.4724,-21.5335,1.2783],[35.4721,-21.549,2.7462],[35.4613,-21.5649,0.0],[35.4665,-21.5899,11.893],[35.4663,-21.6063,8.8807],[35.4637,-21.6079,0.5433],[35.4626,-21.6124,2.589],[35.4624,-21.6265,0.8526],[35.4643,-21.6274,2.403],[35.4637,-21.6299,1.1864],[35.4582,-21.6324,0.2306],[35.454,-21.6415,3.9161],[35.4515,-21.6437,0.0],[35.4315,-21.6582,1.3145],[35.4343,-21.6618,0.1044],[35.4338,-21.6649,0.0],[35.4426,-21.6824,0.0],[35.4435,-21.6924,0.0],[35.4468,-21.6993,2.5962],[35.4465,-21.7057,3.7666],[35.4371,-21.7179,0.0],[35.4304,-21.7229,0.0],[35.4265,-21.7232,0.0],[35.4243,-21.726,0.0],[35.4326,-21.7351,1.1176],[35.4351,-21.741,0.1113],[35.4346,-21.7468,0.0],[35.4371,-21.751,5.8705],[35.4376,-21.7599,7.4903],[35.434,-21.7624,0.0],[35.4343,-21.7657,0.4107],[35.4368,-21.7679,4.3434],[35.4362,-21.7699,1.1926],[35.4437,-21.776,21.7426],[35.4432,-21.778199999999998,0.0],[35.4446,-21.7799,4.5024],[35.4476,-21.7812,20.5511],[35.4485,-21.7854,1.1363],[35.4507,-21.7868,1.3184],[35.4512,-21.791,0.1019],[35.4543,-21.7946,0.0],[35.4568,-21.7932,0.0],[35.4615,-21.7851,8.7864],[35.4593,-21.7637,6.8804],[35.4621,-21.7415,33.9672],[35.4663,-21.7307,0.0],[35.4829,-21.7015,0.0],[35.4829,-21.6896,1.751],[35.4857,-21.6749,20.8046],[35.4957,-21.6482,10.0976],[35.4957,-21.6449,33.4963],[35.499,-21.6415,0.0],[35.4982,-21.639,0.2658],[35.4949,-21.6415,10.3376],[35.4926,-21.6413,15.0783],[35.4871,-21.6296,0.0],[35.4926,-21.6107,8.1449],[35.491,-21.5929,0.0],[35.4957,-21.5654,16.8376],[35.4921,-21.5532,18.8351],[35.4935,-21.5332,1.556],[35.4882,-21.5276,37.8746],[35.4824,-21.514,0.0]]],
[[[35.3338,-21.6099,0.0],[35.3324,-21.6101,0.0],[35.3346,-21.6143,4.6005],[35.3401,-21.6179,4.1496],[35.3365,-21.626,0.0],[35.3399,-21.6254,1.965],[35.3421,-21.6276,0.6804],[35.3438,-21.6168,0.0],[35.3338,-21.6099,0.0]]]]}
,"properties": {"GID_2": "MOZ.3.5_1","GID_0": "MOZ","country": "Mozambique","GID_1": "MOZ.3_1","province": "Inhambane","NL_NAME_1": "NA","county": "Inhassoro","VARNAME_2": "NA","NL_NAME_2": "NA","TYPE_2": "Distrito","ENGTYPE_2": "District","CC_2": "NA","HASC_2": "MZ.IN.IS","name": "Inhassoro.county","area_km2": 4742.566,"hist_schema_id": "Elevation0-9000","hist_area_km2": {"0": 219.196,"25": 929.126,"50": 898.553,"75": 536.208,"100": 426.505,"125": 629.755,"150": 740.303,"175": 362.919}}}