{"type":"Feature","properties":{"GID_2":"MOZ.10.3_1","GID_0":"MOZ","country":"Mozambique","GID_1":"MOZ.10_1","province":"Tete","NL_NAME_1":"NA","county":"Changara","VARNAME_2":"NA","NL_NAME_2":"NA","TYPE_2":"Distrito","ENGTYPE_2":"District","CC_2":"NA","HASC_2":"MZ.TE.CG","name":"Changara.county"},
"geometry":{"type": "MultiPolygon","coordinates": [[[[33.0757,-17.2468,483.0614],[33.087,-17.2367,489.7043],[33.0893,-17.2328,488.7999],[33.091,-17.2204,479.9287],[33.0903,-17.1952,471.1352],[33.0928,-17.1795,465.8199],[33.0948,-17.1752,463.2201],[33.1027,-17.1681,473.1443],[33.1057,-17.1626,474.2065],[33.1066,-17.1562,459.9479],[33.111,-17.1502,463.4871],[33.1235,-17.1374,464.2438],[33.1234,-17.1324,455.8656],[33.1159,-17.1289,451.5562],[33.1123,-17.1242,452.7922],[33.1051,-17.1103,445.5517],[33.1058,-17.104,433.8055],[33.1129,-17.101,435.8024],[33.125,-17.0918,426.4617],[33.1271,-17.083,436.3819],[33.1312,-17.0754,431.3293],[33.1402,-17.0709,416.4437],[33.1429,-17.0387,395.0348],[33.1506,-17.0306,387.259],[33.2,-16.9964,345.5056],[33.2134,-16.9837,334.3069],[33.2166,-16.9759,357.797],[33.2153,-16.9656,317.9614],[33.2165,-16.9563,334.7495],[33.2238,-16.9468,314.9149],[33.2264,-16.9338,298.3426],[33.2397,-16.9021,279.722],[33.2475,-16.8883,259.3756],[33.254,-16.8805,249.6163],[33.2789,-16.8573,224.1727],[33.2841,-16.8314,217.2368],[33.2843,-16.8073,215.8272],[33.2916,-16.7873,235.6],[33.2975,-16.7614,205.303],[33.3139,-16.7394,202.8731],[33.3268,-16.7124,194.875],[33.3355,-16.7002,194.8021],[33.3599,-16.694,200.4674],[33.3685,-16.6897,196.0482],[33.3751,-16.6813,187.2828],[33.3812,-16.6667,183.9555],[33.3887,-16.6624,195.1719],[33.3926,-16.6552,194.4903],[33.3934,-16.6399,196.3484],[33.3963,-16.6342,196.1637],[33.4203,-16.6118,189.9913],[33.44,-16.5898,168.6593],[33.4431,-16.5804,185.3555],[33.4389,-16.5488,165.9805],[33.4353,-16.5382,196.4176],[33.4368,-16.5269,155.8397],[33.4508,-16.5161,203.995],[33.461,-16.5048,156.207],[33.4719,-16.4848,152.6371],[33.5009,-16.4696,149.6709],[33.52,-16.4469,145.1603],[33.5291,-16.4391,145.0087],[33.5425,-16.4321,144.7719],[33.569,-16.4256,138.7201],[33.5937,-16.4247,135.7662],[33.6053,-16.4293,134.0619],[33.6171,-16.4294,131.7361],[33.6848,-16.4201,149.6425],[33.709,-16.4307,123.3709],[33.7166,-16.4268,124.1791],[33.7248,-16.4121,125.5956],[33.7563,-16.3965,116.1369],[33.7847,-16.3853,110.5],[33.7706,-16.3789,111.0],[33.7613,-16.3688,118.9094],[33.7549,-16.3598,112.0],[33.7472,-16.3444,112.5],[33.7253,-16.3209,113.5],[33.722,-16.3061,114.3602],[33.7146,-16.2913,116.5817],[33.7088,-16.2893,117.5965],[33.693,-16.2762,115.0],[33.6732,-16.2574,115.5],[33.6639,-16.2431,116.4685],[33.6559,-16.2386,120.2301],[33.6462,-16.23,117.0],[33.6297,-16.2109,118.0165],[33.6198,-16.1859,118.5],[33.6222,-16.1781,126.3767],[33.635,-16.1657,125.8983],[33.6455,-16.1436,125.4904],[33.6429,-16.1393,125.3047],[33.6441,-16.1244,125.8834],[33.651,-16.1125,134.2708],[33.6498,-16.0898,155.2167],[33.645,-16.0847,159.5843],[33.6378,-16.067,181.5409],[33.6303,-16.0622,186.8573],[33.6227,-16.0524,202.2302],[33.4973,-16.0956,124.7471],[33.4659,-16.0681,124.0],[33.4579,-16.0574,125.0],[33.4578,-16.0191,127.0],[33.447,-16.0061,128.625],[33.4297,-15.9915,130.0],[33.4063,-15.9853,154.4147],[33.3817,-15.9684,131.5],[33.3754,-15.9545,132.0],[33.3677,-15.9435,132.0],[33.3408,-15.918,134.3658],[33.3172,-15.9045,133.0],[33.2924,-15.8866,136.2955],[33.2847,-15.8733,134.0],[33.2593,-15.8495,134.75],[33.2338,-15.8124,135.5],[33.2256,-15.8041,143.7131],[33.1867,-15.7982,136.5],[33.1638,-15.7908,137.0],[33.1551,-15.7853,138.1029],[33.1395,-15.7665,142.421],[33.129,-15.7574,221.2146],[33.1174,-15.7498,173.5453],[33.1063,-15.7489,154.0695],[33.0787,-15.7591,182.8575],[33.0704,-15.769,193.407],[33.0628,-15.7739,206.6227],[33.0541,-15.7783,234.9711],[33.0458,-15.7801,240.1872],[33.0507,-15.7849,214.2768],[33.0479,-15.7942,276.9785],[33.0404,-15.7969,269.4872],[33.0423,-15.8038,246.6275],[33.0364,-15.8141,273.0009],[33.0334,-15.8234,291.6504],[33.0366,-15.8277,280.0047],[33.0349,-15.8305,291.8806],[33.0228,-15.8297,310.9211],[33.0225,-15.8345,307.1811],[33.026,-15.839,303.7733],[33.0229,-15.8412,307.0256],[33.0168,-15.8384,309.1336],[33.0122,-15.8387,342.0811],[33.0106,-15.8427,318.4721],[33.0064,-15.8451,318.1362],[33.0047,-15.8438,330.1393],[33.0032,-15.8455,329.0795],[33.0064,-15.85,329.7851],[33.0003,-15.8524,329.994],[32.9909,-15.8611,345.2273],[32.9784,-15.8609,345.8991],[32.976,-15.8557,351.6792],[32.9629,-15.8539,365.4911],[32.9538,-15.8555,353.5847],[32.9265,-15.8694,365.9125],[32.9255,-15.8743,365.3408],[32.9139,-15.8779,372.8184],[32.9117,-15.8814,379.0337],[32.9079,-15.8829,378.329],[32.9055,-15.8876,386.1629],[32.9078,-15.8938,380.3097],[32.8981,-15.914,386.4875],[32.8965,-15.9241,395.1437],[32.8974,-15.9318,400.455],[32.8942,-15.9411,407.0891],[32.8896,-15.948,416.8876],[32.8576,-15.9542,435.0669],[32.8531,-15.9632,432.8718],[32.8276,-15.9682,452.705],[32.8222,-15.9664,455.1248],[32.8027,-15.9747,461.1787],[32.7667,-15.9849,479.3604],[32.7479,-15.9931,485.7709],[32.7518,-15.9957,488.6498],[32.7669,-15.9954,478.4644],[32.7806,-15.9994,466.8656],[32.79,-15.998,464.2876],[32.7989,-16.0063,455.3069],[32.8162,-16.0112,447.3806],[32.8279,-16.0181,436.918],[32.8413,-16.0352,418.5018],[32.8455,-16.0499,409.2997],[32.849,-16.054,406.7365],[32.8495,-16.0602,403.6183],[32.8452,-16.0676,400.3114],[32.8512,-16.0727,398.2315],[32.8491,-16.077,395.0594],[32.8591,-16.0875,392.9711],[32.8615,-16.096,382.6272],[32.8653,-16.0986,384.0496],[32.865,-16.1055,379.5586],[32.8691,-16.1242,370.8928],[32.8618,-16.1362,362.5045],[32.8584,-16.1459,361.29],[32.8562,-16.1851,341.585],[32.869,-16.2286,329.5482],[32.876,-16.233,348.7549],[32.8853,-16.2333,426.0595],[32.8858,-16.2372,404.389],[32.8938,-16.2535,364.5723],[32.9149,-16.2846,305.875],[32.8694,-16.3281,344.468],[32.7575,-16.358,308.0302],[32.7365,-16.4721,331.7522],[32.7236,-16.4858,339.3137],[32.7241,-16.4967,368.2669],[32.7324,-16.5206,444.3718],[32.7355,-16.5524,490.8413],[32.726,-16.5892,556.6432],[32.7253,-16.5975,598.1885],[32.7114,-16.602,709.1843],[32.7125,-16.6046,717.7921],[32.7103,-16.6415,645.9336],[32.7066,-16.6513,905.8185],[32.7023,-16.6768,1064.448],[32.7092,-16.6855,875.5724],[32.7698,-16.7094,409.6574],[32.781,-16.707,396.8422],[32.8039,-16.7078,462.8284],[32.8089,-16.7053,383.4113],[32.8255,-16.7091,408.6819],[32.8327,-16.7005,376.5929],[32.8428,-16.6989,370.6724],[32.8534,-16.708,393.8665],[32.8687,-16.7085,358.1424],[32.8862,-16.7194,315.7327],[32.8934,-16.7202,324.6537],[32.9015,-16.7163,350.0656],[32.907,-16.7106,355.2466],[32.9123,-16.7086,344.8612],[32.92,-16.702,324.1899],[32.9233,-16.7013,322.2446],[32.9276,-16.7039,345.8461],[32.9713,-16.7046,279.2497],[32.9785,-16.7072,255.1511],[32.9716,-16.7553,398.8782],[32.9667,-16.7725,442.514],[32.9573,-16.7933,496.7964],[32.9543,-16.8034,512.2554],[32.9517,-16.805,502.832],[32.9423,-16.8251,537.2003],[32.9386,-16.837,555.3745],[32.9122,-16.8942,758.4853],[32.9043,-16.8997,702.2859],[32.8854,-16.9053,811.6509],[32.8768,-16.9096,753.5676],[32.8617,-16.9111,729.8112],[32.8448,-16.9158,718.7556],[32.8357,-16.9208,951.5649],[32.8361,-16.927,791.2719],[32.8496,-16.9482,637.1038],[32.903,-17.0181,566.2144],[32.9219,-17.0496,565.4792],[32.9278,-17.054,580.1952],[32.938,-17.0686,693.5824],[32.9865,-17.1793,662.7838],[32.99,-17.1972,701.3484],[32.9935,-17.2438,520.0513],[32.9963,-17.2599,543.0015],[32.9974,-17.3086,692.8472],[33.0007,-17.3141,643.5267],[33.0081,-17.316,671.3297],[33.0331,-17.3347,567.3067],[33.0411,-17.3428,529.5878],[33.051,-17.3377,518.5381],[33.0489,-17.3136,507.6992],[33.0495,-17.301,504.4781],[33.0653,-17.2789,495.8719],[33.0757,-17.2468,483.0614]]]]}}