{"type": "Feature","bbox": [32.5526,-25.483,32.8711,-25.2107],"geometry": {"type": "MultiPolygon","coordinates": [[[[32.6299,-25.2918,59.9828],[32.6236,-25.3128,48.2595],[32.5526,-25.3897,81.5207],[32.7442,-25.4073,34.8808],[32.7435,-25.4422,38.6472],[32.7459,-25.4474,19.3642],[32.7739,-25.4635,1.8289],[32.7964,-25.483,1.7025],[32.8072,-25.4729,1.6052],[32.8131,-25.4622,1.6576],[32.8131,-25.454,2.6223],[32.8005,-25.4449,1.9782],[32.8132,-25.4293,2.1347],[32.8125,-25.4186,2.7605],[32.8088,-25.4112,18.4478],[32.8103,-25.4014,40.3747],[32.8295,-25.3981,1.8532],[32.8392,-25.4014,2.754],[32.8518,-25.3866,3.5527],[32.8592,-25.3874,2.7084],[32.8607,-25.3809,3.9029],[32.8711,-25.3761,2.7469],[32.8624,-25.3738,3.3403],[32.8363,-25.347,3.8563],[32.8277,-25.3433,3.8935],[32.8206,-25.3378,3.9131],[32.8123,-25.3347,4.6175],[32.7976,-25.3253,7.5097],[32.7922,-25.3111,18.2977],[32.7839,-25.3063,14.4782],[32.7724,-25.3044,18.0676],[32.7622,-25.3061,19.301],[32.7532,-25.3041,30.0713],[32.7415,-25.2881,38.7354],[32.7341,-25.2731,40.4657],[32.7205,-25.2522,48.4224],[32.6915,-25.2363,50.5115],[32.6741,-25.2208,50.0251],[32.6691,-25.2107,49.9822],[32.6452,-25.2407,63.2021],[32.6299,-25.2918,59.9828]]]]}
,"properties": {"GID_3": "MOZ.6.3.5_1","GID_0": "MOZ","country": "Mozambique","GID_1": "MOZ.6_1","province": "Maputo","NL_NAME_1": "NA","GID_2": "MOZ.6.3_1","county": "Manhiça","NL_NAME_2": "NA","city": "Manhica-Sede","VARNAME_3": "NA","NL_NAME_3": "NA","TYPE_3": "Localidad","ENGTYPE_3": "Locality","CC_3": "NA","HASC_3": "NA","name": "Manhica-Sede.city","area_km2": 381.1247,"hist_schema_id": "Elevation0-9000","hist_area_km2": {"0": 47.6548,"25": 98.4111,"50": 204.3066,"75": 30.7522}}}