{"type":"Feature","properties":{"GID_2":"MOZ.8.5_1","GID_0":"MOZ","country":"Mozambique","GID_1":"MOZ.8_1","province":"Nassa","NL_NAME_1":"NA","county":"Mandimba","VARNAME_2":"NA","NL_NAME_2":"NA","TYPE_2":"Distrito","ENGTYPE_2":"District","CC_2":"NA","HASC_2":"MZ.NS.MN","name":"Mandimba.county"},
"geometry":{"type": "MultiPolygon","coordinates": [[[[36.2723,-14.2844,720.3726],[36.2693,-14.2833,722.4973],[36.2682,-14.2751,718.4402],[36.2693,-14.2523,693.929],[36.2666,-14.2492,690.155],[36.2542,-14.2435,680.8621],[36.2506,-14.2398,681.7294],[36.2501,-14.232,685.1409],[36.2453,-14.2151,667.5528],[36.24,-14.2099,669.9894],[36.224,-14.208,658.0009],[36.2114,-14.1855,648.0693],[36.211,-14.1792,650.9673],[36.2077,-14.1703,650.8577],[36.197,-14.155,646.4188],[36.1956,-14.1512,646.8275],[36.1973,-14.1181,640.4002],[36.1819,-14.098,639.4441],[36.181,-14.0888,636.4335],[36.1698,-14.0789,635.6392],[36.1641,-14.0693,632.2681],[36.1572,-14.0507,633.0388],[36.1565,-14.0376,632.5067],[36.1528,-14.0322,630.4686],[36.141,-14.0295,627.5377],[36.1392,-14.0254,631.7236],[36.1256,-14.0118,627.2421],[36.1351,-13.99,631.5269],[36.1272,-13.9841,634.3094],[36.1183,-13.9805,633.5568],[36.116,-13.9745,622.2252],[36.1176,-13.9688,629.8228],[36.0956,-13.9551,622.3574],[36.0647,-13.9285,624.5703],[36.0509,-13.924,616.3514],[36.0515,-13.9169,612.1942],[36.0591,-13.9066,610.2379],[36.0602,-13.8928,611.7339],[36.0714,-13.8819,604.9874],[36.0714,-13.864,607.8878],[36.079,-13.8518,603.8362],[36.0844,-13.8493,605.3768],[36.0933,-13.8503,610.9169],[36.1067,-13.8457,605.3303],[36.1252,-13.842,607.579],[36.1052,-13.8253,616.3203],[36.092,-13.797,633.0041],[36.0832,-13.7912,630.9592],[36.0591,-13.7865,634.9091],[36.0554,-13.7794,648.4094],[36.053,-13.7865,628.2107],[36.0365,-13.8002,649.6698],[36.0295,-13.8044,657.1371],[36.0161,-13.8044,659.8275],[36.0069,-13.8133,654.2537],[35.9771,-13.8133,679.3877],[35.9734,-13.8214,678.532],[35.9624,-13.8283,668.8647],[35.9363,-13.8283,692.2115],[35.9123,-13.8334,669.3018],[35.8727,-13.8006,688.4901],[35.8503,-13.8223,708.5506],[35.8393,-13.8231,703.4224],[35.826,-13.837,713.9548],[35.7704,-13.8879,719.237],[35.7578,-13.8879,737.5964],[35.7417,-13.9007,746.3912],[35.7391,-13.9173,718.0036],[35.7233,-13.953,749.2026],[35.6937,-13.9714,775.5562],[35.6928,-13.969,773.7035],[35.6802,-13.9814,783.6193],[35.6676,-13.9999,778.3301],[35.6639,-14.0104,784.3959],[35.6559,-14.0167,790.4281],[35.6572,-14.0245,796.3248],[35.653,-14.0326,789.7473],[35.6521,-14.0418,794.2714],[35.6445,-14.0524,807.554],[35.6486,-14.0565,803.194],[35.6481,-14.0607,813.7452],[35.6443,-14.0627,814.1373],[35.6405,-14.0778,811.0253],[35.6338,-14.0849,817.6556],[35.6334,-14.0913,811.709],[35.6378,-14.119,857.0624],[35.6368,-14.1303,853.9177],[35.6394,-14.1379,877.6645],[35.6431,-14.1617,887.1359],[35.6484,-14.1693,902.0277],[35.6506,-14.1712,905.7972],[35.6645,-14.1691,861.1178],[35.6976,-14.1866,792.678],[35.7006,-14.1894,790.3217],[35.709,-14.2078,780.314],[35.7172,-14.2128,828.3201],[35.7457,-14.2205,723.9498],[35.8007,-14.2195,703.0209],[35.8199,-14.2238,694.976],[35.8322,-14.2295,685.5917],[35.8603,-14.2344,685.0544],[35.8683,-14.2369,677.8608],[35.861,-14.2509,658.442],[35.8652,-14.2526,650.1533],[35.8731,-14.2522,645.8669],[35.8867,-14.2484,639.2791],[35.8973,-14.2388,637.2747],[35.9034,-14.2386,641.5581],[35.9086,-14.2419,633.2015],[35.923,-14.2331,633.3483],[35.931,-14.2357,630.0715],[35.9369,-14.241,628.6064],[35.9412,-14.2476,622.3313],[35.9403,-14.2546,621.0822],[35.9355,-14.2638,629.6763],[35.9371,-14.2681,621.8815],[35.9556,-14.272,622.8411],[35.9603,-14.3021,625.2554],[35.9535,-14.3274,628.8108],[35.9403,-14.3447,629.8498],[35.9392,-14.3494,628.1467],[35.931,-14.3562,627.5],[35.9221,-14.3702,627.5],[35.9203,-14.3757,627.5],[35.9221,-14.3926,627.5],[35.947,-14.3955,627.5],[35.9617,-14.4122,627.5],[35.9667,-14.4202,627.5],[35.9736,-14.4247,628.4993],[36.0078,-14.4313,630.2296],[36.0133,-14.4372,633.0364],[36.0261,-14.472,638.4325],[36.0284,-14.4846,638.0394],[36.0324,-14.4947,635.6979],[36.0454,-14.5049,636.073],[36.0524,-14.5061,636.3152],[36.0463,-14.5223,681.9659],[36.1393,-14.5395,670.9548],[36.2192,-14.4375,709.0071],[36.2363,-14.3939,705.086],[36.2769,-14.3505,684.149],[36.314,-14.3395,708.2554],[36.2981,-14.2823,724.6707],[36.2723,-14.2844,720.3726]]]]}}