{"type": "Feature","bbox": [33.9355,-20.365,34.4344,-19.9212],"geometry": {"type": "MultiPolygon","coordinates": [[[[34.0445,-19.9407,35.3044],[34.0236,-19.9622,94.6857],[34.0169,-19.9978,104.8378],[34.0115,-20.0,119.9093],[34.006,-20.0062,121.128],[33.9993,-20.0236,131.116],[33.9977,-20.0325,146.3609],[33.9859,-20.0451,154.2277],[33.9766,-20.0601,169.2516],[33.9646,-20.0685,172.1287],[33.9468,-20.0861,189.8387],[33.9375,-20.0999,213.3777],[33.9358,-20.104,216.327],[33.9355,-20.1126,230.1608],[33.9637,-20.153,243.5238],[34.1285,-20.3577,156.6654],[34.1415,-20.365,148.8971],[34.2186,-20.329,140.2913],[34.2281,-20.2936,113.8765],[34.3074,-20.3143,67.4305],[34.3258,-20.2935,52.4868],[34.3627,-20.2993,32.4127],[34.4344,-20.2387,30.4675],[34.4269,-20.2139,33.8581],[34.4178,-20.2189,32.2446],[34.4054,-20.1956,40.0496],[34.4054,-20.1635,39.3816],[34.386,-20.1632,39.4807],[34.3533,-20.1575,62.3124],[34.3402,-20.1403,57.5543],[34.3343,-20.1357,57.3782],[34.2584,-20.1012,79.561],[34.2737,-20.0805,64.6992],[34.2737,-20.0598,72.0634],[34.2799,-20.0421,86.0874],[34.3013,-20.0066,64.6565],[34.2962,-20.0046,67.4657],[34.2892,-19.9987,52.4424],[34.2849,-19.9494,22.8842],[34.2645,-19.9473,15.8242],[34.2517,-19.9574,21.253],[34.2439,-19.9568,16.8138],[34.2064,-19.9474,23.6614],[34.1482,-19.9533,21.3939],[34.1175,-19.9592,75.3512],[34.0992,-19.9563,30.184],[34.0961,-19.9385,50.3158],[34.0861,-19.9212,62.4575],[34.0445,-19.9407,35.3044]]]]}
,"properties": {"GID_3": "MOZ.9.1.2_1","GID_0": "MOZ","country": "Mozambique","GID_1": "MOZ.9_1","province": "Sofala","NL_NAME_1": "NA","GID_2": "MOZ.9.1_1","county": "Buzi","NL_NAME_2": "NA","city": "Estaquinha","VARNAME_3": "NA","NL_NAME_3": "NA","TYPE_3": "Localidad","ENGTYPE_3": "Locality","CC_3": "NA","HASC_3": "NA","name": "Estaquinha.city","area_km2": 1455.191,"hist_schema_id": "Elevation0-9000","hist_area_km2": {"0": 0.159,"25": 113.25,"50": 235.361,"75": 239.039,"100": 111.429,"125": 116.704,"150": 174.202,"175": 182.765,"200": 135.168,"225": 127.964,"250": 19.15}}}