{"type":"Feature","properties":{"GID_3":"MOZ.2.8.1_1","GID_0":"MOZ","country":"Mozambique","GID_1":"MOZ.2_1","province":"Gaza","NL_NAME_1":"NA","GID_2":"MOZ.2.8_1","county":"Mandlakazi","NL_NAME_2":"NA","city":"Chalala","VARNAME_3":"NA","NL_NAME_3":"NA","TYPE_3":"Localidad","ENGTYPE_3":"Locality","CC_3":"NA","HASC_3":"NA","name":"Chalala.city"},
"geometry":{"type": "MultiPolygon","coordinates": [[[[33.8175,-24.6404,67.8268],[33.8229,-24.653,69.2835],[33.8296,-24.6614,69.1593],[33.8321,-24.6688,75.5767],[33.8234,-24.6835,79.6762],[33.8187,-24.6875,80.1139],[33.8981,-24.6798,65.5633],[33.905,-24.6772,59.7967],[33.9179,-24.6771,57.6508],[33.9319,-24.6735,56.7613],[33.9494,-24.6515,68.4205],[33.9551,-24.6497,72.3097],[33.9578,-24.6507,71.7366],[33.9621,-24.662,62.6841],[33.9663,-24.6603,62.6],[34.0021,-24.6606,45.0789],[34.0145,-24.6566,43.7002],[34.0237,-24.6611,47.0458],[34.0334,-24.6635,42.5507],[34.0358,-24.6691,48.6667],[34.0329,-24.6921,41.645],[34.0343,-24.6997,40.967],[34.0364,-24.7021,40.8457],[34.0466,-24.6992,40.8145],[34.0573,-24.6984,41.884],[34.0646,-24.7109,50.6495],[34.0663,-24.718,71.7806],[34.0748,-24.728,55.7531],[34.0907,-24.7358,59.5975],[34.0817,-24.7524,46.5129],[34.084,-24.7644,35.5352],[34.1077,-24.7518,26.3511],[34.1282,-24.7434,25.9372],[34.1503,-24.7442,26.0194],[34.1771,-24.7414,24.7652],[34.1933,-24.7425,24.5],[34.203,-24.7406,24.5],[34.2177,-24.73,24.8027],[34.2246,-24.7269,24.5],[34.2425,-24.7237,24.8079],[34.2596,-24.7274,24.5],[34.2738,-24.7369,24.7699],[34.2854,-24.7423,24.5],[34.3017,-24.7429,24.5],[34.3015,-24.7071,27.6245],[34.4551,-24.636,34.9185],[34.3541,-24.5273,51.5274],[34.4285,-24.4555,1.8088],[34.4223,-24.4489,24.8518],[34.396,-24.4595,26.2805],[34.3402,-24.4678,2.4827],[34.3263,-24.4792,10.3149],[34.3145,-24.4837,11.3803],[34.3073,-24.4791,13.8835],[34.3028,-24.4791,19.4994],[34.2875,-24.4845,6.1135],[34.2735,-24.4852,29.4415],[34.2587,-24.4881,9.0418],[34.2183,-24.5079,10.8176],[34.2066,-24.5165,7.3511],[34.1959,-24.5178,10.0188],[34.1808,-24.5171,9.4522],[34.1411,-24.5359,20.0992],[34.1328,-24.5424,16.9596],[34.1085,-24.5496,20.3623],[34.0999,-24.5469,23.1809],[34.0937,-24.5478,22.4428],[34.0801,-24.5572,22.2991],[34.0353,-24.5553,28.0278],[34.0259,-24.5559,28.6184],[34.0141,-24.5591,29.2903],[34.0058,-24.5582,29.7571],[34.002,-24.5601,31.1815],[33.9626,-24.5603,37.9307],[33.953,-24.5657,43.1248],[33.9421,-24.5669,44.8772],[33.9366,-24.5649,45.6298],[33.9106,-24.5648,44.785],[33.8831,-24.5732,49.4179],[33.8751,-24.5736,49.2995],[33.8608,-24.5693,56.3795],[33.8486,-24.5788,60.954],[33.8422,-24.5889,56.4157],[33.8397,-24.5961,56.0382],[33.8363,-24.6286,62.7149],[33.834,-24.6322,66.4315],[33.8269,-24.6327,66.3219],[33.8209,-24.6298,66.5404],[33.8166,-24.6332,64.7479],[33.8175,-24.6404,67.8268]]]]}}