{"type":"Feature","properties":{"GID_3":"MOZ.10.1.2_1","GID_0":"MOZ","country":"Mozambique","GID_1":"MOZ.10_1","province":"Tete","NL_NAME_1":"NA","GID_2":"MOZ.10.1_1","county":"Angónia","NL_NAME_2":"NA","city":"Ulongoe","VARNAME_3":"NA","NL_NAME_3":"NA","TYPE_3":"Localidad","ENGTYPE_3":"Locality","CC_3":"NA","HASC_3":"NA","name":"Ulongoe.city"},
"geometry":{"type": "MultiPolygon","coordinates": [[[[34.341,-14.3966,1626.2183],[34.3265,-14.397,1566.9645],[34.3113,-14.404,1558.3718],[34.3091,-14.4037,1558.6084],[34.3065,-14.4003,1541.615],[34.2989,-14.4027,1523.6659],[34.2987,-14.4195,1461.1959],[34.2921,-14.4394,1399.9066],[34.2888,-14.4701,1359.7629],[34.2701,-14.4919,1327.4897],[34.2649,-14.5232,1293.2527],[34.2579,-14.5387,1291.1179],[34.2501,-14.5476,1269.7808],[34.2342,-14.5492,1257.8076],[34.2279,-14.5632,1235.71],[34.2244,-14.5617,1230.4205],[34.2215,-14.5841,1206.1807],[34.2138,-14.5914,1184.3033],[34.2118,-14.5977,1186.0457],[34.2173,-14.6075,1195.5286],[34.2297,-14.6207,1180.2855],[34.2219,-14.6297,1122.9497],[34.2243,-14.6354,1119.1453],[34.2459,-14.6678,1120.6167],[34.253,-14.6951,1102.7487],[34.2589,-14.7059,1095.3214],[34.2519,-14.7121,1081.4557],[34.243,-14.7157,1048.9259],[34.2402,-14.7204,1049.6555],[34.233,-14.7253,1038.4977],[34.2286,-14.7306,1033.802],[34.2294,-14.7414,1026.6964],[34.2281,-14.7519,999.7687],[34.2227,-14.772,998.5014],[34.2173,-14.7824,978.7819],[34.2171,-14.7908,982.9512],[34.2223,-14.8183,986.2259],[34.2137,-14.8309,960.5593],[34.2119,-14.8388,966.5822],[34.2087,-14.8433,957.1308],[34.2015,-14.846,946.3425],[34.1964,-14.8519,956.4249],[34.1898,-14.8558,939.9358],[34.1861,-14.8615,971.0065],[34.1884,-14.8732,968.9471],[34.181,-14.9038,933.6278],[34.1785,-14.9092,922.26],[34.1817,-14.9156,916.4243],[34.1745,-14.9355,902.3185],[34.1754,-14.9464,931.4202],[34.1825,-14.9507,913.3408],[34.1931,-14.9453,938.532],[34.1954,-14.9334,931.998],[34.2064,-14.9249,944.0031],[34.2132,-14.9233,939.8918],[34.224,-14.916,956.5907],[34.2345,-14.8935,977.6633],[34.2449,-14.8832,981.5341],[34.2564,-14.883,995.0333],[34.2661,-14.876,987.968],[34.2772,-14.8587,990.2742],[34.3064,-14.8264,1024.4044],[34.3229,-14.8215,1067.0616],[34.3368,-14.8129,1086.9867],[34.3443,-14.8043,1107.0813],[34.3513,-14.7863,1148.7024],[34.3519,-14.7804,1161.3259],[34.3624,-14.7776,1170.8228],[34.3663,-14.769,1178.9348],[34.3682,-14.7582,1179.5131],[34.3771,-14.7579,1188.4524],[34.3836,-14.7534,1199.3857],[34.3765,-14.7462,1206.8702],[34.3816,-14.742,1229.0359],[34.3937,-14.7417,1223.2563],[34.4106,-14.7349,1232.1323],[34.4125,-14.721,1243.4707],[34.4173,-14.7097,1241.1727],[34.4392,-14.7008,1270.0232],[34.4564,-14.6908,1272.6877],[34.4692,-14.6922,1285.9216],[34.4759,-14.6875,1305.6619],[34.4853,-14.6861,1289.4996],[34.5191,-14.6858,1382.4491],[34.5185,-14.6832,1388.4382],[34.526,-14.6851,1349.973],[34.532,-14.6887,1337.0222],[34.5327,-14.6855,1382.3259],[34.5409,-14.6848,1360.0065],[34.5404,-14.6751,1386.4226],[34.5359,-14.6721,1376.9832],[34.5383,-14.6681,1397.9897],[34.5386,-14.6568,1402.8134],[34.5408,-14.6525,1420.9402],[34.5451,-14.6519,1437.0454],[34.5495,-14.6421,1452.1951],[34.5413,-14.6312,1473.123],[34.5408,-14.6242,1480.671],[34.5433,-14.6196,1499.9749],[34.5402,-14.614,1490.7413],[34.5409,-14.5994,1519.8729],[34.5339,-14.5848,1559.6782],[34.5267,-14.5792,1554.4937],[34.5226,-14.5645,1554.3735],[34.5122,-14.5515,1490.7729],[34.5011,-14.552,1505.9562],[34.4929,-14.5504,1462.9583],[34.4852,-14.5366,1522.5723],[34.4738,-14.5311,1500.7124],[34.4706,-14.5242,1502.2094],[34.4664,-14.5202,1467.0483],[34.4673,-14.5194,1453.0289],[34.4567,-14.5097,1451.588],[34.4496,-14.4959,1461.0334],[34.4454,-14.4758,1501.0548],[34.4366,-14.464,1530.177],[34.4293,-14.4595,1500.9781],[34.4215,-14.4412,1544.8792],[34.4197,-14.4403,1558.1251],[34.4181,-14.4287,1540.5151],[34.4019,-14.4174,1545.1265],[34.4001,-14.412,1568.5327],[34.3929,-14.403,1556.512],[34.3932,-14.3956,1580.9135],[34.3919,-14.3931,1586.1594],[34.3891,-14.3933,1579.9606],[34.3862,-14.3962,1582.8243],[34.3765,-14.3947,1541.4017],[34.374,-14.3931,1541.7875],[34.3705,-14.3853,1541.7194],[34.3634,-14.3859,1539.6067],[34.3568,-14.3841,1564.6029],[34.3498,-14.3895,1606.5647],[34.3468,-14.3944,1606.8969],[34.341,-14.3966,1626.2183]]]]}}