{"type": "Feature","bbox": [37.0675,-17.6626,38.1193,-16.5279],"geometry": {"type": "MultiPolygon","coordinates": [[[[37.3649,-17.6624,2.9327],[37.3646,-17.6626,2.9327],[37.3649,-17.6626,2.9327],[37.3649,-17.6624,2.9327]]],
[[[37.3651,-17.6621,2.9327],[37.3654,-17.6621,2.9327],[37.3654,-17.6617,2.9327],[37.3652,-17.662,2.9327],[37.3651,-17.6621,2.9327]]],
[[[37.3662,-17.6612,4.4557],[37.3662,-17.6609,4.4557],[37.3659,-17.6612,4.4557],[37.3662,-17.6612,4.4557]]],
[[[37.5887,-17.5387,0.0],[37.5882,-17.5371,0.0],[37.5874,-17.5401,0.0],[37.5893,-17.5432,0.0],[37.591,-17.5407,0.0],[37.5887,-17.5387,0.0]]],
[[[37.6046,-17.5399,0.0],[37.6018,-17.5393,0.0],[37.6013,-17.5396,0.0],[37.6026,-17.5407,0.0],[37.6046,-17.5399,0.0]]],
[[[37.5924,-17.5346,0.0],[37.5907,-17.534,0.0],[37.5932,-17.5362,0.0],[37.5932,-17.5354,0.0],[37.5924,-17.5346,0.0]]],
[[[37.6993,-17.4776,0.0],[37.6974,-17.4765,0.0],[37.6901,-17.4835,0.0],[37.6907,-17.4849,0.0],[37.6924,-17.484,0.0],[37.6954,-17.486,0.0],[37.6965,-17.4885,0.0],[37.7001,-17.489,0.0],[37.699,-17.4862,0.0],[37.7012,-17.4865,0.0],[37.6993,-17.4849,0.0],[37.7021,-17.4846,0.0],[37.7021,-17.4826,0.0],[37.7043,-17.4837,0.0],[37.6993,-17.4776,0.0]]],
[[[37.689,-17.484,0.0],[37.6899,-17.4801,0.0],[37.6879,-17.4815,0.0],[37.6879,-17.4837,0.0],[37.6893,-17.4851,0.0],[37.689,-17.484,0.0]]],
[[[37.5904,-17.536,0.0],[37.5901,-17.5349,0.0],[37.5874,-17.5354,0.0],[37.5887,-17.5368,0.0],[37.5904,-17.536,0.0]]],
[[[37.5804,-17.5379,0.0],[37.5821,-17.5315,0.0],[37.5876,-17.5293,2.2463],[37.5929,-17.5307,0.0],[37.5962,-17.5346,0.0],[37.6029,-17.5376,1.5045],[37.6082,-17.5368,1.8953],[37.6232,-17.5254,4.0371],[37.6418,-17.514,3.6167],[37.6757,-17.4979,4.0964],[37.6835,-17.4912,0.0],[37.6849,-17.4785,0.0],[37.689,-17.4726,0.5924],[37.6957,-17.4718,0.0],[37.7038,-17.4779,2.3772],[37.7079,-17.4793,3.7698],[37.7121,-17.4785,0.6513],[37.7576,-17.4551,0.0],[37.7929,-17.4332,4.3414],[37.8479,-17.4054,1.4817],[37.9051,-17.3821,0.0],[37.9637,-17.3549,1.3947],[38.0021,-17.3415,0.0],[38.0062,-17.3396,0.0],[38.0074,-17.3374,3.4707],[38.0129,-17.3379,7.0621],[38.0482,-17.3276,3.8646],[38.046,-17.3215,3.1664],[38.0376,-17.3115,1.9545],[38.0201,-17.3007,1.423],[38.0001,-17.284,2.5],[37.9907,-17.2851,3.9085],[37.984,-17.2821,2.9548],[37.9782,-17.2676,2.8411],[37.9715,-17.2612,2.7197],[37.9635,-17.2568,2.7403],[37.9615,-17.2532,3.1123],[37.9776,-17.2632,2.5],[37.9865,-17.2804,2.5],[37.9915,-17.2829,3.3811],[38.0007,-17.2807,3.421],[38.0051,-17.2829,2.8941],[38.009,-17.2876,2.5413],[38.0124,-17.2882,1.75],[38.0129,-17.2854,2.2142],[38.0099,-17.2779,1.5],[38.0104,-17.2721,2.7932],[38.0271,-17.2574,2.3944],[38.0288,-17.2529,1.8693],[38.0285,-17.2437,1.9366],[38.0354,-17.239,2.1238],[38.0354,-17.2404,2.9083],[38.0293,-17.2446,1.5],[38.031,-17.2538,1.885],[38.0293,-17.2574,2.1235],[38.0149,-17.2701,3.3269],[38.0126,-17.2782,1.5],[38.0176,-17.2899,1.5],[38.0246,-17.2962,2.8049],[38.0262,-17.2957,0.5],[38.0318,-17.2854,2.1708],[38.0282,-17.2985,0.5],[38.0412,-17.3054,2.7144],[38.0499,-17.3151,1.5135],[38.0504,-17.3207,0.0],[38.0543,-17.3229,0.6443],[38.0596,-17.3232,0.0],[38.0749,-17.3199,0.0],[38.0793,-17.3237,0.0],[38.086,-17.3232,0.0],[38.0868,-17.319,0.0],[38.0846,-17.3162,0.0],[38.0874,-17.3124,0.8327],[38.1079,-17.3018,0.0],[38.1129,-17.2968,0.0],[38.1129,-17.2943,0.0],[38.111,-17.2932,0.0],[38.0943,-17.2951,1.6412],[38.0807,-17.2929,1.847],[38.0846,-17.291,2.871],[38.1007,-17.2926,0.0],[38.0826,-17.2813,5.5052],[38.0668,-17.2813,4.4056],[38.0635,-17.2799,3.4561],[38.0588,-17.2746,2.8995],[38.0582,-17.2682,1.5],[38.0599,-17.2654,1.5],[38.0585,-17.2632,2.4638],[38.0429,-17.2565,2.3741],[38.0438,-17.256,3.7102],[38.049,-17.2568,2.9553],[38.0596,-17.2604,3.6745],[38.0618,-17.2635,4.5423],[38.0626,-17.274,1.0],[38.0671,-17.2774,1.0],[38.0715,-17.2774,4.2594],[38.0788,-17.2746,1.0],[38.0804,-17.2679,3.7156],[38.0832,-17.264,5.4246],[38.094,-17.2579,2.6243],[38.0918,-17.2612,3.2613],[38.0846,-17.264,3.0031],[38.081,-17.2735,1.0],[38.084,-17.2768,3.1064],[38.1007,-17.284,0.0],[38.1076,-17.2763,0.0],[38.1074,-17.2738,0.9551],[38.1093,-17.2729,0.5],[38.1096,-17.2707,2.575],[38.1179,-17.2632,1.9328],[38.1193,-17.2521,1.0],[38.1171,-17.2471,2.0209],[38.1121,-17.2421,1.8836],[38.0824,-17.2229,1.9257],[38.066,-17.2013,4.2501],[38.0626,-17.2007,2.4556],[38.0651,-17.1999,2.8551],[38.0674,-17.2007,4.812],[38.0699,-17.2051,3.1288],[38.0726,-17.206,4.0244],[38.064,-17.1924,2.905],[38.0632,-17.186,2.0637],[38.0668,-17.1824,5.0475],[38.069,-17.1837,3.7169],[38.0721,-17.1826,1.5],[38.0718,-17.1787,2.3558],[38.066,-17.1724,4.748],[38.0662,-17.1679,5.4888],[38.0679,-17.1654,2.0],[38.0743,-17.1632,2.0],[38.0768,-17.1585,2.0],[38.069,-17.1574,3.3291],[38.0657,-17.1501,4.6722],[38.0635,-17.1482,5.3073],[38.0585,-17.1476,2.6633],[38.0526,-17.1424,3.8495],[38.051,-17.1374,5.8674],[38.0596,-17.1474,2.7612],[38.0651,-17.1479,4.2197],[38.0701,-17.1562,8.06],[38.0745,-17.1554,5.873],[38.0678,-17.1493,5.5417],[38.0533,-17.1203,4.1309],[38.0689,-17.1147,12.0268],[38.0712,-17.1094,10.5758],[38.0589,-17.0879,13.9556],[38.0666,-17.0483,24.5481],[38.0523,-17.0201,24.3068],[38.0508,-17.0129,44.6126],[38.034,-16.9985,25.962],[38.0411,-16.984,26.8502],[38.0278,-16.9747,31.1094],[38.0156,-16.9635,37.9825],[38.0031,-16.963,40.5628],[37.9983,-16.9642,40.2979],[37.9968,-16.9624,47.3525],[37.9992,-16.9576,44.1949],[38.0118,-16.9493,43.2314],[38.0155,-16.9372,58.7846],[38.0081,-16.9307,54.9141],[38.0042,-16.9228,48.638],[38.0028,-16.9107,54.4769],[37.9987,-16.8993,55.8496],[38.002,-16.8921,67.6915],[37.9943,-16.8798,61.8961],[37.9987,-16.8715,67.5259],[37.9973,-16.8661,71.483],[37.9985,-16.8609,79.6158],[37.9974,-16.858,82.5714],[37.9914,-16.8546,62.6858],[37.9882,-16.8469,73.5254],[37.9872,-16.8337,70.5728],[37.99,-16.8367,70.5135],[37.9928,-16.8351,70.0335],[37.9894,-16.824,80.0005],[37.9931,-16.8161,74.5558],[37.999,-16.8116,77.2499],[38.0044,-16.8044,89.9616],[38.0022,-16.8013,85.3367],[37.9957,-16.798,74.6952],[37.9974,-16.7838,95.7354],[37.9894,-16.7719,103.3376],[37.9849,-16.7687,91.8687],[37.9852,-16.7652,101.3483],[37.9908,-16.762,96.0979],[37.9914,-16.7593,109.7817],[37.9863,-16.7552,103.1645],[37.984,-16.7505,97.8048],[37.9784,-16.7482,110.1784],[37.9833,-16.7356,102.9132],[37.9907,-16.7296,107.3394],[37.9931,-16.7173,119.0482],[37.9857,-16.7131,117.8687],[37.9949,-16.6956,113.6959],[37.9858,-16.6886,115.3383],[37.9589,-16.6824,123.2044],[37.9434,-16.6704,136.4209],[37.9212,-16.6499,135.354],[37.9194,-16.6142,150.9935],[37.9237,-16.6069,152.3332],[37.9271,-16.5913,158.1489],[37.9179,-16.5883,173.8111],[37.9175,-16.5817,175.2299],[37.9202,-16.5711,171.0251],[37.9163,-16.5591,191.0073],[37.9023,-16.5448,188.8366],[37.9003,-16.5279,194.4095],[37.8685,-16.5489,193.8573],[37.8519,-16.5518,175.8873],[37.8457,-16.5549,172.9903],[37.8422,-16.5629,161.9756],[37.8319,-16.5662,169.4548],[37.8185,-16.5659,167.7151],[37.7956,-16.5793,123.7611],[37.7892,-16.5781,127.2728],[37.7832,-16.588,126.3687],[37.7824,-16.5959,128.9161],[37.785,-16.601,127.6998],[37.7898,-16.6051,133.7614],[37.7899,-16.62,118.3739],[37.7826,-16.6129,131.3218],[37.7794,-16.606,131.9352],[37.7794,-16.601,120.0789],[37.7731,-16.6008,134.2262],[37.7646,-16.5964,147.0055],[37.7589,-16.5971,146.685],[37.7549,-16.5934,164.0555],[37.7499,-16.6204,134.817],[37.7522,-16.6286,129.3646],[37.7536,-16.6531,112.3678],[37.7508,-16.6644,106.6568],[37.7416,-16.6609,123.2922],[37.7373,-16.6558,112.9566],[37.7379,-16.6507,119.8182],[37.7241,-16.6483,128.6385],[37.7163,-16.6387,130.2096],[37.7137,-16.6315,132.8518],[37.6967,-16.6333,134.2946],[37.6816,-16.6247,146.5172],[37.6774,-16.624,141.8215],[37.6718,-16.6302,136.822],[37.6677,-16.6305,139.6539],[37.6662,-16.6257,147.8717],[37.6537,-16.6119,150.2515],[37.6358,-16.6043,166.655],[37.6216,-16.5844,163.399],[37.6195,-16.5756,165.3652],[37.5927,-16.5825,185.2014],[37.5754,-16.5832,191.5725],[37.5597,-16.5807,210.2491],[37.552,-16.5824,230.6591],[37.5375,-16.5739,272.3046],[37.536,-16.5845,265.0193],[37.4929,-16.591,201.2508],[37.4669,-16.6069,172.128],[37.4643,-16.62,167.6043],[37.4754,-16.6258,169.5564],[37.4837,-16.6362,161.9432],[37.4841,-16.6432,152.6755],[37.502,-16.6811,140.0302],[37.5047,-16.7066,135.8365],[37.5009,-16.7199,140.8249],[37.5154,-16.7337,131.7716],[37.5206,-16.7648,116.4112],[37.5085,-16.7763,111.9202],[37.5103,-16.7841,118.1422],[37.5062,-16.7911,110.3371],[37.4954,-16.7916,115.7566],[37.4913,-16.8021,103.9991],[37.4915,-16.8057,110.6575],[37.4968,-16.8169,109.6228],[37.4923,-16.8245,111.6762],[37.4836,-16.8255,107.5041],[37.4886,-16.8339,113.6866],[37.4957,-16.8379,111.8406],[37.4963,-16.8442,100.3137],[37.491,-16.851,98.9746],[37.4877,-16.8466,105.1132],[37.4826,-16.8437,105.4255],[37.4821,-16.8481,99.8389],[37.4761,-16.8589,102.4479],[37.4777,-16.8696,92.5195],[37.4712,-16.8732,93.0727],[37.4676,-16.8815,93.0807],[37.4568,-16.8938,85.7901],[37.4601,-16.8978,92.0947],[37.4451,-16.899,88.4058],[37.4449,-16.9027,86.6701],[37.4524,-16.9045,89.1093],[37.4555,-16.9087,86.5952],[37.4557,-16.9208,88.6332],[37.4603,-16.9241,90.5827],[37.4296,-16.9506,110.0997],[37.4209,-16.9549,118.2221],[37.4148,-16.9558,114.3369],[37.4009,-16.969,78.9214],[37.3955,-16.9777,57.0103],[37.394,-16.9706,63.8219],[37.3865,-16.9614,76.3596],[37.3817,-16.9612,75.6953],[37.3207,-16.9696,113.0468],[37.2959,-16.9751,146.7294],[37.2892,-16.9968,92.9538],[37.2855,-17.0221,79.3397],[37.2774,-17.0355,71.1519],[37.2665,-17.0333,66.3878],[37.2563,-17.0263,68.1813],[37.2431,-17.0263,69.4667],[37.2262,-17.0492,83.4851],[37.2079,-17.046,98.155],[37.2007,-17.048,96.9362],[37.1737,-17.0611,118.4541],[37.1622,-17.076,107.2759],[37.156,-17.0807,106.8539],[37.1538,-17.09,94.7856],[37.1429,-17.111,83.9419],[37.1253,-17.1273,95.4619],[37.1129,-17.1495,90.5701],[37.0966,-17.1535,100.5305],[37.0841,-17.1595,92.3374],[37.081,-17.1774,65.2828],[37.0675,-17.1945,42.7951],[37.0681,-17.2161,32.2823],[37.0732,-17.2362,25.686],[37.0827,-17.2627,25.3338],[37.1218,-17.3245,22.7179],[37.129,-17.3289,20.9569],[37.1778,-17.3491,20.3602],[37.2242,-17.3973,17.5757],[37.238,-17.4304,13.2695],[37.2556,-17.4435,12.9209],[37.2769,-17.4513,13.384],[37.3044,-17.491,10.8846],[37.3059,-17.5062,5.5],[37.2988,-17.5114,9.919],[37.307,-17.525,7.6786],[37.3358,-17.5376,9.2959],[37.3334,-17.5654,7.396],[37.3377,-17.5689,4.1915],[37.3439,-17.5634,3.8316],[37.3726,-17.5989,4.2242],[37.3583,-17.5977,3.5242],[37.3626,-17.6335,5.6072],[37.3658,-17.6463,5.3421],[37.3635,-17.6525,12.0319],[37.3677,-17.6591,6.5315],[37.3662,-17.6609,4.4557],[37.4196,-17.6301,0.0],[37.4254,-17.6238,0.0],[37.4329,-17.6204,0.0],[37.4382,-17.6207,0.0],[37.4679,-17.6032,6.4561],[37.5285,-17.5738,4.7425],[37.5326,-17.5729,1.4414],[37.561,-17.5582,1.8733],[37.5615,-17.5565,3.8485],[37.5715,-17.5526,2.9267],[37.5801,-17.5446,0.7032],[37.5804,-17.5379,0.0]]]]}
,"properties": {"GID_2": "MOZ.11.8_1","GID_0": "MOZ","country": "Mozambique","GID_1": "MOZ.11_1","province": "Zambezia","NL_NAME_1": "NA","county": "MaganjadaCosta","VARNAME_2": "NA","NL_NAME_2": "NA","TYPE_2": "Distrito","ENGTYPE_2": "District","CC_2": "NA","HASC_2": "MZ.ZA.MC","name": "Maganjada_Costa.county","area_km2": 7697.441,"hist_schema_id": "Elevation0-9000","hist_area_km2": {"0": 1584.519,"25": 1072.265,"50": 1172.365,"75": 1132.755,"100": 940.221,"125": 710.002,"150": 499.627,"175": 318.338,"200": 191.698,"225": 62.02,"250": 13.329,"275": 0.305}}}