{"type": "Feature","bbox": [38.5075,-17.1238,39.137,-16.1195],"geometry": {"type": "MultiPolygon","coordinates": [[[[39.0765,-17.1188,0.0],[39.0679,-17.1196,5.4323],[39.0676,-17.1226,2.6466],[39.0701,-17.1238,0.0],[39.0774,-17.1207,0.0],[39.0779,-17.119,0.0],[39.0765,-17.1188,0.0]]],
[[[39.0843,-16.9463,1.0],[39.0835,-16.9457,8.9244],[39.084,-16.9524,1.3003],[39.0818,-16.9546,1.0],[39.0829,-16.9551,1.0],[39.0871,-16.9529,1.0],[39.0843,-16.9463,1.0]]],
[[[39.0707,-16.9343,1.5],[39.0679,-16.934,1.5],[39.0629,-16.9365,1.5],[39.0624,-16.9399,1.5],[39.0643,-16.9435,1.5],[39.0596,-16.9518,9.8853],[39.0776,-16.9546,1.25],[39.0829,-16.9499,1.0],[39.0832,-16.9371,1.0],[39.0788,-16.9374,2.0671],[39.0707,-16.9343,1.5]]],
[[[39.0829,-16.9307,1.25],[39.0801,-16.9346,1.5],[39.0846,-16.9326,1.0],[39.084,-16.9324,1.0],[39.0824,-16.9329,1.125],[39.0829,-16.9307,1.25]]],
[[[39.1213,-17.0871,0.0],[39.1179,-17.0868,0.0],[39.1157,-17.0899,0.0],[39.1201,-17.0929,3.9136],[39.1265,-17.090699999999998,3.4348],[39.126,-17.089,0.0],[39.1213,-17.0871,0.0]]],
[[[39.1085,-16.9262,0.0],[39.1093,-16.9254,0.0],[39.1065,-16.9271,0.0],[39.1076,-16.9271,0.0],[39.1085,-16.9262,0.0]]],
[[[39.1218,-16.9076,0.0],[39.1226,-16.906,0.0],[39.1235,-16.9054,0.0],[39.1213,-16.9065,0.0],[39.1218,-16.9076,0.0]]],
[[[39.1265,-16.9001,5.3458],[39.126,-16.9021,0.5],[39.1276,-16.9015,1.916],[39.1271,-16.899,0.9293],[39.1265,-16.9001,5.3458]]],
[[[39.1243,-16.8976,1.1517],[39.1229,-16.8971,1.1517],[39.1232,-16.8985,2.2528],[39.1254,-16.8987,3.0427],[39.1254,-16.8982,3.0427],[39.1243,-16.8976,1.1517]]],
[[[39.0771,-16.9301,1.5],[39.0749,-16.9293,2.6974],[39.0749,-16.9318,1.5],[39.079,-16.9329,1.5629],[39.079,-16.931,1.5],[39.0771,-16.9301,1.5]]],
[[[38.9179,-16.1849,100.9858],[38.9181,-16.1703,108.4812],[38.8998,-16.1552,102.4347],[38.895,-16.1598,105.1965],[38.894,-16.167,105.343],[38.8876,-16.1713,118.7194],[38.8807,-16.1679,124.0907],[38.8671,-16.1332,113.6674],[38.8532,-16.121,120.0894],[38.8442,-16.1195,122.6194],[38.8308,-16.12,135.96],[38.7611,-16.1393,182.2584],[38.7429,-16.1515,188.5482],[38.7297,-16.1573,197.5293],[38.706,-16.1605,229.5962],[38.6917,-16.1565,230.3776],[38.66,-16.1438,239.7466],[38.6469,-16.1589,209.5495],[38.6354,-16.1679,196.4097],[38.6053,-16.1858,168.4717],[38.6005,-16.1937,162.8038],[38.5991,-16.2081,158.1248],[38.5882,-16.2138,161.7415],[38.5801,-16.227,148.0382],[38.5786,-16.2374,148.9803],[38.5648,-16.2437,139.7288],[38.5498,-16.2548,141.8415],[38.5449,-16.3099,124.5213],[38.5355,-16.3225,114.2669],[38.5316,-16.3394,122.1645],[38.5248,-16.3421,128.7999],[38.5075,-16.3403,114.2148],[38.5158,-16.3517,113.117],[38.5209,-16.3653,109.2452],[38.5441,-16.3732,107.0328],[38.5494,-16.3761,106.2827],[38.5522,-16.3801,106.3428],[38.554,-16.3876,102.4329],[38.547,-16.39,110.9263],[38.5301,-16.391,108.426],[38.5245,-16.3982,112.0174],[38.5278,-16.4103,103.6964],[38.5344,-16.4186,80.1874],[38.5338,-16.4256,95.6449],[38.5377,-16.4307,75.426],[38.536,-16.435,92.3401],[38.5375,-16.4395,74.0508],[38.5364,-16.4467,77.8001],[38.5329,-16.4536,70.8323],[38.5311,-16.4628,75.4525],[38.5376,-16.4716,79.7037],[38.5451,-16.478,80.0524],[38.5561,-16.4809,80.8129],[38.5572,-16.4913,70.7232],[38.5533,-16.4968,64.9221],[38.5608,-16.5032,79.2642],[38.5921,-16.5208,71.6258],[38.6054,-16.522,64.8896],[38.6115,-16.5417,53.8704],[38.6187,-16.5493,66.632],[38.6334,-16.5502,52.6162],[38.679,-16.5477,62.8434],[38.6871,-16.5528,59.7831],[38.6956,-16.5663,57.2947],[38.7104,-16.5755,56.5556],[38.7219,-16.5795,49.3292],[38.7283,-16.5904,35.2166],[38.7428,-16.6041,40.4905],[38.7496,-16.6135,52.8692],[38.7432,-16.617,53.5425],[38.7313,-16.6356,47.4474],[38.7373,-16.6415,51.718],[38.7464,-16.6394,50.2853],[38.7906,-16.65,32.5877],[38.8135,-16.6514,31.7485],[38.8134,-16.6642,47.0063],[38.7991,-16.6939,32.5708],[38.815,-16.7137,24.0844],[38.8145,-16.753,23.8671],[38.8283,-16.7622,23.0968],[38.8288,-16.7694,24.6849],[38.8228,-16.7696,20.6179],[38.8273,-16.7795,22.2555],[38.8353,-16.7857,26.9601],[38.8312,-16.8172,18.9548],[38.8319,-16.873,14.8385],[38.8374,-16.8792,13.8066],[38.8481,-16.886,15.5564],[38.8541,-16.8919,11.6361],[38.8466,-16.9262,11.881],[38.8514,-16.9352,11.9958],[38.8712,-16.944,8.4546],[38.8562,-16.9592,6.3214],[38.8535,-16.9699,10.8306],[38.8604,-16.9789,8.3193],[38.8718,-16.9831,5.3228],[38.868899999999996,-16.9882,9.9237],[38.8915,-17.0446,0.0],[38.9215,-17.0338,0.0],[38.9235,-17.0312,0.125],[38.9207,-17.0304,1.2257],[38.9215,-17.0287,2.166],[38.9243,-17.0296,0.125],[38.9285,-17.0276,4.859],[38.9301,-17.0293,3.6685],[38.9579,-17.0179,11.0949],[38.9874,-17.0107,4.2673],[39.0132,-17.009,4.5601],[39.0446,-17.0107,2.9409],[39.0671,-17.0143,0.0],[39.0732,-17.0135,0.0],[39.0801,-17.0037,0.0],[39.0962,-16.9743,2.0581],[39.1204,-16.9435,1.9555],[39.1224,-16.9365,0.7381],[39.1193,-16.9385,3.1854],[39.1176,-16.9351,1.9785],[39.1113,-16.9307,0.0],[39.104,-16.9285,1.767],[39.1001,-16.9285,0.5],[39.0965,-16.9315,4.5026],[39.0935,-16.9312,0.5],[39.0893,-16.9368,1.0],[39.0907,-16.9504,1.0],[39.0924,-16.9532,4.5],[39.0915,-16.9568,12.306],[39.0879,-16.9565,11.7283],[39.0812,-16.9624,2.5225],[39.0762,-16.9632,10.3644],[39.0818,-16.961,3.2576],[39.0829,-16.959,2.2297],[39.0774,-16.9599,10.1598],[39.0563,-16.9549,6.7222],[39.0563,-16.9504,5.4689],[39.0596,-16.946,2.7387],[39.0632,-16.944,1.5],[39.0612,-16.9401,1.5],[39.0626,-16.9343,3.6036],[39.0738,-16.9315,1.5],[39.0726,-16.926,2.0],[39.0682,-16.9218,3.025],[39.0618,-16.9226,4.206],[39.0649,-16.9212,5.787],[39.0685,-16.9212,6.8608],[39.0757,-16.9285,4.0004],[39.0815,-16.9293,5.289],[39.0904,-16.9215,0.5],[39.091,-16.9188,2.3825],[39.0893,-16.9149,2.6134],[39.0913,-16.9118,3.437],[39.0999,-16.9132,2.5055],[39.099,-16.9096,7.3233],[39.0932,-16.9079,2.4724],[39.0935,-16.9068,2.4724],[39.0996,-16.9076,3.1621],[39.1018,-16.9129,1.5438],[39.0979,-16.9149,6.3651],[39.0918,-16.9129,3.437],[39.0904,-16.916,4.0579],[39.0921,-16.9182,1.2634],[39.096,-16.9193,3.2418],[39.1049,-16.9157,0.6449],[39.114,-16.916,0.8689],[39.116,-16.9118,3.574],[39.1182,-16.911,4.0172],[39.1179,-16.9088,0.962],[39.1207,-16.9093,1.0054],[39.1213,-16.9049,0.0],[39.1257,-16.9015,0.5],[39.1268,-16.8987,3.0427],[39.126,-16.8985,3.0427],[39.1254,-16.8993,3.0427],[39.1229,-16.8993,2.2528],[39.1207,-16.891,2.8292],[39.114,-16.889,2.4832],[39.1143,-16.8851,2.946],[39.1182,-16.8785,3.7906],[39.1188,-16.8796,2.6681],[39.1176,-16.8835,1.8794],[39.1149,-16.8879,3.5643],[39.1232,-16.8907,2.6384],[39.1235,-16.8957,1.2118],[39.126,-16.8979,3.1907],[39.1265,-16.8971,3.1907],[39.1249,-16.8962,1.2118],[39.1268,-16.8968,3.1907],[39.137,-16.8856,0.8476],[39.1297,-16.8724,1.4825],[39.1266,-16.8606,2.4033],[39.1294,-16.8518,1.485],[39.1208,-16.8197,6.4964],[39.1159,-16.8102,4.6045],[39.1132,-16.7984,5.2559],[39.0793,-16.7734,7.8331],[39.0747,-16.7599,8.3476],[39.0738,-16.7394,9.2325],[39.0698,-16.7309,12.6511],[39.0512,-16.7213,10.4873],[39.0479,-16.7108,11.2377],[39.0495,-16.691,13.1222],[39.0482,-16.6787,12.6731],[39.0444,-16.67,14.2726],[39.0356,-16.6628,14.4475],[39.0281,-16.6593,16.6317],[39.0,-16.6495,22.1325],[38.9889,-16.6361,17.6126],[38.9861,-16.6287,18.1585],[38.9851,-16.6199,18.4359],[38.9945,-16.5946,19.9909],[38.9966,-16.5737,25.4777],[39.0003,-16.5607,31.203],[39.0002,-16.5401,23.6003],[39.005,-16.5344,31.5713],[39.0096,-16.532,33.8233],[39.0407,-16.5209,26.598],[39.0398,-16.5139,26.992],[39.0291,-16.5,27.9899],[39.0215,-16.4829,33.2179],[39.0281,-16.4732,32.7364],[39.0351,-16.418,48.4078],[39.029,-16.4119,35.0973],[39.0231,-16.4005,52.5623],[39.0162,-16.3925,37.5687],[39.0149,-16.3778,48.3967],[39.0038,-16.3457,45.0653],[39.0051,-16.3316,44.6853],[38.9971,-16.3221,50.8476],[38.9867,-16.2882,59.8076],[38.9859,-16.2784,61.5562],[38.9794,-16.2744,67.6902],[38.9622,-16.2767,62.9649],[38.957,-16.2747,65.6223],[38.9463,-16.2628,73.9052],[38.9323,-16.239,82.9234],[38.9288,-16.221,95.2346],[38.9212,-16.2038,104.0313],[38.9179,-16.1849,100.9858]]]]}
,"properties": {"GID_3": "MOZ.11.16.2_1","GID_0": "MOZ","country": "Mozambique","GID_1": "MOZ.11_1","province": "Zambezia","NL_NAME_1": "NA","GID_2": "MOZ.11.16_1","county": "Pebane","NL_NAME_2": "NA","city": "Naburi","VARNAME_3": "NA","NL_NAME_3": "NA","TYPE_3": "Localidad","ENGTYPE_3": "Locality","CC_3": "NA","HASC_3": "NA","name": "Naburi.city","area_km2": 3468.589,"hist_schema_id": "Elevation0-9000","hist_area_km2": {"0": 377.691,"25": 372.537,"50": 592.077,"75": 491.946,"100": 372.889,"125": 369.706,"150": 370.419,"175": 263.223,"200": 162.623,"225": 80.168,"250": 14.841,"275": 0.265,"300": 0.142,"325": 0.061}}}