{"type": "Feature","bbox": [36.542,-17.4039,37.3817,-16.6334],"geometry": {"type": "MultiPolygon","coordinates": [[[[36.8478,-16.7033,148.1141],[36.8217,-16.7202,212.8515],[36.7977,-16.7306,218.2743],[36.7602,-16.7366,265.6292],[36.6791,-16.7366,257.0797],[36.6885,-16.7425,252.3305],[36.6885,-16.7783,200.0808],[36.6479,-16.7932,235.0418],[36.651,-16.8081,253.1302],[36.6635,-16.823,250.5156],[36.676,-16.835,283.1214],[36.6947,-16.8648,270.9173],[36.7197,-16.8738,216.7805],[36.7197,-16.8885,223.0437],[36.6392,-16.9335,276.3484],[36.598,-16.9692,221.9108],[36.5793,-16.9781,187.1244],[36.5535,-16.9946,191.7866],[36.542,-17.0219,189.3339],[36.5453,-17.0467,204.3282],[36.5512,-17.0706,171.4988],[36.5793,-17.1064,156.5031],[36.5886,-17.1243,150.9033],[36.5883,-17.135,157.1916],[36.5641,-17.1504,141.1553],[36.548,-17.1788,144.1564],[36.5439,-17.1789,150.3616],[36.5544,-17.1942,140.939],[36.5758,-17.2122,122.5442],[36.5866,-17.2233,124.8759],[36.6195,-17.2368,87.0172],[36.6216,-17.2394,91.8166],[36.6198,-17.2495,71.2772],[36.6051,-17.2777,64.3815],[36.6045,-17.2852,80.7681],[36.6088,-17.298,57.9438],[36.6025,-17.3074,58.7199],[36.5978,-17.319,68.2516],[36.6031,-17.3274,75.7905],[36.6853,-17.3718,72.1109],[36.7433,-17.3699,54.8935],[36.7509,-17.3748,59.9487],[36.7602,-17.3849,58.0494],[36.7757,-17.3969,49.3253],[36.7791,-17.3987,44.8954],[36.7842,-17.3987,44.3408],[36.7943,-17.4039,43.4616],[36.8231,-17.3709,35.0878],[36.8361,-17.3613,35.4759],[36.8325,-17.3572,53.1514],[36.8293,-17.3455,40.1974],[36.8298,-17.3389,48.783],[36.8335,-17.3325,47.9532],[36.8385,-17.3297,52.3917],[36.8309,-17.3017,60.5016],[36.9238,-17.32,56.8567],[36.9287,-17.3151,53.5995],[36.9329,-17.3032,60.9083],[36.9381,-17.2714,76.41],[36.9348,-17.2557,100.7286],[36.9301,-17.2472,89.9058],[36.9278,-17.235,101.5401],[36.9597,-17.1932,103.6681],[36.9641,-17.1985,102.2173],[36.9696,-17.1984,103.9499],[36.9855,-17.193,129.2751],[36.9923,-17.1958,126.8162],[37.0005,-17.2075,107.0081],[37.0124,-17.1901,73.5851],[37.018,-17.1852,63.0181],[37.0239,-17.186,64.2087],[37.0349,-17.189,45.9647],[37.0492,-17.1965,45.2982],[37.055,-17.2186,34.6281],[37.0682,-17.2161,32.2823],[37.0675,-17.1945,42.7951],[37.081,-17.1774,65.2828],[37.0841,-17.1595,92.3374],[37.0966,-17.1535,100.5305],[37.1129,-17.1495,90.5701],[37.1253,-17.1273,95.4619],[37.1429,-17.111,83.9419],[37.1538,-17.09,94.7856],[37.156,-17.0807,106.8539],[37.1622,-17.076,107.2759],[37.1737,-17.0611,118.4541],[37.2007,-17.048,96.9362],[37.2079,-17.046,98.155],[37.2262,-17.0492,83.4851],[37.2431,-17.0263,69.4667],[37.2563,-17.0263,68.1813],[37.2665,-17.0333,66.3878],[37.2774,-17.0355,71.1519],[37.2855,-17.0221,79.3397],[37.2892,-16.9968,92.9538],[37.2959,-16.9751,146.7294],[37.3207,-16.9696,113.0468],[37.3817,-16.9612,75.6953],[37.3733,-16.9534,84.8774],[37.3429,-16.9493,89.4796],[37.3368,-16.9038,94.3115],[37.3287,-16.9055,96.0459],[37.3282,-16.9035,95.249],[37.3329,-16.8895,98.6334],[37.3163,-16.8953,99.4529],[37.3103,-16.8997,100.733],[37.2972,-16.8938,104.3127],[37.2987,-16.8765,103.0939],[37.2841,-16.8693,104.0257],[37.2941,-16.8432,106.288],[37.2907,-16.8337,120.1178],[37.2864,-16.8318,115.94],[37.2796,-16.8379,117.1237],[37.2747,-16.8396,113.0951],[37.2709,-16.8329,118.3473],[37.2621,-16.8323,117.3073],[37.2567,-16.8185,122.4528],[37.2524,-16.8167,116.4314],[37.2426,-16.8032,118.3994],[37.2355,-16.7995,115.0665],[37.2431,-16.7915,119.2647],[37.2378,-16.7874,132.4572],[37.2287,-16.788,124.7678],[37.2131,-16.7804,124.5698],[37.2167,-16.7545,128.1268],[37.2108,-16.7475,138.6142],[37.1802,-16.7433,145.1701],[37.1612,-16.7272,152.0694],[37.1531,-16.7275,159.1837],[37.1411,-16.7247,157.5382],[37.1378,-16.7216,165.9844],[37.1164,-16.7216,174.3726],[37.1129,-16.7127,183.8654],[37.1066,-16.6829,265.4896],[37.1004,-16.6634,248.6756],[37.0414,-16.6439,183.7993],[37.0178,-16.6334,144.4604],[37.0043,-16.6481,137.7048],[36.9972,-16.6595,135.0],[36.993,-16.68,136.7885],[36.9965,-16.6919,134.9219],[36.9995,-16.6968,142.6034],[37.013,-16.7097,136.7438],[37.0147,-16.7183,132.3419],[37.0156,-16.7487,121.3059],[37.0104,-16.7658,125.5567],[37.0077,-16.7698,116.3569],[36.9941,-16.7774,115.1067],[36.9914,-16.7923,110.2246],[36.9789,-16.809,108.4908],[36.9787,-16.8176,105.7767],[36.981,-16.8223,114.1234],[36.9785,-16.8278,117.9395],[36.9712,-16.8266,116.694],[36.9626,-16.818,107.1134],[36.9607,-16.8133,108.2331],[36.9614,-16.7986,122.2695],[36.9577,-16.7881,113.1314],[36.9534,-16.7811,123.2867],[36.9412,-16.7694,118.8593],[36.9157,-16.7642,118.4511],[36.9234,-16.7475,121.715],[36.9257,-16.7354,129.1702],[36.9256,-16.7311,124.6327],[36.9194,-16.7231,124.3348],[36.8996,-16.7071,132.0138],[36.8875,-16.7005,143.484],[36.8617,-16.7034,138.8226],[36.8478,-16.7033,148.1141]]]]}
,"properties": {"GID_3": "MOZ.11.10.1_1","GID_0": "MOZ","country": "Mozambique","GID_1": "MOZ.11_1","province": "Zambezia","NL_NAME_1": "NA","GID_2": "MOZ.11.10_1","county": "Mocuba","NL_NAME_2": "NA","city": "CidadeDeMocuba","VARNAME_3": "NA","NL_NAME_3": "NA","TYPE_3": "Localidad","ENGTYPE_3": "Locality","CC_3": "NA","HASC_3": "NA","name": "Cidade_De_Mocuba.city","area_km2": 4058.532,"hist_schema_id": "Elevation0-9000","hist_area_km2": {"25": 13.37,"50": 82.004,"75": 320.631,"100": 663.886,"125": 845.894,"150": 813.668,"175": 543.186,"200": 330.266,"225": 270.849,"250": 144.303,"275": 24.838,"300": 2.333,"325": 1.461,"350": 0.791,"375": 0.466,"400": 0.182,"425": 0.081,"450": 0.081,"475": 0.101,"500": 0.142}}}