{"type": "Feature","bbox": [38.4839,-14.9142,39.3008,-14.3184],"geometry": {"type": "MultiPolygon","coordinates": [[[[38.4846,-14.5779,395.9229],[38.492,-14.5634,419.2074],[38.5015,-14.5575,403.0936],[38.526,-14.5694,426.8799],[38.5414,-14.5664,448.1735],[38.5538,-14.5574,447.4857],[38.5677,-14.5655,458.5742],[38.6032,-14.6201,463.3182],[38.6217,-14.6409,461.969],[38.6402,-14.6558,534.1456],[38.6587,-14.6499,478.5812],[38.6587,-14.6618,490.2837],[38.6525,-14.6946,501.5226],[38.6525,-14.7125,686.8652],[38.6589,-14.7443,552.0211],[38.67,-14.7644,525.0732],[38.6828,-14.769,520.7698],[38.6918,-14.7595,521.2119],[38.6927,-14.7348,576.4188],[38.6984,-14.7276,578.8019],[38.7152,-14.7276,561.202],[38.7259,-14.7297,526.7278],[38.7536,-14.739,479.8919],[38.7668,-14.7348,478.0432],[38.7668,-14.7632,524.7069],[38.7407,-14.7929,514.6675],[38.7333,-14.805,524.603],[38.7513,-14.808,524.8843],[38.7575,-14.802,536.9439],[38.7575,-14.8169,544.6332],[38.7519,-14.8251,527.6822],[38.7465,-14.8305,538.1509],[38.7361,-14.8324,538.2446],[38.7421,-14.8467,544.5596],[38.7452,-14.8646,562.415],[38.7452,-14.8974,605.9174],[38.7481,-14.9089,607.7255],[38.7626,-14.9137,585.8262],[38.7727,-14.9122,590.0871],[38.78,-14.9142,584.8887],[38.7884,-14.9026,538.1636],[38.7902,-14.9049,543.5138],[38.799,-14.9041,554.3762],[38.8062,-14.8929,547.2352],[38.8087,-14.8806,571.137],[38.8257,-14.8743,570.1097],[38.8464,-14.8689,554.9231],[38.8684,-14.874,545.8945],[38.8807,-14.8734,524.0978],[38.8946,-14.8693,531.7507],[38.9128,-14.867,519.8749],[38.9207,-14.871,512.9736],[38.9289,-14.8795,517.3006],[38.9479,-14.8725,492.9302],[38.98,-14.8696,477.7307],[39.0001,-14.8631,478.2162],[39.0314,-14.8718,464.3901],[39.0418,-14.8728,471.7538],[39.0636,-14.8701,454.6438],[39.0709,-14.865,449.401],[39.0907,-14.8438,416.5936],[39.102,-14.8432,408.2269],[39.112,-14.8481,406.3471],[39.1202,-14.8544,396.4647],[39.1279,-14.8573,395.0992],[39.1442,-14.856,397.3303],[39.1516,-14.8575,388.8942],[39.1594,-14.8638,404.2019],[39.165,-14.8763,470.0305],[39.1818,-14.8899,439.0557],[39.1913,-14.8872,427.7741],[39.1962,-14.89,420.7728],[39.2249,-14.8743,396.6541],[39.2273,-14.8571,375.8543],[39.2288,-14.8553,377.2337],[39.2543,-14.8491,354.6356],[39.2576,-14.8459,363.227],[39.2597,-14.847,359.704],[39.2478,-14.8202,394.3634],[39.2478,-14.8111,415.6767],[39.2576,-14.7984,449.1338],[39.2707,-14.7857,394.8861],[39.274,-14.7572,410.2933],[39.2642,-14.7413,415.8033],[39.2642,-14.7335,420.4118],[39.2602,-14.7275,422.3926],[39.2595,-14.7199,424.4884],[39.2559,-14.7119,434.6931],[39.2281,-14.7001,458.3952],[39.2062,-14.6788,463.8904],[39.1881,-14.6733,478.8519],[39.1865,-14.6544,462.8563],[39.1954,-14.643,474.7153],[39.2117,-14.6145,447.731],[39.2164,-14.6115,445.1923],[39.2195,-14.6004,433.0656],[39.2298,-14.5879,426.5214],[39.2354,-14.5715,419.2804],[39.2355,-14.5598,412.0085],[39.2388,-14.5532,413.6949],[39.2522,-14.5384,405.485],[39.2669,-14.5178,394.6935],[39.2871,-14.494,383.7587],[39.2871,-14.4922,380.8149],[39.2942,-14.4854,388.2858],[39.3007,-14.464,376.0883],[39.3008,-14.4449,371.8092],[39.2945,-14.4272,365.2942],[39.2818,-14.3706,338.8747],[39.2665,-14.3742,362.8307],[39.2472,-14.3977,367.5544],[39.2369,-14.4013,358.9495],[39.2177,-14.4147,368.4772],[39.2098,-14.4155,366.1714],[39.1885,-14.4283,372.4655],[39.1618,-14.4276,388.8828],[39.1392,-14.4314,404.2513],[39.1268,-14.4345,390.8026],[39.1078,-14.4437,411.873],[39.0855,-14.4508,427.0522],[39.0735,-14.4593,418.7029],[39.0455,-14.4615,489.1157],[39.028,-14.4565,480.0914],[39.0132,-14.4378,644.7373],[39.007,-14.4271,469.4735],[39.0001,-14.4262,432.7688],[38.9945,-14.4165,414.907],[38.9749,-14.3972,392.2465],[38.9643,-14.3763,373.2399],[38.9534,-14.3617,369.0865],[38.9455,-14.3592,363.3791],[38.9457,-14.3417,355.8018],[38.9418,-14.3342,355.8536],[38.937,-14.3303,350.8715],[38.928,-14.3466,359.5229],[38.9157,-14.345,367.8391],[38.8919,-14.3365,391.8956],[38.871,-14.3339,411.5587],[38.8571,-14.3352,401.3681],[38.8349,-14.3276,394.1595],[38.8185,-14.3184,384.6374],[38.8023,-14.3222,389.9849],[38.786,-14.3366,397.4973],[38.7707,-14.3645,410.7789],[38.7694,-14.381,425.455],[38.729,-14.3694,412.3172],[38.696,-14.3743,386.4243],[38.6912,-14.3621,394.3253],[38.6835,-14.3572,392.8543],[38.5489,-14.3765,389.8599],[38.5437,-14.371,371.0255],[38.5317,-14.3337,348.7266],[38.5241,-14.3479,338.6993],[38.521,-14.3616,350.6806],[38.5208,-14.3778,351.4694],[38.5249,-14.3903,362.2397],[38.5194,-14.4059,357.8287],[38.52,-14.4158,362.843],[38.5284,-14.4318,368.5978],[38.527,-14.4423,361.9484],[38.5145,-14.4606,367.8065],[38.501,-14.4677,380.9757],[38.4904,-14.4854,379.8139],[38.497,-14.4975,383.4085],[38.4929,-14.5104,381.3465],[38.4927,-14.5167,392.2387],[38.495,-14.5262,391.8295],[38.4839,-14.5679,395.2107],[38.4846,-14.5779,395.9229]]]]}
,"properties": {"GID_3": "MOZ.7.6.1_1","GID_0": "MOZ","country": "Mozambique","GID_1": "MOZ.7_1","province": "Nampula","NL_NAME_1": "NA","GID_2": "MOZ.7.6_1","county": "Mecuburi","NL_NAME_2": "NA","city": "Mecuburi","VARNAME_3": "NA","NL_NAME_3": "NA","TYPE_3": "Localidad","ENGTYPE_3": "Locality","CC_3": "NA","HASC_3": "NA","name": "Mecuburi.city","area_km2": 3732.42,"hist_schema_id": "Elevation0-9000","hist_area_km2": {"325": 0.164,"350": 29.817,"375": 173.016,"400": 386.571,"425": 509.972,"450": 607.892,"475": 630.014,"500": 549.13,"525": 389.544,"550": 237.4,"575": 111.396,"600": 33.177,"625": 12.579,"650": 9.83,"675": 7.962,"700": 5.48,"725": 5.829,"750": 4.002,"775": 4.043,"800": 3.427,"825": 2.524,"850": 1.868,"875": 2.216,"900": 1.908,"925": 1.6,"950": 1.58,"975": 1.21,"1000": 1.005,"1025": 0.759,"1050": 0.718,"1075": 0.8,"1100": 0.615,"1125": 0.636,"1150": 0.554,"1175": 0.533,"1200": 0.554,"1225": 0.39,"1250": 0.287,"1275": 0.226,"1300": 0.369,"1325": 0.226,"1350": 0.328,"1375": 0.144,"1400": 0.041,"1425": 0.062}}}