{"type":"Feature","properties":{"GID_2":"MOZ.10.8_1","GID_0":"MOZ","country":"Mozambique","GID_1":"MOZ.10_1","province":"Tete","NL_NAME_1":"NA","county":"Maravia","VARNAME_2":"NA","NL_NAME_2":"NA","TYPE_2":"Distrito","ENGTYPE_2":"District","CC_2":"NA","HASC_2":"MZ.TE.MR","name":"Maravia.county"},
"geometry":{"type": "MultiPolygon","coordinates": [[[[32.5811,-15.5673,321.0],[32.6148,-15.5622,321.0],[32.6354,-15.5554,321.0],[32.6468,-15.555,321.0],[32.6668,-15.577,321.0],[32.6783,-15.5835,555.1035],[32.694,-15.5853,321.0],[32.7187,-15.5761,352.6045],[32.7326,-15.5681,518.4418],[32.739,-15.5594,293.049],[32.7482,-15.5539,413.6205],[32.7588,-15.5549,346.0037],[32.8014,-15.5651,321.527],[32.8177,-15.5649,340.9026],[32.8416,-15.5692,373.5907],[32.8554,-15.5691,338.1075],[32.8679,-15.5633,205.0646],[32.8766,-15.5661,171.0],[32.886,-15.5721,173.517],[32.9167,-15.5839,171.2929],[32.9581,-15.5863,183.5203],[32.9844,-15.5827,167.6324],[32.9646,-15.5089,270.0341],[32.9535,-15.4806,205.0358],[32.9197,-15.4273,237.0268],[32.9119,-15.4185,227.1664],[32.8985,-15.3972,269.0582],[32.8735,-15.3693,287.8375],[32.8594,-15.3419,267.2548],[32.8289,-15.3291,291.196],[32.8176,-15.3225,310.9288],[32.8071,-15.3084,313.1835],[32.7876,-15.2395,373.5924],[32.7555,-15.1882,347.4552],[32.7474,-15.1804,351.0869],[32.7358,-15.177,345.9585],[32.7294,-15.1723,348.085],[32.714,-15.1551,365.9066],[32.6933,-15.1211,354.4613],[32.6746,-15.0862,387.017],[32.6657,-15.0647,385.4796],[32.6459,-15.0383,389.7891],[32.6404,-15.0204,401.5612],[32.6415,-15.0003,440.2075],[32.6303,-14.9661,423.2649],[32.61,-14.9345,422.6606],[32.6169,-14.9103,464.675],[32.6127,-14.9012,467.4535],[32.6138,-14.8912,463.9923],[32.6072,-14.8798,462.5654],[32.5961,-14.8701,474.5798],[32.5889,-14.8497,477.0972],[32.5739,-14.8417,476.9592],[32.5663,-14.8291,499.0573],[32.5604,-14.7875,499.0465],[32.5629,-14.7789,496.5112],[32.5606,-14.7743,503.4109],[32.5375,-14.7742,521.4564],[32.5312,-14.7632,521.5905],[32.521,-14.7543,517.0264],[32.49,-14.7496,534.8041],[32.4811,-14.7322,553.4351],[32.4589,-14.7045,569.5349],[32.4542,-14.6923,554.2778],[32.4538,-14.683,555.7223],[32.4433,-14.6605,627.3512],[32.4178,-14.6334,608.3505],[32.4077,-14.619,609.8771],[32.4006,-14.6028,622.2856],[32.3903,-14.5954,615.1127],[32.3193,-14.6029,664.2237],[32.3089,-14.6001,660.6688],[32.2661,-14.5428,774.1318],[32.2642,-14.5309,788.7914],[32.2597,-14.5286,794.5184],[32.254,-14.5297,793.5208],[32.2464,-14.5108,814.2273],[32.2439,-14.4729,816.151],[32.2355,-14.4485,836.6266],[32.2162,-14.4359,845.5538],[32.2101,-14.4286,843.3667],[32.2018,-14.4165,847.143],[32.1859,-14.3878,883.4341],[32.1884,-14.3805,860.9439],[32.1848,-14.3655,866.5659],[32.1665,-14.3489,890.8269],[32.1827,-14.3419,915.3079],[32.2054,-14.3359,931.5583],[32.2423,-14.323,932.3549],[32.3151,-14.3079,912.6179],[32.3214,-14.3054,926.5189],[32.3345,-14.3046,919.7023],[32.3581,-14.2996,908.2444],[32.3959,-14.2945,929.696],[32.4512,-14.2828,1151.65],[32.5272,-14.2484,865.6858],[32.5357,-14.2464,877.2034],[32.6107,-14.2145,751.908],[32.7941,-14.1487,967.6556],[32.843,-14.1331,835.0059],[32.9142,-14.1074,893.8796],[32.9217,-14.1064,856.7336],[32.9343,-14.1012,889.108],[32.9479,-14.0978,881.1752],[33.0701,-14.0528,1122.9817],[33.0973,-14.0415,1063.515],[33.0931,-14.0413,1066.5977],[33.0006,-14.077,963.7103],[32.9055,-14.1021,908.0581],[32.6923,-14.176,1243.1575],[32.6439,-14.1945,729.9211],[32.5127,-14.2512,868.6151],[32.4697,-14.2675,1164.9701],[32.4242,-14.2786,961.3967],[32.394,-14.283,927.7578],[32.3765,-14.2879,938.7839],[32.286,-14.3042,948.1261],[32.2376,-14.3149,949.3126],[32.1272,-14.3507,929.666],[32.1029,-14.3613,951.9742],[32.0355,-14.3863,962.7769],[31.9955,-14.3968,995.5561],[31.9835,-14.3965,1011.053],[31.9699,-14.4001,1008.0784],[31.9561,-14.401,1023.3749],[31.8833,-14.4391,1003.9882],[31.8611,-14.4491,995.4224],[31.8317,-14.4674,986.3374],[31.8155,-14.4742,1018.4197],[31.8051,-14.477,1016.0731],[31.7767,-14.4767,983.2288],[31.7159,-14.4934,991.4619],[31.6949,-14.495,1030.6499],[31.6661,-14.5033,996.527],[31.6547,-14.5093,1011.5579],[31.6371,-14.5224,1003.9526],[31.5877,-14.5507,993.4435],[31.5419,-14.5803,1039.0597],[31.528199999999998,-14.5871,1034.5781],[31.5064,-14.601,1061.8114],[31.498,-14.6043,1059.7732],[31.4581,-14.614,1050.6104],[31.4256,-14.6186,1012.9872],[31.3762,-14.6289,998.4075],[31.3441,-14.6381,1014.3646],[31.3271,-14.6392,1042.8528],[31.2847,-14.6514,1092.5288],[31.2633,-14.6558,1121.1228],[31.2387,-14.665,1096.0371],[31.1902,-14.6795,1062.5103],[31.2668,-14.6588,1114.184],[31.3252,-14.65,1040.0261],[31.3667,-14.6408,987.8344],[31.3757,-14.6547,970.5328],[31.3737,-14.664,971.4224],[31.3764,-14.6728,966.9135],[31.3764,-14.6887,960.7423],[31.3741,-14.697,963.6746],[31.3627,-14.7074,964.1301],[31.365,-14.7198,960.6843],[31.3629,-14.7254,946.5474],[31.3594,-14.7291,937.7279],[31.3588,-14.7444,938.7892],[31.3503,-14.7499,926.6443],[31.3454,-14.7573,926.9614],[31.3479,-14.7657,925.0331],[31.3559,-14.78,911.3205],[31.3632,-14.7844,907.3353],[31.3785,-14.7891,903.574],[31.3835,-14.7928,909.7257],[31.3848,-14.8009,908.8202],[31.3822,-14.8113,893.2903],[31.3717,-14.8258,897.1367],[31.3693,-14.8416,878.5741],[31.3628,-14.8622,878.3694],[31.3816,-14.8779,867.889],[31.3815,-14.8846,870.3491],[31.3788,-14.8914,860.4911],[31.3824,-14.9033,866.3794],[31.3812,-14.9252,846.3026],[31.3923,-14.9468,842.5231],[31.3924,-14.9542,833.5667],[31.3892,-14.9648,841.5668],[31.3918,-14.9718,837.4823],[31.3999,-14.9805,823.0714],[31.4177,-14.995,820.0778],[31.4208,-14.999,812.8027],[31.4273,-15.0156,811.8163],[31.4411,-15.035,805.3314],[31.4428,-15.045,796.0442],[31.4464,-15.0535,799.3467],[31.4599,-15.079,791.796],[31.4556,-15.0866,791.6611],[31.4535,-15.0954,790.9393],[31.4594,-15.1041,784.5795],[31.4599,-15.1097,796.3784],[31.4692,-15.1262,781.6679],[31.4654,-15.1329,774.6935],[31.4458,-15.1522,782.1514],[31.4491,-15.1705,769.2353],[31.4391,-15.1881,754.8058],[31.4513,-15.2044,750.4273],[31.437,-15.228,768.9898],[31.4284,-15.2319,737.6176],[31.4254,-15.235,736.5822],[31.4301,-15.2432,739.9113],[31.4375,-15.2463,786.7229],[31.438,-15.2512,739.0161],[31.453,-15.2701,742.2556],[31.4499,-15.2775,701.0095],[31.4465,-15.2811,699.1337],[31.4554,-15.2921,697.1057],[31.4494,-15.3428,772.9752],[31.4459,-15.3484,676.3585],[31.4548,-15.3707,647.5051],[31.4701,-15.3985,591.4577],[31.492,-15.4208,569.239],[31.5065,-15.4303,565.5178],[31.5142,-15.4416,672.3864],[31.5378,-15.4877,517.0032],[31.5451,-15.4978,486.2465],[31.556,-15.508,491.4719],[31.5735,-15.5028,470.1356],[31.5886,-15.5181,403.7247],[31.5945,-15.5322,394.5773],[31.598,-15.5473,380.1749],[31.6044,-15.5607,372.5446],[31.6064,-15.5717,378.8618],[31.6143,-15.5966,351.3372],[31.6268,-15.6277,321.0],[31.6234,-15.6394,321.0],[31.6112,-15.6522,321.0],[31.6025,-15.6679,321.0],[31.6072,-15.6792,321.0],[31.6285,-15.6873,321.0],[31.66,-15.6944,321.0],[31.6925,-15.6966,321.0],[31.7366,-15.692,321.0],[31.813,-15.678,321.0],[31.8552,-15.6766,321.0],[31.9449,-15.6806,321.0],[31.9996,-15.6856,321.0],[32.0466,-15.6919,321.0],[32.1045,-15.6887,321.0],[32.1657,-15.6741,321.0],[32.2381,-15.6471,321.0],[32.3806,-15.5825,321.0],[32.3939,-15.5752,321.0],[32.4119,-15.5685,321.0],[32.4375,-15.5672,321.0],[32.488,-15.5714,321.0],[32.5811,-15.5673,321.0]]]]}}