{"type":"Feature","properties":{"GID_3":"MOZ.6.7.1_1","GID_0":"MOZ","country":"Mozambique","GID_1":"MOZ.6_1","province":"Maputo","NL_NAME_1":"NA","GID_2":"MOZ.6.7_1","county":"Namaacha","NL_NAME_2":"NA","city":"Changalane","VARNAME_3":"NA","NL_NAME_3":"NA","TYPE_3":"Localidad","ENGTYPE_3":"Locality","CC_3":"NA","HASC_3":"NA","name":"Changalane.city"},
"geometry":{"type": "MultiPolygon","coordinates": [[[[32.199,-26.1718,55.1942],[32.2144,-26.1796,44.7914],[32.2137,-26.182,48.474],[32.2013,-26.1942,52.4105],[32.1739,-26.2021,76.4277],[32.1386,-26.2057,98.2226],[32.1297,-26.2057,88.5645],[32.115,-26.2012,74.7215],[32.1013,-26.1944,87.5236],[32.0963,-26.211,175.0578],[32.0966,-26.2181,234.7323],[32.0914,-26.2445,332.8063],[32.0749,-26.3125,483.9586],[32.0767,-26.3641,456.343],[32.0802,-26.4091,469.2458],[32.0892,-26.4325,432.5636],[32.1093,-26.476,399.7176],[32.1248,-26.473,292.3004],[32.1401,-26.467,184.7682],[32.1459,-26.4615,154.5988],[32.1643,-26.4516,93.5408],[32.203,-26.4569,72.0656],[32.2343,-26.4543,58.4064],[32.2441,-26.4463,55.0034],[32.2644,-26.4415,48.9544],[32.3043,-26.4407,35.8841],[32.3092,-26.4352,32.9925],[32.3137,-26.4185,39.8125],[32.3463,-26.4379,25.901],[32.3496,-26.4358,25.7892],[32.3547,-26.4352,25.0146],[32.3593,-26.4314,21.2084],[32.3633,-26.4171,22.7086],[32.369,-26.4093,28.1869],[32.3816,-26.413,20.2369],[32.3884,-26.3624,19.3398],[32.3795,-26.3571,10.9008],[32.3766,-26.351,13.5199],[32.3821,-26.3408,13.4663],[32.3892,-26.3321,7.9356],[32.401,-26.3272,11.012],[32.3969,-26.3164,9.879],[32.3959,-26.3051,18.4995],[32.3807,-26.3061,16.434],[32.3746,-26.3039,5.6257],[32.3694,-26.2999,4.3614],[32.3783,-26.2933,7.6662],[32.3746,-26.2889,3.4624],[32.3742,-26.2819,3.4158],[32.3667,-26.2741,4.114],[32.3475,-26.2819,7.9168],[32.3415,-26.2692,24.4388],[32.3352,-26.2541,34.9112],[32.3306,-26.2144,28.3037],[32.335,-26.194,29.0948],[32.3328,-26.1782,13.5447],[32.3292,-26.1709,13.7307],[32.2882,-26.2049,31.1074],[32.2624,-26.1977,77.7982],[32.2265,-26.2056,60.5329],[32.2233,-26.1977,53.8972],[32.2234,-26.1853,48.7053],[32.2191,-26.1787,56.2977],[32.199,-26.1718,55.1942]]]]}}