{"type":"Feature","properties":{"GID_3":"MOZ.9.7.3_1","GID_0":"MOZ","country":"Mozambique","GID_1":"MOZ.9_1","province":"Sofala","NL_NAME_1":"NA","GID_2":"MOZ.9.7_1","county":"Gorongosa","NL_NAME_2":"NA","city":"Vanduzi(Vunduzi)","VARNAME_3":"NA","NL_NAME_3":"NA","TYPE_3":"Localidad","ENGTYPE_3":"Locality","CC_3":"NA","HASC_3":"NA","name":"Vanduzi(Vunduzi).city"},
"geometry":{"type": "MultiPolygon","coordinates": [[[[34.0725,-18.2145,391.3723],[34.0726,-18.2607,421.4846],[34.07,-18.2799,446.4052],[34.0656,-18.296,512.1243],[34.0582,-18.3027,518.0706],[34.0631,-18.3233,711.2204],[34.0657,-18.3561,1315.1028],[34.0683,-18.3703,1597.827],[34.0726,-18.3833,1512.9481],[34.1529,-18.4824,1096.2571],[34.1544,-18.4949,1256.4513],[34.1725,-18.5163,292.3823],[34.1731,-18.5221,297.9561],[34.1518,-18.5494,322.8105],[34.1528,-18.5634,329.9055],[34.156,-18.5777,323.225],[34.1659,-18.5891,362.0378],[34.1729,-18.6027,334.2532],[34.1876,-18.6057,324.7607],[34.1976,-18.6179,299.3036],[34.2042,-18.6292,289.1405],[34.2152,-18.6279,330.1896],[34.2429,-18.6176,291.5477],[34.2562,-18.602,272.6108],[34.266,-18.602,236.601],[34.2759,-18.5983,197.6719],[34.2915,-18.5854,129.9391],[34.316,-18.6003,95.9314],[34.349,-18.6016,71.5585],[34.3699,-18.5837,73.5194],[34.4243,-18.577,66.1499],[34.4411,-18.5713,61.9536],[34.5079,-18.5242,62.9537],[34.5529,-18.5127,53.5854],[34.5785,-18.5003,51.5543],[34.617,-18.5029,46.671],[34.6367,-18.4937,46.1702],[34.6511,-18.4911,45.996],[34.6537,-18.4743,50.1022],[34.6646,-18.4554,56.2077],[34.6854,-18.434,50.9839],[34.7063,-18.4173,55.5762],[34.5563,-18.3406,77.6719],[34.5556,-18.3272,88.3396],[34.553,-18.3181,86.311],[34.5405,-18.3021,88.415],[34.5236,-18.305,107.9796],[34.4738,-18.293,146.9189],[34.4525,-18.3029,169.2702],[34.4283,-18.3029,191.5921],[34.3963,-18.3127,162.3187],[34.3807,-18.3262,143.3904],[34.3795,-18.3416,136.097],[34.3637,-18.3109,166.8864],[34.3548,-18.3029,180.0419],[34.3288,-18.286,212.9894],[34.3117,-18.2894,234.0318],[34.2949,-18.2867,262.8884],[34.2681,-18.2586,329.5544],[34.2564,-18.2569,333.7247],[34.1497,-18.253,330.1078],[34.1368,-18.2587,332.7931],[34.1241,-18.2582,412.5114],[34.1119,-18.2523,365.7003],[34.1035,-18.2426,439.3963],[34.0725,-18.2145,391.3723]]]]}}