{"type":"Feature","properties":{"featurecla":"River","scalerank":9,"rivernum":1046,"dissolve":"1046River","name":"Licungo1","name_alt":null,"note":null,"min_zoom":7.1,"strokeweig":0.2,"name_en":"Licungo","min_label":8.1},
"geometry":{"type": "LineString","coordinates": [[36.854101562500006,-15.73186614375588,543.9278],[36.896875,-15.761065362505889,524.9277],[36.990820312500006,-15.80925872188088,527.6592],[37.007519531250011,-15.813018487505886,544.9695],[37.01953125,-15.83147551875588,523.0487],[37.033398437500011,-15.872588800005886,484.1861],[37.049218750000023,-15.890948175005889,469.6921],[37.084082031250006,-15.91253020625588,473.2521],[37.097900390625,-15.92546965938088,478.7557],[37.107324218750023,-15.94548919063088,439.5408],[37.122949218750023,-16.06292083125588,421.3447],[37.11484375,-16.101885675005889,389.7426],[37.114355468750006,-16.122100518755886,397.3566],[37.127343750000023,-16.164580987505886,355.3369],[37.130078125000011,-16.18474700313088,326.9243],[37.123925781250023,-16.207549737505886,321.0711],[37.09423828125,-16.262237237505886,298.7785],[37.095898437500011,-16.28606536250588,292.0475],[37.127539062500006,-16.34856536250588,254.8706],[37.130957031250006,-16.369659112505886,249.2354],[37.126953125,-16.390459893755889,257.1659],[37.117285156250006,-16.41497161250588,243.3434],[37.102783203125,-16.437823175005889,272.6864],[37.101171875,-16.448760675005886,237.6212],[37.108496093750006,-16.46648528438088,219.1293],[37.118066406250023,-16.476104425005886,214.3576],[37.143652343750006,-16.49212005000588,218.6051],[37.151123046875,-16.501495050005886,204.0623],[37.14892578125,-16.52556731563088,203.5794],[37.132421875,-16.54802825313088,182.8972],[37.018164062500006,-16.62664153438088,154.1291],[37.001708984375,-16.643877862505889,150.7002],[36.995507812500023,-16.66814544063088,137.101],[37.001074218750006,-16.69280364375588,148.2742],[37.009960937500011,-16.717315362505886,140.2381],[37.013916015625,-16.74187590938088,127.0279],[37.00732421875,-16.76384856563088,129.8659],[36.984960937500006,-16.803741143755886,109.7502],[36.983300781250023,-16.827178643755886,104.0],[37.005078125000011,-16.88079192500588,100.7861],[37.021386718750023,-16.909014581255889,65.5397],[37.056738281250006,-16.94622161250588,74.4238],[37.05859375,-16.98821380000588,57.8813],[37.045654296875,-17.07293059688088,53.846],[37.048828125,-17.14495208125588,36.7021],[37.063867187500023,-17.21819426875588,27.6957],[37.092871093750006,-17.286163018755886,23.4021],[37.138574218750023,-17.34270598750588,21.5609],[37.15576171875,-17.35613372188088,18.0224],[37.173095703125,-17.36638762813088,17.4728],[37.212158203125,-17.38225676875588,12.0],[37.229882812500023,-17.395830987505889,14.3653],[37.244384765625,-17.43206145625588,14.8824],[37.265039062500023,-17.444366143755886,12.5913]]}}