{"type":"Feature","properties":{"featurecla":"River","scalerank":3,"rivernum":70,"dissolve":"70River","name":"Zambezi5","name_alt":null,"note":null,"min_zoom":3.0,"strokeweig":0.2,"name_en":"Zambezi","min_label":4.0},
"geometry":{"type": "LineString","coordinates": [[36.072265625,-18.348174737505886,8.6685],[36.103613281250006,-18.35808684688088,7.8886],[36.185937500000023,-18.36907317500588,5.2128],[36.202539062500023,-18.38640715938088,6.6909],[36.206933593750023,-18.402373956255886,4.9917],[36.217382812500006,-18.41619231563088,7.7001],[36.2578125,-18.450030206255889,5.2652],[36.298828125,-18.49968840938088,2.4116],[36.300537109375,-18.49456145625588,4.7567],[36.304882812500011,-18.48577239375588,4.2921],[36.3056640625,-18.47918059688088,4.1141],[36.31796875,-18.48626067500588,2.8416],[36.37451171875,-18.50652434688088,2.3227],[36.377343750000023,-18.512530206255889,2.6829],[36.375244140625,-18.51921965938088,2.1693],[36.375244140625,-18.524737237505889,2.9199],[36.384521484375,-18.52703215938088,0.0],[36.424414062500006,-18.527373956255886,0.0],[36.432519531250023,-18.530108331255889,1.4137],[36.435937500000023,-18.536163018755886,2.075],[36.436425781250023,-18.55071380000588,1.84],[36.439355468750023,-18.557452081255889,9.4083],[36.445410156250006,-18.560381768755889,9.8977],[36.461328125000023,-18.559112237505886,0.0],[36.470117187500023,-18.561065362505886,0.0]]}}