{"type":"Feature","properties":{"featurecla":"River","scalerank":9,"rivernum":1046,"dissolve":"1046River","name":"Licungo","name_alt":null,"note":null,"min_zoom":7.1,"strokeweig":0.15,"name_en":"Licungo","min_label":8.1},
"geometry":{"type": "LineString","coordinates": [[36.5224609375,-15.57439544063088,746.6926],[36.545019531250006,-15.58440520625588,708.5735],[36.58544921875,-15.61394622188088,677.762],[36.608642578125,-15.623565362505886,645.8073],[36.618359375000011,-15.624541925005886,638.8735],[36.638427734375,-15.624053643755886,619.2198],[36.649023437500006,-15.62566497188088,633.7217],[36.707910156250023,-15.65154387813088,618.881],[36.742919921875,-15.67620208125588,619.0934],[36.762109375000023,-15.68645598750588,583.6705],[36.807714843750006,-15.70305755000588,586.6701],[36.828222656250006,-15.71306731563088,552.5358],[36.854101562500006,-15.73186614375588,543.9278]]}}