{"type":"Feature","properties":{"featurecla":"River","scalerank":9,"rivernum":1046,"dissolve":"1046River","name":"Licungo2","name_alt":null,"note":null,"min_zoom":7.1,"strokeweig":0.25,"name_en":"Licungo","min_label":8.1},
"geometry":{"type": "LineString","coordinates": [[37.265039062500023,-17.444366143755886,12.5913],[37.298925781250006,-17.452666925005886,14.2472],[37.3154296875,-17.453936456255889,14.111],[37.33349609375,-17.45134856563088,9.9156],[37.36328125,-17.44255950313088,13.0692],[37.378320312500023,-17.44109465938088,15.0479],[37.3916015625,-17.45159270625588,7.5797],[37.417236328125,-17.47869231563088,4.8297],[37.43408203125,-17.49285247188088,2.1164],[37.513574218750023,-17.53240325313088,4.5326],[37.529394531250006,-17.53606536250588,5.1379],[37.5703125,-17.53045012813088,0.0]]}}