{"type": "Feature","bbox": [32.6343,-20.6562,32.925,-20.3208],"geometry": {"type": "MultiPolygon","coordinates": [[[[32.9196,-20.6192,219.3816],[32.9171,-20.6063,233.0571],[32.9216,-20.5964,249.9002],[32.9211,-20.5927,239.162],[32.9168,-20.5893,244.2752],[32.925,-20.5714,252.2692],[32.9213,-20.5501,265.717],[32.9169,-20.541,268.7375],[32.9234,-20.5326,408.6121],[32.9201,-20.5274,308.1493],[32.9104,-20.5208,329.9839],[32.9131,-20.5107,369.5798],[32.911,-20.506,403.5802],[32.8987,-20.5107,354.4263],[32.8751,-20.5013,399.8339],[32.8778,-20.4916,461.3951],[32.8742,-20.4875,373.2443],[32.8664,-20.487,372.5411],[32.8593,-20.4831,391.4273],[32.8601,-20.4807,394.0013],[32.8673,-20.4753,414.2379],[32.8675,-20.4694,454.1531],[32.859,-20.452,475.5488],[32.8437,-20.4541,421.2427],[32.8414,-20.4495,419.3364],[32.8517,-20.447,422.0872],[32.8551,-20.4434,428.8203],[32.8515,-20.4341,473.1754],[32.8508,-20.4228,501.8532],[32.8457,-20.4139,489.1186],[32.8484,-20.3947,470.1274],[32.8533,-20.393,472.1112],[32.8602,-20.3999,478.5154],[32.8677,-20.3977,633.9771],[32.8657,-20.3919,646.0598],[32.8613,-20.3893,549.4567],[32.8626,-20.381,526.3993],[32.8617,-20.3754,614.707],[32.8434,-20.3708,539.6231],[32.8485,-20.3605,558.7054],[32.8345,-20.3529,712.4249],[32.8368,-20.3428,630.1093],[32.8331,-20.3387,600.6614],[32.8361,-20.3354,601.4949],[32.8295,-20.331,620.271],[32.8274,-20.3208,664.4865],[32.807,-20.3393,879.5548],[32.8004,-20.353,875.5151],[32.7993,-20.3587,816.0621],[32.8007,-20.3714,941.9638],[32.781,-20.3951,604.045],[32.7645,-20.4108,911.3114],[32.734,-20.4485,917.2928],[32.7219,-20.467,825.0353],[32.6771,-20.5468,676.1449],[32.6687,-20.555,826.5671],[32.6584,-20.5616,776.5214],[32.6343,-20.56,676.0538],[32.6699,-20.6024,614.7334],[32.6753,-20.6178,472.9427],[32.6852,-20.6242,571.861],[32.7367,-20.6165,584.3244],[32.7469,-20.6078,567.4813],[32.7617,-20.5866,509.1056],[32.782,-20.5901,495.4076],[32.7912,-20.5982,480.5406],[32.7902,-20.6207,552.1797],[32.7924,-20.6289,546.4387],[32.8067,-20.6445,355.6792],[32.8136,-20.6488,314.0696],[32.8306,-20.6546,262.2404],[32.8442,-20.6552,238.0742],[32.848,-20.6519,238.5804],[32.8539,-20.655,235.6784],[32.8613,-20.6562,233.2632],[32.8811,-20.6499,230.9747],[32.9027,-20.6371,230.0026],[32.9089,-20.6258,226.0375],[32.9196,-20.6192,219.3816]]]]}
,"properties": {"GID_3": "MOZ.4.7.3_1","GID_0": "MOZ","country": "Mozambique","GID_1": "MOZ.4_1","province": "Manica","NL_NAME_1": "NA","GID_2": "MOZ.4.7_1","county": "Mossurize","NL_NAME_2": "NA","city": "Espungabera","VARNAME_3": "NA","NL_NAME_3": "NA","TYPE_3": "Localidad","ENGTYPE_3": "Locality","CC_3": "NA","HASC_3": "NA","name": "Espungabera.city","area_km2": 545.7506,"hist_schema_id": "Elevation0-9000","hist_area_km2": {"225": 5.0795,"250": 22.3051,"275": 23.9135,"300": 11.0346,"325": 5.8154,"350": 5.2405,"375": 6.0153,"400": 6.8893,"425": 8.617,"450": 9.7296,"475": 11.2379,"500": 13.362,"525": 19.8343,"550": 28.1737,"575": 37.6042,"600": 38.6576,"625": 37.507,"650": 35.7419,"675": 34.472,"700": 34.613,"725": 26.5122,"750": 20.4765,"775": 16.7641,"800": 15.8504,"825": 13.6658,"850": 10.846,"875": 9.7143,"900": 8.8801,"925": 9.1784,"950": 8.1853,"975": 6.5758,"1000": 2.543,"1025": 0.5762,"1050": 0.0994,"1075": 0.0398}}}