{"type":"Feature","properties":{"GID_3":"MOZ.2.10.1_1","GID_0":"MOZ","country":"Mozambique","GID_1":"MOZ.2_1","province":"Gaza","NL_NAME_1":"NA","GID_2":"MOZ.2.10_1","county":"Massingir","NL_NAME_2":"NA","city":"Massingir","VARNAME_3":"NA","NL_NAME_3":"NA","TYPE_3":"Localidad","ENGTYPE_3":"Locality","CC_3":"NA","HASC_3":"NA","name":"Massingir.city"},
"geometry":{"type": "MultiPolygon","coordinates": [[[[32.5642,-24.2917,87.5295],[32.5409,-24.2962,94.4084],[32.4958,-24.2493,105.7809],[32.4412,-24.2404,105.8154],[32.2419,-23.9994,123.7643],[32.2767,-23.9554,77.2815],[32.273,-23.9443,75.1881],[32.2733,-23.9347,77.116],[32.2866,-23.9163,80.4747],[32.2912,-23.9026,79.2939],[32.2748,-23.8882,84.2253],[32.2585,-23.8783,87.5055],[32.2466,-23.8783,86.3761],[32.2361,-23.8736,84.9685],[32.2116,-23.8738,80.4329],[32.1985,-23.8713,78.2731],[32.1725,-23.8725,91.3667],[32.1603,-23.8748,86.0631],[32.1508,-23.873,112.2329],[32.1225,-23.8609,116.0],[32.1077,-23.8577,116.0],[32.0892,-23.8588,116.0],[32.0429,-23.8764,116.0],[32.0268,-23.8803,116.0],[32.0048,-23.8817,116.0],[31.9861,-23.8928,116.0],[31.97,-23.9199,116.0],[31.9564,-23.933,116.0],[31.9413,-23.9402,117.9847],[31.9279,-23.9435,125.574],[31.9037,-23.9449,137.3085],[31.8782,-23.9527,233.5414],[31.8745,-23.9505,213.7188],[31.8807,-23.955,178.647],[31.8809,-23.9679,133.6367],[31.8868,-24.0013,215.8069],[31.908,-24.1824,383.9952],[31.9489,-24.2463,348.5293],[31.9704,-24.2458,329.0201],[32.0448,-24.209,277.7128],[32.0748,-24.2032,262.65],[32.0959,-24.2056,254.8862],[32.1274,-24.2127,234.0218],[32.1654,-24.2138,217.5654],[32.1918,-24.2164,193.8022],[32.208,-24.2333,186.0453],[32.2147,-24.2335,188.377],[32.2293,-24.2399,179.4306],[32.2333,-24.2349,177.3126],[32.2564,-24.2361,179.6506],[32.2691,-24.2427,173.0744],[32.2756,-24.2486,163.0844],[32.2934,-24.2511,155.6822],[32.3007,-24.2496,153.5132],[32.312,-24.2502,149.4532],[32.3212,-24.2526,147.5583],[32.3425,-24.2462,140.5695],[32.3573,-24.2476,136.5854],[32.3865,-24.261,124.2837],[32.3957,-24.2674,119.7785],[32.4331,-24.2803,106.7279],[32.4397,-24.2802,103.927],[32.4476,-24.2937,101.6157],[32.4491,-24.3023,100.0074],[32.4638,-24.308,97.299],[32.4757,-24.3248,94.2151],[32.4884,-24.33,93.172],[32.5068,-24.3322,91.2537],[32.5127,-24.3343,89.8429],[32.5219,-24.334,86.4076],[32.528,-24.3383,86.0801],[32.5339,-24.3452,83.787],[32.5371,-24.3463,83.7225],[32.5455,-24.346,82.2709],[32.5579,-24.3333,79.6756],[32.5642,-24.2917,87.5295]]]]}}