{"type":"Feature","properties":{"featurecla":"River","scalerank":6,"rivernum":336,"dissolve":"336River","name":"Limpopo1","name_alt":null,"note":null,"min_zoom":5.0,"strokeweig":0.25,"name_en":"Limpopo","min_label":6.0},
"geometry":{"type": "LineString","coordinates": [[29.37744140625,-22.19280364375588,513.6383],[29.37744140625,-22.19280364375588,513.6383],[29.37744140625,-22.19280364375588,513.6383],[29.37744140625,-22.19280364375588,513.6383],[29.37744140625,-22.19280364375588,513.6383],[29.39892578125,-22.18206145625588,517.5786],[29.435644531250006,-22.16301848750588,523.2617],[29.456298828125,-22.15862395625588,520.6082],[29.50634765625,-22.169952081255886,501.1426],[29.53125,-22.172393487505886,497.7054],[29.5419921875,-22.162432550005889,494.429],[29.550390625,-22.14592864375588,493.6063],[29.569726562500023,-22.14177825313088,490.9975],[29.603515625,-22.14495208125588,490.0705],[29.640527343750023,-22.12908294063088,486.1007],[29.660839843750011,-22.126299737505889,477.8481],[29.67919921875,-22.138213800005886,473.7113],[29.691015625,-22.13396575313088,479.4494],[29.75830078125,-22.13079192500588,480.7971],[29.77880859375,-22.13616301875588,486.4405],[29.8369140625,-22.17229583125588,465.4249],[29.870996093750023,-22.17913176875588,461.7511],[29.8955078125,-22.19109465938088,456.5028],[29.931640625,-22.194170831255889,443.9225],[29.946044921875,-22.19817473750588,451.5408],[29.973388671875,-22.213897393755886,448.7988],[29.983300781250023,-22.217608331255889,447.3977],[30.004638671875,-22.22210051875588,440.6083],[30.014892578125,-22.226885675005889,415.1976],[30.034082031250023,-22.245928643755889,444.4296],[30.035400390625,-22.250518487505886,463.8062],[30.037695312500006,-22.253741143755889,424.2254],[30.0673828125,-22.25701262813088,424.3435],[30.082128906250006,-22.262725518755886,449.3653],[30.110595703125,-22.28215911250588,444.1708],[30.134521484375,-22.29338958125588,448.6489],[30.152099609375,-22.29461028438088,438.4976],[30.196533203125,-22.28899505000588,424.9987],[30.22119140625,-22.290850518755889,413.4543],[30.23984375,-22.295928643755886,430.2701],[30.2548828125,-22.30462005000588,510.5809],[30.268798828125,-22.31633880000588,434.7219],[30.30029296875,-22.33684661250588,419.5892],[30.334375,-22.34465911250588,393.522],[30.371484375000023,-22.34343840938088,409.2499],[30.412207031250006,-22.336748956255889,396.1615],[30.43125,-22.331084893755886,392.467],[30.46875,-22.314971612505886,389.4393],[30.487890625,-22.310088800005886,382.901],[30.5068359375,-22.30950286250588,406.0085],[30.571679687500023,-22.316436456255886,357.5839],[30.6005859375,-22.31633880000588,358.3882],[30.60986328125,-22.31853606563088,361.3748],[30.625097656250006,-22.32854583125588,359.1196],[30.631933593750006,-22.330596612505886,358.0856],[30.646875,-22.32634856563088,322.1334],[30.673828125,-22.308428643755889,325.4458],[30.693359375,-22.30266692500588,355.5804],[30.8046875,-22.29436614375588,337.2413],[30.83740234375,-22.28215911250588,291.9155],[30.86669921875,-22.28948333125588,310.4499],[30.9267578125,-22.29558684688088,284.1888],[31.03564453125,-22.31951262813088,295.1902],[31.069726562500023,-22.33367278438088,233.4293],[31.087158203125,-22.336748956255889,224.8942],[31.10400390625,-22.33318450313088,224.9306],[31.13720703125,-22.31829192500588,221.7078],[31.151953125,-22.31633880000588,221.3168],[31.162695312500006,-22.322588800005889,220.1062],[31.18310546875,-22.34539153438088,220.7915],[31.190332031250023,-22.35051848750588,212.0955],[31.197363281250006,-22.35247161250588,208.5],[31.212988281250006,-22.36174895625588,213.7794],[31.220898437500011,-22.36467864375588,211.6282],[31.22900390625,-22.363799737505886,213.7993],[31.245214843750006,-22.357452081255886,210.8482],[31.255078125000011,-22.357940362505886,208.2866],[31.26513671875,-22.36541106563088,202.4588],[31.288476562500023,-22.397295831255889,202.5488],[31.296777343750023,-22.41253020625588,195.6933],[31.296777343750023,-22.41253020625588,195.6933],[31.296777343750023,-22.41253020625588,195.6933],[31.296777343750023,-22.41253020625588,195.6933],[31.296777343750023,-22.41253020625588,195.6933],[31.333105468750006,-22.43059661250588,188.5],[31.35595703125,-22.436846612505889,189.6317],[31.375097656250006,-22.429229425005886,186.0],[31.391845703125,-22.42644622188088,191.559],[31.46728515625,-22.44597747188088,188.2321],[31.552978515625,-22.45354583125588,176.5454],[31.571191406250023,-22.458038018755886,175.0922],[31.584716796875,-22.46917083125588,173.577],[31.6044921875,-22.49382903438088,173.4509],[31.6728515625,-22.55242278438088,163.6189],[31.682226562500006,-22.569170831255889,159.7457],[31.726660156250006,-22.623858331255889,155.9257],[31.74169921875,-22.638506768755889,157.1631],[31.762939453125,-22.643877862505889,158.1244],[31.787695312500006,-22.644366143755889,153.248],[31.808349609375,-22.64788176875588,150.4995],[31.816796875000023,-22.66228606563088,142.8783],[31.824121093750023,-22.684893487505889,139.5],[31.841552734375,-22.701495050005889,144.5994],[31.87890625,-22.727862237505889,142.012],[31.89111328125,-22.742022393755889,139.7325],[31.902099609375,-22.758623956255889,139.7849],[31.910058593750023,-22.77776458125588,137.1129],[31.912988281250023,-22.79949309688088,137.7044],[31.91650390625,-22.80779387813088,149.1443],[31.92431640625,-22.81780364375588,138.027],[31.932519531250023,-22.82610442500588,135.3184],[31.937255859375,-22.829620050005886,133.444],[31.9443359375,-22.833526300005886,133.5087],[31.945556640625,-22.84295012813088,133.8599],[31.9453125,-22.85442473750588,132.2177],[31.947167968750023,-22.86443450313088,132.0819],[31.959375,-22.87981536250588,129.8603],[32.0126953125,-22.92986419063088,120.1079],[32.017675781250006,-22.93743255000588,125.722],[32.020898437500023,-22.94524505000588,122.7475],[32.025292968750023,-22.951202081255886,121.6041],[32.033398437500011,-22.95378997188088,119.9472],[32.040429687500023,-22.956866143755889,121.4534],[32.057373046875,-22.973663018755886,120.9803],[32.063867187500023,-22.981768487505889,121.3717],[32.084082031250006,-23.015655206255886,121.1612],[32.09716796875,-23.02532317500588,116.6936],[32.144238281250011,-23.03362395625588,128.9673],[32.1640625,-23.04485442500588,118.5058],[32.222900390625,-23.096709893755886,103.3408],[32.231835937500023,-23.112823175005886,107.4314],[32.238037109375,-23.17376067500588,130.6172],[32.255615234375,-23.24114348750588,115.4887],[32.389257812500006,-23.43425872188088,86.0206],[32.44287109375,-23.484893487505886,79.6733],[32.453320312500011,-23.51873137813088,77.5737],[32.459375,-23.55632903438088,78.971],[32.475341796875,-23.59807708125588,74.7479],[32.494726562500006,-23.63005950313088,70.2177],[32.500097656250006,-23.65105559688088,65.5221],[32.48974609375,-23.67815520625588,72.9108],[32.491455078125,-23.69085051875588,72.7034],[32.495361328125,-23.70232512813088,66.0527],[32.498925781250023,-23.707354425005889,61.8518],[32.499267578125,-23.71233489375588,62.6896],[32.495849609375,-23.73772551875588,67.8305],[32.495849609375,-23.74822356563088,65.5757],[32.504980468750006,-23.765166925005886,81.3803],[32.53125,-23.78704192500588,58.8461],[32.54443359375,-23.82732512813088,63.0985],[32.561621093750006,-23.842608331255889,63.7208],[32.580175781250006,-23.85442473750588,60.1137],[32.59140625,-23.86492278438088,57.8337],[32.5966796875,-23.885088800005889,52.0],[32.59716796875,-23.90960051875588,54.2404],[32.59228515625,-23.93328215938088,58.4104],[32.58154296875,-23.95086028438088,57.2667],[32.578125,-23.967608331255889,57.324],[32.588623046875,-23.988799737505886,52.2109],[32.61181640625,-24.022491143755886,46.9325],[32.6171875,-24.067901300005886,50.4207],[32.622167968750006,-24.088213800005889,48.9958],[32.635839843750006,-24.107940362505886,46.6378],[32.761816406250006,-24.215850518755886,40.0401],[32.777246093750023,-24.247588800005886,38.1782],[32.824804687500006,-24.296905206255886,38.8]]}}