{"type":"Feature","properties":{"featurecla":"River","scalerank":6,"rivernum":336,"dissolve":"336River","name":"Limpopo2","name_alt":null,"note":null,"min_zoom":5.0,"strokeweig":0.3,"name_en":"Limpopo","min_label":6.0},
"geometry":{"type": "LineString","coordinates": [[32.824804687500006,-24.296905206255886,38.8],[32.872949218750023,-24.38518645625588,34.9937],[32.886962890625,-24.439288018755889,26.4546],[32.90625,-24.45208098750588,32.5004],[32.932714843750006,-24.45159270625588,31.1527],[32.961328125000023,-24.440948175005886,30.2593],[33.009179687500023,-24.49553801875588,30.3793],[33.041259765625,-24.516143487505886,28.4928],[33.05810546875,-24.53167083125588,24.2327],[33.064355468750023,-24.55022551875588,26.2756],[33.07958984375,-24.54412200313088,25.8573],[33.090917968750006,-24.54607512813088,25.013],[33.09765625,-24.55510833125588,26.1845],[33.0986328125,-24.57122161250588,25.8011],[33.108789062500023,-24.56658294063088,24.0408],[33.11279296875,-24.563799737505889,23.5892],[33.156835937500006,-24.61565520625588,23.9785],[33.164306640625,-24.618682550005886,22.5137],[33.174560546875,-24.619659112505886,20.8207],[33.19091796875,-24.61907317500588,21.5149],[33.200878906250011,-24.62102630000588,21.4553],[33.207763671875,-24.623858331255889,20.2164],[33.214453125,-24.623565362505886,23.0932],[33.224853515625,-24.61565520625588,20.1691],[33.242089843750023,-24.60588958125588,18.8991],[33.259667968750023,-24.606963800005886,25.6092],[33.2744140625,-24.61663176875588,20.1265],[33.2828125,-24.63274505000588,16.4743],[33.282617187500023,-24.65178801875588,12.2202],[33.278222656250023,-24.665557550005886,16.0039],[33.277929687500006,-24.67327239375588,18.3219],[33.290283203125,-24.67302825313088,17.4871],[33.295654296875,-24.669268487505889,9.1033],[33.302636718750023,-24.656084893755889,16.4571],[33.307519531250023,-24.65325286250588,15.7494],[33.317578125000011,-24.65545012813088,27.7838],[33.333984375,-24.66472747188088,19.2358],[33.352148437500006,-24.67058684688088,15.6628],[33.36474609375,-24.680010675005889,15.8766],[33.3896484375,-24.704131768755886,14.7711],[33.482177734375,-24.77678801875588,12.7405],[33.493066406250023,-24.76751067500588,9.2526],[33.501367187500023,-24.75823333125588,12.7377],[33.510498046875,-24.75286223750588,10.6904],[33.523681640625,-24.755694268755889,11.3644],[33.52734375,-24.764483331255889,11.4055],[33.527099609375,-24.77703215938088,10.4099],[33.5302734375,-24.78411223750588,9.9138],[33.544189453125,-24.77678801875588,11.2797],[33.5328125,-24.755205987505889,13.6124],[33.527099609375,-24.73552825313088,10.6046],[33.530664062500023,-24.726885675005889,9.8734],[33.580322265625,-24.75969817500588,10.2044],[33.585205078125,-24.765948175005889,8.561],[33.585205078125,-24.79656340938088,7.1134],[33.585546875,-24.79876067500588,1.4063],[33.58642578125,-24.826983331255889,7.8748],[33.585205078125,-24.831377862505889,6.887],[33.593017578125,-24.83831145625588,6.7209],[33.615234375,-24.848663018755886,6.8972],[33.619873046875,-24.85491301875588,6.3991],[33.61875,-24.86370208125588,5.296],[33.613525390625,-24.88494231563088,4.5589],[33.612402343750006,-24.89617278438088,5.6814],[33.6162109375,-24.90911223750588,5.2584],[33.62548828125,-24.911455987505889,3.6959],[33.636621093750023,-24.91033294063088,4.9313],[33.646582031250006,-24.91326262813088,1.6762],[33.6552734375,-24.919952081255886,4.9262],[33.657958984375,-24.92278411250588,4.1497],[33.646582031250006,-24.94060637813088,3.5547],[33.6181640625,-24.96550872188088,3.6657],[33.625,-24.974932550005889,4.4153],[33.634960937500011,-24.983428643755886,3.0762],[33.640380859375,-24.985674737505889,4.7559],[33.645751953125,-25.00090911250588,4.9197],[33.648193359375,-25.012041925005889,4.4378],[33.646582031250006,-25.02312590938088,1.9569],[33.632910156250006,-25.03289153438088,5.9554],[33.617089843750023,-25.02483489375588,2.9617],[33.604101562500006,-25.02214934688088,2.2002],[33.593359375,-25.064971612505886,1.5399],[33.580322265625,-25.07537200313088,2.1295],[33.564453125,-25.083038018755886,2.0063],[33.550390625,-25.092120050005889,2.0345],[33.546972656250006,-25.097491143755889,1.8439],[33.53671875,-25.11931731563088,0.9972],[33.53076171875,-25.12200286250588,2.0083],[33.515380859375,-25.122393487505889,2.8993],[33.509960937500011,-25.12615325313088,1.7011],[33.509179687500023,-25.141436456255889,1.7834],[33.52587890625,-25.17864348750588,32.1421],[33.529199218750023,-25.19133880000588,0.6226]]}}