{"type": "Feature","bbox": [34.7911,-23.7993,35.3442,-23.0562],"geometry": {"type": "MultiPolygon","coordinates": [[[[34.7911,-23.623,103.6868],[34.9998,-23.6007,157.246],[35.0083,-23.5971,153.5731],[35.101,-23.6836,202.8483],[35.153,-23.7438,173.0196],[35.1572,-23.7816,71.418],[35.1718,-23.779,59.3822],[35.2133,-23.7888,43.3849],[35.2432,-23.7917,9.6704],[35.2725,-23.7993,4.0799],[35.2734,-23.7913,7.997],[35.2684,-23.7871,28.3752],[35.2622,-23.7869,34.9808],[35.2222,-23.7091,90.1171],[35.2224,-23.6904,57.7321],[35.2069,-23.6736,117.0655],[35.1875,-23.624,159.997],[35.1857,-23.6158,158.7598],[35.193,-23.6008,119.9386],[35.1937,-23.5955,131.8596],[35.2021,-23.5894,123.0713],[35.2153,-23.5548,132.7713],[35.2212,-23.5478,125.6229],[35.2939,-23.5144,107.3643],[35.3115,-23.5081,81.2458],[35.3115,-23.5043,85.0061],[35.3028,-23.4958,132.4898],[35.3436,-23.4821,81.1708],[35.3442,-23.4586,102.5457],[35.3343,-23.4568,135.3834],[35.2735,-23.4372,107.6389],[35.2638,-23.4216,105.2342],[35.2577,-23.4073,115.0044],[35.1782,-23.3033,100.4512],[35.1619,-23.2995,103.5695],[35.1614,-23.3117,96.3453],[35.1393,-23.3214,102.2533],[35.0968,-23.3749,111.9658],[35.1032,-23.3844,107.315],[35.1136,-23.3944,104.5376],[35.1314,-23.4303,118.1507],[35.1336,-23.4458,119.8309],[35.1291,-23.4488,117.107],[35.1231,-23.4763,140.5891],[35.1149,-23.4798,144.4701],[35.1062,-23.4678,130.5329],[35.0974,-23.4624,124.9522],[35.072,-23.4608,124.6767],[35.0506,-23.4498,132.1419],[35.0242,-23.4474,125.8275],[35.0751,-23.3405,99.0245],[35.114,-23.3048,97.5822],[35.1145,-23.2997,99.1644],[35.1102,-23.2928,95.9361],[35.0976,-23.2447,110.8388],[35.0899,-23.2391,112.8617],[35.0837,-23.23,115.5643],[35.0945,-23.1875,107.1757],[35.0934,-23.1825,107.5078],[35.0754,-23.1733,105.6154],[35.0681,-23.1637,105.231],[35.0633,-23.1451,119.3953],[35.0536,-23.1269,118.0736],[35.036,-23.0998,115.9874],[35.0068,-23.0628,124.447],[34.9523,-23.0562,144.9302],[34.8939,-23.2013,116.0284],[34.8205,-23.467,106.0352],[34.8047,-23.5187,119.6038],[34.7911,-23.623,103.6868]]]]}
,"properties": {"GID_3": "MOZ.3.9.1_1","GID_0": "MOZ","country": "Mozambique","GID_1": "MOZ.3_1","province": "Inhambane","NL_NAME_1": "NA","GID_2": "MOZ.3.9_1","county": "Morrumbene","NL_NAME_2": "NA","city": "Mocoduene","VARNAME_3": "NA","NL_NAME_3": "NA","TYPE_3": "Localidad","ENGTYPE_3": "Locality","CC_3": "NA","HASC_3": "NA","name": "Mocoduene.city","area_km2": 2058.343,"hist_schema_id": "Elevation0-9000","hist_area_km2": {"0": 0.892,"25": 3.298,"50": 12.497,"75": 41.884,"100": 897.782,"125": 594.649,"150": 361.736,"175": 129.33,"200": 15.904,"225": 0.369}}}