{"type":"Feature","properties":{"GID_2":"MOZ.8.6_1","GID_0":"MOZ","country":"Mozambique","GID_1":"MOZ.8_1","province":"Nassa","NL_NAME_1":"NA","county":"Marrupa","VARNAME_2":"NA","NL_NAME_2":"NA","TYPE_2":"Distrito","ENGTYPE_2":"District","CC_2":"NA","HASC_2":"MZ.NS.MR","name":"Marrupa.county"},
"geometry":{"type": "MultiPolygon","coordinates": [[[[38.2183,-13.1452,430.8487],[38.2153,-13.1336,429.2211],[38.2169,-13.1276,427.8154],[38.2123,-13.1132,423.1614],[38.1816,-13.1125,432.732],[38.1711,-13.1151,443.384],[38.1439,-13.1327,443.9863],[38.1319,-13.1369,457.4349],[38.0875,-13.1273,461.2181],[38.0548,-13.1061,481.826],[38.0351,-13.0976,499.9025],[38.023,-13.0942,506.8118],[37.9925,-13.0905,548.7034],[37.9814,-13.0806,564.3556],[37.9677,-13.0623,595.652],[37.9404,-13.0435,629.8807],[37.9415,-13.0344,634.7753],[37.9506,-13.0256,576.0463],[37.9628,-13.0047,539.8337],[38.0027,-12.9689,552.9271],[38.0119,-12.9481,498.5626],[38.0168,-12.8978,476.8625],[38.0226,-12.8858,439.0449],[38.0325,-12.8739,456.097],[38.0331,-12.8512,442.8032],[38.0508,-12.8159,465.1411],[38.0496,-12.8115,466.2196],[38.0444,-12.8059,433.1367],[38.0409,-12.7986,405.8264],[38.0436,-12.7805,401.7937],[38.0334,-12.7631,380.3935],[38.0487,-12.6856,363.6019],[38.0456,-12.6647,375.4156],[38.0286,-12.6454,354.8586],[38.0355,-12.6143,338.6978],[38.0409,-12.6005,327.5222],[38.0518,-12.5837,320.9453],[38.0518,-12.5663,329.9071],[38.0763,-12.507,301.8054],[38.0864,-12.4874,302.4828],[38.0789,-12.4666,292.9174],[38.0809,-12.4562,285.9288],[38.0916,-12.4291,278.8762],[38.1131,-12.4172,274.8563],[38.1284,-12.3963,267.955],[38.1622,-12.3695,255.7439],[38.2052,-12.3217,248.257],[38.2052,-12.286,242.2677],[38.2266,-12.2561,226.7626],[38.2309,-12.213,216.3939],[38.222,-12.1868,202.0],[38.2018,-12.1913,211.065],[38.169,-12.1937,217.8812],[38.1407,-12.2033,229.8481],[38.1318,-12.2036,236.9591],[38.1132,-12.1878,244.4781],[38.0941,-12.1765,244.4762],[38.0863,-12.1791,239.0148],[38.0663,-12.1946,241.1893],[38.0486,-12.2025,240.3017],[37.9966,-12.2352,242.5],[37.9545,-12.2288,245.6053],[37.929,-12.2312,247.0],[37.8838,-12.2486,257.5334],[37.8734,-12.2543,257.3161],[37.8384,-12.2622,271.112],[37.802,-12.2773,268.8419],[37.7857,-12.2868,265.3871],[37.7777,-12.2963,268.0326],[37.7726,-12.3098,286.5971],[37.7086,-12.4032,272.95],[37.7013,-12.4201,272.7264],[37.727,-12.4525,352.0072],[37.7113,-12.4798,371.6694],[37.6653,-12.4869,312.7964],[37.6254,-12.4833,519.3546],[37.6469,-12.444,283.9152],[37.6063,-12.4421,292.3861],[37.5907,-12.4427,325.7917],[37.561,-12.4474,309.9565],[37.5472,-12.4517,313.2613],[37.5304,-12.453,308.9079],[37.5087,-12.45,306.4319],[37.4241,-12.4726,311.1249],[37.376,-12.4813,311.75],[37.3643,-12.4876,321.9297],[37.3527,-12.4893,332.3406],[37.3401,-12.4858,341.5732],[37.3064,-12.4828,342.2714],[37.2818,-12.4828,332.1789],[37.2542,-12.4947,317.375],[37.242,-12.5126,355.8191],[37.2236,-12.5246,321.881],[37.2122,-12.544,325.9997],[37.2144,-12.5872,338.8788],[37.2081,-12.6033,343.839],[37.1662,-12.6469,383.001],[37.1612,-12.648,373.3932],[37.153,-12.653,378.4985],[37.1404,-12.6543,371.7572],[37.1297,-12.6517,380.6872],[37.1195,-12.6473,388.0689],[37.1011,-12.6288,379.5473],[37.0905,-12.6264,391.2575],[37.0703,-12.6426,396.8731],[37.0584,-12.6458,400.6434],[37.0484,-12.6463,392.1078],[37.031,-12.662,395.7947],[37.0008,-12.6584,394.5438],[36.9894,-12.6606,397.405],[36.9738,-12.6552,406.0865],[36.9673,-12.6559,397.68],[36.9475,-12.671,404.9426],[36.9358,-12.7078,383.0],[36.9266,-12.7167,414.295],[36.92,-12.7161,419.5813],[36.9147,-12.7135,425.2086],[36.8822,-12.7381,425.1261],[36.8648,-12.7633,442.2133],[36.8467,-12.7721,443.0838],[36.838,-12.794,440.1389],[36.8177,-12.7967,438.5832],[36.8081,-12.8004,445.0147],[36.7884,-12.8212,452.0771],[36.77,-12.8247,472.1291],[36.7597,-12.8288,462.3023],[36.7523,-12.8339,451.0623],[36.7478,-12.8445,454.8597],[36.7464,-12.8575,448.3101],[36.7463,-12.8691,458.0094],[36.751,-12.8878,466.5465],[36.7496,-12.9007,466.0598],[36.7418,-12.9136,468.318],[36.7482,-12.931,478.3806],[36.7427,-12.9558,473.6784],[36.7371,-12.9618,483.1598],[36.7172,-12.974,501.0825],[36.7057,-12.9948,501.3385],[36.7073,-12.9973,492.6196],[36.704,-13.0143,505.4504],[36.7034,-13.0345,509.7661],[36.7056,-13.0453,515.7219],[36.7153,-13.0541,518.4503],[36.7431,-13.0722,523.8358],[36.7523,-13.0815,529.6279],[36.7604,-13.0954,533.8586],[36.771,-13.1026,530.0548],[36.7842,-13.1214,544.4875],[36.7876,-13.1411,547.1041],[36.8033,-13.1699,557.0746],[36.8212,-13.1865,567.2225],[36.8386,-13.1967,585.4312],[36.8675,-13.2014,594.9028],[36.8889,-13.2115,598.6806],[36.9228,-13.1807,587.4122],[36.9329,-13.1785,569.3821],[36.9618,-13.1775,558.191],[36.9872,-13.1719,539.8749],[37.001,-13.1779,532.3138],[36.9954,-13.188,526.9469],[36.9916,-13.1994,529.9294],[36.9854,-13.2098,535.6331],[36.9716,-13.2218,544.819],[36.9625,-13.222,546.758],[36.9518,-13.2457,543.2263],[36.938,-13.2565,552.706],[36.9354,-13.2748,554.7787],[36.919,-13.2795,554.251],[36.9045,-13.2773,552.8828],[36.8973,-13.2894,561.6234],[36.8969,-13.3223,586.5167],[36.8987,-13.3304,590.2344],[36.8893,-13.3451,585.9244],[36.8891,-13.3537,590.9156],[36.8766,-13.3702,603.3119],[36.881,-13.3984,613.004],[36.8801,-13.4051,628.381],[36.8736,-13.415,624.1497],[36.8763,-13.4231,641.6939],[36.8747,-13.4292,640.5183],[36.8754,-13.4368,646.9293],[36.8786,-13.4452,675.5129],[36.8745,-13.4569,676.777],[36.8559,-13.4786,697.2146],[36.8507,-13.4876,709.7749],[36.8426,-13.5079,712.6382],[36.838,-13.5256,723.3401],[36.8473,-13.5547,740.22],[36.8471,-13.5608,759.5146],[36.8443,-13.5682,779.0581],[36.8456,-13.5918,819.8704],[36.8555,-13.6005,824.5394],[36.8662,-13.5922,822.1925],[36.8691,-13.5969,833.0502],[36.8652,-13.6335,862.0183],[36.8607,-13.6469,874.3555],[36.863,-13.6522,881.0536],[36.87,-13.6568,902.6902],[36.8716,-13.6859,937.4899],[36.8757,-13.6897,965.0015],[36.8807,-13.6917,967.3843],[36.9761,-13.6204,733.1013],[37.0187,-13.621,910.1719],[37.0799,-13.6281,897.8594],[37.1179,-13.6306,841.9799],[37.1281,-13.6238,832.9114],[37.1348,-13.614,823.2237],[37.1388,-13.5999,827.698],[37.1492,-13.5866,842.6467],[37.1601,-13.577,830.4196],[37.189,-13.5676,782.0607],[37.22,-13.536,782.1418],[37.272,-13.4739,782.1749],[37.3111,-13.4551,761.4927],[37.376,-13.4307,736.0723],[37.3833,-13.429,739.2205],[37.3889,-13.4312,728.503],[37.3937,-13.4279,724.8353],[37.4935,-13.5028,685.2585],[37.5334,-13.5624,702.278],[37.5446,-13.5733,664.6481],[37.5395,-13.5982,644.2734],[37.5242,-13.6161,615.6134],[37.5272,-13.6221,595.6406],[37.5426,-13.637,579.106],[37.5549,-13.6549,593.5027],[37.564,-13.6728,555.6235],[37.5763,-13.6698,548.3306],[37.5978,-13.6847,535.4448],[37.6039,-13.6847,538.8253],[37.6395,-13.6771,526.8674],[37.6863,-13.7042,510.3313],[37.6927,-13.7114,505.384],[37.6989,-13.7197,516.582],[37.7029,-13.7304,500.1839],[37.7029,-13.7408,508.7392],[37.7052,-13.7503,498.1282],[37.7144,-13.7533,515.4834],[37.7328,-13.7682,502.0042],[37.7389,-13.7891,510.2575],[37.7504,-13.8092,510.7023],[37.7503,-13.8135,499.6301],[37.7427,-13.8161,487.1895],[37.7328,-13.8405,475.6823],[37.747,-13.8595,485.2723],[37.7549,-13.8519,465.0192],[37.76,-13.852,487.8873],[37.7748,-13.859,466.4391],[37.7941,-13.8577,462.4728],[37.8102,-13.8499,460.8753],[37.8177,-13.8548,461.2616],[37.8373,-13.8579,459.2672],[37.847,-13.8741,456.5837],[37.8537,-13.8811,447.3771],[37.8663,-13.8766,475.1923],[37.8928,-13.889,445.2922],[37.9206,-13.8971,424.1907],[37.92,-13.8908,455.7513],[37.9233,-13.8651,469.1709],[37.9119,-13.8563,441.3757],[37.9095,-13.8497,448.6929],[37.9008,-13.8363,455.7338],[37.9006,-13.7948,474.0832],[37.898,-13.7879,456.909],[37.887,-13.771,463.8997],[37.8836,-13.7595,478.7025],[37.8835,-13.755,473.1934],[37.9045,-13.7116,500.6805],[37.9137,-13.6817,502.7463],[37.9137,-13.6579,534.3973],[37.9475,-13.628,534.9196],[37.9567,-13.6102,520.5955],[37.972,-13.5893,568.2626],[38.0045,-13.536,566.2447],[38.0643,-13.5022,619.2236],[38.0452,-13.4371,549.1439],[38.0402,-13.4154,516.1572],[38.0412,-13.4073,512.6891],[38.047,-13.4001,514.1075],[38.0615,-13.3875,507.1431],[38.1086,-13.3548,499.9503],[38.1274,-13.3527,496.6605],[38.1404,-13.348,489.4159],[38.1469,-13.3417,480.9795],[38.1561,-13.3238,477.6673],[38.1737,-13.3108,469.9658],[38.1784,-13.3052,470.8257],[38.1837,-13.291,485.3811],[38.1806,-13.2761,470.902],[38.2021,-13.2224,448.3513],[38.2002,-13.2206,446.496],[38.1999,-13.215,446.1395],[38.2064,-13.185,436.7142],[38.2186,-13.1694,434.258],[38.2183,-13.1452,430.8487]]]]}}