{"type": "Feature","bbox": [33.5787,-21.0057,34.4203,-20.1835],"geometry": {"type": "MultiPolygon","coordinates": [[[[33.9622,-21.0051,73.5901],[33.9768,-21.0057,65.0633],[33.987,-20.9966,66.1519],[33.9979,-20.9919,63.1043],[34.0026,-20.9914,63.8689],[34.0157,-20.9793,68.5433],[34.0279,-20.9762,63.08],[34.0411,-20.9676,64.4336],[34.0483,-20.9546,60.4919],[34.0582,-20.9191,59.4213],[34.0644,-20.9077,60.2221],[34.0733,-20.8979,59.9578],[34.0913,-20.892,55.0269],[34.0984,-20.8873,52.9701],[34.1054,-20.8722,53.4007],[34.1128,-20.8631,52.0301],[34.1214,-20.8562,49.868],[34.1299,-20.8518,49.265],[34.1419,-20.8502,50.0358],[34.1488,-20.8475,47.4579],[34.155,-20.8284,48.6237],[34.1662,-20.8188,44.0505],[34.173,-20.8149,44.3855],[34.1886,-20.8149,42.5607],[34.1931,-20.8191,43.6203],[34.1977,-20.8278,41.3968],[34.2108,-20.8282,40.2556],[34.2249,-20.8258,38.249],[34.2303,-20.8195,38.993],[34.2394,-20.8131,35.5725],[34.2462,-20.7966,36.676],[34.2548,-20.7859,38.5719],[34.2597,-20.7871,35.1632],[34.2695,-20.7851,34.2802],[34.2768,-20.7887,34.2665],[34.361,-20.6657,57.9491],[34.4203,-20.5433,37.1109],[34.4101,-20.5356,40.9452],[34.3781,-20.5323,46.6004],[34.333,-20.5471,56.8553],[34.315,-20.534,64.7107],[34.3012,-20.5263,57.1752],[34.2978,-20.5089,66.7889],[34.2851,-20.5017,62.6114],[34.2812,-20.4946,60.9217],[34.2769,-20.4773,64.3052],[34.2772,-20.4701,68.5529],[34.2795,-20.4636,68.9758],[34.2725,-20.4248,75.4063],[34.2677,-20.4068,78.9969],[34.237,-20.3971,93.2109],[34.2309,-20.3971,97.6556],[34.2186,-20.3912,103.8842],[34.1972,-20.3912,112.2084],[34.1789,-20.388,125.265],[34.168,-20.3824,135.9853],[34.1422,-20.3647,148.8971],[34.1285,-20.3577,156.6654],[33.9882,-20.1835,233.1909],[34.0067,-20.2087,232.505],[33.8852,-20.2424,282.5527],[33.8835,-20.2455,284.0805],[33.8717,-20.2554,280.8211],[33.8657,-20.2578,267.6871],[33.8507,-20.2596,235.4864],[33.8403,-20.2832,238.5945],[33.8287,-20.2955,254.6261],[33.8047,-20.3122,243.1205],[33.7831,-20.3323,255.5972],[33.7788,-20.3482,242.0728],[33.7771,-20.3633,242.6544],[33.7782,-20.3719,241.9441],[33.7729,-20.3907,227.1856],[33.76,-20.4171,236.295],[33.7387,-20.445,236.3735],[33.7216,-20.4611,249.481],[33.7062,-20.4732,259.7049],[33.6496,-20.493,226.0977],[33.6425,-20.4943,226.9923],[33.6325,-20.4922,229.0924],[33.6233,-20.4923,235.4965],[33.6096,-20.501,230.6916],[33.5787,-20.5139,248.5517],[33.6087,-20.5417,270.7093],[33.6199,-20.5366,269.9075],[33.634,-20.5389,266.6163],[33.6453,-20.5375,264.8774],[33.661,-20.5285,250.5706],[33.6612,-20.5402,259.7737],[33.6552,-20.5543,268.4812],[33.6487,-20.5819,261.4808],[33.647,-20.5969,241.3049],[33.6577,-20.6043,236.0433],[33.6674,-20.6178,232.1126],[33.6824,-20.6272,219.1397],[33.7178,-20.6446,198.1054],[33.7241,-20.7024,170.1387],[33.7297,-20.7087,160.1652],[33.7529,-20.7194,141.6902],[33.7802,-20.7276,131.3302],[33.7967,-20.7288,126.0711],[33.8197,-20.7397,117.4162],[33.8329,-20.7377,113.144],[33.8463,-20.7381,108.9448],[33.8549,-20.7511,102.969],[33.8675,-20.7608,97.0656],[33.9106,-20.8048,72.1318],[33.8967,-21.0021,85.454],[33.9622,-21.0051,73.5901]]]]}
,"properties": {"GID_3": "MOZ.9.5.3_1","GID_0": "MOZ","country": "Mozambique","GID_1": "MOZ.9_1","province": "Sofala","NL_NAME_1": "NA","GID_2": "MOZ.9.5_1","county": "Chibabava","NL_NAME_2": "NA","city": "Muxungue","VARNAME_3": "NA","NL_NAME_3": "NA","TYPE_3": "Localidad","ENGTYPE_3": "Locality","CC_3": "NA","HASC_3": "NA","name": "Muxungue.city","area_km2": 3822.797,"hist_schema_id": "Elevation0-9000","hist_area_km2": {"25": 14.173,"50": 543.199,"75": 1203.31,"100": 400.455,"125": 310.899,"150": 218.489,"175": 173.931,"200": 171.672,"225": 184.179,"250": 263.029,"275": 235.46,"300": 103.803,"325": 0.199}}}