{"type": "Feature","bbox": [35.1339,-12.0352,36.2871,-11.4068],"geometry": {"type": "MultiPolygon","coordinates": [[[[35.1516,-11.9544,631.1299],[35.1628,-11.9605,656.3953],[35.1777,-11.9726,642.615],[35.1777,-11.9865,648.8836],[35.2008,-11.9777,639.5507],[35.2148,-11.9696,636.4518],[35.224,-11.9785,643.1277],[35.2271,-11.9875,649.2543],[35.2454,-11.9856,650.3871],[35.2817,-11.9785,651.0691],[35.3033,-11.9785,692.2028],[35.3506,-11.9875,723.8055],[35.4803,-11.9935,701.6592],[35.5913,-12.0158,688.803],[35.664,-12.0235,717.7603],[35.681,-12.0352,743.769],[35.715,-12.0322,772.0162],[35.7243,-12.0203,726.0494],[35.749,-11.9964,739.4746],[35.9002,-11.9964,701.2857],[35.9529,-11.9911,723.4149],[35.9723,-12.0032,681.5655],[36.0176,-12.0054,605.8985],[36.0423,-12.0084,638.3204],[36.067,-12.0084,575.7219],[36.0855,-11.9964,547.0721],[36.0855,-11.9994,545.615],[36.0864,-11.9975,544.5085],[36.1002,-11.9896,544.7196],[36.1047,-11.9833,548.058],[36.1049,-11.9707,533.1089],[36.1197,-11.9552,544.396],[36.1255,-11.9452,540.8749],[36.1305,-11.9418,534.5293],[36.1455,-11.906,521.0614],[36.1521,-11.8766,514.1502],[36.1559,-11.8715,515.7226],[36.1698,-11.8597,508.2866],[36.1773,-11.843,508.736],[36.1904,-11.8394,516.5486],[36.1942,-11.8338,502.7699],[36.2095,-11.8248,492.1548],[36.2217,-11.8129,493.1245],[36.2248,-11.801,496.6551],[36.24,-11.786,485.6843],[36.2583,-11.7592,483.9346],[36.285,-11.736,480.5523],[36.2834,-11.7274,477.7018],[36.2751,-11.7264,480.5679],[36.2871,-11.708,482.3675],[36.276,-11.7101,482.1483],[36.2671,-11.718,489.0727],[36.2508,-11.7148,501.0598],[36.2394,-11.7066,487.9614],[36.2171,-11.7085,483.1557],[36.2013,-11.7162,491.2509],[36.1896,-11.7162,505.1916],[36.1837,-11.7139,502.1534],[36.1823,-11.7084,498.2631],[36.1886,-11.6967,495.7184],[36.1876,-11.6889,495.0908],[36.1731,-11.676,497.9273],[36.17,-11.6655,500.2759],[36.1811,-11.639,495.3406],[36.1748,-11.6241,505.5791],[36.178,-11.6141,521.9637],[36.1752,-11.6068,520.5916],[36.1768,-11.5981,526.4717],[36.1723,-11.5896,533.4962],[36.1604,-11.5822,525.5679],[36.1575,-11.577,519.6544],[36.1519,-11.5728,510.2704],[36.1386,-11.5703,530.5038],[36.1325,-11.5665,527.65],[36.1239,-11.552,530.9276],[36.1126,-11.5525,525.4193],[36.1059,-11.5488,520.2046],[36.0986,-11.5475,520.0494],[36.0891,-11.537,515.4563],[36.0507,-11.515,525.3505],[36.0254,-11.5026,552.4266],[36.0156,-11.4994,552.7988],[35.9948,-11.4979,575.5275],[35.957,-11.4831,547.153],[35.9539,-11.4773,545.9011],[35.9621,-11.4575,543.3228],[35.9613,-11.4426,543.3209],[35.958,-11.4373,552.3845],[35.9419,-11.4249,546.2368],[35.926,-11.4243,547.6043],[35.9097,-11.4261,548.377],[35.8836,-11.4223,553.5798],[35.8577,-11.424,549.2248],[35.854,-11.4226,549.5854],[35.8446,-11.4097,547.8321],[35.8343,-11.4072,554.2646],[35.8238,-11.4068,550.0329],[35.8203,-11.4096,552.9448],[35.8117,-11.4291,553.3314],[35.7955,-11.4496,562.9401],[35.7862,-11.457,552.4384],[35.777,-11.4709,562.3184],[35.7723,-11.4731,557.5096],[35.7542,-11.4766,556.8489],[35.7393,-11.4757,555.373],[35.7249,-11.4808,556.1894],[35.712,-11.4813,554.3832],[35.7027,-11.491,569.0564],[35.7049,-11.5137,557.8157],[35.7039,-11.5186,559.6524],[35.6938,-11.5201,559.7812],[35.6882,-11.525,562.1638],[35.681,-11.5473,576.2031],[35.6747,-11.5565,564.2305],[35.6659,-11.5595,584.4642],[35.6607,-11.5634,577.7758],[35.657,-11.5721,582.0701],[35.6496,-11.5786,584.7908],[35.6474,-11.5928,596.9512],[35.6439,-11.5931,606.9262],[35.6393,-11.5857,584.9498],[35.6054,-11.5961,583.7776],[35.5966,-11.5965,606.0811],[35.5921,-11.5945,623.3276],[35.5872,-11.5878,600.687],[35.5826,-11.5853,593.662],[35.5788,-11.5993,618.6985],[35.5756,-11.6035,599.612],[35.5676,-11.5991,610.1808],[35.5639,-11.6042,605.4045],[35.5604,-11.6032,613.4377],[35.5485,-11.5947,608.1618],[35.5464,-11.5993,606.396],[35.5387,-11.5924,598.5333],[35.535,-11.5931,596.1123],[35.5329,-11.5993,621.5313],[35.5336,-11.6042,630.6065],[35.5392,-11.6115,630.8787],[35.5324,-11.6111,614.1886],[35.5186,-11.6042,596.426],[35.5156,-11.5977,587.8735],[35.5144,-11.5883,579.7711],[35.5107,-11.5835,578.8304],[35.4936,-11.5754,595.2142],[35.4885,-11.5759,596.7922],[35.4888,-11.58,600.6002],[35.4948,-11.5867,601.2708],[35.4927,-11.5913,602.4793],[35.489,-11.5947,603.6138],[35.4747,-11.595,620.3623],[35.4652,-11.5908,595.711],[35.457,-11.5842,590.9429],[35.4547,-11.5911,606.6285],[35.4491,-11.5869,607.4052],[35.4425,-11.5858,582.1677],[35.4358,-11.5872,585.0049],[35.4311,-11.5842,582.4377],[35.4243,-11.5667,574.4575],[35.4199,-11.5665,578.2043],[35.4136,-11.574,575.7043],[35.4073,-11.5736,576.9669],[35.4036,-11.5758,577.7791],[35.3929,-11.5916,588.6176],[35.3861,-11.5951,584.7136],[35.3756,-11.5922,584.1782],[35.3749,-11.6001,591.8392],[35.3778,-11.6091,584.8324],[35.375,-11.6126,582.4304],[35.3661,-11.6183,586.4135],[35.3635,-11.6221,588.7824],[35.366,-11.6273,579.0402],[35.3631,-11.6326,581.5425],[35.3469,-11.6304,584.2542],[35.3264,-11.6508,591.8721],[35.3232,-11.659,590.7642],[35.3253,-11.6751,596.0787],[35.3159,-11.6884,598.9938],[35.3134,-11.7001,595.2377],[35.3177,-11.7069,590.5452],[35.3178,-11.7128,589.8704],[35.309,-11.7164,604.9795],[35.3022,-11.7388,600.7318],[35.3037,-11.7652,598.7391],[35.2936,-11.7686,607.9548],[35.2889,-11.7733,601.1995],[35.2845,-11.7818,595.9622],[35.2663,-11.8064,615.7629],[35.2647,-11.8118,609.8343],[35.2421,-11.8368,615.2113],[35.2256,-11.8729,619.0168],[35.215,-11.882,616.573],[35.2065,-11.8861,628.6916],[35.1967,-11.8937,624.0549],[35.1949,-11.9048,620.691],[35.1893,-11.9109,630.7012],[35.181,-11.9176,630.2548],[35.176,-11.9176,627.7108],[35.1497,-11.9313,632.8557],[35.1472,-11.936,648.0504],[35.1417,-11.9407,635.1283],[35.1339,-11.9425,647.5311],[35.1516,-11.9544,631.1299]]]]}
,"properties": {"GID_3": "MOZ.8.15.3_1","GID_0": "MOZ","country": "Mozambique","GID_1": "MOZ.8_1","province": "Nassa","NL_NAME_1": "NA","GID_2": "MOZ.8.15_1","county": "Sanga","NL_NAME_2": "NA","city": "Matchedje","VARNAME_3": "NA","NL_NAME_3": "NA","TYPE_3": "Localidad","ENGTYPE_3": "Locality","CC_3": "NA","HASC_3": "NA","name": "Matchedje.city","area_km2": 5197.592,"hist_schema_id": "Elevation0-9000","hist_area_km2": {"475": 8.677,"500": 97.177,"525": 211.1,"550": 395.057,"575": 473.824,"600": 722.031,"625": 791.085,"650": 726.773,"675": 624.108,"700": 450.065,"725": 295.948,"750": 204.358,"775": 116.948,"800": 50.269,"825": 13.798,"850": 4.96,"875": 3.237,"900": 2.303,"925": 2.325,"950": 1.453,"975": 0.768,"1000": 0.457,"1025": 0.415,"1050": 0.27,"1075": 0.166}}}