{"type": "Feature","bbox": [38.0394,-17.2371,38.8915,-16.3403],"geometry": {"type": "MultiPolygon","coordinates": [[[[38.8793,-17.2315,8.5311],[38.8754,-17.231,0.0],[38.874,-17.2326,9.562],[38.8768,-17.2371,0.0],[38.8849,-17.2354,0.0],[38.884,-17.2329,0.0],[38.8793,-17.2315,8.5311]]],
[[[38.6754,-17.069,0.0],[38.6749,-17.0679,0.0],[38.6724,-17.0699,0.0],[38.6729,-17.0721,0.0],[38.6749,-17.0715,0.0],[38.6754,-17.069,0.0]]],
[[[38.6726,-17.0613,0.0],[38.671,-17.061,0.5],[38.671,-17.0687,0.0],[38.6743,-17.0663,0.0],[38.6726,-17.0613,0.0]]],
[[[38.6763,-17.0601,0.0],[38.6749,-17.0596,0.0],[38.6743,-17.061,0.0],[38.6771,-17.0635,0.0],[38.6774,-17.0626,0.0],[38.6763,-17.0601,0.0]]],
[[[38.6649,-17.0793,0.0],[38.659,-17.0799,0.125],[38.6624,-17.0799,0.0],[38.661,-17.0812,0.0],[38.6626,-17.0821,0.0],[38.6674,-17.079,0.0],[38.6649,-17.0793,0.0]]],
[[[38.6701,-17.0737,0.0],[38.6693,-17.0724,0.0],[38.6688,-17.0732,0.0],[38.671,-17.0746,0.0],[38.6701,-17.0737,0.0]]],
[[[38.6693,-17.0462,0.5],[38.6682,-17.0451,0.5],[38.6693,-17.0471,0.5],[38.6704,-17.0468,0.5],[38.6693,-17.0462,0.5]]],
[[[38.8387,-17.0476,3.3428],[38.8376,-17.0465,3.3428],[38.8368,-17.0485,4.2867],[38.8376,-17.0487,1.0364],[38.8387,-17.0476,3.3428]]],
[[[38.6718,-17.0418,5.2353],[38.6696,-17.0412,0.5],[38.6704,-17.0432,2.2644],[38.6726,-17.0429,1.2995],[38.6718,-17.0418,5.2353]]],
[[[38.6779,-17.0335,0.5],[38.6774,-17.0324,0.5],[38.674,-17.0324,0.5194],[38.6754,-17.0335,0.5],[38.6779,-17.0335,0.5]]],
[[[38.5235,-17.1276,0.0],[38.521,-17.1274,0.0],[38.5226,-17.1307,0.0],[38.5238,-17.1304,0.0],[38.5235,-17.1276,0.0]]],
[[[38.496,-17.1271,0.0],[38.4946,-17.1254,0.0],[38.4935,-17.1285,0.0],[38.4965,-17.1304,0.0],[38.4968,-17.1287,0.0],[38.496,-17.1271,0.0]]],
[[[38.4987,-17.1238,0.0],[38.4976,-17.1224,0.0],[38.4971,-17.1249,0.0],[38.4996,-17.1276,0.0],[38.4996,-17.1262,0.0],[38.4987,-17.1238,0.0]]],
[[[38.4965,-17.119,0.0],[38.4968,-17.1176,0.0],[38.4957,-17.1174,0.0],[38.496,-17.1201,0.0],[38.4965,-17.119,0.0]]],
[[[38.5785,-17.1115,0.0],[38.5793,-17.1104,0.0],[38.5774,-17.1104,0.0],[38.5765,-17.1121,0.0],[38.5768,-17.1118,0.0],[38.5785,-17.1115,0.0]]],
[[[38.5857,-17.0979,0.0],[38.586,-17.0963,0.0],[38.584,-17.0996,0.0],[38.5868,-17.0996,0.0],[38.5879,-17.1021,0.0],[38.5876,-17.0987,0.0],[38.5857,-17.0979,0.0]]],
[[[38.5929,-17.0968,0.0],[38.5921,-17.0957,0.0],[38.5904,-17.0993,0.0],[38.5924,-17.1021,0.0],[38.5938,-17.0979,0.0],[38.5929,-17.0968,0.0]]],
[[[38.5899,-17.0976,0.0],[38.5893,-17.0987,0.0],[38.5901,-17.0985,0.0],[38.591,-17.0968,0.0],[38.5904,-17.0968,0.0],[38.5899,-17.0976,0.0]]],
[[[38.4979,-17.1146,0.0],[38.4951,-17.114,0.0],[38.4982,-17.1168,0.0],[38.4974,-17.119,0.0],[38.4985,-17.1196,0.0],[38.4996,-17.1162,0.0],[38.4979,-17.1146,0.0]]],
[[[38.5776,-17.079,1.0],[38.5754,-17.0785,4.5246],[38.5751,-17.0799,5.2914],[38.5785,-17.0815,0.5],[38.5776,-17.079,1.0]]],
[[[38.1261,-16.4947,178.2881],[38.0814,-16.5119,126.8891],[38.0488,-16.5056,159.4627],[38.0394,-16.5243,130.7647],[38.0448,-16.5441,129.9431],[38.0441,-16.5575,117.1858],[38.0472,-16.5615,112.1795],[38.0443,-16.5723,120.0642],[38.0455,-16.5888,112.455],[38.0436,-16.5998,112.9816],[38.045,-16.6066,113.1571],[38.0457,-16.6417,122.8971],[38.0744,-16.715,106.7972],[38.0965,-16.7624,88.5741],[38.0993,-16.8531,107.5521],[38.1121,-16.8566,95.6649],[38.1394,-16.888,75.6936],[38.1581,-16.9021,66.373],[38.1595,-16.9207,62.1421],[38.1642,-16.9245,59.3773],[38.1653,-16.9357,58.3856],[38.1834,-16.9696,52.8264],[38.1936,-16.9741,51.7735],[38.2003,-16.9813,46.6127],[38.2196,-16.9828,38.5012],[38.2263,-16.9896,37.4745],[38.2244,-16.9991,43.1784],[38.2272,-17.0095,37.8054],[38.2483,-17.0387,27.7033],[38.2536,-17.0415,23.171],[38.2811,-17.0449,25.1413],[38.2901,-17.0504,12.6747],[38.2972,-17.0681,13.9388],[38.3006,-17.09,8.0081],[38.3038,-17.0982,3.7196],[38.2972,-17.1023,3.9087],[38.2964,-17.1126,5.7371],[38.2895,-17.1176,3.0619],[38.287,-17.123,1.9318],[38.3073,-17.1274,2.1513],[38.313,-17.1238,2.1764],[38.324,-17.1344,2.0352],[38.3368,-17.134,2.4732],[38.362,-17.1299,12.069],[38.3687,-17.1421,6.3785],[38.3665,-17.1495,9.2153],[38.369,-17.1549,10.4176],[38.3725,-17.1497,9.825],[38.3736,-17.1437,7.6018],[38.3786,-17.1461,7.838],[38.3904,-17.1473,7.857],[38.3981,-17.1452,6.9343],[38.4097,-17.1334,6.305],[38.4097,-17.1418,4.9202],[38.4115,-17.1454,6.3462],[38.4241,-17.1424,9.121],[38.434,-17.1457,2.4065],[38.4376,-17.1454,0.0],[38.4354,-17.1449,2.4065],[38.4354,-17.1429,3.8134],[38.4488,-17.144,6.4417],[38.4499,-17.146,0.0],[38.4532,-17.1465,0.0],[38.4546,-17.1446,0.0],[38.4515,-17.1454,0.0],[38.4521,-17.1418,0.0],[38.4726,-17.141,0.0],[38.4757,-17.1385,0.9114],[38.4774,-17.1407,0.0],[38.4787,-17.1362,5.3012],[38.4846,-17.1315,1.5074],[38.4888,-17.1254,0.6399],[38.494,-17.1218,0.0],[38.4949,-17.1182,0.8313],[38.4935,-17.1171,0.4758],[38.4921,-17.1218,0.5937],[38.4865,-17.1229,1.0875],[38.4832,-17.1204,0.7983],[38.4821,-17.1171,0.5],[38.4854,-17.1215,1.0875],[38.4901,-17.1218,0.0],[38.4926,-17.1199,0.0],[38.4915,-17.1099,0.0],[38.4982,-17.1126,1.9359],[38.5018,-17.1121,0.0],[38.5026,-17.1087,2.7194],[38.5004,-17.1057,2.1186],[38.5001,-17.1021,1.8766],[38.5068,-17.0985,1.8685],[38.5054,-17.091,5.2364],[38.5132,-17.0865,3.3092],[38.514,-17.0871,3.4946],[38.5076,-17.0921,5.5693],[38.5093,-17.0971,0.5],[38.5082,-17.1007,3.1798],[38.5029,-17.1029,0.5],[38.5082,-17.1085,3.1821],[38.506,-17.1201,0.0],[38.5182,-17.1221,0.0],[38.5257,-17.121,0.0],[38.5218,-17.1235,0.0],[38.5257,-17.1287,0.5393],[38.5257,-17.1324,0.7453],[38.5226,-17.134,0.0],[38.5274,-17.1346,0.0],[38.5746,-17.1207,1.0306],[38.5776,-17.1185,2.0759],[38.5768,-17.1146,3.0673],[38.5732,-17.1174,1.6495],[38.5626,-17.1154,0.7927],[38.5624,-17.1176,1.6583],[38.5646,-17.1199,4.9979],[38.5585,-17.1188,0.0],[38.5601,-17.1143,3.1412],[38.5635,-17.1121,2.2629],[38.5696,-17.1107,0.0],[38.5713,-17.1146,0.0],[38.5732,-17.1146,0.0],[38.5751,-17.1118,0.0],[38.5746,-17.1099,0.0],[38.5835,-17.1032,1.9972],[38.5818,-17.0968,0.0],[38.5849,-17.0951,0.0],[38.5849,-17.0929,0.0],[38.5812,-17.090699999999998,2.8436],[38.581,-17.0882,1.9701],[38.5749,-17.0804,5.2914],[38.5732,-17.0754,4.7217],[38.5771,-17.069,4.1458],[38.5799,-17.0693,2.9515],[38.5768,-17.0724,2.9398],[38.5768,-17.0749,1.0],[38.5812,-17.0807,2.1585],[38.5821,-17.0843,0.5],[38.5851,-17.0868,3.3843],[38.5876,-17.0957,0.0],[38.5907,-17.0929,0.0],[38.5871,-17.0882,0.0],[38.5907,-17.0904,0.0],[38.5915,-17.0943,0.0],[38.5924,-17.0938,0.0],[38.5913,-17.0779,1.6773],[38.5926,-17.0782,5.2727],[38.5949,-17.0835,2.9352],[38.594,-17.1037,0.0],[38.5962,-17.1071,0.0],[38.5988,-17.1065,0.0],[38.6001,-17.1035,0.0],[38.5988,-17.1026,0.258],[38.6001,-17.101,4.4789],[38.6001,-17.0932,5.913],[38.6026,-17.0921,3.7878],[38.6049,-17.0932,2.9577],[38.6004,-17.0943,1.6155],[38.6021,-17.0987,0.0],[38.6057,-17.0982,2.894],[38.6026,-17.0996,7.3537],[38.6007,-17.1087,0.0],[38.6599,-17.094,0.0],[38.6768,-17.0879,4.5013],[38.6849,-17.0824,0.0],[38.6829,-17.0782,0.0],[38.6757,-17.0785,0.613],[38.6693,-17.0818,0.5956],[38.6665,-17.0854,2.0855],[38.6635,-17.0849,1.6503],[38.6568,-17.0879,1.8517],[38.654,-17.0874,2.6715],[38.6515,-17.0901,1.9302],[38.6451,-17.0929,5.9077],[38.6554,-17.0799,0.5],[38.6638,-17.0771,0.0],[38.6646,-17.0757,0.0],[38.6624,-17.0749,0.744],[38.6688,-17.0715,0.0],[38.6676,-17.0679,0.0],[38.6649,-17.0665,2.4607],[38.6576,-17.0679,0.5],[38.6535,-17.0671,5.9523],[38.6512,-17.0624,7.929],[38.6526,-17.0587,3.5339],[38.6496,-17.0565,1.6402],[38.6532,-17.0582,3.5339],[38.6524,-17.0632,0.5],[38.6563,-17.0663,0.5],[38.6635,-17.0632,0.0],[38.6693,-17.0635,0.0],[38.6707,-17.0593,3.8803],[38.6746,-17.0599,0.0],[38.6726,-17.0574,0.5],[38.6715,-17.0582,3.8803],[38.6721,-17.0537,8.436],[38.6707,-17.0515,5.0455],[38.6624,-17.049,0.5],[38.6601,-17.0421,1.1515],[38.6538,-17.0371,0.5],[38.6535,-17.034,3.2134],[38.6551,-17.0315,0.5],[38.6512,-17.0282,6.555],[38.6482,-17.0301,3.0505],[38.6468,-17.0293,5.4417],[38.6521,-17.0271,2.4393],[38.656,-17.0304,5.0833],[38.6557,-17.0371,0.5],[38.661,-17.0404,1.1983],[38.6635,-17.0468,0.5],[38.664,-17.0399,0.5],[38.6668,-17.0343,3.1268],[38.6715,-17.031,3.8712],[38.6813,-17.0307,0.5],[38.679,-17.0229,0.5],[38.6768,-17.0232,5.4724],[38.6721,-17.0276,0.5],[38.6676,-17.0282,3.8129],[38.6621,-17.0254,0.5],[38.6601,-17.0185,1.2264],[38.669,-17.0101,1.2463],[38.6712,-17.0051,3.5367],[38.6787,-17.0021,2.1877],[38.6818,-16.9899,2.1877],[38.6754,-16.9918,2.3583],[38.6651,-16.9901,3.1644],[38.6626,-16.9876,0.5],[38.6618,-16.9807,3.2766],[38.6585,-16.979,1.2582],[38.6529,-16.981,1.2795],[38.6521,-16.9837,2.4183],[38.6496,-16.9851,3.0944],[38.6446,-16.9851,4.1936],[38.6371,-16.9799,6.2422],[38.6357,-16.9762,2.7152],[38.6365,-16.974,5.0616],[38.6379,-16.9796,2.6157],[38.6446,-16.9843,1.6906],[38.6496,-16.984,1.8568],[38.6521,-16.9801,1.2795],[38.659,-16.9776,2.4671],[38.6635,-16.9801,1.94],[38.6651,-16.9887,1.695],[38.674,-16.9899,0.5],[38.681,-16.9874,2.8198],[38.684,-16.9893,1.4565],[38.6801,-17.0037,0.5],[38.6729,-17.0065,2.1297],[38.6693,-17.0129,0.5],[38.6626,-17.0185,4.9756],[38.6621,-17.0215,6.7531],[38.6646,-17.0246,0.5],[38.6696,-17.0254,2.6356],[38.6754,-17.021,2.7295],[38.679,-17.0207,2.1011],[38.6865,-17.0279,1.0065],[38.6862,-17.0346,0.5],[38.6896,-17.0368,0.5],[38.6929,-17.036,1.2756],[38.6913,-17.0376,2.4377],[38.6846,-17.036,0.5],[38.6749,-17.0368,2.667],[38.6724,-17.0382,7.3525],[38.6724,-17.0404,7.4245],[38.6793,-17.0449,0.5],[38.6821,-17.0485,2.8601],[38.6849,-17.0643,1.775],[38.689,-17.0679,9.7809],[38.6885,-17.074,0.0],[38.6965,-17.0788,2.5234],[38.7068,-17.0818,0.0],[38.7118,-17.0824,0.0],[38.7418,-17.0743,6.9064],[38.8112,-17.0651,0.0],[38.8121,-17.064,0.0],[38.8096,-17.064,3.0424],[38.8085,-17.0607,1.3239],[38.8135,-17.0576,5.4446],[38.8201,-17.0576,3.3406],[38.8226,-17.0521,0.8647],[38.8332,-17.0535,0.5],[38.8357,-17.0507,3.7389],[38.8368,-17.046,6.3835],[38.8449,-17.046,5.7576],[38.849,-17.0435,0.5],[38.8499,-17.039,2.1817],[38.8468,-17.0385,1.0],[38.8443,-17.0399,2.3413],[38.8474,-17.0374,4.9417],[38.8513,-17.0396,3.6732],[38.8488,-17.0451,2.6009],[38.8393,-17.0479,1.8862],[38.8346,-17.0557,0.5],[38.8251,-17.0529,0.125],[38.8213,-17.0613,1.0394],[38.8321,-17.0604,0.0],[38.8674,-17.0524,3.2626],[38.8915,-17.0449,0.0],[38.868899999999996,-16.9882,9.9237],[38.8718,-16.9831,5.3228],[38.8604,-16.9789,8.3193],[38.8535,-16.9699,10.8306],[38.8562,-16.9592,6.3214],[38.8712,-16.944,8.4546],[38.8514,-16.9352,11.9958],[38.8466,-16.9262,11.881],[38.8541,-16.8919,11.6361],[38.8481,-16.886,15.5564],[38.8374,-16.8792,13.8066],[38.8319,-16.873,14.8385],[38.8312,-16.8172,18.9548],[38.8353,-16.7857,26.9601],[38.8273,-16.7795,22.2555],[38.8228,-16.7696,20.6179],[38.8288,-16.7694,24.6849],[38.8283,-16.7622,23.0968],[38.8145,-16.753,23.8671],[38.815,-16.7137,24.0844],[38.7991,-16.6939,32.5708],[38.8134,-16.6642,47.0063],[38.8135,-16.6514,31.7485],[38.7906,-16.65,32.5877],[38.7464,-16.6394,50.2853],[38.7373,-16.6415,51.718],[38.7313,-16.6356,47.4474],[38.7432,-16.617,53.5425],[38.7496,-16.6135,52.8692],[38.7428,-16.6041,40.4905],[38.7283,-16.5904,35.2166],[38.7219,-16.5795,49.3292],[38.7104,-16.5755,56.5556],[38.6956,-16.5663,57.2947],[38.6871,-16.5528,59.7831],[38.679,-16.5477,62.8434],[38.6334,-16.5502,52.6162],[38.6187,-16.5493,66.632],[38.6115,-16.5417,53.8704],[38.6054,-16.522,64.8896],[38.5921,-16.5208,71.6258],[38.5608,-16.5032,79.2642],[38.5533,-16.4968,64.9221],[38.5572,-16.4913,70.7232],[38.5561,-16.4809,80.8129],[38.5451,-16.478,80.0524],[38.5376,-16.4716,79.7037],[38.5311,-16.4628,75.4525],[38.5329,-16.4536,70.8323],[38.5364,-16.4467,77.8001],[38.5375,-16.4395,74.0508],[38.536,-16.435,92.3401],[38.5377,-16.4307,75.426],[38.5338,-16.4256,95.6449],[38.5344,-16.4186,80.1874],[38.5278,-16.4103,103.6964],[38.5245,-16.3982,112.0174],[38.5301,-16.391,108.426],[38.547,-16.39,110.9263],[38.554,-16.3876,102.4329],[38.5522,-16.3801,106.3428],[38.5494,-16.3761,106.2827],[38.5441,-16.3732,107.0328],[38.5209,-16.3653,109.2452],[38.5158,-16.3517,113.117],[38.5075,-16.3403,114.2148],[38.4866,-16.3452,134.4747],[38.4655,-16.3406,159.123],[38.4588,-16.3417,153.906],[38.4492,-16.3458,162.9158],[38.4438,-16.3562,171.3304],[38.4209,-16.3632,228.6342],[38.4151,-16.3671,253.4045],[38.3778,-16.3797,272.1127],[38.3657,-16.3879,206.9292],[38.3545,-16.4426,206.2573],[38.3444,-16.4535,164.6726],[38.3401,-16.4613,150.4147],[38.3501,-16.4806,119.9312],[38.3348,-16.4841,129.6443],[38.3247,-16.4844,150.8199],[38.2752,-16.498,151.5549],[38.2617,-16.5004,161.6139],[38.1863,-16.4982,147.1232],[38.1813,-16.5051,141.2443],[38.1728,-16.5075,139.1819],[38.1261,-16.4947,178.2881]]]]}
,"properties": {"GID_3": "MOZ.11.16.1_1","GID_0": "MOZ","country": "Mozambique","GID_1": "MOZ.11_1","province": "Zambezia","NL_NAME_1": "NA","GID_2": "MOZ.11.16_1","county": "Pebane","NL_NAME_2": "NA","city": "MulelaMualama","VARNAME_3": "NA","NL_NAME_3": "NA","TYPE_3": "Localidad","ENGTYPE_3": "Locality","CC_3": "NA","HASC_3": "NA","name": "Mulela_Mualama.city","area_km2": 5154.595,"hist_schema_id": "Elevation0-9000","hist_area_km2": {"0": 490.419,"25": 755.886,"50": 1046.235,"75": 1080.605,"100": 787.078,"125": 496.886,"150": 291.778,"175": 148.569,"200": 45.789,"225": 9.092,"250": 1.973,"275": 0.142,"300": 0.041,"325": 0.102}}}