{"type": "Feature","bbox": [34.4084,-13.1998,34.9674,-11.5715],"geometry": {"type": "MultiPolygon","coordinates": [[[[34.4084,-12.2573,474.5],[34.4086,-12.2927,474.5],[34.4138,-12.3497,474.5],[34.417,-12.367,474.5],[34.4339,-12.4319,474.5],[34.4479,-12.4754,474.5],[34.4565,-12.5129,474.5],[34.463,-12.5283,474.5],[34.4681,-12.5465,474.5],[34.4845,-12.6167,474.5],[34.4983,-12.6643,474.5],[34.519,-12.7101,474.5],[34.5239,-12.7297,474.5],[34.5255,-12.7529,474.5],[34.5237,-12.7681,474.5],[34.5108,-12.8092,474.5],[34.511,-12.8175,474.5],[34.5077,-12.8361,474.5],[34.5082,-12.849,474.5],[34.5167,-12.8902,474.5],[34.5324,-12.9273,474.5],[34.5363,-12.947,474.5],[34.5379,-12.965,474.5],[34.5502,-13.0294,474.5],[34.5521,-13.0471,474.5],[34.5513,-13.0625,474.5],[34.5442,-13.0809,474.5],[34.5407,-13.0979,474.5],[34.537,-13.1476,474.5],[34.5391,-13.157,474.5],[34.5393,-13.1998,474.5],[34.8121,-13.1021,475.3178],[34.8099,-13.0993,477.4369],[34.8093,-13.0951,475.317],[34.8079,-13.0949,475.317],[34.8115,-13.091,474.5],[34.8115,-13.0882,474.5],[34.811,-13.0846,474.5],[34.8071,-13.0804,476.1044],[34.8065,-13.0699,505.1905],[34.8037,-13.0676,492.6136],[34.8026,-13.0618,477.0615],[34.7985,-13.0632,474.5],[34.799,-13.0582,477.6304],[34.8015,-13.0582,487.9771],[34.8024,-13.056,488.063],[34.8004,-13.0524,484.9402],[34.7962,-13.0512,492.5369],[34.7949,-13.0465,474.5],[34.7904,-13.0413,474.5],[34.7896,-13.036,475.6147],[34.7912,-13.0349,475.6147],[34.7915,-13.0301,479.9991],[34.7879,-13.0296,474.5],[34.7868,-13.0279,474.5],[34.7874,-13.0257,497.5508],[34.7837,-13.0215,474.5],[34.7835,-13.016,483.023],[34.7804,-13.0179,478.8493],[34.7776,-13.0157,477.6858],[34.776,-13.0112,474.5],[34.7771,-13.0029,512.9419],[34.7729,-12.9999,485.0429],[34.7713,-12.9904,502.2857],[34.7679,-12.9865,474.5],[34.764,-12.9857,476.2923],[34.7635,-12.981,476.4525],[34.7649,-12.9807,510.7605],[34.7651,-12.9776,501.9753],[34.7635,-12.9776,485.378],[34.7621,-12.9751,478.4503],[34.7621,-12.9685,478.5444],[34.7654,-12.9649,480.4422],[34.764,-12.9599,476.7504],[34.7626,-12.9596,476.7504],[34.7643,-12.9537,475.2083],[34.7604,-12.9424,474.5],[34.7618,-12.9401,487.2412],[34.7593,-12.9357,474.5],[34.7596,-12.9276,474.5],[34.7626,-12.9251,487.313],[34.7626,-12.9213,480.4956],[34.7568,-12.9185,475.5576],[34.7576,-12.9157,480.9941],[34.7557,-12.9146,474.5],[34.7557,-12.9126,475.3748],[34.7588,-12.906,477.7093],[34.7579,-12.8982,474.5],[34.7624,-12.8929,476.6183],[34.7626,-12.8885,478.1091],[34.7724,-12.8826,475.4266],[34.7704,-12.8735,474.5],[34.771,-12.8651,477.1339],[34.7776,-12.8562,482.7638],[34.779,-12.8424,481.3752],[34.7851,-12.8343,474.5],[34.7876,-12.8268,483.7552],[34.7868,-12.8224,474.5],[34.789,-12.8193,475.3822],[34.789,-12.8124,477.5052],[34.7868,-12.8026,474.5],[34.789,-12.796,475.0581],[34.7863,-12.7946,474.5],[34.7882,-12.7907,477.175],[34.7863,-12.7899,474.5],[34.7865,-12.7885,474.5],[34.7904,-12.7871,475.6073],[34.7907,-12.7843,474.5],[34.7957,-12.7782,494.8159],[34.7943,-12.7721,474.5],[34.7979,-12.7674,482.6897],[34.7982,-12.7643,474.5],[34.804,-12.7632,491.5648],[34.8085,-12.7579,477.261],[34.8115,-12.7524,474.5],[34.8124,-12.7432,477.8849],[34.8174,-12.7374,477.0415],[34.8157,-12.7229,474.5],[34.8179,-12.7207,474.5],[34.8179,-12.7171,474.5],[34.8157,-12.7104,474.5],[34.8207,-12.6987,475.7292],[34.8157,-12.6954,477.2268],[34.8121,-12.6957,476.4324],[34.8107,-12.7035,476.1496],[34.8046,-12.7063,474.5],[34.8026,-12.7054,474.5],[34.801,-12.6988,474.5],[34.8018,-12.6962,474.5],[34.8046,-12.6965,481.3257],[34.8032,-12.6901,474.5],[34.8085,-12.6879,475.8475],[34.809,-12.686,475.9542],[34.8046,-12.6743,489.8438],[34.8043,-12.6693,515.0928],[34.8024,-12.6668,474.5],[34.7988,-12.6471,480.8578],[34.7935,-12.6404,478.2046],[34.7738,-12.6313,474.5],[34.7696,-12.6271,475.6339],[34.7693,-12.6221,476.587],[34.7713,-12.616,478.0446],[34.7693,-12.609,477.357],[34.7735,-12.6046,477.7789],[34.7762,-12.5968,474.5],[34.769,-12.5813,486.7681],[34.7679,-12.5743,476.0227],[34.7629,-12.5701,474.5],[34.7635,-12.5682,475.4107],[34.7607,-12.564,483.5977],[34.7546,-12.5604,476.3052],[34.754,-12.5554,474.5],[34.7565,-12.5504,476.9677],[34.7549,-12.5468,475.99],[34.7443,-12.5393,480.7321],[34.7335,-12.5357,474.5],[34.7113,-12.5174,476.1766],[34.7124,-12.5162,476.3036],[34.7165,-12.521,477.2548],[34.7179,-12.5204,476.2636],[34.7115,-12.5151,476.3036],[34.7104,-12.5107,475.5166],[34.7124,-12.5104,475.5643],[34.7126,-12.5082,475.8087],[34.704,-12.5013,475.3312],[34.7046,-12.4913,474.5],[34.6976,-12.4818,474.5],[34.699,-12.4768,476.7256],[34.6996,-12.4768,476.7256],[34.699,-12.4796,475.8426],[34.7012,-12.4807,483.4514],[34.6993,-12.4757,478.4437],[34.6996,-12.4582,474.5],[34.6957,-12.4499,474.5],[34.6896,-12.4432,474.5],[34.6874,-12.4343,477.1405],[34.6843,-12.431,477.8171],[34.6846,-12.4279,475.1066],[34.691,-12.4299,476.1158],[34.6993,-12.4288,479.1764],[34.7046,-12.4235,475.0722],[34.7054,-12.4185,474.8705],[34.7088,-12.414,475.9239],[34.709,-12.4099,480.58],[34.7065,-12.4051,474.5],[34.7071,-12.4015,482.2696],[34.7021,-12.3924,474.5],[34.709,-12.3693,480.1709],[34.7051,-12.356,533.8698],[34.7032,-12.3549,476.1856],[34.6999,-12.3476,485.6538],[34.6987,-12.3382,514.8591],[34.7004,-12.3287,474.5],[34.7046,-12.3221,478.5685],[34.7043,-12.3182,474.5],[34.7076,-12.3126,487.871],[34.7126,-12.2971,474.5],[34.7129,-12.2932,474.5],[34.7107,-12.2907,474.5],[34.7118,-12.2854,474.5],[34.7163,-12.284,474.5],[34.7196,-12.2785,480.4671],[34.7218,-12.2699,477.1285],[34.7199,-12.2615,477.7125],[34.7229,-12.2585,474.5],[34.7215,-12.2535,475.5452],[34.7229,-12.249,474.5],[34.7165,-12.241,474.5],[34.7174,-12.2379,490.8577],[34.7149,-12.2376,474.5],[34.7143,-12.234,476.4598],[34.7107,-12.2324,474.5],[34.7115,-12.2207,482.9114],[34.7079,-12.2146,476.5817],[34.7082,-12.2104,490.951],[34.7051,-12.2099,474.5],[34.7049,-12.2071,483.0391],[34.6985,-12.2026,474.5],[34.7018,-12.1926,478.5903],[34.6963,-12.1918,474.5],[34.7004,-12.189,477.2775],[34.7001,-12.1868,477.2856],[34.7071,-12.1829,483.2623],[34.7085,-12.1793,474.5],[34.7168,-12.1735,474.5],[34.7257,-12.1635,477.1406],[34.7326,-12.161,474.5],[34.7357,-12.156,474.5],[34.7451,-12.1521,475.7164],[34.751,-12.1426,474.5],[34.7571,-12.1396,477.9896],[34.761,-12.1268,474.5],[34.7696,-12.1265,480.5554],[34.7749,-12.1232,479.7612],[34.7776,-12.1151,480.5167],[34.7951,-12.1126,474.5],[34.7993,-12.1099,475.3757],[34.801,-12.1062,474.5],[34.806,-12.104,480.3574],[34.8112,-12.0954,474.5],[34.8107,-12.0785,475.1885],[34.8157,-12.0718,474.5],[34.8232,-12.0718,474.5],[34.829,-12.0743,474.5],[34.8387,-12.074,477.6347],[34.8546,-12.069,475.3731],[34.869,-12.059,475.3628],[34.8707,-12.0551,474.5],[34.8812,-12.0437,474.5],[34.8901,-12.0282,479.0282],[34.8868,-12.0138,475.9441],[34.8821,-12.006,474.5],[34.8818,-12.001,474.5],[34.8843,-11.9943,475.5583],[34.889,-11.9904,475.2771],[34.8929,-11.9843,483.268],[34.8954,-11.976,477.9896],[34.894,-11.966,474.5],[34.8971,-11.9563,479.4014],[34.8957,-11.9476,474.5],[34.9001,-11.9421,474.5],[34.9029,-11.9274,483.3405],[34.9015,-11.9243,475.7344],[34.9032,-11.9201,493.0268],[34.901,-11.9174,495.6813],[34.8996,-11.909,474.5],[34.9063,-11.8993,474.5],[34.9149,-11.8946,481.6558],[34.9162,-11.8912,476.035],[34.9149,-11.8888,475.4205],[34.9221,-11.8868,479.2449],[34.9271,-11.879,474.5],[34.9268,-11.8757,474.5],[34.9287,-11.8737,478.9655],[34.9268,-11.8718,474.5],[34.9274,-11.8668,476.3609],[34.9304,-11.856,474.5],[34.9371,-11.8446,485.8591],[34.9371,-11.8385,474.5],[34.9396,-11.834,509.3441],[34.9401,-11.8271,479.863],[34.9426,-11.8254,475.3517],[34.9421,-11.8226,474.5],[34.9476,-11.8101,478.0262],[34.949,-11.7943,474.5],[34.9521,-11.7907,485.2926],[34.9549,-11.7801,483.9947],[34.951,-11.7685,474.5],[34.9501,-11.7507,474.5],[34.9512,-11.7463,474.5],[34.9496,-11.7354,474.5],[34.9512,-11.7326,474.5],[34.9515,-11.7218,474.5],[34.9546,-11.7168,517.1619],[34.9546,-11.7113,496.5029],[34.9562,-11.7079,474.5],[34.9588,-11.7071,484.1014],[34.9618,-11.701,474.5],[34.9613,-11.6957,474.5],[34.9646,-11.6899,514.3488],[34.9654,-11.6824,485.9762],[34.9643,-11.6793,486.0255],[34.9657,-11.6782,486.0255],[34.9651,-11.6724,476.0161],[34.9674,-11.664,476.4177],[34.9668,-11.6587,484.2874],[34.9651,-11.6576,478.8057],[34.9674,-11.6496,478.9271],[34.9671,-11.6449,489.0182],[34.9654,-11.6429,474.5],[34.9651,-11.631,494.5518],[34.9618,-11.6213,474.5],[34.9574,-11.6154,475.5524],[34.9579,-11.611,474.5],[34.9607,-11.6088,477.9643],[34.9601,-11.6057,475.8686],[34.9629,-11.6007,495.2329],[34.9654,-11.581,478.1729],[34.9615,-11.5754,475.3998],[34.9593,-11.5749,474.5],[34.9588,-11.5715,475.1107],[34.883,-11.5744,474.5],[34.8553,-11.5725,474.5],[34.8466,-11.5743,474.5],[34.8116,-11.5763,474.5],[34.75,-11.5779,474.5],[34.7395,-11.5799,474.5],[34.7152,-11.5792,474.5],[34.7036,-11.5808,474.5],[34.6426,-11.5825,474.5],[34.6428,-11.6094,474.5],[34.6341,-11.6621,474.5],[34.5975,-11.766,474.5],[34.5825,-11.8041,474.5],[34.5705,-11.8262,474.5],[34.513,-11.9661,474.5],[34.4928,-12.0006,474.5],[34.4763,-12.037,474.5],[34.4253,-12.1595,474.5],[34.4146,-12.1982,474.5],[34.4084,-12.2573,474.5]],
[[34.7479,-12.0676,474.5],[34.7474,-12.0657,474.5],[34.7507,-12.0651,477.7411],[34.7501,-12.0668,474.5],[34.7479,-12.0676,474.5]],
[[34.6154,-12.0501,478.1353],[34.6174,-12.0518,474.5],[34.6124,-12.051,474.7351],[34.6135,-12.0493,474.5],[34.6154,-12.0501,478.1353]],
[[34.7593,-12.0485,479.4877],[34.7588,-12.0474,474.5],[34.7604,-12.0465,474.5],[34.7604,-12.0485,479.4877],[34.7593,-12.0485,479.4877]],
[[34.7335,-12.0349,490.86],[34.7354,-12.044,476.0138],[34.7415,-12.0443,474.5],[34.7471,-12.0374,474.5],[34.7496,-12.0451,490.9137],[34.7565,-12.0435,474.5],[34.7588,-12.0507,482.3041],[34.7537,-12.0574,478.1643],[34.7521,-12.0571,474.5],[34.7521,-12.0535,474.5],[34.7454,-12.0562,477.2654],[34.7454,-12.0615,475.362],[34.7424,-12.0649,474.5],[34.7424,-12.0685,474.5],[34.7388,-12.0699,474.5],[34.7382,-12.0718,474.5],[34.7407,-12.0785,479.1924],[34.7432,-12.079,479.1945],[34.7457,-12.0774,474.5],[34.7463,-12.0787,474.5],[34.7429,-12.0846,474.5],[34.7443,-12.0904,474.5],[34.7432,-12.0924,476.9936],[34.7388,-12.0918,477.5025],[34.7315,-12.1001,474.5],[34.719,-12.0929,483.119],[34.7168,-12.0932,474.5],[34.7174,-12.0907,489.1141],[34.7149,-12.0893,474.5],[34.7149,-12.0876,482.644],[34.7085,-12.084,474.5],[34.7104,-12.0813,475.9803],[34.7165,-12.0799,481.21],[34.7176,-12.0782,526.1816],[34.7174,-12.0707,494.032],[34.7221,-12.0651,482.5661],[34.721,-12.061,474.5],[34.7243,-12.0571,474.5],[34.7224,-12.056,474.5],[34.7232,-12.051,474.5],[34.729,-12.0418,488.6448],[34.7271,-12.0351,474.5],[34.7304,-12.031,474.5],[34.7335,-12.0324,485.3665],[34.7335,-12.0349,490.86]],
[[34.6079,-12.0171,474.5],[34.6063,-12.0143,476.9475],[34.6074,-12.0129,474.5],[34.611,-12.0154,479.9689],[34.6101,-12.0174,480.2369],[34.6079,-12.0171,474.5]],
[[34.6282,-12.024,488.8173],[34.6246,-12.0274,479.0855],[34.6299,-12.0326,474.5],[34.6274,-12.0321,477.1308],[34.6251,-12.034,476.4342],[34.6237,-12.0379,481.1397],[34.6251,-12.0387,475.5068],[34.624,-12.0413,480.1143],[34.6251,-12.0426,475.2509],[34.6224,-12.0437,474.7931],[34.6207,-12.0429,478.075],[34.6221,-12.0407,477.8414],[34.6204,-12.0376,474.8021],[34.6224,-12.036,476.6152],[34.621,-12.0351,476.6152],[34.6193,-12.0371,474.8021],[34.6179,-12.0351,474.5],[34.6196,-12.0354,476.5338],[34.6188,-12.034,474.5],[34.6207,-12.0335,484.6902],[34.621,-12.0315,485.8366],[34.6193,-12.0304,474.5],[34.6221,-12.0301,479.5127],[34.6237,-12.0262,487.6627],[34.6174,-12.0232,474.5],[34.6171,-12.016,478.9679],[34.6138,-12.0162,478.4351],[34.6101,-12.0138,476.2252],[34.6087,-12.0085,476.113],[34.6135,-12.0079,474.5],[34.6126,-12.0101,477.4805],[34.6182,-12.0138,481.1382],[34.6226,-12.011,474.5],[34.6263,-12.0129,474.5],[34.6293,-12.0188,474.5],[34.6293,-12.0237,474.5],[34.6282,-12.024,488.8173]]]]}
,"properties": {"GID_3": "MOZ.8.2.2_1","GID_0": "MOZ","country": "Mozambique","GID_1": "MOZ.8_1","province": "Nassa","NL_NAME_1": "NA","GID_2": "MOZ.8.2_1","county": "Lago","NL_NAME_2": "NA","city": "LagoNiassa","VARNAME_3": "NA","NL_NAME_3": "NA","TYPE_3": "Waterbody","ENGTYPE_3": "Waterbody","CC_3": "NA","HASC_3": "NA","name": "Lago_Niassa.city","area_km2": 5775.808,"hist_schema_id": "Elevation0-9000","hist_area_km2": {"475": 5775.621,"500": 0.186}}}