{"type": "Feature","bbox": [34.1506,-15.0998,34.6207,-14.6858],"geometry": {"type": "MultiPolygon","coordinates": [[[[34.5653,-14.7704,1423.6387],[34.5512,-14.7547,1417.2535],[34.5447,-14.7499,1418.6208],[34.5412,-14.7359,1391.6605],[34.5426,-14.7309,1383.4073],[34.5375,-14.725,1393.5492],[34.5336,-14.714,1389.849],[34.5279,-14.7084,1387.5397],[34.528,-14.6993,1415.3757],[34.5242,-14.696,1421.1266],[34.5191,-14.6858,1382.4491],[34.4853,-14.6861,1289.4996],[34.4759,-14.6875,1305.6619],[34.4692,-14.6922,1285.9216],[34.4564,-14.6908,1272.6877],[34.4392,-14.7008,1270.0232],[34.4173,-14.7097,1241.1727],[34.4125,-14.721,1243.4707],[34.4106,-14.7349,1232.1323],[34.3937,-14.7417,1223.2563],[34.3816,-14.742,1229.0359],[34.3765,-14.7462,1206.8702],[34.3836,-14.7534,1199.3857],[34.3771,-14.7579,1188.4524],[34.3682,-14.7582,1179.5131],[34.3663,-14.769,1178.9348],[34.3624,-14.7776,1170.8228],[34.3519,-14.7804,1161.3259],[34.3513,-14.7863,1148.7024],[34.3443,-14.8043,1107.0813],[34.3368,-14.8129,1086.9867],[34.3229,-14.8215,1067.0616],[34.3064,-14.8264,1024.4044],[34.2772,-14.8587,990.2742],[34.2661,-14.876,987.968],[34.2564,-14.883,995.0333],[34.2449,-14.8832,981.5341],[34.2345,-14.8935,977.6633],[34.224,-14.916,956.5907],[34.2132,-14.9233,939.8918],[34.2064,-14.9249,944.0031],[34.1954,-14.9334,931.998],[34.1931,-14.9453,938.532],[34.1657,-14.9582,930.1521],[34.1567,-14.9817,877.4075],[34.158,-14.9924,888.8658],[34.1609,-14.9971,871.0036],[34.1577,-15.002,868.0532],[34.1575,-15.0052,873.014],[34.1616,-15.0124,882.3604],[34.1631,-15.0231,864.2733],[34.1506,-15.0323,869.5015],[34.1525,-15.0412,875.5737],[34.1596,-15.0438,875.1981],[34.1708,-15.0406,891.3677],[34.1834,-15.0408,899.0764],[34.1893,-15.0362,915.5479],[34.1954,-15.0373,910.3071],[34.1999,-15.036,915.6629],[34.2122,-15.0415,935.4997],[34.2194,-15.042,938.146],[34.2255,-15.04,942.2047],[34.2343,-15.0334,945.8444],[34.2468,-15.0327,973.4266],[34.2527,-15.042,975.3547],[34.2588,-15.0421,994.1115],[34.2729,-15.0359,1009.8372],[34.287,-15.0348,1001.6168],[34.3052,-15.0295,1067.597],[34.3135,-15.0348,1041.8105],[34.3172,-15.0321,1078.587],[34.3295,-15.0334,1062.3164],[34.3488,-15.0468,1116.1875],[34.3626,-15.0526,1092.7003],[34.3688,-15.0522,1114.1001],[34.3723,-15.0546,1105.1404],[34.3773,-15.0522,1136.933],[34.3813,-15.0527,1125.7375],[34.3928,-15.0572,1138.866],[34.396,-15.0603,1150.1926],[34.4566,-15.0717,1251.4083],[34.4638,-15.0747,1227.7498],[34.4734,-15.0723,1276.4071],[34.4817,-15.0756,1265.7006],[34.4949,-15.0845,1290.2008],[34.5113,-15.0846,1309.4623],[34.5471,-15.0937,1436.7371],[34.558,-15.0998,1410.3643],[34.5852,-15.0992,1589.9468],[34.59,-15.0877,1589.7874],[34.5843,-15.0847,1618.8158],[34.5762,-15.0869,1675.6559],[34.5709,-15.0845,1646.5198],[34.5692,-15.0793,1641.4232],[34.5714,-15.0737,1641.9172],[34.5699,-15.0688,1605.2719],[34.5706,-15.0649,1593.9951],[34.5774,-15.057,1661.2291],[34.5797,-15.0559,1663.7411],[34.5802,-15.0573,1675.0094],[34.5862,-15.048,1612.0415],[34.5969,-15.0436,1575.4521],[34.6019,-15.0388,1567.4384],[34.6007,-15.0306,1564.9999],[34.6037,-15.0253,1585.0416],[34.6043,-15.0209,1609.8605],[34.6105,-15.0142,1559.8484],[34.6172,-15.0113,1560.3101],[34.6207,-15.0006,1570.6627],[34.6194,-14.9967,1549.3994],[34.6109,-14.9899,1538.5162],[34.6142,-14.9778,1523.6372],[34.6082,-14.9774,1516.2478],[34.6017,-14.9741,1495.7717],[34.5964,-14.9669,1452.1987],[34.596,-14.9632,1474.1328],[34.5902,-14.9582,1478.3774],[34.5879,-14.9361,1452.5216],[34.5793,-14.9218,1460.5516],[34.5763,-14.9119,1465.4744],[34.5769,-14.9065,1500.1644],[34.5715,-14.9041,1504.823],[34.5686,-14.9003,1490.3739],[34.567,-14.9007,1483.7355],[34.5634,-14.8959,1497.0739],[34.5672,-14.8835,1414.786],[34.5753,-14.8723,1399.9824],[34.5748,-14.8417,1528.4314],[34.5709,-14.822,1462.6547],[34.574,-14.8168,1454.7153],[34.5814,-14.8139,1447.9781],[34.5832,-14.8116,1458.5909],[34.5744,-14.7919,1426.6371],[34.5641,-14.78,1435.3684],[34.5653,-14.7704,1423.6387]]]]}
,"properties": {"GID_3": "MOZ.10.11.1_1","GID_0": "MOZ","country": "Mozambique","GID_1": "MOZ.10_1","province": "Tete","NL_NAME_1": "NA","GID_2": "MOZ.10.11_1","county": "Tsangano","NL_NAME_2": "NA","city": "Ntengo-Wambalane","VARNAME_3": "NA","NL_NAME_3": "NA","TYPE_3": "Localidad","ENGTYPE_3": "Locality","CC_3": "NA","HASC_3": "NA","name": "Ntengo-Wambalane.city","area_km2": 1340.215,"hist_schema_id": "Elevation0-9000","hist_area_km2": {"850": 0.491,"875": 4.997,"900": 13.742,"925": 17.286,"950": 20.441,"975": 27.734,"1000": 35.5,"1025": 44.515,"1050": 44.862,"1075": 42.915,"1100": 39.722,"1125": 42.141,"1150": 43.965,"1175": 45.645,"1200": 47.45,"1225": 54.646,"1250": 72.807,"1275": 86.417,"1300": 94.245,"1325": 92.934,"1350": 91.147,"1375": 82.823,"1400": 73.759,"1425": 66.295,"1450": 56.149,"1475": 36.807,"1500": 23.49,"1525": 14.56,"1550": 9.256,"1575": 6.757,"1600": 3.624,"1625": 1.679,"1650": 0.799,"1675": 0.451,"1700": 0.02,"1725": 0.123,"1750": 0.02}}}