{"type":"Feature","properties":{"GID_3":"MOZ.3.1.2_1","GID_0":"MOZ","country":"Mozambique","GID_1":"MOZ.3_1","province":"Inhambane","NL_NAME_1":"NA","GID_2":"MOZ.3.1_1","county":"Funhalouro","NL_NAME_2":"NA","city":"Tome","VARNAME_3":"NA","NL_NAME_3":"NA","TYPE_3":"Localidad","ENGTYPE_3":"Locality","CC_3":"NA","HASC_3":"NA","name":"Tome.city"},
"geometry":{"type": "MultiPolygon","coordinates": [[[[33.7431,-23.0868,51.3358],[33.7551,-23.0828,55.57],[33.7749,-23.0822,56.8272],[33.7803,-23.1106,50.4762],[33.793,-23.1162,51.5732],[33.8021,-23.1252,49.8155],[33.8073,-23.1377,53.8217],[33.8492,-23.1349,59.7405],[34.0003,-23.0605,94.3747],[34.0598,-22.9987,111.2924],[34.151,-22.9116,133.7535],[34.2182,-22.8658,126.9879],[34.3658,-22.8437,126.1995],[34.4502,-22.8037,134.0116],[34.3875,-22.7463,125.458],[34.3835,-22.7375,128.422],[34.3812,-22.7252,130.0336],[34.3812,-22.699,125.6976],[34.3751,-22.6902,132.1657],[34.3732,-22.6745,134.131],[34.4427,-22.6498,134.4017],[34.5166,-22.5959,161.5235],[34.501,-22.3481,150.2856],[34.3941,-22.3409,174.5159],[34.3687,-22.2109,181.7848],[34.3462,-22.2024,180.2169],[34.336,-22.2003,177.0515],[34.2951,-22.1787,160.652],[34.2314,-22.1535,160.593],[34.1194,-22.228,168.2803],[34.0401,-22.339,148.9854],[33.9976,-22.3636,149.9229],[33.9305,-22.3899,119.8962],[33.9315,-22.3987,118.832],[33.9435,-22.4135,117.548],[33.9118,-22.4104,119.3911],[33.8731,-22.5181,140.7883],[33.9397,-22.5803,108.2606],[33.8966,-22.7843,124.027],[33.8547,-22.791,117.6457],[33.7084,-22.8827,90.7703],[33.6686,-22.9022,77.3936],[33.6483,-22.9042,62.1309],[33.6483,-22.9168,60.4362],[33.6581,-22.9237,63.2501],[33.6612,-22.9354,64.609],[33.6688,-22.9406,58.5149],[33.6762,-22.9489,62.4686],[33.6791,-22.959,58.1154],[33.6838,-22.968,59.5786],[33.6846,-22.9846,60.3111],[33.6913,-23.0016,55.75],[33.6874,-23.0177,55.3987],[33.6979,-23.0259,57.7884],[33.7131,-23.0314,54.2539],[33.7358,-23.0696,51.9836],[33.7386,-23.0813,50.7952],[33.7431,-23.0868,51.3358]]]]}}