{"type":"Feature","properties":{"GID_3":"MOZ.4.6.5_1","GID_0":"MOZ","country":"Mozambique","GID_1":"MOZ.4_1","province":"Manica","NL_NAME_1":"NA","GID_2":"MOZ.4.6_1","county":"Manica","NL_NAME_2":"NA","city":"Vanduzi","VARNAME_3":"NA","NL_NAME_3":"NA","TYPE_3":"Localidad","ENGTYPE_3":"Locality","CC_3":"NA","HASC_3":"NA","name":"Vanduzi.city"},
"geometry":{"type": "MultiPolygon","coordinates": [[[[33.2732,-18.5488,493.6823],[33.2798,-18.5674,504.8965],[33.2799,-18.5803,494.2328],[33.2751,-18.5889,493.0052],[33.1557,-18.5935,533.3199],[33.1477,-18.5843,547.8209],[33.1249,-18.5923,556.7455],[33.1125,-18.6121,571.6454],[33.1089,-18.6267,591.1379],[33.1026,-18.6735,612.5027],[33.1043,-18.6927,655.573],[33.0978,-18.7173,678.1355],[33.1047,-18.7435,719.8085],[33.1063,-18.7568,763.8363],[33.1129,-18.7704,852.7039],[33.0725,-18.7962,696.3167],[33.0726,-18.8296,675.8661],[33.0765,-18.8498,671.1355],[33.0861,-18.8665,664.8509],[33.0895,-18.9108,661.3137],[33.1116,-18.9072,697.9106],[33.1231,-18.9128,729.2397],[33.1356,-18.9116,807.7783],[33.1448,-18.9131,953.4865],[33.1508,-18.9432,1460.7653],[33.1821,-18.9847,728.5234],[33.1727,-19.028,649.4745],[33.1733,-19.0404,642.7977],[33.1792,-19.0576,636.972],[33.2014,-19.1077,605.6733],[33.2048,-19.1283,592.0756],[33.203,-19.1343,592.1428],[33.2051,-19.144,600.3143],[33.2035,-19.1511,588.7766],[33.2046,-19.1587,586.8066],[33.2173,-19.1707,583.1382],[33.2184,-19.1789,574.0588],[33.2157,-19.1889,581.7677],[33.2113,-19.1974,568.2624],[33.2071,-19.2283,580.4955],[33.2201,-19.229,581.5369],[33.2266,-19.2432,578.4619],[33.242,-19.2482,554.7433],[33.2755,-19.2488,556.5803],[33.2838,-19.2513,562.8383],[33.2929,-19.2693,549.21],[33.2889,-19.2512,556.1487],[33.29,-19.2441,561.4326],[33.2864,-19.2336,553.0861],[33.2909,-19.2222,564.9563],[33.2879,-19.216,572.8636],[33.278,-19.2113,560.9634],[33.2732,-19.2061,563.0936],[33.2673,-19.1938,561.6895],[33.2759,-19.1452,577.7183],[33.2858,-19.1335,586.5994],[33.2909,-19.1195,580.6025],[33.2991,-19.1096,592.6003],[33.3127,-19.101,608.8367],[33.3242,-19.0965,598.9406],[33.332,-19.0891,599.631],[33.3369,-19.0758,607.6558],[33.3576,-19.0595,617.4257],[33.3698,-19.03,648.8482],[33.3879,-18.9982,686.774],[33.3953,-18.9816,685.0174],[33.401,-18.9759,666.4122],[33.405,-18.9566,645.0331],[33.4089,-18.9469,639.8475],[33.4323,-18.8566,575.3162],[33.4342,-18.8401,551.8604],[33.4316,-18.8286,534.1676],[33.4291,-18.7889,492.2734],[33.4332,-18.7643,478.0162],[33.4316,-18.741,428.9761],[33.4396,-18.7146,421.5533],[33.4411,-18.6879,428.7486],[33.4522,-18.6662,402.6434],[33.4375,-18.6675,399.7153],[33.4146,-18.6604,422.4231],[33.4013,-18.6492,444.0258],[33.3817,-18.5999,458.5115],[33.3713,-18.5896,458.9918],[33.3638,-18.5722,450.7651],[33.3069,-18.5398,475.0121],[33.3002,-18.5524,480.1406],[33.2837,-18.5547,480.9746],[33.2732,-18.5488,493.6823]]]]}}