{"type": "Feature","bbox": [35.145,-17.0609,35.9864,-16.3527],"geometry": {"type": "MultiPolygon","coordinates": [[[[35.268,-16.9263,39.2419],[35.2676,-16.9294,36.7117],[35.2706,-16.9327,37.7714],[35.2696,-16.9357,37.0099],[35.2662,-16.9355,37.2395],[35.2649,-16.9368,36.4295],[35.2643,-16.9425,36.5387],[35.2667,-16.9464,37.2943],[35.2725,-16.9475,37.2723],[35.2741,-16.9496,36.2686],[35.2702,-16.9537,37.0927],[35.2699,-16.9586,37.1328],[35.2784,-16.9599,36.5857],[35.2828,-16.9647,36.811],[35.2968,-16.9625,36.464],[35.2978,-16.9725,36.7253],[35.3023,-16.981,36.3926],[35.3046,-16.9817,36.0302],[35.2959,-17.0015,35.3233],[35.2943,-17.0114,35.9049],[35.2951,-17.0219,37.1002],[35.2926,-17.0318,34.8623],[35.296,-17.038,35.8157],[35.2972,-17.0506,35.9319],[35.2954,-17.0543,35.1863],[35.2973,-17.0609,34.9864],[35.309,-17.0578,35.5827],[35.3124,-17.0606,35.2623],[35.4101,-17.0391,95.1803],[35.4249,-17.0427,107.3588],[35.4328,-17.0482,122.0259],[35.4374,-17.0486,136.075],[35.5149,-17.008,199.7699],[35.5149,-16.9782,186.5851],[35.5248,-16.974,191.1547],[35.5307,-16.9448,169.8222],[35.5277,-16.9244,166.1306],[35.5308,-16.9095,150.6815],[35.5277,-16.8946,134.8451],[35.5277,-16.8827,129.3016],[35.5372,-16.877,130.6608],[35.5572,-16.877,144.0463],[35.5813,-16.8792,173.2614],[35.6154,-16.877,167.835],[35.6547,-16.8767,202.3921],[35.6693,-16.8859,239.6365],[35.6868,-16.8887,237.6424],[35.7118,-16.8857,262.4373],[35.7243,-16.8797,277.4333],[35.7274,-16.8797,308.9932],[35.7398,-16.8678,281.1366],[35.7765,-16.844,327.5591],[35.7942,-16.8449,345.3995],[35.8023,-16.838,363.0971],[35.8148,-16.8439,364.9906],[35.8399,-16.8314,382.2781],[35.8531,-16.8199,378.3636],[35.8678,-16.8171,376.262],[35.9169,-16.8153,378.7155],[35.9342,-16.8221,380.6426],[35.9421,-16.8314,367.3813],[35.9527,-16.8151,340.844],[35.9702,-16.7938,306.1542],[35.9711,-16.784,313.5758],[35.9627,-16.7786,305.7534],[35.958,-16.7678,329.1929],[35.9552,-16.7306,392.9627],[35.9583,-16.715699999999998,348.7693],[35.9676,-16.6889,348.886],[35.9864,-16.6799,347.4018],[35.9645,-16.659,341.5418],[35.9645,-16.6404,346.407],[35.9601,-16.6343,353.8214],[35.9555,-16.6226,349.5704],[35.9555,-16.6008,359.4054],[35.9518,-16.5823,346.3727],[35.9472,-16.5721,339.3442],[35.9536,-16.563,350.3582],[35.9531,-16.5593,361.8712],[35.9523,-16.5546,348.3649],[35.9426,-16.534,338.3737],[35.9333,-16.5216,344.1269],[35.9266,-16.5177,348.1356],[35.8779,-16.5316,351.3135],[35.8532,-16.4922,377.4742],[35.8301,-16.5242,367.38],[35.8346,-16.5314,363.3019],[35.8334,-16.5332,362.9612],[35.8297,-16.5383,364.7974],[35.8191,-16.5438,369.7466],[35.8098,-16.5529,376.4647],[35.66,-16.5764,326.0221],[35.6606,-16.5914,258.1219],[35.6485,-16.6157,223.3698],[35.639,-16.6222,222.8927],[35.6322,-16.6364,211.3373],[35.6121,-16.6503,178.9726],[35.6052,-16.6504,171.0331],[35.6105,-16.6275,198.1335],[35.5892,-16.5893,365.7914],[35.5719,-16.5466,504.6871],[35.5667,-16.539,598.3549],[35.5244,-16.5067,292.9384],[35.4948,-16.5369,255.6452],[35.4895,-16.5457,234.279],[35.4847,-16.5467,220.7701],[35.4171,-16.4526,429.3877],[35.3339,-16.3593,288.8081],[35.3249,-16.3527,247.7412],[35.313,-16.3564,199.9091],[35.2956,-16.3571,175.1547],[35.2879,-16.3672,162.5861],[35.2752,-16.3776,167.3157],[35.2648,-16.3917,132.5419],[35.2622,-16.4019,127.7801],[35.2636,-16.4053,125.8401],[35.2622,-16.4066,124.685],[35.2649,-16.4333,85.3825],[35.2624,-16.444,79.2485],[35.2635,-16.4593,71.4889],[35.2622,-16.4703,65.5616],[35.2564,-16.48,65.8363],[35.25,-16.4867,73.339],[35.2438,-16.4899,61.287],[35.2192,-16.4933,58.0964],[35.2145,-16.4954,58.1095],[35.2125,-16.5,55.594],[35.2046,-16.5079,56.0396],[35.2103,-16.5138,55.6565],[35.2057,-16.5161,55.41],[35.199,-16.5146,62.1181],[35.1872,-16.517,53.9563],[35.1767,-16.5259,54.4135],[35.1781,-16.5347,52.1102],[35.1769,-16.5384,51.7301],[35.1629,-16.5461,50.0388],[35.1596,-16.5496,48.8576],[35.151,-16.5523,49.9632],[35.145,-16.5562,49.3279],[35.145,-16.5606,45.5103],[35.148,-16.5634,48.4948],[35.1472,-16.5686,48.3344],[35.1538,-16.5862,47.5998],[35.1548,-16.5972,46.592],[35.1575,-16.6,48.6885],[35.1587,-16.6055,44.6103],[35.1609,-16.6069,47.1785],[35.1705,-16.6048,47.855],[35.1719,-16.606,47.855],[35.1682,-16.6159,44.7384],[35.1701,-16.6203,45.9169],[35.1788,-16.6212,45.2253],[35.1831,-16.6245,46.0245],[35.187,-16.6252,45.558],[35.1983,-16.6349,45.6319],[35.2078,-16.6359,44.7814],[35.2155,-16.6532,45.3601],[35.2205,-16.6532,44.8542],[35.2247,-16.6509,45.4364],[35.2288,-16.6516,43.8557],[35.2318,-16.6616,44.232],[35.236,-16.6692,43.7054],[35.2446,-16.6749,43.983],[35.2422,-16.6811,44.1227],[35.2554,-16.6805,45.3014],[35.2613,-16.6922,42.0245],[35.2793,-16.7061,42.1424],[35.2853,-16.7154,42.0176],[35.2825,-16.7326,42.2672],[35.2845,-16.7346,42.6196],[35.2943,-16.7363,42.8954],[35.2862,-16.7421,41.769],[35.2829,-16.7498,48.0712],[35.2894,-16.7594,41.8937],[35.2946,-16.7725,40.2792],[35.292,-16.7853,41.3354],[35.294,-16.7954,40.3923],[35.3055,-16.8063,39.5348],[35.3064,-16.8167,40.4206],[35.3122,-16.8279,38.5972],[35.3098,-16.8367,39.5099],[35.3052,-16.8426,38.7894],[35.3061,-16.8505,40.0957],[35.3044,-16.855,38.6364],[35.2948,-16.8684,38.1708],[35.2865,-16.8744,38.3996],[35.2831,-16.8851,37.4928],[35.2727,-16.8913,37.3313],[35.2734,-16.894,39.1147],[35.2778,-16.8944,38.6491],[35.2847,-16.898,38.3661],[35.2846,-16.8995,38.3661],[35.2743,-16.9141,37.6085],[35.2725,-16.9236,37.3275],[35.268,-16.9263,39.2419]]]]}
,"properties": {"GID_3": "MOZ.11.12.1_1","GID_0": "MOZ","country": "Mozambique","GID_1": "MOZ.11_1","province": "Zambezia","NL_NAME_1": "NA","GID_2": "MOZ.11.12_1","county": "Morrumbala","NL_NAME_2": "NA","city": "Chire","VARNAME_3": "NA","NL_NAME_3": "NA","TYPE_3": "Localidad","ENGTYPE_3": "Locality","CC_3": "NA","HASC_3": "NA","name": "Chire.city","area_km2": 3478.52,"hist_schema_id": "Elevation0-9000","hist_area_km2": {"25": 67.934,"50": 546.238,"75": 362.21,"100": 344.301,"125": 275.12,"150": 189.251,"175": 159.924,"200": 165.15,"225": 171.688,"250": 181.141,"275": 149.451,"300": 130.246,"325": 128.573,"350": 144.725,"375": 129.425,"400": 85.949,"425": 46.167,"450": 27.984,"475": 23.065,"500": 19.326,"525": 17.13,"550": 12.903,"575": 11.44,"600": 10.81,"625": 9.326,"650": 8.981,"675": 9.489,"700": 8.92,"725": 6.99,"750": 6.827,"775": 5.059,"800": 3.434,"825": 3.129,"850": 2.56,"875": 2.276,"900": 1.829,"925": 1.565,"950": 1.585,"975": 1.341,"1000": 1.036,"1025": 0.813,"1050": 0.65,"1075": 0.488,"1100": 0.406,"1125": 0.345,"1150": 0.224,"1175": 0.183,"1200": 0.284,"1225": 0.163,"1250": 0.122,"1275": 0.081,"1300": 0.122,"1325": 0.081,"1375": 0.041}}}