{"type": "Feature","bbox": [39.3962,-16.6446,39.8082,-16.3235],"geometry": {"type": "MultiPolygon","coordinates": [[[[39.726,-16.6435,2.976],[39.7268,-16.6421,8.1194],[39.7224,-16.6426,1.1861],[39.7235,-16.6446,0.0],[39.726,-16.6435,2.976]]],
[[[39.8076,-16.5637,2.9465],[39.806,-16.5643,0.0],[39.806,-16.5662,0.0],[39.8082,-16.566,1.9621],[39.8076,-16.5637,2.9465]]],
[[[39.6312,-16.344,20.1559],[39.6251,-16.3396,16.7426],[39.611,-16.3235,18.9734],[39.6085,-16.3283,17.3538],[39.6028,-16.332,18.1452],[39.55,-16.3538,33.2269],[39.5637,-16.3702,23.4937],[39.5432,-16.388,30.2799],[39.5432,-16.4357,58.7925],[39.5339,-16.4446,50.1078],[39.4438,-16.4715,63.3238],[39.4034,-16.4685,37.0687],[39.3996,-16.4776,43.1646],[39.3962,-16.4985,10.2226],[39.3972,-16.5005,14.085],[39.4034,-16.5102,10.0396],[39.4438,-16.5371,2.7035],[39.4562,-16.543,4.9381],[39.4562,-16.5669,40.8409],[39.466,-16.579,69.9296],[39.5671,-16.612,2.7594],[39.5793,-16.6087,2.6799],[39.5996,-16.6012,6.6104],[39.6101,-16.5954,5.3468],[39.6132,-16.591,7.0708],[39.6176,-16.5901,4.1826],[39.6226,-16.5868,1.8376],[39.629,-16.5765,1.89],[39.6329,-16.5732,3.3784],[39.6749,-16.5557,0.0],[39.6937,-16.5412,9.7481],[39.7099,-16.5318,0.0],[39.7143,-16.5257,0.0],[39.7243,-16.519,0.0],[39.7546,-16.5026,7.8079],[39.7768,-16.4929,5.5725],[39.7893,-16.4849,3.4281],[39.791,-16.4771,0.0],[39.7887,-16.4787,2.7222],[39.7871,-16.476,0.534],[39.7835,-16.4776,0.5],[39.7779,-16.484,1.2449],[39.7726,-16.4846,4.6494],[39.7621,-16.4813,2.8969],[39.7615,-16.4768,0.9679],[39.764,-16.474,0.9744],[39.7632,-16.4721,0.9783],[39.7646,-16.4735,0.9744],[39.7632,-16.476,1.6196],[39.764,-16.4804,1.1275],[39.7738,-16.4821,0.5],[39.7765,-16.4804,2.1304],[39.7876,-16.4662,0.5],[39.7785,-16.4668,2.3416],[39.7743,-16.4649,1.3828],[39.7813,-16.4654,0.7662],[39.786,-16.4624,1.9492],[39.7907,-16.4632,0.5],[39.7935,-16.4587,2.8597],[39.7896,-16.459,1.0122],[39.789,-16.4579,2.0222],[39.7926,-16.4575,2.7699],[39.7884,-16.4566,2.0222],[39.7818,-16.4605,4.8401],[39.764,-16.4573,2.0963],[39.7418,-16.4452,3.4019],[39.7406,-16.4375,3.8957],[39.7363,-16.4263,5.678],[39.7373,-16.4104,6.6253],[39.7354,-16.3992,7.8438],[39.718,-16.3866,8.5166],[39.7016,-16.389,11.0006],[39.6751,-16.365,11.5886],[39.6637,-16.3584,14.5661],[39.6363,-16.3476,14.4248],[39.6312,-16.344,20.1559]]]]}
,"properties": {"GID_3": "MOZ.7.9.2_1","GID_0": "MOZ","country": "Mozambique","GID_1": "MOZ.7_1","province": "Nampula","NL_NAME_1": "NA","GID_2": "MOZ.7.9_1","county": "Moma","NL_NAME_2": "NA","city": "Larde","VARNAME_3": "NA","NL_NAME_3": "NA","TYPE_3": "Localidad","ENGTYPE_3": "Locality","CC_3": "NA","HASC_3": "NA","name": "Larde.city","area_km2": 689.6131,"hist_schema_id": "Elevation0-9000","hist_area_km2": {"0": 372.1362,"25": 185.9221,"50": 78.5325,"75": 38.8587,"100": 14.1637}}}