{"type": "Feature","bbox": [39.5403,-12.0785,40.1395,-11.6224],"geometry": {"type": "MultiPolygon","coordinates": [[[[39.6582,-12.0333,130.5276],[39.6689,-12.0402,221.3683],[39.6664,-12.0496,121.5614],[39.6679,-12.0603,133.713],[39.6748,-12.0703,127.012],[39.6756,-12.0785,112.7827],[39.6843,-12.0783,109.4874],[39.6898,-12.076,118.0305],[39.7353,-12.0736,95.5317],[39.756,-12.0753,95.3556],[39.7669,-12.0685,91.385],[39.7799,-12.0574,88.585],[39.7956,-12.0478,86.941],[39.8285,-12.0348,82.3581],[39.8701,-11.9993,72.5],[39.8854,-11.9784,76.0984],[39.9067,-11.9575,75.0746],[39.922,-11.9396,69.4152],[39.9822,-11.9145,55.0712],[40.0185,-11.8913,50.2027],[40.0582,-11.8718,44.1724],[40.0931,-11.8501,40.4988],[40.1175,-11.8293,33.8163],[40.1313,-11.8077,32.2164],[40.1374,-11.7779,28.3146],[40.1395,-11.7571,47.4142],[40.1358,-11.7428,27.9385],[40.1274,-11.7345,28.8686],[40.1155,-11.7337,35.3577],[40.1002,-11.7302,35.4703],[40.0733,-11.7154,41.4809],[40.0633,-11.7006,46.4908],[40.0562,-11.695,49.3686],[40.0215,-11.6377,82.8918],[40.0065,-11.626,87.4409],[39.9739,-11.6224,95.4176],[39.951,-11.6284,104.7838],[39.9399,-11.6342,109.0311],[39.9265,-11.6341,117.5377],[39.9097,-11.631,128.5695],[39.8954,-11.6311,136.1652],[39.8807,-11.6278,164.0641],[39.8679,-11.6285,148.0541],[39.8541,-11.6262,175.7698],[39.8344,-11.6326,174.7958],[39.8222,-11.6282,169.6726],[39.8068,-11.6309,192.6315],[39.7931,-11.6265,211.8428],[39.772,-11.6318,254.4728],[39.7649,-11.6597,286.3169],[39.7578,-11.675,323.9107],[39.7417,-11.6902,446.9277],[39.7289,-11.6914,423.6559],[39.7197,-11.6952,522.7179],[39.6979,-11.712,615.7629],[39.6822,-11.7272,629.965],[39.6699,-11.7338,687.104],[39.6557,-11.7357,700.4043],[39.6401,-11.7421,736.392],[39.6173,-11.7566,578.7476],[39.6005,-11.77,538.2001],[39.5717,-11.8061,301.0683],[39.5638,-11.8273,290.3793],[39.5641,-11.8406,279.0627],[39.5555,-11.8498,265.4416],[39.5598,-11.8574,272.6535],[39.5403,-11.8699,239.5226],[39.5424,-11.904,227.7202],[39.5465,-11.9096,219.8404],[39.5672,-11.9121,206.4301],[39.5718,-11.9256,216.4585],[39.5889,-11.9609,180.3456],[39.5897,-11.97,165.3058],[39.5923,-11.9769,179.2039],[39.6037,-11.9924,160.0237],[39.6236,-12.0059,160.6675],[39.6582,-12.0333,130.5276]]]]}
,"properties": {"GID_2": "MOZ.1.10_1","GID_0": "MOZ","country": "Mozambique","GID_1": "MOZ.1_1","province": "CaboDelgado","NL_NAME_1": "NA","county": "Muidumbe","VARNAME_2": "NA","NL_NAME_2": "NA","TYPE_2": "Distrito","ENGTYPE_2": "District","CC_2": "NA","HASC_2": "MZ.CD.MB","name": "Muidumbe.county","area_km2": 2022.476,"hist_schema_id": "Elevation0-9000","hist_area_km2": {"25": 55.854,"50": 96.088,"75": 103.674,"100": 121.17,"125": 122.329,"150": 130.807,"175": 129.121,"200": 119.179,"225": 111.166,"250": 102.224,"275": 85.154,"300": 71.195,"325": 58.207,"350": 44.533,"375": 37.81,"400": 38.848,"425": 38.787,"450": 38.602,"475": 39.101,"500": 45.661,"525": 59.546,"550": 72.538,"575": 57.449,"600": 43.688,"625": 49.272,"650": 42.755,"675": 34.246,"700": 30.822,"725": 21.71,"750": 13.346,"775": 6.31,"800": 1.287}}}