{"type":"Feature","properties":{"GID_3":"MOZ.10.4.2_1","GID_0":"MOZ","country":"Mozambique","GID_1":"MOZ.10_1","province":"Tete","NL_NAME_1":"NA","GID_2":"MOZ.10.4_1","county":"Chifunde","NL_NAME_2":"NA","city":"Mualadzi","VARNAME_3":"NA","NL_NAME_3":"NA","TYPE_3":"Localidad","ENGTYPE_3":"Locality","CC_3":"NA","HASC_3":"NA","name":"Mualadzi.city"},
"geometry":{"type": "MultiPolygon","coordinates": [[[[33.2402,-13.9982,1151.5803],[33.2302,-13.9997,1108.641],[33.2003,-14.0085,1108.2302],[33.1626,-14.0243,1000.2849],[33.1299,-14.031,1006.3394],[33.0845,-14.0458,1073.8223],[33.0701,-14.0528,1122.9817],[32.9479,-14.0978,881.1752],[32.9343,-14.1012,889.108],[32.9217,-14.1064,856.7336],[32.9142,-14.1074,893.8796],[32.843,-14.1331,835.0059],[32.7941,-14.1487,967.6556],[32.6432,-14.2034,731.0227],[32.6396,-14.2347,711.4838],[32.6422,-14.2431,704.7784],[32.6392,-14.2553,689.6997],[32.6417,-14.2588,686.7566],[32.6434,-14.2664,680.6773],[32.6442,-14.2786,675.2425],[32.6486,-14.2866,675.8627],[32.6435,-14.3232,656.6031],[32.6479,-14.3421,661.3271],[32.6563,-14.3652,652.7116],[32.673,-14.3932,805.3901],[32.6812,-14.4127,621.457],[32.6826,-14.4351,602.9368],[32.6809,-14.4574,581.6562],[32.7034,-14.4818,579.2922],[32.7248,-14.517,553.6145],[32.7403,-14.5329,641.5613],[32.7539,-14.5779,540.9249],[32.7562,-14.5879,541.3678],[32.7555,-14.6003,541.8447],[32.7659,-14.6112,531.4286],[32.7668,-14.6228,538.426],[32.7738,-14.6382,526.7386],[32.779,-14.6684,518.0694],[32.7947,-14.7035,500.0759],[32.8124,-14.7187,465.3434],[32.8746,-14.6831,488.0524],[32.9256,-14.6713,556.356],[32.9345,-14.6632,534.0684],[32.9449,-14.6602,580.9238],[32.9584,-14.6593,548.7709],[32.9692,-14.6669,584.8397],[32.9921,-14.6739,576.014],[33.0004,-14.6749,575.5283],[33.0064,-14.68,580.2672],[33.0101,-14.6805,569.4752],[33.0135,-14.6787,574.4459],[33.0207,-14.6731,578.3195],[33.0213,-14.6688,589.0931],[33.0249,-14.6645,589.0892],[33.0395,-14.6532,597.1438],[33.0395,-14.6477,588.9734],[33.0357,-14.6404,591.6173],[33.0376,-14.6073,633.6191],[33.0413,-14.5922,629.9103],[33.04,-14.5815,678.053],[33.0549,-14.5704,638.8212],[33.0563,-14.5613,644.0741],[33.0587,-14.556,651.2039],[33.0842,-14.5578,688.9195],[33.0989,-14.5545,686.5693],[33.0993,-14.5478,688.1296],[33.1056,-14.5394,706.3496],[33.1137,-14.5344,710.6479],[33.1217,-14.5327,711.1793],[33.1292,-14.5348,720.215],[33.1341,-14.5385,718.2336],[33.1532,-14.5342,728.6924],[33.1608,-14.5154,752.6525],[33.1672,-14.4931,805.5397],[33.1757,-14.4852,791.7474],[33.1739,-14.4768,809.6853],[33.1767,-14.4686,798.2866],[33.187,-14.464,820.8267],[33.1948,-14.4632,814.4662],[33.1917,-14.445,846.6144],[33.1844,-14.4349,830.1224],[33.1889,-14.4215,851.1202],[33.2033,-14.4111,849.1881],[33.2027,-14.4029,867.6327],[33.2048,-14.3942,889.4008],[33.2155,-14.3822,910.7895],[33.2179,-14.3728,945.7305],[33.2114,-14.3441,1070.6624],[33.2144,-14.3343,1139.0227],[33.2394,-14.3027,1343.2573],[33.2445,-14.2435,1046.2561],[33.2429,-14.1728,1410.9828],[33.3008,-14.1486,1342.3193],[33.298,-14.1465,1338.7594],[33.2968,-14.1407,1343.0337],[33.3014,-14.1314,1302.5074],[33.3008,-14.1264,1294.2173],[33.3092,-14.1226,1267.4152],[33.3104,-14.1194,1241.9423],[33.3052,-14.1092,1201.64],[33.3049,-14.1055,1195.698],[33.3173,-14.0896,1170.1996],[33.3195,-14.0847,1165.9742],[33.3174,-14.0775,1174.2206],[33.305,-14.0609,1162.5806],[33.3032,-14.0546,1163.3932],[33.3033,-14.0468,1163.1412],[33.2971,-14.0329,1166.0569],[33.2892,-14.0302,1151.3708],[33.2814,-14.0226,1147.9934],[33.2678,-14.0246,1145.8677],[33.2603,-14.0229,1136.9194],[33.2568,-14.0193,1133.5249],[33.2544,-14.0076,1140.5618],[33.2478,-14.0047,1141.8252],[33.2402,-13.9982,1151.5803]]]]}}