{"type": "Feature","bbox": [32.5624,-25.9295,32.7015,-25.8262],"geometry": {"type": "MultiPolygon","coordinates": [[[[32.7007,-25.8951,0.0],[32.7001,-25.8918,0.0],[32.6988,-25.8982,0.0],[32.7004,-25.9026,0.0],[32.7015,-25.8993,0.0],[32.7007,-25.8951,0.0]]],
[[[32.5698,-25.927,35.7024],[32.5759,-25.9244,41.5861],[32.5796,-25.9295,39.5009],[32.6089,-25.9215,45.8929],[32.617,-25.9105,32.4368],[32.6254,-25.9145,7.2485],[32.6349,-25.9112,2.8447],[32.6401,-25.9002,2.2002],[32.6441,-25.8856,3.237],[32.6492,-25.8793,2.4653],[32.6613,-25.8727,2.313],[32.669,-25.872,5.0028],[32.6778,-25.8815,1.8772],[32.6806,-25.8827,1.8027],[32.6817,-25.8854,0.8745],[32.6846,-25.8835,0.0],[32.686,-25.8799,1.0864],[32.6893,-25.8818,0.0],[32.6904,-25.8796,0.2209],[32.6935,-25.8801,0.0],[32.6988,-25.8776,0.0],[32.7012,-25.8718,0.0],[32.6968,-25.8535,1.1449],[32.6276,-25.8262,52.8818],[32.6265,-25.8449,47.7368],[32.6097,-25.8665,40.2481],[32.6027,-25.8856,42.0587],[32.5862,-25.883,46.1242],[32.5785,-25.8991,39.2612],[32.5763,-25.9072,38.6091],[32.5635,-25.9105,26.4738],[32.5624,-25.9252,33.6551],[32.5698,-25.927,35.7024]]]]}
,"properties": {"GID_3": "MOZ.5.2.4_1","GID_0": "MOZ","country": "Mozambique","GID_1": "MOZ.5_1","province": "MaputoCity","NL_NAME_1": "NA","GID_2": "MOZ.5.2_1","county": "Maputo","NL_NAME_2": "NA","city": "Maputo3","VARNAME_3": "NA","NL_NAME_3": "NA","TYPE_3": "Localidad","ENGTYPE_3": "Locality","CC_3": "NA","HASC_3": "NA","name": "Maputo3.city","area_km2": 64.72493,"hist_schema_id": "Elevation0-9000","hist_area_km2": {"0": 28.42579,"25": 12.95229,"50": 23.34685}}}