{"type":"Feature","properties":{"GID_3":"MOZ.7.16.4_1","GID_0":"MOZ","country":"Mozambique","GID_1":"MOZ.7_1","province":"Nampula","NL_NAME_1":"NA","GID_2":"MOZ.7.16_1","county":"Namapa","NL_NAME_2":"NA","city":"Namiroa","VARNAME_3":"NA","NL_NAME_3":"NA","TYPE_3":"Localidad","ENGTYPE_3":"Locality","CC_3":"NA","HASC_3":"NA","name":"Namiroa.city"},
"geometry":{"type": "MultiPolygon","coordinates": [[[[39.3104,-13.8912,257.4835],[39.3111,-13.8926,253.6394],[39.2991,-13.8954,254.0],[39.2803,-13.9034,251.5],[39.2657,-13.9124,257.2937],[39.2422,-13.9306,258.2303],[39.196,-13.9556,262.4099],[39.1871,-13.9533,272.7965],[39.2068,-14.0197,278.257],[39.2162,-14.0368,279.498],[39.242,-14.0682,290.8955],[39.2528,-14.076599999999999,300.4292],[39.2623,-14.0778,298.7488],[39.2799,-14.0831,305.6965],[39.2848,-14.1022,311.0646],[39.2909,-14.1442,327.918],[39.3082,-14.1721,337.6346],[39.3186,-14.2298,378.7751],[39.3202,-14.2606,411.0204],[39.3042,-14.3023,372.8503],[39.3086,-14.3075,358.7929],[39.3217,-14.3139,361.0085],[39.3278,-14.3139,352.5774],[39.3371,-14.3259,329.5089],[39.3678,-14.3139,318.7536],[39.3864,-14.3154,319.1935],[39.3961,-14.3113,307.2093],[39.4147,-14.3067,307.6162],[39.4253,-14.29,304.2926],[39.4351,-14.2782,297.2192],[39.4476,-14.2666,291.1666],[39.4507,-14.2489,288.2195],[39.4557,-14.2371,295.5502],[39.4663,-14.2301,287.9563],[39.4807,-14.2242,284.0268],[39.4985,-14.222,273.407],[39.508,-14.2188,269.0402],[39.519,-14.2118,267.1596],[39.5422,-14.2155,260.267],[39.5711,-14.2156,249.6301],[39.6124,-14.2046,243.8914],[39.6339,-14.2043,252.7902],[39.6645,-14.2079,253.7567],[39.6765,-14.206,240.9005],[39.6856,-14.2034,230.6535],[39.7154,-14.1835,224.6938],[39.7489,-14.1916,204.9112],[39.7951,-14.1621,195.1283],[39.7888,-14.1588,214.8015],[39.7857,-14.1499,242.75],[39.7642,-14.1439,225.6309],[39.7449,-14.1336,235.6322],[39.7192,-14.1049,270.7321],[39.702,-14.1068,272.5321],[39.6505,-14.0843,293.8302],[39.6198,-14.0664,303.1644],[39.6013,-14.0753,316.9539],[39.5909,-14.0712,326.4911],[39.5868,-14.0679,318.3299],[39.5852,-14.0573,335.7818],[39.5552,-14.0514,356.3934],[39.5429,-14.0634,359.6643],[39.5276,-14.0664,366.2476],[39.5061,-14.0574,347.1724],[39.4936,-14.0387,333.9443],[39.4846,-14.0037,312.1508],[39.4876,-13.9948,317.755],[39.4818,-13.9822,355.5406],[39.4827,-13.9805,386.6404],[39.4815,-13.9769,392.9704],[39.4692,-13.9709,424.9777],[39.4385,-13.962,288.2773],[39.4262,-13.9471,311.8619],[39.4292,-13.9351,311.6169],[39.4385,-13.9202,290.3121],[39.4323,-13.9083,279.6258],[39.4185,-13.8949,281.9227],[39.4108,-13.8844,294.6097],[39.4108,-13.8671,263.4748],[39.4168,-13.8533,245.6673],[39.3997,-13.8522,246.2702],[39.3709,-13.8606,247.216],[39.334,-13.8814,255.2875],[39.3155,-13.8904,255.9426],[39.3104,-13.8912,257.4835]]]]}}