{"type": "Feature","bbox": [32.9018,-25.3829,33.4646,-24.763],"geometry": {"type": "MultiPolygon","coordinates": [[[[33.3279,-25.2166,27.9886],[33.322,-25.1946,29.7008],[33.3184,-25.1868,31.6104],[33.3365,-25.155,30.8747],[33.3385,-25.1434,28.8654],[33.3356,-25.1124,29.0213],[33.328,-25.076,12.0674],[33.3484,-25.0655,1.5318],[33.3497,-25.0632,0.5],[33.35,-25.0477,0.5],[33.3526,-25.041,0.5],[33.3763,-25.025,14.9687],[33.3741,-25.0125,14.546],[33.3748,-25.0042,7.175],[33.3715,-24.9892,6.1182],[33.3723,-24.9717,13.6299],[33.3673,-24.9609,13.0686],[33.3642,-24.9399,42.8552],[33.371,-24.9332,54.74],[33.4223,-24.9258,48.2694],[33.4459,-24.9195,44.8834],[33.4589,-24.9125,34.7584],[33.4535,-24.8994,16.0173],[33.4528,-24.8759,12.7681],[33.4592,-24.8522,7.2385],[33.4577,-24.8454,7.6092],[33.4543,-24.8424,7.819],[33.4646,-24.8248,10.1816],[33.4436,-24.8159,10.8543],[33.438,-24.8203,8.9707],[33.401,-24.7936,10.4211],[33.3913,-24.789,12.0054],[33.3691,-24.7849,11.7328],[33.368,-24.7754,12.4881],[33.3661,-24.7723,13.0768],[33.2881,-24.7747,17.9969],[33.2819,-24.776,16.5118],[33.2555,-24.8005,47.8708],[33.2069,-24.8339,60.8808],[33.1626,-24.8603,59.2137],[33.1451,-24.8636,56.3747],[33.1146,-24.8616,36.2297],[33.0872,-24.858,35.5994],[33.0417,-24.8431,21.1724],[33.0271,-24.8398,20.7197],[32.9997,-24.8248,21.2877],[32.9874,-24.8142,21.7173],[32.9842,-24.7874,22.1512],[32.9512,-24.763,23.1754],[32.9091,-24.8518,21.6068],[32.9089,-24.858,17.7793],[32.9054,-24.8661,17.8164],[32.9058,-24.8681,16.6963],[32.9126,-24.8721,17.0184],[32.9099,-24.8759,17.65],[32.9155,-24.8827,16.7818],[32.9155,-24.89,16.1191],[32.9247,-24.8977,15.7851],[32.9375,-24.8982,15.3274],[32.9401,-24.903199999999998,14.3616],[32.9393,-24.9086,13.9519],[32.9405,-24.9123,14.4955],[32.9381,-24.9156,14.2359],[32.9319,-24.9157,14.5351],[32.9189,-24.9257,12.5502],[32.9139,-24.926,15.5354],[32.9145,-24.9296,11.9033],[32.9125,-24.934,12.4478],[32.9029,-24.943,11.2867],[32.9034,-24.9561,12.0329],[32.9018,-24.9609,11.0],[32.9053,-24.9666,11.0],[32.9117,-24.9708,15.6315],[32.9199,-24.9716,13.6971],[32.9232,-24.974,13.977],[32.9217,-24.979,11.0],[32.9186,-24.9828,14.466],[32.9208,-25.0112,10.5],[32.915,-25.033,10.5],[32.915,-25.0388,10.5],[32.9244,-25.0529,10.5],[32.9232,-25.0623,12.0501],[32.9254,-25.0696,11.3828],[32.9355,-25.0699,11.0375],[32.9468,-25.0763,10.2765],[32.9552,-25.0788,12.735],[32.9991,-25.086,11.2769],[32.9958,-25.0949,10.2316],[32.9828,-25.1177,9.7611],[32.9843,-25.126,10.5108],[32.9898,-25.1332,9.6071],[32.9976,-25.1356,9.4289],[33.0037,-25.1316,9.9061],[33.0095,-25.1303,10.3811],[33.0123,-25.1337,9.378],[33.0103,-25.146,10.874],[33.0122,-25.1491,12.6411],[33.012,-25.1525,8.4221],[33.0072,-25.1565,8.4319],[32.9958,-25.1721,8.9235],[32.9946,-25.1757,8.4896],[32.9969,-25.1801,8.0337],[32.9926,-25.1993,7.5968],[32.9906,-25.2022,7.4423],[32.9943,-25.2034,6.7683],[33.1011,-25.203,43.3146],[33.1066,-25.2113,39.0769],[33.1275,-25.2447,52.7034],[33.1339,-25.2754,54.0144],[33.1375,-25.3009,50.6306],[33.1317,-25.3829,15.3321],[33.2226,-25.3329,12.9825],[33.2382,-25.3268,3.9292],[33.241,-25.3268,0.0],[33.2426,-25.3288,0.0],[33.2435,-25.3262,31.0845],[33.2482,-25.3254,0.0],[33.249,-25.3226,7.8792],[33.2468,-25.321,2.0136],[33.2471,-25.3187,1.5747],[33.2515,-25.3143,7.2121],[33.2551,-25.3035,0.6009],[33.2538,-25.3035,0.8391],[33.2524,-25.309,0.5],[33.251,-25.309,6.1841],[33.2507,-25.306,0.5],[33.2463,-25.3051,4.355],[33.2399,-25.3143,21.2023],[33.2346,-25.3129,0.5],[33.2296,-25.319,1.3985],[33.2268,-25.3118,2.3727],[33.2179,-25.3068,0.5],[33.2168,-25.3015,0.9872],[33.2196,-25.2976,3.327],[33.2265,-25.2943,7.1196],[33.2463,-25.2899,0.5],[33.2568,-25.2854,1.7241],[33.2663,-25.2787,6.0111],[33.281,-25.2743,0.5],[33.2815,-25.2718,0.6596],[33.291,-25.2635,2.9472],[33.3046,-25.2624,2.044],[33.3049,-25.2579,20.3976],[33.3074,-25.2543,8.374],[33.3176,-25.2465,3.5787],[33.3301,-25.2454,2.6631],[33.339,-25.2485,1.1125],[33.332,-25.2376,34.8179],[33.3279,-25.2166,27.9886]]],
[[[33.3537,-25.2726,5.7891],[33.3479,-25.2602,44.2604],[33.3421,-25.2526,2.8471],[33.3368,-25.2607,8.3029],[33.3257,-25.2582,1.4854],[33.3249,-25.2638,4.5155],[33.3204,-25.2682,3.8624],[33.3146,-25.2685,24.5321],[33.3068,-25.2657,0.6489],[33.3032,-25.2763,7.4368],[33.2926,-25.2801,5.392],[33.2907,-25.279,0.5],[33.289,-25.2865,15.8831],[33.2826,-25.2876,0.7144],[33.2782,-25.2849,0.5],[33.274,-25.2976,2.112],[33.2643,-25.2968,1.9935],[33.2624,-25.2988,8.355],[33.2621,-25.296,0.5],[33.2607,-25.296,0.5],[33.2615,-25.3096,3.7854],[33.2596,-25.3118,0.9645],[33.2574,-25.3118,0.5],[33.2574,-25.3168,3.4284],[33.2621,-25.3163,0.0],[33.3074,-25.2926,14.8871],[33.3537,-25.2726,5.7891]]],
[[[33.3393,-25.2493,1.1125],[33.3396,-25.2493,1.1125],[33.3392,-25.249,1.1125],[33.3393,-25.2493,1.1125]]],
[[[33.339,-25.2485,1.1125],[33.339,-25.2488,1.1125],[33.3392,-25.2488,1.1125],[33.3391,-25.2486,1.1125],[33.339,-25.2485,1.1125]]]]}
,"properties": {"GID_2": "MOZ.2.1_1","GID_0": "MOZ","country": "Mozambique","GID_1": "MOZ.2_1","province": "Gaza","NL_NAME_1": "NA","county": "Bilene","VARNAME_2": "Bilene-Macia","NL_NAME_2": "NA","TYPE_2": "Distrito","ENGTYPE_2": "District","CC_2": "NA","HASC_2": "MZ.GA.BM","name": "Bilene.county","area_km2": 2167.898,"hist_schema_id": "Elevation0-9000","hist_area_km2": {"0": 181.329,"25": 717.213,"50": 652.771,"75": 556.297,"100": 58.616,"125": 1.672}}}