{"type": "Feature","bbox": [37.8835,-13.9576,38.1836,-13.4899],"geometry": {"type": "MultiPolygon","coordinates": [[[[38.0643,-13.5022,619.2236],[38.0045,-13.536,566.2447],[37.972,-13.5893,568.2626],[37.9567,-13.6102,520.5955],[37.9475,-13.628,534.9196],[37.9137,-13.6579,534.3973],[37.9137,-13.6817,502.7463],[37.9045,-13.7116,500.6805],[37.8835,-13.755,473.1934],[37.887,-13.771,463.8997],[37.898,-13.7879,456.909],[37.9006,-13.7948,474.0832],[37.9008,-13.8363,455.7338],[37.9095,-13.8497,448.6929],[37.9119,-13.8563,441.3757],[37.9233,-13.8651,469.1709],[37.92,-13.8908,455.7513],[37.9206,-13.8971,424.1907],[37.9585,-13.9174,426.5872],[37.979,-13.9259,420.2931],[37.9942,-13.9381,408.0786],[38.0021,-13.9397,409.1501],[38.0051,-13.9387,408.3306],[38.0076,-13.943,407.2082],[38.0159,-13.9474,412.3954],[38.0205,-13.948,407.6475],[38.0257,-13.957,412.8685],[38.0286,-13.9576,406.5743],[38.0371,-13.9487,410.5691],[38.0416,-13.9493,411.8786],[38.048,-13.9435,416.546],[38.0594,-13.925,424.4285],[38.0921,-13.8923,442.3346],[38.094,-13.8864,440.2686],[38.1062,-13.8738,446.7581],[38.1143,-13.849,456.7569],[38.1142,-13.8426,461.2028],[38.1241,-13.8242,479.8661],[38.1418,-13.8102,478.971],[38.1645,-13.7837,436.4146],[38.1711,-13.7823,435.4135],[38.1831,-13.7862,434.6776],[38.1836,-13.7742,434.3757],[38.1709,-13.7701,433.5186],[38.169,-13.7594,433.5435],[38.1704,-13.7543,440.4413],[38.1642,-13.75,439.2183],[38.1626,-13.7459,444.2076],[38.1639,-13.7247,444.5901],[38.1663,-13.7204,449.8878],[38.1682,-13.6914,455.7322],[38.1736,-13.6802,461.7587],[38.1726,-13.6716,463.8282],[38.1588,-13.6668,470.2161],[38.1572,-13.6609,468.9462],[38.146,-13.6406,484.3575],[38.1489,-13.6232,485.7274],[38.1506,-13.5982,490.9099],[38.1449,-13.5762,496.6505],[38.1454,-13.552,505.6037],[38.1333,-13.5257,512.3842],[38.1144,-13.5123,522.2415],[38.1047,-13.4899,544.8267],[38.0859,-13.4945,578.8643],[38.0643,-13.5022,619.2236]]]]}
,"properties": {"GID_3": "MOZ.8.14.1_1","GID_0": "MOZ","country": "Mozambique","GID_1": "MOZ.8_1","province": "Nassa","NL_NAME_1": "NA","GID_2": "MOZ.8.14_1","county": "Nipepe","NL_NAME_2": "NA","city": "Muipite","VARNAME_3": "NA","NL_NAME_3": "NA","TYPE_3": "Localidad","ENGTYPE_3": "Locality","CC_3": "NA","HASC_3": "NA","name": "Muipite.city","area_km2": 1062.2712,"hist_schema_id": "Elevation0-9000","hist_area_km2": {"400": 2.5928,"425": 53.5319,"450": 148.9502,"475": 232.4629,"500": 255.9662,"525": 190.8303,"550": 102.3352,"575": 45.5456,"600": 13.2084,"625": 5.5205,"650": 3.2128,"675": 2.6567,"700": 1.9153,"725": 1.2564,"750": 1.1947,"775": 0.4119,"800": 0.2678,"825": 0.1648,"850": 0.0412,"875": 0.1235,"900": 0.0617,"925": 0.0206}}}