{"type": "Feature","bbox": [35.4144,-13.3337,36.4205,-12.2326],"geometry": {"type": "MultiPolygon","coordinates": [[[[35.927,-13.2463,764.5845],[35.9436,-13.2563,724.4217],[35.9567,-13.2583,701.176],[35.9649,-13.2696,690.1259],[35.9657,-13.2815,688.2953],[35.9625,-13.2928,676.313],[35.966,-13.2972,682.8329],[35.975,-13.2986,663.8762],[35.9759,-13.3027,659.4746],[35.9746,-13.3101,677.5247],[35.9859,-13.3174,646.8357],[35.9856,-13.3255,659.1378],[35.9873,-13.3294,661.4672],[35.9914,-13.3295,648.8038],[35.9965,-13.3272,665.5168],[35.9988,-13.3288,663.0566],[36.0002,-13.3337,653.4083],[36.0269,-13.312,630.6702],[36.0427,-13.315,636.2977],[36.0659,-13.297,622.7616],[36.0918,-13.291,605.8406],[36.11,-13.2834,616.8419],[36.1152,-13.2762,623.6674],[36.1081,-13.2716,621.7937],[36.103,-13.2708,618.9288],[36.0848,-13.278,626.6816],[36.0766,-13.2753,629.3128],[36.068,-13.2603,628.4647],[36.0608,-13.2348,633.5797],[36.0559,-13.2257,650.0059],[36.045,-13.2146,644.8761],[36.0318,-13.1712,666.5077],[36.0286,-13.1465,672.2538],[36.0273,-13.1114,685.452],[36.0315,-13.1007,699.1116],[36.0319,-13.0929,708.3082],[36.0384,-13.0802,698.8671],[36.0225,-13.0525,718.432],[36.0202,-13.0293,728.9749],[36.0352,-13.0115,730.3323],[36.0417,-12.9918,744.4807],[36.0416,-12.9846,741.0245],[36.0365,-12.9543,746.4243],[36.0372,-12.9347,751.2161],[36.0224,-12.9027,788.4124],[36.0282,-12.877,790.5714],[36.0255,-12.8514,819.6164],[36.0179,-12.8413,838.3441],[36.0227,-12.8396,837.008],[36.0434,-12.8459,991.8868],[36.0773,-12.8325,811.418],[36.1005,-12.8173,794.2059],[36.1246,-12.8242,779.7083],[36.1545,-12.8195,763.4302],[36.1752,-12.8078,755.2703],[36.1882,-12.8026,747.4666],[36.2124,-12.8147,743.4045],[36.2112,-12.8085,743.9208],[36.2138,-12.7967,744.3964],[36.236,-12.8072,738.5193],[36.2779,-12.7896,690.2019],[36.3081,-12.7921,704.7653],[36.3256,-12.7898,688.0743],[36.3422,-12.7896,697.2225],[36.353,-12.7924,679.8008],[36.3573,-12.7818,649.7836],[36.3969,-12.7485,592.0447],[36.4096,-12.7467,569.6077],[36.4128,-12.7395,542.6438],[36.4205,-12.7288,558.12],[36.4157,-12.7197,566.5607],[36.4103,-12.7132,563.3419],[36.4122,-12.6918,558.9696],[36.4094,-12.6838,618.6777],[36.4036,-12.6756,694.3126],[36.4025,-12.6567,586.8071],[36.3858,-12.6549,647.1969],[36.3591,-12.6559,637.1306],[36.3268,-12.6645,652.3935],[36.3193,-12.6718,646.1074],[36.2827,-12.6957,673.2681],[36.2758,-12.7024,683.9423],[36.2626,-12.7017,669.3683],[36.243,-12.6884,706.3974],[36.225,-12.6834,713.6218],[36.2066,-12.6815,753.243],[36.1938,-12.6825,781.5226],[36.1881,-12.6778,756.1661],[36.1767,-12.6794,786.9792],[36.1543,-12.6762,783.2706],[36.1352,-12.6654,822.8311],[36.077,-12.66,906.9142],[36.0644,-12.6637,934.0331],[36.0502,-12.6736,966.4086],[36.0388,-12.6846,970.3925],[36.0184,-12.6978,988.808],[36.0146,-12.6895,1074.5704],[36.0134,-12.6711,876.9268],[36.01,-12.6542,836.8527],[36.0051,-12.651,829.7406],[35.9929,-12.636,908.4998],[35.9749,-12.6008,966.7251],[35.9678,-12.5937,1049.5208],[35.9492,-12.5814,1118.0234],[35.9471,-12.5764,1029.3785],[35.9471,-12.5675,907.0552],[35.9447,-12.5633,886.9437],[35.9446,-12.5577,865.7209],[35.9337,-12.5328,824.0265],[35.9288,-12.472,783.7126],[35.9197,-12.4452,759.5491],[35.8906,-12.4111,713.6313],[35.8899,-12.3721,697.4957],[35.9016,-12.3202,681.7671],[35.896,-12.3096,672.0579],[35.8953,-12.302,673.4998],[35.898,-12.286,671.6813],[35.8896,-12.235,650.5857],[35.8727,-12.2326,651.0518],[35.8628,-12.2357,659.741],[35.8516,-12.2441,678.6884],[35.8468,-12.269,688.3049],[35.8366,-12.2869,689.08],[35.8292,-12.2917,710.0563],[35.8049,-12.2839,740.7181],[35.7957,-12.2752,728.1744],[35.7762,-12.2753,744.2045],[35.7712,-12.2808,724.9434],[35.7644,-12.2977,732.0764],[35.7332,-12.3248,810.4261],[35.7119,-12.3305,741.7871],[35.6885,-12.3399,742.8523],[35.6752,-12.3493,741.0847],[35.6535,-12.357,747.4103],[35.6445,-12.3836,762.853],[35.6451,-12.4034,791.4901],[35.647,-12.408,802.7977],[35.6193,-12.4468,830.3303],[35.601,-12.4791,828.7369],[35.5864,-12.494,841.7218],[35.5826,-12.5042,850.2412],[35.5618,-12.5374,867.7194],[35.5571,-12.5525,851.5951],[35.5495,-12.5599,855.9367],[35.5444,-12.5708,856.5146],[35.5589,-12.5978,868.3545],[35.5398,-12.6271,870.0428],[35.5387,-12.6444,880.5592],[35.5445,-12.6595,884.6293],[35.5503,-12.6822,891.6218],[35.5499,-12.6875,888.5241],[35.535,-12.709,899.3234],[35.5167,-12.7276,905.0749],[35.5162,-12.7491,901.8944],[35.5205,-12.7719,914.9818],[35.5205,-12.7957,912.1655],[35.5234,-12.8159,930.1921],[35.5071,-12.836,927.9037],[35.4998,-12.841,931.1763],[35.499,-12.8513,935.1652],[35.5019,-12.8614,939.847],[35.4868,-12.879,959.4802],[35.4877,-12.8805,948.0034],[35.4864,-12.8836,943.7848],[35.4921,-12.889099999999999,947.3384],[35.4873,-12.9088,952.072],[35.4924,-12.9298,962.006],[35.4803,-12.9478,963.1956],[35.4926,-12.9568,998.653],[35.4976,-12.9623,1002.6628],[35.4958,-12.9628,1021.1453],[35.4741,-12.9926,990.4734],[35.4741,-13.0015,1036.135],[35.4772,-13.0075,1024.5496],[35.4629,-13.0249,1015.5626],[35.4463,-13.0314,1023.7043],[35.4481,-13.0503,1037.6797],[35.438,-13.0525,1038.6873],[35.434,-13.0671,1035.4559],[35.4144,-13.0908,1076.6553],[35.4282,-13.1232,1065.1626],[35.4187,-13.141,1086.618],[35.4367,-13.1621,1105.7812],[35.4771,-13.1694,1133.1484],[35.4824,-13.1752,1128.9858],[35.4998,-13.1825,1155.0686],[35.5338,-13.1903,1318.1858],[35.5359,-13.1745,1162.3972],[35.5882,-13.205,1053.491],[35.6222,-13.2054,1040.8125],[35.649,-13.2216,1003.0332],[35.6583,-13.2254,1017.1891],[35.6792,-13.2395,988.7534],[35.7011,-13.2485,945.6636],[35.7085,-13.2466,966.7772],[35.7261,-13.247,898.1468],[35.7514,-13.2368,928.2805],[35.7689,-13.2273,922.2015],[35.7888,-13.227,854.9465],[35.8037,-13.2288,834.6413],[35.8195,-13.2267,849.8295],[35.8456,-13.2262,838.5155],[35.8706,-13.2183,903.953],[35.8879,-13.2222,812.3395],[35.9008,-13.2273,808.0424],[35.9126,-13.2271,786.3425],[35.9183,-13.2299,755.7698],[35.927,-13.2463,764.5845]]]]}
,"properties": {"GID_2": "MOZ.8.12_1","GID_0": "MOZ","country": "Mozambique","GID_1": "MOZ.8_1","province": "Nassa","NL_NAME_1": "NA","county": "Muembe","VARNAME_2": "NA","NL_NAME_2": "NA","TYPE_2": "Distrito","ENGTYPE_2": "District","CC_2": "NA","HASC_2": "MZ.NS.MM","name": "Muembe.county","area_km2": 5854.225,"hist_schema_id": "Elevation0-9000","hist_area_km2": {"550": 4.157,"575": 8.356,"600": 9.513,"625": 19.647,"650": 58.057,"675": 100.596,"700": 124.246,"725": 157.046,"750": 186.21,"775": 180.394,"800": 177.977,"825": 171.262,"850": 182.354,"875": 193.714,"900": 184.859,"925": 192.951,"950": 205.502,"975": 241.414,"1000": 277.952,"1025": 293.135,"1050": 321.577,"1075": 322.22,"1100": 304.712,"1125": 273.172,"1150": 224.005,"1175": 185.627,"1200": 145.866,"1225": 133.04,"1250": 133.0,"1275": 132.939,"1300": 124.61,"1325": 98.987,"1350": 83.342,"1375": 70.422,"1400": 63.039,"1425": 51.104,"1450": 44.549,"1475": 40.475,"1500": 36.961,"1525": 34.708,"1550": 28.528,"1575": 18.275,"1600": 9.199,"1625": 3.266,"1650": 0.868,"1675": 0.31,"1700": 0.083}}}