{"type": "Feature","bbox": [39.4108,-13.9805,40.2988,-13.4415],"geometry": {"type": "MultiPolygon","coordinates": [[[[40.0331,-13.4978,135.5697],[40.0101,-13.5057,154.6111],[39.9979,-13.5291,157.6583],[39.9761,-13.561,166.9911],[39.9725,-13.565,168.6521],[39.9469,-13.577,176.3279],[39.9375,-13.584,177.4327],[39.9225,-13.6129,186.1528],[39.9097,-13.6312,185.5131],[39.8964,-13.6399,191.0081],[39.8671,-13.6671,189.9875],[39.8423,-13.6737,201.0868],[39.8125,-13.6754,198.0571],[39.7751,-13.6636,210.4633],[39.7686,-13.6623,217.9071],[39.7581,-13.6637,214.2458],[39.7192,-13.6841,224.0162],[39.7058,-13.6936,226.4973],[39.6891,-13.7007,222.8581],[39.6697,-13.712,230.9187],[39.6599,-13.72,225.7477],[39.6312,-13.7314,226.9797],[39.6091,-13.7342,228.2519],[39.5683,-13.7454,239.3837],[39.506,-13.7732,239.5949],[39.4848,-13.7885,236.8397],[39.4614,-13.8176,240.3668],[39.4537,-13.8332,239.1906],[39.4415,-13.8427,243.5267],[39.4176,-13.8514,244.7292],[39.4108,-13.8671,263.4748],[39.4108,-13.8844,294.6097],[39.4185,-13.8949,281.9227],[39.4323,-13.9083,279.6258],[39.4385,-13.9202,290.3121],[39.4292,-13.9351,311.6169],[39.4262,-13.9471,311.8619],[39.4385,-13.962,288.2773],[39.4692,-13.9709,424.9777],[39.4815,-13.9769,392.9704],[39.4827,-13.9805,386.6404],[39.4876,-13.9709,430.407],[39.5092,-13.956,295.5226],[39.5245,-13.9381,323.4445],[39.5395,-13.9294,323.7121],[39.5734,-13.9459,316.9973],[39.5933,-13.935,307.73],[39.6132,-13.9264,315.6714],[39.6382,-13.9255,327.0661],[39.6535,-13.9228,333.9608],[39.6801,-13.9228,309.7644],[39.6871,-13.9134,309.0123],[39.6812,-13.8934,311.8088],[39.7086,-13.872,293.5818],[39.755,-13.8636,323.9584],[39.8072,-13.8606,469.0406],[39.8335,-13.8719,290.1322],[39.867,-13.8725,328.6591],[39.883,-13.8488,329.1871],[39.9116,-13.834,289.5039],[39.9209,-13.8337,278.9682],[39.9441,-13.8422,339.4633],[39.9621,-13.8229,383.9114],[40.0707,-13.8072,352.5238],[40.104,-13.8146,333.3362],[40.1231,-13.8257,268.8038],[40.1497,-13.8099,277.1675],[40.1399,-13.8042,279.9948],[40.128,-13.806,286.3832],[40.1184,-13.8031,296.9153],[40.1148,-13.7932,313.1796],[40.1177,-13.7799,391.7277],[40.1221,-13.7687,344.4677],[40.1274,-13.77,321.4519],[40.1352,-13.7618,310.1085],[40.1549,-13.7569,302.5672],[40.1712,-13.7643,270.5184],[40.1746,-13.7638,263.5536],[40.2017,-13.7402,417.2193],[40.2009,-13.7083,262.3627],[40.2038,-13.6942,255.9557],[40.2129,-13.6876,235.8483],[40.2252,-13.6578,203.538],[40.2406,-13.6369,182.9188],[40.243,-13.6276,181.2493],[40.2691,-13.6244,266.9104],[40.2774,-13.619,244.0924],[40.2897,-13.6011,178.5415],[40.2988,-13.5835,140.0582],[40.2906,-13.5529,117.1242],[40.2867,-13.5236,91.1702],[40.2867,-13.4758,19.5578],[40.2769,-13.4748,28.6349],[40.2384,-13.4843,42.4873],[40.2206,-13.492,62.1931],[40.2114,-13.492,69.7587],[40.1933,-13.4736,52.8752],[40.1688,-13.4585,70.6677],[40.1486,-13.4563,77.2051],[40.1403,-13.4484,68.1559],[40.1165,-13.4415,106.0801],[40.1033,-13.448,73.38],[40.1095,-13.4596,78.1459],[40.1098,-13.4675,99.9383],[40.1079,-13.4729,93.3085],[40.0747,-13.4855,98.34],[40.0331,-13.4978,135.5697]]]]}
,"properties": {"GID_3": "MOZ.7.16.3_1","GID_0": "MOZ","country": "Mozambique","GID_1": "MOZ.7_1","province": "Nampula","NL_NAME_1": "NA","GID_2": "MOZ.7.16_1","county": "Namapa","NL_NAME_2": "NA","city": "Namapa-Erati","VARNAME_3": "NA","NL_NAME_3": "NA","TYPE_3": "Localidad","ENGTYPE_3": "Locality","CC_3": "NA","HASC_3": "NA","name": "Namapa-Erati.city","area_km2": 2302.0,"hist_schema_id": "Elevation0-9000","hist_area_km2": {"25": 2.433,"50": 16.164,"75": 39.666,"100": 51.971,"125": 52.894,"150": 59.9,"175": 98.83,"200": 153.505,"225": 224.361,"250": 376.136,"275": 411.525,"300": 370.926,"325": 236.485,"350": 92.639,"375": 41.698,"400": 19.357,"425": 13.221,"450": 9.452,"475": 6.672,"500": 3.994,"525": 3.15,"550": 2.635,"575": 1.997,"600": 1.791,"625": 1.523,"650": 1.338,"675": 1.996,"700": 2.182,"725": 0.988,"750": 0.782,"775": 0.453,"800": 0.391,"825": 0.329,"850": 0.165,"875": 0.247,"900": 0.062,"925": 0.082,"950": 0.062}}}