{"type":"Feature","properties":{"GID_3":"MOZ.7.8.5_1","GID_0":"MOZ","country":"Mozambique","GID_1":"MOZ.7_1","province":"Nampula","NL_NAME_1":"NA","GID_2":"MOZ.7.8_1","county":"Mogovolas","NL_NAME_2":"NA","city":"Nanhupo","VARNAME_3":"NA","NL_NAME_3":"NA","TYPE_3":"Localidad","ENGTYPE_3":"Locality","CC_3":"NA","HASC_3":"NA","name":"Nanhupo.city"},
"geometry":{"type": "MultiPolygon","coordinates": [[[[39.6612,-15.9226,86.3647],[39.6593,-15.9162,84.6555],[39.6471,-15.9023,102.2795],[39.6412,-15.8807,101.795],[39.632,-15.8744,115.555],[39.6292,-15.8692,110.392],[39.6285,-15.8559,108.4874],[39.6205,-15.8481,126.3668],[39.6179,-15.8243,122.9492],[39.6131,-15.8189,132.539],[39.5944,-15.8055,131.2462],[39.5881,-15.8048,133.1007],[39.5448,-15.8063,143.2661],[39.5335,-15.809,168.7289],[39.515,-15.8068,176.2484],[39.5065,-15.8075,193.7893],[39.4969,-15.8112,207.7657],[39.4869,-15.8178,202.8262],[39.4684,-15.8327,159.2522],[39.4534,-15.8491,138.3272],[39.4412,-15.8538,143.7683],[39.3918,-15.8618,122.0187],[39.3827,-15.8661,86.5585],[39.3769,-15.8795,96.8133],[39.3639,-15.8911,79.2248],[39.3602,-15.8923,78.6342],[39.3333,-15.892,70.1211],[39.3242,-15.8933,77.5855],[39.3141,-15.8989,69.431],[39.3124,-15.907,82.9061],[39.3119,-15.9264,70.4594],[39.3073,-15.9492,65.3419],[39.305,-15.957,67.6823],[39.298,-15.9669,65.4324],[39.2957,-15.9727,75.0961],[39.3048,-15.977,71.8476],[39.306399999999996,-15.9811,69.1561],[39.3022,-15.9979,70.8027],[39.3079,-16.0031,68.9268],[39.3351,-16.0119,69.8278],[39.3446,-16.0129,73.4608],[39.3567,-16.0075,60.11],[39.3655,-16.0011,66.053],[39.3764,-16.0018,54.2727],[39.3845,-16.0045,65.1228],[39.4068,-16.0154,53.8433],[39.4086,-16.0288,49.8358],[39.4148,-16.0447,57.4214],[39.4142,-16.0508,49.1299],[39.419,-16.0461,59.5286],[39.4253,-16.0437,79.4129],[39.4448,-16.0464,81.5463],[39.5035,-16.0629,64.1677],[39.5146,-16.0746,54.5873],[39.5302,-16.0607,58.9841],[39.5495,-16.047,68.8417],[39.5526,-16.0294,82.5519],[39.5578,-16.0217,87.0805],[39.5734,-16.0077,115.3353],[39.5852,-16.0041,105.5533],[39.5947,-15.9992,98.9946],[39.601,-15.9905,87.9506],[39.6074,-15.9872,82.4865],[39.6324,-15.9871,73.6726],[39.6379,-15.9837,71.394],[39.6384,-15.9794,82.4618],[39.6318,-15.9749,76.3599],[39.6233,-15.9618,93.4474],[39.6227,-15.9533,96.2493],[39.6269,-15.9405,107.1925],[39.6323,-15.9313,104.5815],[39.6381,-15.9263,104.4014],[39.6509,-15.9231,83.1396],[39.6612,-15.9226,86.3647]]]]}}