{"type":"Feature","properties":{"GID_2":"MOZ.4.8_1","GID_0":"MOZ","country":"Mozambique","GID_1":"MOZ.4_1","province":"Manica","NL_NAME_1":"NA","county":"Sussundenga","VARNAME_2":"NA","NL_NAME_2":"NA","TYPE_2":"Distrito","ENGTYPE_2":"District","CC_2":"NA","HASC_2":"MZ.MN.SU","name":"Sussundenga.county"},
"geometry":{"type": "MultiPolygon","coordinates": [[[[33.4,-20.121,163.031],[33.4055,-20.1144,167.728],[33.3891,-20.0892,157.3919],[33.391,-20.0795,156.3403],[33.3992,-20.0755,155.9086],[33.4096,-20.0735,158.7463],[33.4155,-20.0698,160.1034],[33.4187,-20.0614,154.6752],[33.4263,-20.0545,150.6843],[33.4378,-20.0499,150.1749],[33.4486,-20.0517,150.2146],[33.4568,-20.0502,155.4819],[33.4694,-20.0339,148.1714],[33.4768,-20.0038,144.8898],[33.4796,-19.9984,142.9624],[33.4854,-19.9937,140.7597],[33.5038,-20.0087,141.6817],[33.5103,-19.9886,138.7684],[33.5179,-19.9852,140.8869],[33.5301,-19.9883,138.0642],[33.5372,-19.9827,137.4321],[33.5546,-19.9594,131.3022],[33.5982,-19.9362,126.4115],[33.6009,-19.9188,135.5604],[33.6123,-19.9363,131.6436],[33.631,-19.9448,129.3191],[33.6647,-19.9328,131.3928],[33.6847,-19.9471,121.5176],[33.7324,-19.9877,68.2814],[33.7609,-19.9889,62.2582],[33.7721,-19.9699,47.652],[33.7857,-19.9511,52.8645],[33.8286,-19.9265,39.4294],[33.827,-19.8123,119.1167],[33.8481,-19.77,50.9546],[33.833,-19.7431,67.8862],[33.83,-19.7291,69.3249],[33.7685,-19.6548,79.1873],[33.7637,-19.6446,84.8164],[33.7492,-19.6306,87.3046],[33.7422,-19.6179,92.2699],[33.7362,-19.6204,97.1623],[33.7209,-19.6194,96.5562],[33.702,-19.6051,94.682],[33.6709,-19.6058,96.0447],[33.6598,-19.6017,92.4056],[33.649,-19.5799,93.9236],[33.6312,-19.5822,103.4158],[33.6242,-19.594,96.1228],[33.6162,-19.599,97.9423],[33.6068,-19.596,100.9365],[33.6001,-19.5854,120.5914],[33.5893,-19.5769,110.2051],[33.5527,-19.5795,102.0078],[33.5419,-19.5831,105.644],[33.5279,-19.5792,112.3188],[33.5256,-19.5609,137.9437],[33.5194,-19.5581,153.5605],[33.5117,-19.5502,179.2937],[33.5125,-19.5332,219.7059],[33.5073,-19.5274,365.794],[33.4915,-19.5221,348.212],[33.4776,-19.5207,347.3022],[33.4556,-19.5266,397.1828],[33.449,-19.5227,390.8475],[33.4428,-19.512,371.6239],[33.4381,-19.4677,469.1342],[33.4319,-19.4563,469.3436],[33.4187,-19.4461,469.0858],[33.4055,-19.4427,514.1838],[33.404,-19.429,497.5934],[33.3943,-19.4268,493.6856],[33.3879,-19.421,500.1304],[33.369,-19.3965,523.4673],[33.3617,-19.3816,511.7531],[33.3457,-19.3792,531.1529],[33.3365,-19.3665,549.7391],[33.329,-19.3595,543.3636],[33.2999,-19.3454,549.7144],[33.3003,-19.3341,542.8129],[33.2916,-19.3007,566.4315],[33.2791,-19.2908,563.2188],[33.2875,-19.2779,565.0279],[33.2795,-19.2739,558.8073],[33.2822,-19.2692,559.6584],[33.2929,-19.2693,549.21],[33.2838,-19.2513,562.8383],[33.2755,-19.2488,556.5803],[33.242,-19.2482,554.7433],[33.2266,-19.2432,578.4619],[33.2201,-19.229,581.5369],[33.2071,-19.2283,580.4955],[33.2084,-19.2166,558.4703],[33.2061,-19.2113,567.2329],[33.1638,-19.1934,564.4353],[33.1303,-19.139,610.0],[33.1082,-19.1199,610.0],[33.0863,-19.1098,610.0],[33.0446,-19.1405,610.0],[33.0293,-19.1484,610.0],[33.0142,-19.1494,610.0],[32.9855,-19.1558,610.0],[32.9668,-19.155,610.0],[32.9617,-19.1568,610.0],[32.9483,-19.1556,612.9857],[32.9421,-19.1575,612.4202],[32.9306,-19.153199999999998,620.2263],[32.8952,-19.161,626.2908],[32.8829,-19.1673,649.2768],[32.8812,-19.1727,632.6763],[32.8638,-19.1695,674.0063],[32.8488,-19.2337,1173.5111],[32.8489,-19.2553,1098.1064],[32.8526,-19.2787,1032.3508],[32.8498,-19.2936,1043.7389],[32.832,-19.3126,1408.2255],[32.8245,-19.3171,1528.5735],[32.8091,-19.3351,1691.6661],[32.7764,-19.3613,1654.386],[32.7756,-19.3705,1777.9377],[32.7857,-19.3867,2178.354],[32.7854,-19.3945,2167.2266],[32.7782,-19.4087,2094.9568],[32.7802,-19.4312,1801.3463],[32.7765,-19.4498,1544.4158],[32.7766,-19.4576,1483.8711],[32.7824,-19.4668,1567.8915],[32.7935,-19.4754,1727.8243],[32.8033,-19.4773,1917.1458],[32.8291,-19.478,1879.0006],[32.8352,-19.4759,1888.2651],[32.8449,-19.4765,1779.125],[32.8453,-19.4836,1753.8226],[32.8402,-19.5189,1494.7654],[32.8413,-19.5279,1559.4252],[32.8512,-19.5413,1363.7892],[32.8523,-19.5525,1343.8615],[32.8475,-19.6095,1784.1333],[32.8528,-19.6238,1729.1965],[32.8342,-19.6693,1970.3373],[32.8351,-19.6772,1839.3977],[32.8385,-19.6809,1826.5559],[32.8501,-19.6846,2140.5068],[32.8727,-19.6829,1860.5524],[32.8764,-19.6853,1649.0433],[32.8897,-19.6847,1614.8594],[32.9026,-19.6806,1619.3021],[32.9165,-19.6789,1541.2407],[32.9498,-19.6642,1469.3374],[32.9627,-19.6546,1501.6915],[32.9688,-19.6549,1462.5557],[32.9727,-19.6583,1456.7961],[32.9784,-19.6724,1439.8296],[32.9808,-19.685,1485.6143],[32.9793,-19.6917,1486.1726],[32.9629,-19.7084,1227.0962],[32.9573,-19.7118,1341.4153],[32.9555,-19.7166,1105.5875],[32.9587,-19.723,1108.4824],[32.9925,-19.7474,1714.2997],[33.0199,-19.7563,1785.5656],[33.0388,-19.7669,1725.0692],[33.0528,-19.7806,1999.9666],[33.0563,-19.7992,2141.2622],[33.0474,-19.821,1931.928],[33.0481,-19.8334,1793.6445],[33.0356,-19.8878,1556.2932],[33.0247,-19.9642,1594.6318],[33.014,-20.011,412.1029],[33.0249,-20.0436,313.2546],[33.0247,-20.0516,342.3402],[33.0314,-20.0683,322.8271],[33.0537,-20.0865,288.7282],[33.0651,-20.0869,295.8619],[33.0763,-20.0977,302.9435],[33.0867,-20.093,279.8094],[33.1065,-20.0787,307.3185],[33.1159,-20.0859,231.9453],[33.1251,-20.0897,212.3117],[33.1358,-20.0871,240.0717],[33.1465,-20.0879,201.093],[33.1515,-20.081,238.9562],[33.154,-20.0898,286.4314],[33.1574,-20.1437,416.2592],[33.1667,-20.1849,643.371],[33.1692,-20.2102,518.5453],[33.168,-20.2269,457.2283],[33.1775,-20.2404,373.9133],[33.1818,-20.2418,336.0858],[33.1848,-20.2421,316.2467],[33.1918,-20.2373,286.0926],[33.2071,-20.2342,261.4726],[33.2111,-20.2306,251.4068],[33.2529,-20.2279,222.521],[33.2573,-20.2311,234.187],[33.2664,-20.232,218.8994],[33.2798,-20.2306,226.2155],[33.2915,-20.2227,212.2241],[33.306,-20.2002,196.7775],[33.308,-20.187,196.4079],[33.3166,-20.1768,192.8886],[33.3158,-20.1625,188.7848],[33.324,-20.1569,184.3581],[33.337,-20.1546,180.6313],[33.3422,-20.1518,177.4848],[33.3419,-20.1396,178.8954],[33.3499,-20.1378,174.3613],[33.3764,-20.137,170.235],[33.3843,-20.1304,165.5889],[33.4,-20.121,163.031]]]]}}