{"type": "Feature","bbox": [33.9363,-19.6625,34.3718,-18.9467],"geometry": {"type": "MultiPolygon","coordinates": [[[[33.9882,-19.1136,154.2466],[33.9382,-19.2428,179.8384],[33.9363,-19.597,147.6802],[33.9552,-19.5989,132.2223],[33.9641,-19.5969,130.8971],[33.9702,-19.5997,125.0068],[34.0015,-19.5983,109.0155],[34.0092,-19.5954,104.797],[34.0204,-19.5875,112.6011],[34.0365,-19.5908,95.4076],[34.0448,-19.5865,94.828],[34.0498,-19.5902,88.2167],[34.0716,-19.5801,87.8467],[34.0802,-19.593,81.9104],[34.0921,-19.5909,83.0917],[34.1153,-19.5941,80.7272],[34.1246,-19.6067,77.2051],[34.129,-19.6216,73.4751],[34.1476,-19.6504,67.2174],[34.1528,-19.6625,66.7813],[34.312,-19.6455,73.8879],[34.309,-19.638,77.6885],[34.311,-19.6333,74.0653],[34.3243,-19.6229,73.4236],[34.364,-19.5676,23.1821],[34.3718,-19.5136,5.9976],[34.3349,-19.4719,12.8941],[34.3075,-19.4708,18.2316],[34.2664,-19.4372,33.5479],[34.2541,-19.4296,35.6465],[34.235,-19.4093,39.4983],[34.2001,-19.3659,41.0085],[34.2018,-19.3607,41.054],[34.202,-19.349,48.6517],[34.2135,-19.326,49.723],[34.2507,-19.3254,35.7455],[34.2515,-19.316,33.0798],[34.2807,-19.2953,25.6857],[34.3085,-19.2846,22.7687],[34.3307,-19.29,19.743],[34.3527,-19.2788,19.2496],[34.34,-19.2661,22.3962],[34.3281,-19.2485,25.7199],[34.3311,-19.2383,28.0029],[34.3229,-19.2251,31.036],[34.3079,-19.2112,34.7207],[34.2878,-19.1828,41.1135],[34.2623,-19.1728,44.4136],[34.255,-19.1665,44.3624],[34.248,-19.1555,49.7054],[34.2742,-19.1483,44.7802],[34.2882,-19.139,41.8474],[34.2956,-19.1293,41.5557],[34.3384,-19.1161,38.5299],[34.3337,-19.1011,38.4283],[34.3222,-19.0857,41.2318],[34.3134,-19.0653,39.428],[34.33,-19.0435,35.0702],[34.3356,-19.0249,35.0021],[34.3333,-19.0107,37.1849],[34.3508,-18.9933,35.1538],[34.3368,-18.9911,44.8916],[34.3313,-18.9985,36.214],[34.3233,-19.0029,36.1101],[34.3031,-19.0055,39.3072],[34.2961,-19.0135,37.191],[34.2825,-19.0232,38.9252],[34.2648,-19.0634,40.2601],[34.2514,-19.0722,42.266],[34.2085,-19.0482,47.9313],[34.1526,-19.0138,61.0027],[34.0962,-18.9986,58.6985],[34.0891,-18.9921,90.4559],[34.0793,-18.9649,69.1327],[34.0731,-18.9574,96.0235],[34.0543,-18.9467,150.2984],[34.0444,-18.9632,259.3723],[34.0319,-18.9995,218.773],[33.9882,-19.1136,154.2466]]]]}
,"properties": {"GID_3": "MOZ.9.12.1_1","GID_0": "MOZ","country": "Mozambique","GID_1": "MOZ.9_1","province": "Sofala","NL_NAME_1": "NA","GID_2": "MOZ.9.12_1","county": "Nhamatanda","NL_NAME_2": "NA","city": "Nhamatanda","VARNAME_3": "NA","NL_NAME_3": "NA","TYPE_3": "Localidad","ENGTYPE_3": "Locality","CC_3": "NA","HASC_3": "NA","name": "Nhamatanda.city","area_km2": 2471.108,"hist_schema_id": "Elevation0-9000","hist_area_km2": {"0": 17.766,"25": 187.349,"50": 506.115,"75": 424.863,"100": 401.415,"125": 397.678,"150": 294.675,"175": 152.897,"200": 62.624,"225": 15.568,"250": 5.37,"275": 2.965,"300": 1.061,"325": 0.28,"350": 0.18,"375": 0.1,"400": 0.14,"425": 0.06}}}