{"type":"Feature","properties":{"GID_3":"MOZ.7.11.5_1","GID_0":"MOZ","country":"Mozambique","GID_1":"MOZ.7_1","province":"Nampula","NL_NAME_1":"NA","GID_2":"MOZ.7.11_1","county":"Mongincual","NL_NAME_2":"NA","city":"Quixaxe","VARNAME_3":"NA","NL_NAME_3":"NA","TYPE_3":"Localidad","ENGTYPE_3":"Locality","CC_3":"NA","HASC_3":"NA","name":"Quixaxe.city"},
"geometry":{"type": "MultiPolygon","coordinates": [[[[39.8115,-15.2656,143.1046],[39.8076,-15.2657,148.0922],[39.7992,-15.2705,148.9592],[39.7948,-15.2751,153.1997],[39.8027,-15.3073,162.3803],[39.7979,-15.3127,156.277],[39.7978,-15.3168,164.1724],[39.808,-15.326,148.6705],[39.8172,-15.3269,145.273],[39.8211,-15.3343,142.5485],[39.8213,-15.338,151.8366],[39.8172,-15.3412,143.0156],[39.7987,-15.3889,127.1185],[39.8214,-15.4003,122.9337],[39.8318,-15.4157,108.1984],[39.8433,-15.4211,99.5894],[39.8491,-15.4274,103.7056],[39.8493,-15.4341,111.3995],[39.8398,-15.4309,99.5218],[39.8581,-15.4498,123.9926],[39.8914,-15.4555,102.4989],[39.9337,-15.468,127.90089999999999],[39.9456,-15.479,123.7595],[39.9684,-15.4761,100.3461],[39.9838,-15.4766,86.3122],[40.0072,-15.4819,93.2218],[40.0191,-15.4646,66.6122],[40.0488,-15.447,61.3273],[40.0862,-15.4498,61.4722],[40.1222,-15.4764,67.921],[40.1255,-15.4744,58.7137],[40.1326,-15.4739,55.614],[40.1437,-15.476,36.6099],[40.1449,-15.4734,35.2915],[40.1679,-15.4825,33.0959],[40.1822,-15.4859,34.9028],[40.1895,-15.4903,37.3826],[40.2031,-15.4926,43.9033],[40.2111,-15.4915,34.1213],[40.2171,-15.4948,27.0151],[40.2351,-15.4972,26.3715],[40.2454,-15.5034,27.7592],[40.2462,-15.4994,49.6985],[40.2366,-15.4871,47.0613],[40.2379,-15.4817,63.4242],[40.2492,-15.4685,59.0708],[40.2573,-15.4621,65.5649],[40.2665,-15.4569,48.8814],[40.2766,-15.4572,43.7357],[40.2877,-15.4501,41.7797],[40.2971,-15.4479,53.7447],[40.303,-15.4526,47.4706],[40.3123,-15.453,42.9485],[40.302,-15.4438,50.3894],[40.2791,-15.4068,87.232],[40.2602,-15.3827,90.2583],[40.2521,-15.3814,82.8971],[40.2455,-15.33,93.5654],[40.2453,-15.3162,100.3577],[40.2491,-15.2774,96.5797],[40.2531,-15.2605,63.0579],[40.2419,-15.2491,70.9536],[40.2325,-15.2264,95.7409],[40.2202,-15.2076,116.8689],[40.2246,-15.198,110.8313],[40.2413,-15.1741,96.2592],[40.2534,-15.166,97.0758],[40.2497,-15.1611,99.2812],[40.2468,-15.1513,107.5565],[40.2403,-15.1446,111.1534],[40.2332,-15.1405,124.6566],[40.2262,-15.13,128.3408],[40.2237,-15.1125,103.5123],[40.2314,-15.0945,99.3336],[40.2216,-15.0945,92.4484],[40.1954,-15.0997,98.0214],[40.1883,-15.1076,103.1385],[40.1324,-15.1566,163.775],[40.1285,-15.171,155.5838],[40.1129,-15.1839,144.4648],[40.1092,-15.1919,133.9536],[40.1097,-15.2163,109.391],[40.108,-15.2204,103.8222],[40.0752,-15.2197,113.2439],[40.0531,-15.213,130.1695],[40.0442,-15.2125,138.7181],[40.035,-15.2067,131.3288],[40.03,-15.1965,138.9489],[40.0256,-15.1932,135.6602],[40.0173,-15.1912,139.9023],[40.009,-15.1853,143.5928],[40.0,-15.1713,151.154],[39.9838,-15.1656,167.4269],[39.9706,-15.1655,167.4907],[39.9647,-15.1677,171.8276],[39.9516,-15.1646,187.8924],[39.9382,-15.1673,193.9856],[39.9201,-15.1804,161.5154],[39.9126,-15.1882,149.7853],[39.9079,-15.1955,135.5262],[39.9127,-15.2028,142.4399],[39.9096,-15.216,125.8904],[39.8398,-15.2518,126.1795],[39.8394,-15.2606,128.9366],[39.835,-15.262,131.6427],[39.8296,-15.2605,143.4939],[39.8246,-15.2624,135.1716],[39.8188,-15.2683,135.9458],[39.8115,-15.2656,143.1046]]]]}}