{"type": "Feature","bbox": [37.9404,-13.4916,39.4111,-11.7666],"geometry": {"type": "MultiPolygon","coordinates": [[[[39.3996,-13.1988,353.7623],[39.3962,-13.1638,376.1521],[39.3905,-13.1646,383.9087],[39.3955,-13.1625,384.5694],[39.395,-13.1087,422.7121],[39.3798,-13.0915,457.7961],[39.3767,-13.0795,479.6925],[39.3709,-13.0074,495.018],[39.3656,-12.9957,469.8671],[39.3716,-12.9402,400.0489],[39.3632,-12.9239,388.7218],[39.3583,-12.901,376.1844],[39.347,-12.8809,368.5739],[39.3401,-12.8618,359.4564],[39.3297,-12.8439,350.9496],[39.3248,-12.829,348.9154],[39.306399999999996,-12.8316,352.3389],[39.2964,-12.842,350.8051],[39.2783,-12.8555,359.9152],[39.2657,-12.8482,361.9781],[39.2626,-12.8495,362.3124],[39.2657,-12.8474,369.8333],[39.2526,-12.8195,381.4564],[39.2461,-12.8181,375.0055],[39.2362,-12.8201,374.9553],[39.227,-12.829,388.1956],[39.2172,-12.8343,397.8775],[39.1905,-12.8348,423.4136],[39.1742,-12.8317,437.9627],[39.1478,-12.82,458.3554],[39.1368,-12.8127,472.8102],[39.1322,-12.8032,422.2226],[39.1401,-12.7836,385.1474],[39.126,-12.7446,352.8159],[39.127,-12.7358,345.1741],[39.1386,-12.714,324.5352],[39.1396,-12.7092,324.2041],[39.1333,-12.6887,311.5637],[39.1475,-12.6626,301.2856],[39.1526,-12.6283,288.6426],[39.147,-12.6089,278.5744],[39.1471,-12.5944,272.7759],[39.1554,-12.5731,272.7183],[39.1712,-12.553,255.0776],[39.1744,-12.5287,261.6216],[39.1828,-12.5252,249.4994],[39.1863,-12.5196,250.2923],[39.1861,-12.5052,257.725],[39.1936,-12.5007,249.6679],[39.2133,-12.4959,255.9408],[39.2204,-12.4878,242.6591],[39.2178,-12.4728,242.9638],[39.2193,-12.4552,237.8815],[39.2231,-12.4426,241.9697],[39.249,-12.4288,221.6776],[39.263,-12.3946,230.9045],[39.2831,-12.3761,227.6513],[39.2996,-12.3687,230.4843],[39.3244,-12.3544,218.6198],[39.355,-12.3212,215.7797],[39.3693,-12.3088,201.7475],[39.3662,-12.2717,194.325],[39.3693,-12.2597,193.1894],[39.3691,-12.2417,188.9738],[39.3654,-12.2328,181.5017],[39.3691,-12.2164,177.5485],[39.381,-12.183,164.9321],[39.3912,-12.1688,165.6396],[39.3991,-12.1531,166.8405],[39.4026,-12.1398,152.2458],[39.4063,-12.1334,146.6359],[39.4111,-12.1051,140.6439],[39.3975,-12.1003,158.9732],[39.3755,-12.115,180.7338],[39.3675,-12.1099,187.3746],[39.3647,-12.0964,196.277],[39.3594,-12.0859,186.6836],[39.3535,-12.0793,200.5721],[39.3425,-12.0757,199.9753],[39.324,-12.0735,198.7212],[39.315,-12.0768,207.0686],[39.3096,-12.0709,209.3203],[39.3008,-12.0666,207.2059],[39.2808,-12.0724,213.4472],[39.2702,-12.0813,216.8787],[39.2691,-12.096,219.3856],[39.2586,-12.0968,225.8875],[39.2461,-12.1021,224.9634],[39.2162,-12.0906,228.3273],[39.2109,-12.0948,230.2483],[39.2002,-12.0977,231.7967],[39.1922,-12.0974,239.571],[39.1845,-12.0935,233.637],[39.1649,-12.0904,241.2704],[39.1396,-12.0824,261.8968],[39.1267,-12.0714,278.8568],[39.0976,-12.0537,291.4293],[39.0907,-12.0431,287.3269],[39.0738,-12.0387,299.2072],[39.0543,-12.0369,303.3725],[39.0429,-12.0322,309.8477],[39.0349,-12.0214,331.3063],[39.0259,-11.9986,339.871],[39.0154,-11.9617,377.5776],[39.0028,-11.9343,394.7675],[38.8972,-11.7904,433.4456],[38.8779,-11.7666,593.7416],[38.8318,-11.8728,467.381],[38.8176,-11.8696,430.1667],[38.7894,-11.8581,387.2429],[38.75,-11.8584,340.3984],[38.7394,-11.8622,332.8021],[38.7005,-11.8845,299.1573],[38.6903,-11.8861,291.5919],[38.6843,-11.884,290.4436],[38.6586,-11.8592,266.6153],[38.6318,-11.8463,252.484],[38.6048,-11.8479,235.6569],[38.5935,-11.8462,238.1814],[38.5869,-11.8387,228.5144],[38.5661,-11.8411,226.8915],[38.5541,-11.8456,223.9998],[38.5431,-11.8448,219.1507],[38.5336,-11.8376,211.7015],[38.525,-11.8341,213.0631],[38.5191,-11.8218,205.2236],[38.5187,-11.8172,198.4761],[38.5117,-11.8185,202.523],[38.4976,-11.8046,198.2938],[38.4858,-11.7897,189.2793],[38.4715,-11.7793,187.4667],[38.4612,-11.7822,185.1142],[38.4554,-11.7863,183.1269],[38.4471,-11.7872,178.3197],[38.435,-11.7854,176.8505],[38.4283,-11.7897,173.4641],[38.4182,-11.7907,172.1599],[38.4188,-11.8561,173.8837],[38.4177,-11.8648,169.163],[38.4212,-11.8866,163.5659],[38.4204,-11.9193,165.3403],[38.4077,-11.952,168.238],[38.401,-11.9996,172.0],[38.381,-12.0726,175.5],[38.3791,-12.0954,180.2429],[38.3719,-12.1057,178.5],[38.3543,-12.1147,182.4583],[38.3069,-12.1328,200.5839],[38.2531,-12.1608,205.9264],[38.222,-12.1868,202.0],[38.2309,-12.213,216.3939],[38.2266,-12.2561,226.7626],[38.2052,-12.286,242.2677],[38.2052,-12.3217,248.257],[38.1622,-12.3695,255.7439],[38.1284,-12.3963,267.955],[38.1131,-12.4172,274.8563],[38.0916,-12.4291,278.8762],[38.0858,-12.4427,290.1542],[38.0789,-12.4666,292.9174],[38.0864,-12.4874,302.4828],[38.0763,-12.507,301.8054],[38.0518,-12.5663,329.9071],[38.0518,-12.5837,320.9453],[38.0409,-12.6005,327.5222],[38.0355,-12.6143,338.6978],[38.0286,-12.6454,354.8586],[38.0456,-12.6647,375.4156],[38.0487,-12.6856,363.6019],[38.0334,-12.7631,380.3935],[38.0436,-12.7805,401.7937],[38.0409,-12.7986,405.8264],[38.0444,-12.8059,433.1367],[38.0496,-12.8115,466.2196],[38.0508,-12.8159,465.1411],[38.0331,-12.8512,442.8032],[38.0325,-12.8739,456.097],[38.0226,-12.8858,439.0449],[38.0168,-12.8978,476.8625],[38.0119,-12.9481,498.5626],[38.0027,-12.9689,552.9271],[37.9628,-13.0047,539.8337],[37.9506,-13.0256,576.0463],[37.9415,-13.0344,634.7753],[37.9404,-13.0435,629.8807],[37.9677,-13.0623,595.652],[37.9814,-13.0806,564.3556],[37.9925,-13.0905,548.7034],[38.023,-13.0942,506.8118],[38.0351,-13.0976,499.9025],[38.0548,-13.1061,481.826],[38.0875,-13.1273,461.2181],[38.1319,-13.1369,457.4349],[38.1439,-13.1327,443.9863],[38.1711,-13.1151,443.384],[38.1816,-13.1125,432.732],[38.2156,-13.1124,416.6418],[38.2201,-13.1019,414.8884],[38.2274,-13.0923,429.5811],[38.2362,-13.0975,424.748],[38.2546,-13.0952,425.6656],[38.2577,-13.0897,422.2672],[38.2582,-13.0786,438.4679],[38.2624,-13.0687,417.3086],[38.2744,-13.074,423.6262],[38.2828,-13.0692,412.7969],[38.2868,-13.0593,410.7116],[38.2864,-13.0481,407.0424],[38.2947,-13.0418,406.8242],[38.3003,-13.0401,406.0102],[38.3151,-13.0227,401.5709],[38.318,-13.0102,397.4905],[38.3215,-13.0081,405.9452],[38.3472,-13.0052,397.3413],[38.3508,-13.003,395.2749],[38.3503,-12.9972,389.3133],[38.3535,-12.993,395.9758],[38.3689,-12.9909,385.9487],[38.383,-12.9919,384.4754],[38.3987,-12.9853,386.1689],[38.4054,-12.9817,386.0953],[38.4105,-12.9711,384.1209],[38.4217,-12.9629,384.9518],[38.4284,-12.9625,385.0586],[38.44,-12.9655,387.1827],[38.4518,-12.9727,381.1505],[38.4631,-12.9745,381.244],[38.4782,-12.9729,372.63],[38.4913,-12.9667,380.9443],[38.5047,-12.9437,377.0672],[38.5153,-12.9458,376.7187],[38.5247,-12.9445,370.7712],[38.5322,-12.9379,367.8856],[38.5352,-12.9285,367.5828],[38.544,-12.9196,367.6638],[38.554,-12.9148,360.1821],[38.5589,-12.9176,373.354],[38.5795,-12.9395,375.0006],[38.5877,-12.9416,378.211],[38.5967,-12.9504,385.0487],[38.6005,-12.9595,388.2473],[38.5989,-12.9692,401.1618],[38.5914,-12.9832,414.5647],[38.5915,-12.9876,418.4531],[38.5859,-12.9956,426.053],[38.5864,-12.9982,437.3769],[38.5847,-13.002,446.4937],[38.5878,-13.0068,453.8325],[38.5779,-13.0162,641.269],[38.5738,-13.0248,890.9508],[38.6586,-13.124,494.8972],[38.689,-13.1439,480.2014],[38.7037,-13.1858,490.0284],[38.7081,-13.1916,495.8203],[38.7245,-13.2313,533.529],[38.7347,-13.2383,553.2377],[38.7378,-13.2437,564.897],[38.7437,-13.2467,585.0169],[38.7503,-13.257,752.8538],[38.7854,-13.2728,471.2386],[38.7936,-13.2666,473.3751],[38.8077,-13.2645,468.8673],[38.8127,-13.2597,466.6597],[38.8206,-13.2609,472.3071],[38.8216,-13.2681,474.3578],[38.8258,-13.2758,473.2677],[38.8241,-13.2831,475.9917],[38.8083,-13.3079,495.8388],[38.7993,-13.3154,493.404],[38.7717,-13.3539,503.2604],[38.7643,-13.3588,507.4083],[38.7538,-13.3712,509.4574],[38.7327,-13.3911,521.7655],[38.7058,-13.4081,535.3914],[38.6951,-13.4197,543.5132],[38.6877,-13.4237,549.8279],[38.6755,-13.4354,560.892],[38.6761,-13.4437,578.6509],[38.6831,-13.4673,547.1038],[38.6954,-13.4792,514.5715],[38.7015,-13.4911,515.8383],[38.7041,-13.4916,510.539],[38.7069,-13.4911,504.1535],[38.7298,-13.4755,508.9002],[38.7499,-13.4537,570.4645],[38.7996,-13.4204,518.0112],[38.8674,-13.381,508.8724],[38.8823,-13.376,498.0294],[38.9231,-13.3821,459.6224],[38.9387,-13.3829,454.075],[38.9496,-13.3804,454.6971],[38.9604,-13.3801,448.0959],[38.9676,-13.386,446.4469],[38.9763,-13.3883,446.9863],[38.9962,-13.3894,441.4203],[39.0148,-13.374,439.4796],[39.0204,-13.374,434.1981],[39.0409,-13.3613,431.6684],[39.0567,-13.3628,427.0822],[39.0633,-13.36,421.6982],[39.0709,-13.3541,423.4662],[39.0835,-13.3566,424.8315],[39.098,-13.3559,419.8825],[39.1302,-13.3474,418.3176],[39.1505,-13.3273,405.6165],[39.1576,-13.3224,410.2628],[39.1686,-13.3215,400.0515],[39.1724,-13.3127,406.1378],[39.186,-13.3047,403.9268],[39.1861,-13.3032,403.6837],[39.1995,-13.2913,397.5048],[39.2192,-13.2786,390.5469],[39.2464,-13.2559,392.7775],[39.261,-13.2475,397.6118],[39.2691,-13.2472,384.1915],[39.2758,-13.2405,377.7404],[39.2862,-13.2361,393.497],[39.2892,-13.2457,377.5244],[39.3095,-13.2496,366.9008],[39.3279,-13.2496,364.8996],[39.3683,-13.2403,363.9899],[39.3757,-13.226,376.2367],[39.3835,-13.2285,352.4874],[39.3896,-13.2073,340.2596],[39.3996,-13.1988,353.7623]]]]}
,"properties": {"GID_2": "MOZ.1.8_1","GID_0": "MOZ","country": "Mozambique","GID_1": "MOZ.1_1","province": "CaboDelgado","NL_NAME_1": "NA","county": "Montepuez","VARNAME_2": "NA","NL_NAME_2": "NA","TYPE_2": "Distrito","ENGTYPE_2": "District","CC_2": "NA","HASC_2": "MZ.CD.MN","name": "Montepuez.county","area_km2": 17826.19,"hist_schema_id": "Elevation0-9000","hist_area_km2": {"150": 4.0,"175": 88.33,"200": 221.67,"225": 342.97,"250": 559.45,"275": 837.6,"300": 1178.22,"325": 1486.45,"350": 1720.31,"375": 1962.51,"400": 2181.24,"425": 2070.76,"450": 1655.52,"475": 1260.08,"500": 1012.26,"525": 639.33,"550": 304.96,"575": 112.56,"600": 60.64,"625": 36.38,"650": 22.7,"675": 16.17,"700": 13.69,"725": 9.91,"750": 7.61,"775": 6.0,"800": 4.18,"825": 3.58,"850": 2.84,"875": 1.8,"900": 1.2,"925": 0.68,"950": 0.23,"975": 0.17}}}