{"type":"Feature","properties":{"GID_3":"MOZ.4.6.2_1","GID_0":"MOZ","country":"Mozambique","GID_1":"MOZ.4_1","province":"Manica","NL_NAME_1":"NA","GID_2":"MOZ.4.6_1","county":"Manica","NL_NAME_2":"NA","city":"Manica","VARNAME_3":"NA","NL_NAME_3":"NA","TYPE_3":"Localidad","ENGTYPE_3":"Locality","CC_3":"NA","HASC_3":"NA","name":"Manica.city"},
"geometry":{"type": "MultiPolygon","coordinates": [[[[32.8441,-19.0093,1259.5258],[32.8773,-18.9992,1443.8921],[32.9007,-18.9986,930.8116],[32.9162,-18.9944,710.5415],[32.9173,-18.985,722.67],[32.9293,-18.9753,711.387],[32.9292,-18.9632,723.7559],[32.9324,-18.9489,708.4925],[32.9342,-18.9177,658.2841],[32.8939,-18.8965,683.1884],[32.8611,-18.8876,712.7993],[32.8545,-18.8897,715.46],[32.8465,-18.8887,733.8084],[32.8327,-18.8945,750.2078],[32.8238,-18.9074,781.8811],[32.8122,-18.9136,809.9481],[32.8061,-18.92,812.5398],[32.8036,-18.9255,841.9958],[32.8066,-18.9423,770.179],[32.8115,-18.944,773.4682],[32.8161,-18.9482,768.2022],[32.8515,-18.9605,788.5591],[32.8535,-18.9628,813.8575],[32.8554,-18.971,1030.536],[32.8542,-18.9989,1205.4551],[32.8441,-19.0093,1259.5258]]]]}}