{"type":"Feature","properties":{"featurecla":"River","scalerank":7,"rivernum":505,"dissolve":"505River","name":"Save2","name_alt":null,"note":null,"min_zoom":6.0,"strokeweig":0.25,"name_en":"Save","min_label":7.0},
"geometry":{"type": "LineString","coordinates": [[32.560644531250006,-21.38396575313088,142.0],[32.625390625000023,-21.381377862505886,144.0975],[32.6455078125,-21.38396575313088,142.7397],[32.684326171875,-21.39983489375588,144.8268],[32.796972656250006,-21.48113372188088,123.0172],[32.81201171875,-21.487627862505889,125.6019],[32.828857421875,-21.49212005000588,125.0134],[32.848046875000023,-21.49382903438088,124.4179],[32.905371093750006,-21.48674895625588,117.8416],[32.92041015625,-21.487139581255889,113.6736],[32.934179687500006,-21.49212005000588,116.154],[32.952539062500023,-21.502471612505886,120.041],[32.96826171875,-21.51604583125588,122.0011],[32.97509765625,-21.53118255000588,120.2373],[32.977441406250023,-21.560381768755889,122.2819],[32.9853515625,-21.56878020625588,107.3593],[33.000244140625,-21.56804778438088,109.3804],[33.0234375,-21.569659112505889,107.799],[33.031494140625,-21.577178643755886,105.2519],[33.050683593750023,-21.590850518755886,105.8297],[33.06982421875,-21.59636809688088,112.5941],[33.07861328125,-21.57952239375588,105.3055],[33.085205078125,-21.562530206255886,106.6544],[33.101318359375,-21.54338958125588,99.9723],[33.121191406250006,-21.526202081255889,94.6134],[33.139550781250023,-21.51506926875588,96.8575],[33.199951171875,-21.490069268755889,94.7953],[33.218017578125,-21.487139581255889,96.9049],[33.24072265625,-21.49089934688088,94.2458],[33.2802734375,-21.505889581255886,91.8306],[33.303955078125,-21.50701262813088,106.6276],[33.324804687500006,-21.50090911250588,102.7307],[33.362060546875,-21.48333098750588,89.4752],[33.40283203125,-21.474639581255886,83.7855],[33.423828125,-21.462432550005886,79.8935],[33.4921875,-21.411651300005886,80.8418],[33.527246093750023,-21.40007903438088,87.3124],[33.567138671875,-21.396026300005886,83.2994],[33.740625,-21.40325286250588,72.224],[33.796875,-21.394073175005886,79.005],[33.82177734375,-21.39348723750588,62.3167],[33.843017578125,-21.39910247188088,59.9865],[33.85205078125,-21.415069268755886,76.8174],[33.857324218750023,-21.42058684688088,68.4235],[33.868554687500023,-21.41863372188088,56.9851],[33.879296875000023,-21.41399505000588,54.5663],[33.8828125,-21.41130950313088,56.3111],[33.889892578125,-21.408233331255886,53.7707],[33.893945312500023,-21.40105559688088,61.0526],[33.896582031250006,-21.39202239375588,73.5133],[33.89990234375,-21.38396575313088,73.152],[33.927734375,-21.347002862505889,51.3666],[33.9482421875,-21.32537200313088,49.9942],[33.96533203125,-21.315752862505889,50.3055],[34.130078125000011,-21.302080987505889,39.245],[34.142333984375,-21.30779387813088,46.0652],[34.155371093750006,-21.31780364375588,37.2737],[34.171875,-21.32195403438088,52.164],[34.1953125,-21.30950286250588,42.4311],[34.223242187500006,-21.278155206255889,71.5682],[34.243554687500023,-21.26848723750588,36.1763],[34.267333984375,-21.27825286250588,31.754],[34.297558593750011,-21.30315520625588,31.0179],[34.313574218750006,-21.30950286250588,28.7239],[34.331298828125,-21.30950286250588,37.2405],[34.362402343750006,-21.291338800005889,45.3901],[34.391357421875,-21.257647393755889,23.1935],[34.434960937500023,-21.192217706255889,46.6425],[34.462890625,-21.171221612505889,26.006],[34.578857421875,-21.13762786250588,39.8925]]}}