{"type":"Feature","properties":{"featurecla":"River","scalerank":7,"rivernum":505,"dissolve":"505River","name":"Save1","name_alt":null,"note":null,"min_zoom":6.0,"strokeweig":0.2,"name_en":"Save","min_label":7.0},
"geometry":{"type": "LineString","coordinates": [[31.926660156250023,-19.129717706255889,833.4841],[31.9365234375,-19.12835051875588,835.5532],[31.95361328125,-19.12322356563088,825.4739],[31.960839843750023,-19.122881768755889,824.1746],[31.971093750000023,-19.125030206255886,811.2867],[31.978515625,-19.12786223750588,820.3905],[31.984960937500006,-19.13225676875588,828.6511],[32.019433593750023,-19.16863372188088,801.7727],[32.024121093750011,-19.18254973750588,797.7876],[32.022851562500023,-19.20476653438088,847.2233],[32.026562500000011,-19.244952081255889,766.1296],[32.044335937500023,-19.282549737505889,751.1622],[32.066650390625,-19.31902434688088,768.8364],[32.083740234375,-19.356280206255889,756.5297],[32.094921875000011,-19.374834893755889,731.1353],[32.130761718750023,-19.41106536250588,713.3781],[32.13828125,-19.42107512813088,696.4051],[32.14306640625,-19.43230559688088,691.6539],[32.220703125,-19.54168059688088,635.7745],[32.227783203125,-19.55828215938088,629.0969],[32.22900390625,-19.58098723750588,600.1467],[32.232666015625,-19.59783294063088,598.2581],[32.279541015625,-19.69524505000588,568.9055],[32.286376953125,-19.705108331255886,561.5985],[32.31396484375,-19.729327081255889,552.4743],[32.323486328125,-19.73479583125588,536.5784],[32.346923828125,-19.737334893755886,539.4885],[32.358007812500006,-19.739776300005886,532.8293],[32.390527343750023,-19.76653411250588,512.6916],[32.39892578125,-19.80339934688088,511.0482],[32.39208984375,-19.844561456255889,498.5],[32.379150390625,-19.883819268755886,501.9809],[32.375244140625,-19.916534112505886,497.8793],[32.372314453125,-19.92473723750588,497.4714],[32.361718750000023,-19.93352630000588,491.631],[32.350341796875,-19.938018487505886,491.1552],[32.34130859375,-19.94378020625588,491.5726],[32.337646484375,-19.95549895625588,490.8756],[32.336035156250006,-20.12322356563088,467.9061],[32.286376953125,-20.40447356563088,437.0227],[32.281347656250006,-20.545245050005889,420.2283],[32.273046875,-20.593291925005886,407.0],[32.258691406250023,-20.61272551875588,405.3084],[32.248144531250006,-20.672198175005889,420.553],[32.2275390625,-20.69719817500588,405.3828],[32.218017578125,-20.71257903438088,406.5812],[32.214111328125,-20.73015715938088,401.6064],[32.212158203125,-20.75042083125588,389.0],[32.193603515625,-20.801788018755886,395.2769],[32.1578125,-20.86565520625588,386.7314],[32.152587890625,-20.88713958125588,383.873],[32.14892578125,-20.89739348750588,383.0486],[32.134765625,-20.91985442500588,377.3517],[32.13525390625,-20.92839934688088,371.0],[32.14404296875,-20.94036223750588,370.0],[32.14794921875,-20.949248956255886,379.2328],[32.1572265625,-20.99602630000588,363.5741],[32.160253906250006,-21.005205987505889,362.5],[32.166259765625,-21.01409270625588,380.6663],[32.188378906250023,-21.03069426875588,368.7283],[32.19140625,-21.04045989375588,357.7548],[32.179882812500011,-21.055694268755886,371.6324],[32.25,-21.08879973750588,356.8224],[32.254980468750006,-21.09343840938088,346.9871],[32.262451171875,-21.11712005000588,378.6153],[32.2978515625,-21.198272393755886,247.2327],[32.296630859375,-21.21331145625588,285.7931],[32.312597656250006,-21.232745050005889,294.0212],[32.495849609375,-21.343096612505889,150.3351],[32.525976562500006,-21.36980559688088,147.7998],[32.543554687500006,-21.379913018755886,143.9471],[32.560644531250006,-21.38396575313088,142.0]]}}