{"type":"Feature","properties":{"GID_2":"MOZ.7.18_1","GID_0":"MOZ","country":"Mozambique","GID_1":"MOZ.7_1","province":"Nampula","NL_NAME_1":"NA","county":"Ribaue","VARNAME_2":"NA","NL_NAME_2":"NA","TYPE_2":"Distrito","ENGTYPE_2":"District","CC_2":"NA","HASC_2":"MZ.NM.RI","name":"Ribaue.county"},
"geometry":{"type": "MultiPolygon","coordinates": [[[[38.4538,-15.2092,472.4378],[38.4637,-15.1903,482.5364],[38.4686,-15.1848,476.864],[38.4692,-15.1738,487.7847],[38.4754,-15.1666,515.4103],[38.4886,-15.1586,516.3967],[38.4963,-15.1442,520.8685],[38.5037,-15.1382,531.3171],[38.5193,-15.1349,546.1884],[38.5288,-15.1231,551.4019],[38.5463,-15.0597,1409.7257],[38.5919,-15.0496,532.2853],[38.5999,-15.051,563.6656],[38.6227,-15.0483,529.8223],[38.6264,-15.0548,518.9618],[38.646,-15.0663,511.7463],[38.652,-15.0556,563.7451],[38.6656,-15.0412,564.5704],[38.6756,-15.0336,557.5732],[38.6964,-15.0254,522.1396],[38.7108,-15.0245,485.2062],[38.7219,-15.0204,489.433],[38.7273,-15.0132,469.5065],[38.7349,-15.0076,462.4772],[38.7469,-15.0142,447.1246],[38.7612,-15.0076,454.4288],[38.7739,-15.0085,436.1438],[38.7962,-15.0158,447.4916],[38.8058,-15.0228,434.7829],[38.8154,-15.0253,437.2157],[38.8141,-15.0176,434.5031],[38.8006,-14.9986,459.2538],[38.802,-14.9905,474.3291],[38.7944,-14.9652,508.5929],[38.7838,-14.9494,541.6406],[38.7766,-14.9458,545.3799],[38.7786,-14.9356,588.6016],[38.7724,-14.9246,810.9475],[38.78,-14.9142,584.8887],[38.7727,-14.9122,590.0871],[38.7626,-14.9137,585.8262],[38.7511,-14.9091,597.1027],[38.7374,-14.9081,603.8446],[38.7174,-14.9214,587.6595],[38.6943,-14.9416,601.5975],[38.6846,-14.9448,601.1973],[38.6617,-14.947,596.3265],[38.6505,-14.9539,604.8259],[38.6381,-14.9585,587.0525],[38.6138,-14.9587,603.2333],[38.603,-14.9616,583.1407],[38.597,-14.956,560.8478],[38.5881,-14.9522,582.9178],[38.5791,-14.9403,631.2031],[38.5724,-14.927,644.4878],[38.5846,-14.9136,635.1332],[38.5846,-14.9064,624.6328],[38.5816,-14.9004,606.2762],[38.5785,-14.8825,595.855],[38.5562,-14.8671,562.9636],[38.5125,-14.8478,579.1246],[38.5089,-14.8424,512.4612],[38.5136,-14.8288,509.9599],[38.5333,-14.7924,474.5816],[38.5393,-14.7733,486.5082],[38.5494,-14.758,464.9744],[38.5537,-14.7455,462.0839],[38.5538,-14.7364,461.9781],[38.546,-14.7263,449.7809],[38.5434,-14.7149,448.5394],[38.5378,-14.7029,458.375],[38.5199,-14.6754,434.6755],[38.526,-14.6618,423.3193],[38.5199,-14.6281,417.0999],[38.5161,-14.6203,410.07],[38.5102,-14.6185,421.0622],[38.5075,-14.6081,412.0688],[38.4982,-14.6022,412.5674],[38.4843,-14.5788,399.6945],[38.4759,-14.5846,406.692],[38.4577,-14.5927,415.3636],[38.4354,-14.5953,434.9645],[38.418,-14.5941,437.0267],[38.3954,-14.5832,452.3335],[38.3525,-14.5988,487.541],[38.3401,-14.5927,464.1082],[38.3101,-14.5832,455.8357],[38.2994,-14.5858,439.1213],[38.2748,-14.5859,421.3271],[38.2648,-14.5934,422.1678],[38.2537,-14.5988,425.994],[38.2401,-14.5848,426.6163],[38.2307,-14.5882,421.2231],[38.2256,-14.6024,422.2025],[38.2303,-14.6129,436.2579],[38.2292,-14.6213,425.5764],[38.2085,-14.6249,448.211],[38.1994,-14.6284,441.9304],[38.1946,-14.6329,451.1786],[38.1764,-14.6248,445.0732],[38.1676,-14.6354,455.5374],[38.1503,-14.6458,451.9756],[38.1408,-14.6502,453.9165],[38.129,-14.6514,463.9933],[38.122,-14.6579,466.6715],[38.1079,-14.6806,466.1149],[38.0845,-14.6791,464.1011],[38.0645,-14.6951,479.1776],[38.0639,-14.6973,477.4208],[38.0557,-14.7044,479.5162],[38.0487,-14.7166,482.1468],[38.0424,-14.7191,480.9395],[38.0124,-14.7446,483.5366],[38.0034,-14.7492,490.6831],[37.9988,-14.7587,493.4682],[37.9855,-14.7668,494.3204],[37.9713,-14.7815,502.7218],[37.9576,-14.79,506.8419],[37.9476,-14.8066,512.371],[37.9156,-14.8386,524.0267],[37.9111,-14.8478,526.4347],[37.9077,-14.8849,541.2776],[37.8901,-14.9065,544.7327],[37.8829,-14.9113,547.811],[37.8713,-14.9061,569.9195],[37.8635,-14.9092,568.6032],[37.8554,-14.9172,561.0271],[37.8382,-14.9218,573.3654],[37.8316,-14.9159,582.1763],[37.8247,-14.9181,588.347],[37.8096,-14.9163,589.6746],[37.8052,-14.9224,596.0789],[37.7959,-14.9271,598.6326],[37.7761,-14.9301,617.696],[37.7631,-14.9389,616.3187],[37.7392,-14.9498,641.2954],[37.7313,-14.9549,646.908],[37.7305,-14.958,646.2626],[37.7077,-14.9718,670.0102],[37.6954,-14.9837,714.9989],[37.6677,-15.0195,752.6003],[37.6595,-15.0221,743.7709],[37.6606,-15.0332,720.3947],[37.6469,-15.0538,679.5137],[37.6433,-15.0637,666.5347],[37.6669,-15.0873,648.2232],[37.6707,-15.1011,642.8754],[37.6805,-15.1138,640.0963],[37.6821,-15.1202,633.7421],[37.681399999999996,-15.124,630.9163],[37.6706,-15.13,681.7958],[37.6431,-15.1567,662.9973],[37.6369,-15.1656,686.3466],[37.6215,-15.1627,748.514],[37.6123,-15.1656,836.6016],[37.5948,-15.1915,659.0594],[37.5975,-15.1917,660.1962],[37.6175,-15.2073,648.7844],[37.6184,-15.2156,646.7182],[37.6253,-15.232,650.8353],[37.634,-15.2368,628.1942],[37.675,-15.2439,622.0254],[37.6832,-15.2439,622.1635],[37.6912,-15.2471,612.9564],[37.7108,-15.2424,601.6985],[37.7234,-15.2352,603.9771],[37.7402,-15.2224,585.5485],[37.7603,-15.2135,582.2231],[37.7967,-15.2166,575.9104],[37.8335,-15.2055,568.4542],[37.8447,-15.2111,567.6232],[37.8489,-15.2174,567.5702],[37.8671,-15.2262,577.3029],[37.8735,-15.2326,556.3413],[37.8844,-15.2367,552.3066],[37.9003,-15.2266,551.7352],[37.9056,-15.2308,548.6822],[37.925,-15.2305,546.9529],[37.9492,-15.2383,549.812],[37.9802,-15.259,560.1227],[38.0019,-15.2617,540.5452],[38.0047,-15.2915,521.5218],[38.0197,-15.2986,534.4534],[38.0041,-15.2926,521.5218],[38.0347,-15.3187,526.3823],[38.0358,-15.3192,526.3823],[38.0452,-15.3122,515.4539],[38.0507,-15.3158,511.1921],[38.0543,-15.3253,509.3685],[38.0645,-15.3295,507.709],[38.0748,-15.3291,514.7643],[38.0884,-15.3246,503.2799],[38.0952,-15.3241,497.9092],[38.0987,-15.3356,494.3554],[38.1083,-15.3421,488.5222],[38.1222,-15.3422,507.0041],[38.1339,-15.3402,502.6129],[38.1399,-15.3413,478.3365],[38.1402,-15.349,478.7788],[38.1306,-15.3612,493.7079],[38.1272,-15.3728,476.309],[38.1308,-15.3811,478.0998],[38.1381,-15.3816,477.711],[38.1493,-15.391,476.6389],[38.1605,-15.3916,473.9332],[38.1655,-15.3952,470.3062],[38.1675,-15.4076,472.9248],[38.1748,-15.4221,467.1072],[38.1875,-15.4323,478.0125],[38.2107,-15.4448,446.1072],[38.2252,-15.4451,470.6114],[38.2386,-15.4453,434.4013],[38.2533,-15.437,408.4197],[38.2592,-15.441,417.2213],[38.2868,-15.3943,541.8954],[38.3822,-15.3912,482.247],[38.3968,-15.383,610.215],[38.421,-15.3455,491.6334],[38.4394,-15.3338,488.8867],[38.4618,-15.3326,422.1402],[38.4666,-15.3243,427.2532],[38.4627,-15.3184,430.9594],[38.4715,-15.3111,443.2322],[38.4801,-15.3148,430.5511],[38.4806,-15.3099,431.9483],[38.4722,-15.303,435.5068],[38.4747,-15.2987,439.5356],[38.4689,-15.29,441.2708],[38.4543,-15.2738,474.9459],[38.4494,-15.2621,456.8052],[38.4556,-15.2543,453.1396],[38.4575,-15.2461,456.2112],[38.4526,-15.2311,474.0933],[38.4538,-15.2092,472.4378]]]]}}