{"type":"Feature","properties":{"GID_3":"MOZ.8.15.4_1","GID_0":"MOZ","country":"Mozambique","GID_1":"MOZ.8_1","province":"Nassa","NL_NAME_1":"NA","GID_2":"MOZ.8.15_1","county":"Sanga","NL_NAME_2":"NA","city":"Sanga(UnangoSede)","VARNAME_3":"NA","NL_NAME_3":"NA","TYPE_3":"Localidad","ENGTYPE_3":"Locality","CC_3":"NA","HASC_3":"NA","name":"Sanga(Unango_Sede).city"},
"geometry":{"type": "MultiPolygon","coordinates": [[[[35.086,-12.8448,1470.3625],[35.0758,-12.8793,1265.7458],[35.1036,-12.9091,1329.8464],[35.1147,-12.9144,1296.3475],[35.1223,-12.93,1319.8246],[35.1596,-12.9415,1314.847],[35.1746,-12.927,1424.2979],[35.1965,-12.9125,1306.5182],[35.2158,-12.927,1167.657],[35.2425,-12.927,1174.8116],[35.2642,-12.9329,1199.8623],[35.2855,-12.9536,1155.9174],[35.2985,-12.9603,1087.8259],[35.3014,-13.0166,1082.073],[35.2803,-13.041,1157.2732],[35.295,-13.0582,1189.3237],[35.3074,-13.0582,1118.3732],[35.3165,-13.056,1125.2028],[35.3407,-13.041,1093.5188],[35.3506,-13.0343,1054.4814],[35.3691,-13.0105,1039.6115],[35.394,-13.0258,1064.6702],[35.4062,-13.0612,1097.6938],[35.4141,-13.0912,1076.6553],[35.434,-13.0671,1035.4559],[35.438,-13.0525,1038.6873],[35.4481,-13.0503,1037.6797],[35.4463,-13.0314,1023.7043],[35.4629,-13.0249,1015.5626],[35.4772,-13.0075,1024.5496],[35.4741,-13.0015,1036.135],[35.4741,-12.9926,990.4734],[35.4958,-12.9628,1021.1453],[35.4976,-12.9623,1002.6628],[35.4926,-12.9568,998.653],[35.4803,-12.9478,963.1956],[35.4924,-12.9298,962.006],[35.4873,-12.9088,952.072],[35.4921,-12.889099999999999,947.3384],[35.4864,-12.8836,943.7848],[35.4877,-12.8805,948.0034],[35.4868,-12.879,959.4802],[35.5019,-12.8614,939.847],[35.499,-12.8513,935.1652],[35.4998,-12.841,931.1763],[35.5071,-12.836,927.9037],[35.5232,-12.8171,926.937],[35.5205,-12.7957,912.1655],[35.5205,-12.7719,914.9818],[35.5162,-12.7491,901.8944],[35.516,-12.731,901.1094],[35.5167,-12.7276,905.0749],[35.535,-12.709,899.3234],[35.5499,-12.6875,888.5241],[35.5503,-12.6822,891.6218],[35.5445,-12.6595,884.6293],[35.5387,-12.6444,880.5592],[35.5398,-12.6271,870.0428],[35.5589,-12.5978,868.3545],[35.5444,-12.5708,856.5146],[35.5495,-12.5599,855.9367],[35.5571,-12.5525,851.5951],[35.5618,-12.5374,867.7194],[35.5766,-12.5134,841.0592],[35.5328,-12.5303,876.8182],[35.4988,-12.5303,882.085],[35.4958,-12.5422,891.1456],[35.4958,-12.5571,904.6991],[35.4834,-12.572,930.341],[35.4565,-12.5749,918.5457],[35.4463,-12.5691,906.4196],[35.4309,-12.5691,974.0189],[35.4093,-12.5571,936.5569],[35.3877,-12.5571,951.024],[35.3722,-12.5447,959.9495],[35.363,-12.5482,971.7164],[35.3414,-12.572,996.0978],[35.3352,-12.6078,1033.528],[35.3167,-12.6049,1140.1625],[35.2518,-12.581,1614.167],[35.2395,-12.6019,1327.5472],[35.2364,-12.6168,1197.0852],[35.2249,-12.6333,1222.041],[35.2093,-12.6312,1104.7488],[35.2055,-12.6078,1047.8043],[35.2046,-12.5863,965.2493],[35.1808,-12.5571,935.3167],[35.1592,-12.5899,1002.3046],[35.1457,-12.6056,1001.5018],[35.1367,-12.6309,1020.0894],[35.1402,-12.6489,1011.9586],[35.1392,-12.6604,1033.7812],[35.1423,-12.6777,1083.2849],[35.1566,-12.7464,1224.3431],[35.161,-12.7573,1362.1942],[35.1546,-12.7757,1338.4915],[35.1376,-12.8106,1739.9391],[35.1252,-12.8106,1509.7968],[35.0974,-12.8196,1602.1597],[35.0882,-12.8375,1613.5837],[35.086,-12.8448,1470.3625]]]]}}