{"type": "Feature","bbox": [38.8455,-15.7016,39.2628,-15.3688],"geometry": {"type": "MultiPolygon","coordinates": [[[[39.234,-15.4374,204.8702],[39.2315,-15.4152,206.8267],[39.1736,-15.3823,231.9666],[39.1608,-15.3713,233.2638],[39.1509,-15.3722,233.1023],[39.1409,-15.3706,228.7761],[39.1366,-15.3729,235.3805],[39.1315,-15.3693,248.8823],[39.1276,-15.3688,230.7636],[39.1012,-15.3794,272.2661],[39.0904,-15.3806,290.2483],[39.0626,-15.3776,326.3384],[39.0471,-15.393,279.6121],[39.041,-15.4063,271.6411],[39.0272,-15.4025,289.4182],[39.0235,-15.4001,273.8246],[39.0207,-15.3968,284.1816],[39.0204,-15.3906,299.0897],[39.0186,-15.3883,286.8148],[39.0103,-15.3876,293.31],[38.9947,-15.3904,293.3581],[38.9875,-15.3902,301.5138],[38.9675,-15.3865,357.2736],[38.962,-15.3805,360.2369],[38.9586,-15.3797,375.2393],[38.936,-15.3817,359.4788],[38.93,-15.3856,346.2608],[38.9366,-15.3971,316.463],[38.9363,-15.4222,298.0598],[38.9378,-15.4257,303.3499],[38.9494,-15.4409,275.7263],[38.9579,-15.4426,319.7174],[38.966,-15.4422,282.6504],[38.9712,-15.4442,279.4347],[38.9648,-15.4486,266.5588],[38.946,-15.4558,288.1771],[38.9324,-15.4656,302.5394],[38.9034,-15.4779,327.7298],[38.89,-15.4915,343.1576],[38.88,-15.4981,337.6342],[38.8553,-15.5207,372.3871],[38.8528,-15.5284,356.939],[38.8553,-15.5354,365.5284],[38.8535,-15.5544,318.9271],[38.8548,-15.5792,293.7661],[38.8785,-15.582,286.5402],[38.8855,-15.5874,290.276],[38.8815,-15.5907,290.6173],[38.8726,-15.592,299.8112],[38.8548,-15.6018,330.4042],[38.8455,-15.6138,329.012],[38.8455,-15.6167,337.9196],[38.8812,-15.6636,311.5969],[38.8981,-15.6794,284.8595],[38.9353,-15.6585,280.0142],[38.9628,-15.6526,304.838],[38.9987,-15.6342,273.6875],[39.0197,-15.6196,253.1797],[39.0436,-15.6167,236.4346],[39.0745,-15.6466,220.901],[39.1488,-15.6794,179.7536],[39.162,-15.6819,198.1741],[39.1773,-15.7016,174.1205],[39.252,-15.6325,151.4065],[39.2622,-15.6094,151.8287],[39.2628,-15.6043,153.3793],[39.2595,-15.5953,168.8027],[39.2595,-15.5829,165.2559],[39.2531,-15.5806,162.6931],[39.2466,-15.5837,156.855],[39.245,-15.5803,192.7798],[39.2454,-15.5742,167.1313],[39.2482,-15.5659,172.3466],[39.2363,-15.5625,168.0776],[39.2275,-15.5481,181.9572],[39.2282,-15.5316,185.991],[39.2178,-15.5119,190.3932],[39.211,-15.4887,190.8488],[39.1974,-15.4815,193.4765],[39.1967,-15.4784,192.7382],[39.2029,-15.4645,197.6449],[39.2109,-15.4523,193.1201],[39.2283,-15.4426,203.6127],[39.234,-15.4374,204.8702]]]]}
,"properties": {"GID_3": "MOZ.7.8.1_1","GID_0": "MOZ","country": "Mozambique","GID_1": "MOZ.7_1","province": "Nampula","NL_NAME_1": "NA","GID_2": "MOZ.7.8_1","county": "Mogovolas","NL_NAME_2": "NA","city": "Calipo","VARNAME_3": "NA","NL_NAME_3": "NA","TYPE_3": "Localidad","ENGTYPE_3": "Locality","CC_3": "NA","HASC_3": "NA","name": "Calipo.city","area_km2": 1109.2761,"hist_schema_id": "Elevation0-9000","hist_area_km2": {"125": 0.1429,"150": 14.0485,"175": 65.1823,"200": 122.1698,"225": 164.5539,"250": 155.9005,"275": 173.924,"300": 168.428,"325": 135.2646,"350": 71.2537,"375": 23.3106,"400": 6.3536,"425": 2.6559,"450": 1.8796,"475": 1.0419,"500": 0.6333,"525": 0.4086,"550": 0.4086,"575": 0.3269,"600": 0.2452,"625": 0.2656,"650": 0.2247,"675": 0.1021,"700": 0.143,"725": 0.0409,"750": 0.0817,"775": 0.0613,"800": 0.0409,"825": 0.0409,"850": 0.1021,"900": 0.0204,"925": 0.0204}}}