{"type":"Feature","properties":{"GID_3":"MOZ.11.5.2_1","GID_0":"MOZ","country":"Mozambique","GID_1":"MOZ.11_1","province":"Zambezia","NL_NAME_1":"NA","GID_2":"MOZ.11.5_1","county":"Ile","NL_NAME_2":"NA","city":"Mulevala(Namigonha)","VARNAME_3":"NA","NL_NAME_3":"NA","TYPE_3":"Localidad","ENGTYPE_3":"Locality","CC_3":"NA","HASC_3":"NA","name":"Mulevala(Namigonha).city"},
"geometry":{"type": "MultiPolygon","coordinates": [[[[37.7266,-16.1572,280.8882],[37.7154,-16.163,275.7162],[37.6956,-16.1774,271.4044],[37.6781,-16.162,304.564],[37.672,-16.1535,307.1446],[37.6594,-16.1535,330.0321],[37.6533,-16.1625,323.8414],[37.6428,-16.1617,338.7799],[37.6204,-16.1431,339.3853],[37.6038,-16.1358,362.8608],[37.5932,-16.1434,364.8939],[37.5847,-16.1474,359.9477],[37.5756,-16.1386,405.816],[37.5756,-16.1121,390.254],[37.5694,-16.0999,426.6913],[37.5321,-16.0999,444.4847],[37.5294,-16.1151,418.6465],[37.5352,-16.1357,391.7432],[37.5508,-16.1446,421.7701],[37.5632,-16.1605,397.5923],[37.5623,-16.1736,379.2418],[37.5543,-16.1801,402.8589],[37.5399,-16.1801,392.7297],[37.527,-16.1723,370.2061],[37.5153,-16.1689,368.2036],[37.5079,-16.1685,347.5186],[37.4576,-16.2013,387.721],[37.4482,-16.2043,362.4133],[37.4203,-16.2103,351.8627],[37.4017,-16.2043,332.292],[37.383,-16.2043,371.0645],[37.3799,-16.2162,348.8834],[37.3799,-16.2281,350.2854],[37.3706,-16.2311,332.7781],[37.3427,-16.2311,363.0352],[37.3369,-16.2343,386.6371],[37.3356,-16.2642,418.7302],[37.3338,-16.271,408.9243],[37.3178,-16.2938,390.5696],[37.2992,-16.3116,401.3746],[37.2838,-16.3204,369.4317],[37.2886,-16.3255,373.781],[37.2903,-16.3405,398.0765],[37.2971,-16.3535,429.1973],[37.297,-16.362,406.8752],[37.2872,-16.3732,380.1257],[37.3004,-16.4012,358.1528],[37.3075,-16.4081,356.3748],[37.3149,-16.412,332.4983],[37.3155,-16.4256,362.4276],[37.3296,-16.4228,342.264],[37.3782,-16.4358,407.6432],[37.3901,-16.4688,358.6566],[37.3997,-16.4796,319.3074],[37.4215,-16.4861,298.5154],[37.4684,-16.5182,238.634],[37.4663,-16.5285,244.3526],[37.4659,-16.5497,219.7976],[37.4671,-16.5616,216.9715],[37.471,-16.5744,202.0419],[37.4929,-16.591,201.2508],[37.536,-16.5845,265.0193],[37.5375,-16.5739,272.3046],[37.552,-16.5824,230.6591],[37.5597,-16.5807,210.2491],[37.5754,-16.5832,191.5725],[37.5927,-16.5825,185.2014],[37.6195,-16.5756,165.3652],[37.6216,-16.5844,163.399],[37.6358,-16.6043,166.655],[37.6537,-16.6119,150.2515],[37.6662,-16.6257,147.8717],[37.6677,-16.6305,139.6539],[37.6718,-16.6302,136.822],[37.6774,-16.624,141.8215],[37.6816,-16.6247,146.5172],[37.6967,-16.6333,134.2946],[37.7137,-16.6315,132.8518],[37.7163,-16.6387,130.2096],[37.7241,-16.6483,128.6385],[37.7379,-16.6507,119.8182],[37.7373,-16.6558,112.9566],[37.7416,-16.6609,123.2922],[37.7508,-16.6644,106.6568],[37.7536,-16.6531,112.3678],[37.7522,-16.6286,129.3646],[37.7499,-16.6204,134.817],[37.7549,-16.5934,164.0555],[37.7589,-16.5971,146.685],[37.7646,-16.5964,147.0055],[37.7731,-16.6008,134.2262],[37.7794,-16.601,120.0789],[37.7794,-16.606,131.9352],[37.7826,-16.6129,131.3218],[37.7899,-16.62,118.3739],[37.7898,-16.6051,133.7614],[37.785,-16.601,127.6998],[37.7824,-16.5959,128.9161],[37.7832,-16.588,126.3687],[37.7892,-16.5781,127.2728],[37.7956,-16.5793,123.7611],[37.8185,-16.5659,167.7151],[37.8319,-16.5662,169.4548],[37.8422,-16.5629,161.9756],[37.8457,-16.5549,172.9903],[37.8519,-16.5518,175.8873],[37.8685,-16.5489,193.8573],[37.9003,-16.5279,194.4095],[37.9017,-16.5168,170.9296],[37.9071,-16.5069,188.3256],[37.9198,-16.5005,171.5544],[37.9246,-16.4992,171.1402],[37.9303,-16.5002,163.8158],[37.945,-16.4876,154.672],[37.9599,-16.4807,157.3649],[37.9713,-16.4802,144.0911],[37.9889,-16.4849,142.7337],[37.9932,-16.4739,140.4311],[37.9903,-16.4685,141.8108],[37.981,-16.4584,146.3941],[37.963,-16.4552,140.0692],[37.9564,-16.4578,157.4237],[37.9545,-16.4415,149.311],[37.9453,-16.4386,152.1479],[37.9392,-16.4315,158.4826],[37.9127,-16.4383,157.493],[37.9085,-16.4104,160.6283],[37.9088,-16.3986,160.3869],[37.9027,-16.38,170.9746],[37.8952,-16.3723,175.144],[37.9181,-16.3237,171.1193],[37.9184,-16.3166,175.0002],[37.9163,-16.3101,177.2247],[37.9026,-16.2881,183.9773],[37.9009,-16.2788,217.1062],[37.8931,-16.2752,199.9986],[37.8861,-16.2607,197.4499],[37.8772,-16.2581,205.0966],[37.8674,-16.2598,201.8231],[37.8639,-16.263,209.0317],[37.8523,-16.2543,201.8676],[37.854,-16.2442,222.1363],[37.8454,-16.239,221.2343],[37.8324,-16.2208,225.8705],[37.8061,-16.2117,220.2991],[37.7962,-16.2132,227.8313],[37.7897,-16.2105,247.9233],[37.7826,-16.2021,233.0364],[37.7539,-16.192,263.2706],[37.7397,-16.178,248.976],[37.7387,-16.169,264.5994],[37.7266,-16.1572,280.8882]]]]}}