{"type":"Feature","properties":{"GID_3":"MOZ.9.3.3_1","GID_0":"MOZ","country":"Mozambique","GID_1":"MOZ.9_1","province":"Sofala","NL_NAME_1":"NA","GID_2":"MOZ.9.3_1","county":"Chemba","NL_NAME_2":"NA","city":"Mulima","VARNAME_3":"NA","NL_NAME_3":"NA","TYPE_3":"Localidad","ENGTYPE_3":"Locality","CC_3":"NA","HASC_3":"NA","name":"Mulima.city"},
"geometry":{"type": "MultiPolygon","coordinates": [[[[34.9232,-17.406,86.3064],[34.9199,-17.4096,92.6017],[34.9135,-17.4067,97.2911],[34.8848,-17.4015,125.2438],[34.8743,-17.4013,144.0184],[34.8607,-17.3921,162.3721],[34.8626,-17.3773,146.4792],[34.8675,-17.3704,135.3067],[34.8712,-17.356,112.9946],[34.8757,-17.3456,96.6533],[34.8878,-17.3348,89.3497],[34.8827,-17.3284,95.3601],[34.8675,-17.3174,109.115],[34.8569,-17.2981,142.7892],[34.8382,-17.2475,96.7943],[34.8333,-17.2425,86.4607],[34.8296,-17.2316,75.7588],[34.7983,-17.2507,85.7072],[34.784,-17.2566,89.566],[34.78,-17.2633,91.515],[34.7776,-17.2742,97.0443],[34.7596,-17.2818,99.9705],[34.7498,-17.2805,108.5157],[34.7419,-17.2821,113.696],[34.7278,-17.2952,108.8405],[34.7037,-17.2827,157.2956],[34.6844,-17.2767,163.1768],[34.662,-17.2659,177.9888],[34.6584,-17.2379,204.9206],[34.6388,-17.2071,266.2023],[34.6354,-17.1947,244.8404],[34.6354,-17.1834,227.7876],[34.6243,-17.1701,206.2516],[34.6001,-17.103,149.3578],[34.6041,-17.0835,141.6482],[34.5453,-17.1245,178.9201],[34.5312,-17.1416,189.3778],[34.4938,-17.1817,166.6217],[34.4583,-17.2331,250.7458],[34.4244,-17.219,201.2307],[34.4217,-17.2143,185.8845],[34.4178,-17.2113,181.6587],[34.4193,-17.2012,171.3865],[34.4163,-17.1922,150.4713],[34.3934,-17.2048,158.0249],[34.3794,-17.2159,164.7919],[34.3711,-17.2199,167.5719],[34.3572,-17.2179,169.4534],[34.3599,-17.2237,169.3421],[34.358,-17.2382,175.6025],[34.3608,-17.2436,183.3453],[34.3813,-17.2494,220.2839],[34.3893,-17.2542,221.5772],[34.3948,-17.2622,236.8106],[34.3972,-17.2707,249.8182],[34.4114,-17.2955,277.3893],[34.4104,-17.3031,285.0509],[34.3963,-17.3255,301.8418],[34.3867,-17.3442,291.2406],[34.4011,-17.3468,271.3117],[34.4116,-17.3557,252.2603],[34.4217,-17.3846,240.7529],[34.4297,-17.4399,298.474],[34.4365,-17.4497,317.7221],[34.4436,-17.4564,330.5151],[34.4555,-17.4622,349.0584],[34.4831,-17.4706,349.7451],[34.5083,-17.465,309.3087],[34.539,-17.4753,290.6821],[34.5713,-17.4818,266.2654],[34.6407,-17.4881,279.5571],[34.6753,-17.4897,231.294],[34.6846,-17.4852,224.4516],[34.6921,-17.4852,216.1384],[34.7012,-17.5044,237.6175],[34.6977,-17.5314,281.9723],[34.7038,-17.5612,261.1255],[34.7102,-17.5844,238.9154],[34.7147,-17.5912,233.4898],[34.7207,-17.5966,223.5082],[34.7249,-17.6047,216.071],[34.7178,-17.6132,199.3446],[34.7233,-17.6226,188.7482],[34.7224,-17.6357,182.2127],[34.7268,-17.6422,180.7757],[34.7378,-17.6502,171.9311],[34.7517,-17.6253,187.0726],[34.7575,-17.6065,168.7334],[34.7674,-17.5923,184.7953],[34.789,-17.5497,235.1993],[34.8254,-17.4961,199.104],[34.852,-17.4699,158.3619],[34.8749,-17.4514,134.5003],[34.9082,-17.439,115.2669],[34.921,-17.4239,100.9708],[34.9232,-17.406,86.3064]]]]}}