{"type": "Feature","bbox": [39.4946,-13.1192,40.1311,-12.5758],"geometry": {"type": "MultiPolygon","coordinates": [[[[40.1177,-12.9347,181.7623],[40.1177,-12.9294,188.6042],[40.1117,-12.9243,185.0933],[40.1008,-12.9246,193.7089],[40.089,-12.9148,206.7169],[40.0793,-12.9164,210.0456],[40.075,-12.9115,216.8344],[40.0544,-12.9038,244.2211],[40.0405,-12.9025,259.817],[40.0208,-12.904,264.1979],[40.0149,-12.8973,270.3632],[40.0152,-12.8746,285.8752],[40.0085,-12.8671,298.0079],[40.0043,-12.8588,299.3895],[40.0058,-12.8425,275.4268],[40.0252,-12.8351,286.5117],[40.0235,-12.8186,260.5919],[40.0207,-12.8082,249.1337],[40.0104,-12.7868,227.6496],[40.0039,-12.7685,209.5704],[40.0368,-12.7123,161.3435],[40.0797,-12.6825,158.49],[40.1254,-12.6223,92.8326],[40.1295,-12.6114,87.3864],[40.1311,-12.5758,66.5657],[40.1161,-12.5904,69.5843],[40.0832,-12.5984,76.1079],[40.0661,-12.6095,83.447],[40.0577,-12.6217,86.1361],[40.0497,-12.6293,87.0723],[40.032,-12.6351,89.214],[40.0233,-12.6424,96.3391],[40.0149,-12.6437,98.1984],[39.9952,-12.6384,103.1994],[39.9892,-12.6393,112.9412],[39.9698,-12.6372,134.4257],[39.9555,-12.6372,124.2582],[39.9132,-12.6445,156.7584],[39.8961,-12.6424,148.3633],[39.8776,-12.6233,163.4632],[39.8676,-12.6163,156.0245],[39.8383,-12.6091,173.9079],[39.8325,-12.612,173.1343],[39.8182,-12.6079,183.4291],[39.8129,-12.6092,183.2621],[39.8005,-12.6195,197.5215],[39.8024,-12.6386,201.3706],[39.7959,-12.6437,198.639],[39.7872,-12.6539,205.8717],[39.781,-12.6508,201.1684],[39.7642,-12.6656,233.3134],[39.7623,-12.6817,208.3853],[39.7661,-12.6904,216.1799],[39.7657,-12.6992,218.8107],[39.7605,-12.701599999999999,214.1337],[39.7445,-12.7199,220.88],[39.7111,-12.7474,231.3011],[39.6908,-12.7523,245.5467],[39.6528,-12.7539,234.5595],[39.6422,-12.7564,250.8881],[39.6326,-12.7555,241.2733],[39.6242,-12.7582,255.5317],[39.5883,-12.7419,273.5177],[39.5725,-12.7393,274.0399],[39.5465,-12.7428,287.3566],[39.5366,-12.764,306.6165],[39.4976,-12.8166,380.1977],[39.4946,-12.8721,461.4208],[39.5064,-12.9119,491.606],[39.5717,-13.0029,417.3935],[39.6081,-13.0571,397.9607],[39.6772,-13.1047,353.9534],[39.6725,-13.1192,331.0352],[39.6786,-13.1039,355.0372],[39.6521,-13.0842,423.4669],[39.72,-13.0255,388.4202],[39.7305,-13.0195,386.7059],[39.7685,-13.0195,365.9739],[39.7817,-13.0299,356.4226],[39.7907,-13.0348,342.409],[39.8188,-13.046,332.5276],[39.8334,-13.0468,316.6614],[39.8451,-13.0438,314.8582],[39.8501,-13.0318,303.6786],[39.8547,-13.0293,306.9532],[39.8578,-13.0204,293.5443],[39.8807,-13.0185,281.2613],[39.9006,-13.0193,271.7873],[39.9094,-13.0136,267.2108],[39.9185,-13.0132,268.8384],[39.9421,-13.0179,253.5715],[39.9455,-13.0121,248.2834],[39.9549,-13.0121,246.0385],[39.9653,-13.005,240.6602],[39.9716,-12.9977,242.0934],[39.9784,-12.9938,243.0746],[39.9963,-12.9933,254.0383],[40.0346,-12.9963,220.7348],[40.0368,-12.9926,226.1262],[40.0514,-12.9844,205.8078],[40.0602,-12.9612,199.0887],[40.0676,-12.9542,202.4263],[40.0768,-12.9494,197.9605],[40.0851,-12.9485,203.1244],[40.1,-12.9395,185.5302],[40.1058,-12.9323,188.5786],[40.1177,-12.9347,181.7623]]]]}
,"properties": {"GID_3": "MOZ.1.1.1_1","GID_0": "MOZ","country": "Mozambique","GID_1": "MOZ.1_1","province": "CaboDelgado","NL_NAME_1": "NA","GID_2": "MOZ.1.1_1","county": "Ancuabe","NL_NAME_2": "NA","city": "Ancuabe","VARNAME_3": "NA","NL_NAME_3": "NA","TYPE_3": "Localidad","ENGTYPE_3": "Locality","CC_3": "NA","HASC_3": "NA","name": "Ancuabe.city","area_km2": 2196.568,"hist_schema_id": "Elevation0-9000","hist_area_km2": {"75": 12.56,"100": 28.137,"125": 41.954,"150": 52.769,"175": 77.773,"200": 113.973,"225": 172.538,"250": 215.785,"275": 227.785,"300": 239.646,"325": 229.273,"350": 203.447,"375": 148.151,"400": 136.984,"425": 135.669,"450": 90.875,"475": 48.976,"500": 18.186,"525": 0.765,"550": 0.351,"575": 0.393,"600": 0.289,"625": 0.124,"650": 0.124,"675": 0.021,"700": 0.021}}}