{"type": "Feature","bbox": [34.7378,-17.6944,35.164,-17.3719],"geometry": {"type": "MultiPolygon","coordinates": [[[[35.164,-17.617,33.0],[35.1407,-17.5658,34.5],[35.0951,-17.5134,37.8014],[35.0829,-17.4973,39.4956],[35.0631,-17.4543,40.7126],[35.0568,-17.4354,41.0],[35.026,-17.3719,45.119],[34.978,-17.3749,53.5113],[34.9729,-17.3737,55.6512],[34.965,-17.3744,65.6958],[34.9422,-17.3898,75.1733],[34.9232,-17.406,86.3064],[34.921,-17.4239,100.9708],[34.9082,-17.439,115.2669],[34.8749,-17.4514,134.5003],[34.852,-17.4699,158.3619],[34.8254,-17.4961,199.104],[34.789,-17.5497,235.1993],[34.7674,-17.5923,184.7953],[34.7575,-17.6065,168.7334],[34.7517,-17.6253,187.0726],[34.7378,-17.6502,171.9311],[34.7509,-17.6557,167.6083],[34.7559,-17.663,162.9806],[34.7569,-17.6695,163.1652],[34.7733,-17.6706,161.7706],[34.7813,-17.6817,159.5527],[34.7694,-17.6878,152.1218],[34.7632,-17.6933,149.5549],[34.7749,-17.6944,150.9018],[34.7844,-17.6922,146.6713],[34.7934,-17.6867,140.2859],[34.8005,-17.6756,138.2252],[34.8038,-17.6669,141.8995],[34.8038,-17.6578,148.5818],[34.7983,-17.6489,134.7542],[34.8,-17.6413,134.2798],[34.8054,-17.6404,134.3128],[34.8123,-17.6423,139.4626],[34.8366,-17.6399,122.5655],[34.8487,-17.6367,116.0952],[34.8614,-17.6378,117.1044],[34.886,-17.6454,106.4258],[34.9002,-17.6472,107.0118],[34.9355,-17.6423,88.3723],[34.9608,-17.6439,84.4751],[34.9863,-17.654,76.8558],[35.0002,-17.666,67.7315],[35.0158,-17.668,62.8657],[35.0227,-17.6652,61.3631],[35.0291,-17.6648,60.6362],[35.0451,-17.6675,54.9774],[35.0509,-17.6658,52.6751],[35.0562,-17.6578,57.717],[35.0624,-17.6537,50.116],[35.075,-17.648,48.8348],[35.0793,-17.6429,47.797],[35.0839,-17.6308,42.5038],[35.1077,-17.6309,36.2629],[35.1178,-17.637,37.0371],[35.1443,-17.6271,33.768],[35.164,-17.617,33.0]]]]}
,"properties": {"GID_3": "MOZ.9.2.3_1","GID_0": "MOZ","country": "Mozambique","GID_1": "MOZ.9_1","province": "Sofala","NL_NAME_1": "NA","GID_2": "MOZ.9.2_1","county": "Caia","NL_NAME_2": "NA","city": "Sena","VARNAME_3": "NA","NL_NAME_3": "NA","TYPE_3": "Localidad","ENGTYPE_3": "Locality","CC_3": "NA","HASC_3": "NA","name": "Sena.city","area_km2": 872.0718,"hist_schema_id": "Elevation0-9000","hist_area_km2": {"25": 70.3129,"50": 144.4105,"75": 116.3512,"100": 138.2855,"125": 126.2081,"150": 105.5106,"175": 106.4256,"200": 52.9841,"225": 11.543,"250": 0.0404}}}