{"type": "Feature","bbox": [32.3345,-24.6959,32.7394,-24.326],"geometry": {"type": "MultiPolygon","coordinates": [[[[32.5579,-24.3333,79.6756],[32.5455,-24.346,82.2709],[32.5371,-24.3463,83.7225],[32.5339,-24.3452,83.787],[32.528,-24.3383,86.0801],[32.5219,-24.334,86.4076],[32.5127,-24.3343,89.8429],[32.5068,-24.3322,91.2537],[32.4884,-24.33,93.172],[32.4809,-24.326,94.153],[32.4728,-24.3458,102.8306],[32.4599,-24.3699,107.2753],[32.4465,-24.3851,102.3798],[32.4266,-24.4329,105.3664],[32.4225,-24.4397,108.732],[32.4027,-24.4618,97.0736],[32.3877,-24.4933,109.6226],[32.3727,-24.5062,118.3001],[32.3345,-24.5319,117.0153],[32.3382,-24.5407,105.9801],[32.3563,-24.5532,102.1006],[32.3608,-24.5606,100.7103],[32.3733,-24.5689,95.2143],[32.3698,-24.5777,92.9732],[32.3747,-24.586,96.158],[32.3858,-24.5925,94.7833],[32.4115,-24.5995,90.9633],[32.4236,-24.6056,88.5111],[32.4251,-24.6097,89.7969],[32.4205,-24.6166,89.2401],[32.4249,-24.6356,87.3047],[32.4219,-24.6453,86.652],[32.4324,-24.653199999999998,84.1308],[32.4461,-24.65,83.9413],[32.4637,-24.656,90.1837],[32.4641,-24.6722,84.6682],[32.4474,-24.6819,78.0925],[32.4454,-24.6847,76.2861],[32.452,-24.687,80.0538],[32.4641,-24.6847,80.1744],[32.4666,-24.6903,80.1555],[32.4762,-24.6944,74.1496],[32.4812,-24.6931,79.6637],[32.4852,-24.6959,79.1225],[32.4903,-24.6775,77.6268],[32.4881,-24.6591,85.4855],[32.487,-24.6235,90.2691],[32.4849,-24.6112,93.6116],[32.4883,-24.604,89.091],[32.5142,-24.5905,91.2016],[32.5303,-24.5802,87.945],[32.5491,-24.5775,80.1729],[32.5899,-24.5775,76.005],[32.5991,-24.5763,73.4268],[32.6083,-24.5722,68.7089],[32.6593,-24.566,53.9777],[32.689,-24.5578,48.41],[32.734,-24.541,39.7537],[32.7394,-24.5368,42.3407],[32.7306,-24.5309,44.83],[32.7192,-24.5088,43.3619],[32.7164,-24.4984,41.6449],[32.7197,-24.483,43.0997],[32.724,-24.4752,44.4758],[32.7285,-24.4577,45.5373],[32.725,-24.4234,45.4513],[32.7185,-24.4026,49.3667],[32.6964,-24.3857,50.6882],[32.6717,-24.3768,57.9947],[32.6543,-24.376,62.2585],[32.6146,-24.3796,68.5264],[32.606,-24.3758,70.201],[32.5991,-24.3694,70.9036],[32.587,-24.3499,76.3299],[32.5679,-24.3355,80.0943],[32.5579,-24.3333,79.6756]]]]}
,"properties": {"GID_3": "MOZ.6.2.2_1","GID_0": "MOZ","country": "Mozambique","GID_1": "MOZ.6_1","province": "Maputo","NL_NAME_1": "NA","GID_2": "MOZ.6.2_1","county": "Magude","NL_NAME_2": "NA","city": "Mahele","VARNAME_3": "NA","NL_NAME_3": "NA","TYPE_3": "Localidad","ENGTYPE_3": "Locality","CC_3": "NA","HASC_3": "NA","name": "Mahele.city","area_km2": 857.2462,"hist_schema_id": "Elevation0-9000","hist_area_km2": {"50": 194.8768,"75": 294.5073,"100": 339.0235,"125": 28.8386}}}