{"type": "Feature","bbox": [40.0043,-13.1415,40.6301,-12.7046],"geometry": {"type": "MultiPolygon","coordinates": [[[[40.4077,-13.1415,50.7364],[40.4643,-13.135,27.6884],[40.4621,-13.1278,24.2256],[40.5014,-13.077,12.7891],[40.5187,-13.0702,47.6892],[40.5237,-13.0642,103.5531],[40.5293,-13.0625,92.3041],[40.5537,-13.0638,7.5913],[40.5529,-13.0696,7.8562],[40.5571,-13.0532,0.0],[40.5732,-13.0238,6.9532],[40.5799,-13.0029,5.0799],[40.5874,-12.9876,0.0],[40.5863,-12.9804,0.7781],[40.5876,-12.9724,3.59],[40.586,-12.9676,0.0],[40.5874,-12.9665,0.0],[40.5749,-12.9618,5.7937],[40.5746,-12.9601,0.0],[40.5726,-12.9612,1.4131],[40.5718,-12.9596,1.4131],[40.5699,-12.9604,1.5127],[40.5696,-12.9635,7.7596],[40.5676,-12.9651,12.5849],[40.5638,-12.964,0.0],[40.5632,-12.9657,2.1577],[40.5568,-12.9654,0.0],[40.5471,-12.9712,0.0],[40.5401,-12.9715,6.2593],[40.5332,-12.9668,4.0539],[40.5293,-12.9618,6.0162],[40.5243,-12.9618,2.6564],[40.5235,-12.9601,0.0],[40.5176,-12.959,1.2369],[40.5124,-12.9535,1.5441],[40.5046,-12.9499,1.9447],[40.4982,-12.9499,0.0],[40.4935,-12.9557,1.3586],[40.4885,-12.9568,2.4337],[40.4874,-12.9601,6.0116],[40.484,-12.9601,1.194],[40.4815,-12.9632,2.2561],[40.4818,-12.9663,0.0],[40.4849,-12.9679,0.0],[40.4904,-12.9668,2.1143],[40.4963,-12.9712,10.7164],[40.5046,-12.9746,2.0283],[40.5121,-12.9835,0.5764],[40.514,-12.9929,22.0238],[40.5137,-12.9971,0.0],[40.5112,-13.0001,0.0],[40.5129,-13.0051,0.0],[40.5099,-13.0157,1.1371],[40.5104,-13.021,0.4238],[40.5076,-13.024,0.0],[40.5088,-13.0279,0.8995],[40.5051,-13.0324,0.601],[40.5001,-13.0337,0.8108],[40.4982,-13.036,0.8055],[40.4963,-13.0357,0.3931],[40.4971,-13.0313,0.4154],[40.4943,-13.0324,0.0],[40.4929,-13.0346,0.0],[40.4943,-13.0365,0.0],[40.4929,-13.041,0.75],[40.4938,-13.0463,2.7565],[40.4896,-13.0526,2.6397],[40.4915,-13.0446,1.433],[40.486,-13.0446,4.1386],[40.4899,-13.0415,1.5064],[40.4907,-13.0346,2.1379],[40.489,-13.0337,1.5767],[40.4843,-13.0354,0.125],[40.4865,-13.0401,6.6759],[40.4826,-13.0368,4.5987],[40.4846,-13.0326,6.1592],[40.4893,-13.0321,0.0],[40.4874,-13.0274,0.0],[40.4849,-13.0282,0.0],[40.4857,-13.0307,2.3318],[40.4632,-13.029,0.4913],[40.4604,-13.0343,5.7666],[40.466,-13.0379,2.7435],[40.4663,-13.0404,3.8166],[40.4585,-13.0346,4.1189],[40.459,-13.0293,2.5069],[40.4621,-13.026,0.3498],[40.461,-13.0243,0.0],[40.4526,-13.0249,2.2729],[40.4437,-13.0296,2.8772],[40.4399,-13.0296,2.5962],[40.4412,-13.0254,1.499],[40.4374,-13.0279,0.4577],[40.4326,-13.0285,3.5913],[40.4357,-13.0279,0.4577],[40.4393,-13.0246,0.6047],[40.4382,-13.0224,1.1797],[40.4412,-13.0171,1.9515],[40.4415,-13.0135,3.0341],[40.434,-13.004,0.0],[40.4326,-12.9965,2.4913],[40.4299,-12.9962,0.7273],[40.4315,-12.9954,0.7273],[40.4321,-12.9912,0.0],[40.4138,-12.9765,2.0788],[40.4132,-12.9735,0.0],[40.4104,-12.9715,0.0],[40.4101,-12.9674,0.7214],[40.4051,-12.961,0.0],[40.4035,-12.9474,2.2097],[40.4129,-12.9279,1.1585],[40.4104,-12.9213,3.8221],[40.4079,-12.9213,0.375],[40.4074,-12.9232,5.303],[40.4054,-12.9224,2.3919],[40.4063,-12.9207,2.046],[40.4115,-12.9196,0.0],[40.414,-12.9226,0.7978],[40.4154,-12.9224,1.2279],[40.4129,-12.914,4.4295],[40.4157,-12.9071,1.1352],[40.4132,-12.9065,3.3715],[40.4096,-12.9099,3.6785],[40.4115,-12.9054,1.5199],[40.4149,-12.9049,0.5],[40.4179,-12.9065,2.918],[40.4165,-12.9118,0.0],[40.4176,-12.916,4.4719],[40.429,-12.9182,0.4893],[40.4296,-12.9121,1.4185],[40.4332,-12.9118,1.2315],[40.4321,-12.9082,0.686],[40.4354,-12.9062,2.1203],[40.4388,-12.8996,0.0],[40.4512,-12.8901,2.7137],[40.4532,-12.8871,0.917],[40.4607,-12.8829,4.4425],[40.4715,-12.8807,2.5192],[40.4804,-12.8804,2.6494],[40.4896,-12.8837,0.0],[40.4912,-12.8801,3.9194],[40.4874,-12.8787,1.4412],[40.4888,-12.8782,1.4412],[40.4921,-12.8801,2.0751],[40.4918,-12.8832,0.0],[40.4957,-12.884,6.3516],[40.5004,-12.8876,3.7089],[40.5038,-12.894,4.2977],[40.5026,-12.9087,2.3403],[40.5004,-12.9132,4.0787],[40.5029,-12.9201,0.0],[40.5021,-12.9249,0.0],[40.5096,-12.9296,0.0],[40.5129,-12.9271,6.3226],[40.5137,-12.9232,12.2464],[40.5165,-12.9201,0.0],[40.5176,-12.9096,5.0532],[40.5213,-12.904,9.0419],[40.524,-12.9029,6.2185],[40.5282,-12.8979,11.0459],[40.5301,-12.8932,8.5654],[40.5313,-12.8774,1.0548],[40.5432,-12.8585,0.0],[40.5471,-12.844,2.5001],[40.5465,-12.8421,1.7697],[40.5429,-12.8424,0.0],[40.5407,-12.8376,0.0],[40.5421,-12.834,4.5324],[40.5451,-12.834,0.0],[40.5438,-12.8287,3.035],[40.546,-12.8304,0.4761],[40.5468,-12.8287,2.8866],[40.5488,-12.8326,0.0],[40.5488,-12.8371,0.0],[40.5504,-12.8371,0.9351],[40.5549,-12.8318,6.0268],[40.5624,-12.8282,0.0],[40.5646,-12.824,2.7585],[40.5638,-12.821,6.6209],[40.5657,-12.8201,0.0],[40.5615,-12.8188,1.8495],[40.5601,-12.8163,2.9599],[40.5624,-12.8099,2.8089],[40.5599,-12.8076,0.0],[40.5599,-12.8057,2.7388],[40.5638,-12.8029,1.0193],[40.5612,-12.799,5.0135],[40.5615,-12.7968,0.0],[40.5635,-12.7968,0.0],[40.5632,-12.7943,2.8965],[40.5543,-12.7837,3.4648],[40.5515,-12.7829,2.8445],[40.5532,-12.7818,0.5],[40.5513,-12.7793,0.5],[40.5438,-12.7768,2.4732],[40.5471,-12.7765,1.3525],[40.5462,-12.7682,3.4463],[40.539,-12.7668,2.8084],[40.5465,-12.7671,0.5],[40.5518,-12.7774,1.2904],[40.5599,-12.7843,5.3049],[40.5629,-12.7893,0.0],[40.5638,-12.7879,1.8358],[40.5649,-12.7888,0.0],[40.5674,-12.7943,4.4863],[40.5724,-12.7971,3.1659],[40.5715,-12.8049,0.72],[40.5788,-12.8079,6.3038],[40.5815,-12.8126,0.0],[40.5799,-12.8138,0.7723],[40.5799,-12.8165,0.0],[40.5838,-12.8151,2.1528],[40.5868,-12.811,4.2033],[40.5968,-12.8071,2.9624],[40.6004,-12.8085,0.0],[40.6107,-12.8032,0.0],[40.6199,-12.7896,0.0],[40.6279,-12.7724,0.0],[40.6271,-12.7679,0.0],[40.6293,-12.7638,0.0],[40.6301,-12.7468,0.0],[40.6224,-12.7496,8.8582],[40.621,-12.7496,8.8582],[40.621,-12.7476,0.0],[40.6174,-12.749,0.0],[40.6157,-12.761,0.5],[40.6149,-12.759,0.5],[40.6135,-12.7593,1.3986],[40.6154,-12.756,0.5],[40.6146,-12.749,0.9393],[40.6121,-12.7485,0.8591],[40.6071,-12.754,0.7203],[40.6057,-12.7643,1.8043],[40.6026,-12.7671,4.8659],[40.6037,-12.7612,4.3814],[40.6057,-12.7593,1.0973],[40.6032,-12.7601,4.3814],[40.6032,-12.7579,0.0],[40.5999,-12.759,6.8607],[40.6035,-12.7554,0.0],[40.6065,-12.7471,0.0],[40.6074,-12.7385,2.1152],[40.6151,-12.7335,0.0],[40.616,-12.7296,5.4607],[40.6126,-12.7185,3.6884],[40.6099,-12.7174,6.4656],[40.6007,-12.7057,0.0],[40.5968,-12.7046,3.2069],[40.5954,-12.7076,1.9455],[40.5938,-12.7074,0.0],[40.5835,-12.7163,6.7272],[40.5732,-12.7165,0.0],[40.5676,-12.7212,2.781],[40.5687,-12.7251,0.5],[40.5799,-12.7237,2.4182],[40.5812,-12.7251,0.5],[40.5857,-12.7368,2.8676],[40.5843,-12.7388,1.838],[40.5854,-12.7429,1.8361],[40.5835,-12.7446,2.5882],[40.5838,-12.7482,2.1886],[40.5818,-12.7518,4.6815],[40.5799,-12.7524,3.1823],[40.5801,-12.7512,5.4582],[40.5826,-12.7499,1.776],[40.5821,-12.7343,0.5],[40.5757,-12.7282,0.5],[40.5701,-12.7282,3.7136],[40.5668,-12.7265,3.454],[40.5638,-12.7215,2.5955],[40.566,-12.717,0.0],[40.5525,-12.719,4.6266],[40.5476,-12.7213,8.9427],[40.543,-12.7325,15.3913],[40.5284,-12.7315,26.7762],[40.5168,-12.7409,32.6476],[40.503,-12.7474,41.3793],[40.4987,-12.7541,50.3961],[40.4881,-12.7645,23.6193],[40.4718,-12.7675,38.7433],[40.447,-12.7603,67.1927],[40.435,-12.7601,78.8193],[40.4131,-12.7669,102.6351],[40.4017,-12.7686,136.9783],[40.3101,-12.7597,150.8941],[40.2842,-12.7597,177.9139],[40.265,-12.7578,137.2679],[40.2515,-12.7516,126.4098],[40.2393,-12.7315,86.3176],[40.2306,-12.7274,79.83],[40.2226,-12.7263,75.2223],[40.2164,-12.7195,72.1429],[40.2054,-12.7289,80.7585],[40.18,-12.7283,93.8213],[40.162,-12.7486,138.5629],[40.1438,-12.7571,179.5491],[40.1303,-12.7666,266.0327],[40.1162,-12.7801,291.9586],[40.0997,-12.7918,268.3578],[40.0448,-12.8412,303.8173],[40.0429,-12.842,312.4393],[40.025,-12.8338,280.1796],[40.0252,-12.8351,286.5117],[40.0058,-12.8425,275.4268],[40.0043,-12.8588,299.3895],[40.0085,-12.8671,298.0079],[40.0152,-12.8746,285.8752],[40.0149,-12.8973,270.3632],[40.0208,-12.904,264.1979],[40.0405,-12.9025,259.817],[40.0544,-12.9038,244.2211],[40.075,-12.9115,216.8344],[40.0793,-12.9164,210.0456],[40.089,-12.9148,206.7169],[40.1008,-12.9246,193.7089],[40.1117,-12.9243,185.0933],[40.1177,-12.9294,188.6042],[40.1175,-12.9443,194.8119],[40.1152,-12.9553,205.3841],[40.1469,-12.9838,120.4293],[40.1574,-12.9842,122.9511],[40.1622,-12.9798,118.3039],[40.1953,-12.9822,77.6232],[40.2065,-12.9879,73.8561],[40.2066,-12.9928,87.2727],[40.198,-12.9972,93.2077],[40.1948,-13.0024,106.0148],[40.1899,-13.0023,112.9804],[40.1864,-13.0126,118.8089],[40.1998,-13.0526,250.3827],[40.2276,-13.1195,168.4196],[40.2311,-13.1167,163.0966],[40.2345,-13.1106,160.5122],[40.246,-13.1019,141.8379],[40.2488,-13.097,131.1367],[40.2552,-13.0975,120.4248],[40.2597,-13.092,109.49],[40.2911,-13.0885,89.2525],[40.305,-13.0768,67.9285],[40.3109,-13.0689,64.1872],[40.3106,-13.0605,65.0754],[40.3189,-13.0572,62.0055],[40.3333,-13.0554,61.8551],[40.3403,-13.0563,64.5882],[40.3485,-13.0615,55.2559],[40.3621,-13.0739,96.1983],[40.373,-13.0713,77.8326],[40.3924,-13.0785,54.057],[40.3961,-13.0894,44.0515],[40.4077,-13.1415,50.7364]]],
[[[40.4162,-12.9251,0.4207],[40.4151,-12.924,0.0],[40.4149,-12.9263,0.0],[40.4157,-12.9263,0.0],[40.4162,-12.9251,0.4207]]],
[[[40.5738,-12.8079,0.0],[40.5729,-12.8071,0.0],[40.5732,-12.8099,0.0],[40.5754,-12.8112,0.0],[40.5757,-12.8101,0.0],[40.5738,-12.8079,0.0]]],
[[[40.5485,-12.7749,1.0294],[40.5471,-12.7743,0.5],[40.5474,-12.7765,1.3525],[40.5488,-12.7762,1.0294],[40.5485,-12.7749,1.0294]]],
[[[40.6115,-12.7432,0.0],[40.6104,-12.7424,0.0],[40.6087,-12.7449,0.0],[40.6096,-12.7449,0.0],[40.6115,-12.7432,0.0]]],
[[[40.5824,-12.7399,0.5],[40.5826,-12.7432,3.0589],[40.5835,-12.7435,3.0589],[40.5846,-12.7401,1.0315],[40.5824,-12.7399,0.5]]]]}
,"properties": {"GID_2": "MOZ.1.14_1","GID_0": "MOZ","country": "Mozambique","GID_1": "MOZ.1_1","province": "CaboDelgado","NL_NAME_1": "NA","county": "Pemba","VARNAME_2": "Pemba-Metuge","NL_NAME_2": "NA","TYPE_2": "Distrito","ENGTYPE_2": "District","CC_2": "NA","HASC_2": "MZ.CD.PM","name": "Pemba.county","area_km2": 1697.925,"hist_schema_id": "Elevation0-9000","hist_area_km2": {"0": 262.864,"25": 310.963,"50": 235.369,"75": 204.295,"100": 194.695,"125": 118.094,"150": 72.708,"175": 72.559,"200": 64.147,"225": 47.162,"250": 36.48,"275": 34.808,"300": 34.955,"325": 8.579,"350": 0.165,"375": 0.062,"400": 0.021}}}