{"type":"Feature","properties":{"GID_3":"MOZ.8.13.1_1","GID_0":"MOZ","country":"Mozambique","GID_1":"MOZ.8_1","province":"Nassa","NL_NAME_1":"NA","GID_2":"MOZ.8.13_1","county":"N'gauma","NL_NAME_2":"NA","city":"Itepela","VARNAME_3":"NA","NL_NAME_3":"NA","TYPE_3":"Localidad","ENGTYPE_3":"Locality","CC_3":"NA","HASC_3":"NA","name":"Itepela.city"},
"geometry":{"type": "MultiPolygon","coordinates": [[[[35.4728,-13.6332,912.4452],[35.494,-13.6553,945.334],[35.4793,-13.6754,952.7755],[35.53,-13.7349,1003.9647],[35.5164,-13.7916,1068.7471],[35.6147,-13.8332,920.0556],[35.6111,-13.8524,847.7417],[35.6599,-13.8939,870.8897],[35.6875,-13.9237,828.0732],[35.6875,-13.9535,776.2902],[35.6937,-13.9714,775.5562],[35.7233,-13.953,749.2026],[35.7391,-13.9173,718.0036],[35.7417,-13.9007,746.3912],[35.7433,-13.8992,726.3694],[35.7578,-13.8879,737.5964],[35.7704,-13.8879,719.237],[35.826,-13.837,713.9548],[35.8393,-13.8231,703.4224],[35.8503,-13.8223,708.5506],[35.8727,-13.8006,688.4901],[35.9123,-13.8334,669.3018],[35.9363,-13.8283,692.2115],[35.9624,-13.8283,668.8647],[35.9734,-13.8214,678.532],[35.9771,-13.8133,679.3877],[36.0069,-13.8133,654.2537],[36.0161,-13.8044,659.8275],[36.0295,-13.8044,657.1371],[36.053,-13.7865,628.2107],[36.0554,-13.7794,648.4094],[36.0329,-13.7357,659.3831],[36.0038,-13.7328,668.1962],[35.9701,-13.7179,681.094],[35.9653,-13.7087,690.5784],[35.9424,-13.706,714.5002],[35.9292,-13.7012,744.4689],[35.9066,-13.6858,791.8],[35.8718,-13.6702,832.3782],[35.7674,-13.6374,810.6036],[35.7643,-13.6255,852.8412],[35.7643,-13.6046,1018.1613],[35.709,-13.5926,915.0374],[35.6691,-13.5807,843.4706],[35.6169,-13.5504,800.4264],[35.6025,-13.5597,817.0015],[35.5916,-13.5603,836.2606],[35.5291,-13.6008,895.4155],[35.5112,-13.6099,897.1868],[35.5047,-13.6111,897.6397],[35.4782,-13.6278,921.0455],[35.4728,-13.6332,912.4452]]]]}}