{"type": "Feature","bbox": [34.7104,-12.6242,35.1751,-12.2828],"geometry": {"type": "MultiPolygon","coordinates": [[[[34.7104,-12.5059,480.3886],[34.7129,-12.5087,475.8087],[34.7104,-12.5107,475.5166],[34.7118,-12.5157,476.3036],[34.7146,-12.5165,475.8605],[34.7179,-12.5204,476.2636],[34.7165,-12.521,477.2548],[34.7118,-12.5162,476.3036],[34.7132,-12.5193,479.1761],[34.7251,-12.5276,475.5881],[34.7335,-12.5357,474.5],[34.7501,-12.5424,476.4763],[34.7565,-12.549,477.9263],[34.754,-12.5554,474.5],[34.7546,-12.5604,476.3052],[34.7607,-12.564,483.5977],[34.7635,-12.5682,475.4107],[34.7629,-12.5701,474.5],[34.7679,-12.5743,476.0227],[34.769,-12.5813,486.7681],[34.7762,-12.5968,474.5],[34.7735,-12.6046,477.7789],[34.7693,-12.609,477.357],[34.7713,-12.6174,477.4459],[34.7693,-12.6242,476.2255],[34.7805,-12.6219,478.6539],[34.7869,-12.6223,480.1384],[34.7936,-12.6151,485.5449],[34.8101,-12.6105,488.7969],[34.8254,-12.599,496.0871],[34.8328,-12.6038,496.5938],[34.8494,-12.6092,500.1366],[34.861,-12.605,503.6475],[34.8875,-12.5661,521.8076],[34.906,-12.5512,529.7526],[34.9214,-12.5542,524.9374],[34.9492,-12.5243,543.2853],[34.9585,-12.5184,550.5059],[34.9709,-12.5273,545.3038],[34.9863,-12.5154,556.2459],[35.0017,-12.5303,565.8738],[35.0264,-12.5243,570.0469],[35.0515,-12.5059,601.845],[35.0943,-12.4438,856.7515],[35.1005,-12.4319,803.4648],[35.119,-12.4289,1034.4741],[35.1469,-12.4289,714.4399],[35.1427,-12.3944,693.3511],[35.1654,-12.3424,686.4977],[35.1655,-12.3368,688.03],[35.1751,-12.3024,678.1719],[35.1067,-12.3006,821.3957],[35.0789,-12.2828,798.544],[34.9832,-12.3215,791.3696],[34.8875,-12.3394,765.6171],[34.8504,-12.3931,734.3498],[34.7583,-12.4449,685.2252],[34.7104,-12.5059,480.3886]]]]}
,"properties": {"GID_3": "MOZ.8.2.3_1","GID_0": "MOZ","country": "Mozambique","GID_1": "MOZ.8_1","province": "Nassa","NL_NAME_1": "NA","GID_2": "MOZ.8.2_1","county": "Lago","NL_NAME_2": "NA","city": "Lunho","VARNAME_3": "NA","NL_NAME_3": "NA","TYPE_3": "Localidad","ENGTYPE_3": "Locality","CC_3": "NA","HASC_3": "NA","name": "Lunho.city","area_km2": 953.4097,"hist_schema_id": "Elevation0-9000","hist_area_km2": {"475": 15.149,"500": 33.8164,"525": 47.5597,"550": 60.7268,"575": 65.6152,"600": 60.8155,"625": 51.9369,"650": 47.7581,"675": 52.3588,"700": 69.2215,"725": 61.0426,"750": 71.0885,"775": 87.0816,"800": 66.2102,"825": 59.1684,"850": 50.1389,"875": 32.9913,"900": 15.9467,"925": 2.7336,"950": 0.4141,"975": 0.2071,"1000": 0.1656,"1025": 0.1864,"1050": 0.2071,"1075": 0.1449,"1100": 0.0207,"1125": 0.1656,"1150": 0.0828,"1175": 0.1035,"1200": 0.0621,"1225": 0.0621,"1250": 0.0621,"1275": 0.0621,"1300": 0.0207,"1325": 0.0621,"1350": 0.0207}}}