{"type":"Feature","properties":{"GID_2":"MOZ.4.2_1","GID_0":"MOZ","country":"Mozambique","GID_1":"MOZ.4_1","province":"Manica","NL_NAME_1":"NA","county":"Gondola","VARNAME_2":"NA","NL_NAME_2":"NA","TYPE_2":"Distrito","ENGTYPE_2":"District","CC_2":"NA","HASC_2":"MZ.MN.GO","name":"Gondola.county"},
"geometry":{"type": "MultiPolygon","coordinates": [[[[33.7408,-19.5987,108.1946],[33.9363,-19.597,147.6802],[33.9382,-19.2428,179.8384],[34.0319,-18.9995,218.773],[34.0444,-18.9632,259.3723],[34.0543,-18.9467,150.2984],[34.0391,-18.9211,213.2628],[34.0282,-18.9209,164.928],[34.0229,-18.917,132.6731],[34.0162,-18.9167,148.3866],[34.0145,-18.9215,145.8142],[34.0104,-18.9257,141.1087],[34.0056,-18.9199,151.5615],[33.951,-18.8863,168.8741],[33.9359,-18.8741,216.3896],[33.9294,-18.8677,210.8027],[33.9256,-18.8598,212.2503],[33.9217,-18.848,217.8001],[33.9201,-18.8347,226.4898],[33.8904,-18.7869,239.0784],[33.872,-18.7845,282.4728],[33.8475,-18.7855,249.3653],[33.8363,-18.7834,296.7726],[33.8161,-18.7657,300.0814],[33.8041,-18.7441,284.9637],[33.7619,-18.7152,332.9942],[33.7522,-18.7166,323.2892],[33.7377,-18.7339,343.1932],[33.7161,-18.7307,340.2502],[33.6968,-18.722,347.1332],[33.6728,-18.7075,343.3192],[33.6477,-18.6748,346.6402],[33.6355,-18.6694,354.269],[33.6136,-18.6784,365.4633],[33.5842,-18.6874,375.2057],[33.5682,-18.6751,384.4446],[33.5104,-18.6655,396.915],[33.4878,-18.6632,397.8969],[33.4522,-18.6662,402.6434],[33.4411,-18.6879,428.7486],[33.4396,-18.7146,421.5533],[33.4316,-18.741,428.9761],[33.4332,-18.7643,478.0162],[33.4291,-18.7889,492.2734],[33.4316,-18.8286,534.1676],[33.4342,-18.8401,551.8604],[33.4323,-18.8566,575.3162],[33.4089,-18.9469,639.8475],[33.405,-18.9566,645.0331],[33.401,-18.9759,666.4122],[33.3953,-18.9816,685.0174],[33.3879,-18.9982,686.774],[33.3698,-19.03,648.8482],[33.3576,-19.0595,617.4257],[33.3369,-19.0758,607.6558],[33.332,-19.0891,599.631],[33.3242,-19.0965,598.9406],[33.3127,-19.101,608.8367],[33.2991,-19.1096,592.6003],[33.2909,-19.1195,580.6025],[33.2858,-19.1335,586.5994],[33.2759,-19.1452,577.7183],[33.2673,-19.1938,561.6895],[33.2732,-19.2061,563.0936],[33.278,-19.2113,560.9634],[33.2879,-19.216,572.8636],[33.2909,-19.2222,564.9563],[33.2864,-19.2336,553.0861],[33.29,-19.2441,561.4326],[33.2889,-19.2512,556.1487],[33.2929,-19.2693,549.21],[33.2822,-19.2692,559.6584],[33.2795,-19.2739,558.8073],[33.2875,-19.2779,565.0279],[33.2791,-19.2908,563.2188],[33.2916,-19.3007,566.4315],[33.3003,-19.3341,542.8129],[33.2999,-19.3454,549.7144],[33.329,-19.3595,543.3636],[33.3365,-19.3665,549.7391],[33.3457,-19.3792,531.1529],[33.3617,-19.3816,511.7531],[33.369,-19.3965,523.4673],[33.3879,-19.421,500.1304],[33.3943,-19.4268,493.6856],[33.404,-19.429,497.5934],[33.4055,-19.4427,514.1838],[33.4187,-19.4461,469.0858],[33.4319,-19.4563,469.3436],[33.4381,-19.4677,469.1342],[33.4428,-19.512,371.6239],[33.449,-19.5227,390.8475],[33.4556,-19.5266,397.1828],[33.4776,-19.5207,347.3022],[33.4915,-19.5221,348.212],[33.5073,-19.5274,365.794],[33.5125,-19.5332,219.7059],[33.5117,-19.5502,179.2937],[33.5194,-19.5581,153.5605],[33.5256,-19.5609,137.9437],[33.5279,-19.5792,112.3188],[33.5419,-19.5831,105.644],[33.5527,-19.5795,102.0078],[33.5893,-19.5769,110.2051],[33.6001,-19.5854,120.5914],[33.6068,-19.596,100.9365],[33.6162,-19.599,97.9423],[33.6242,-19.594,96.1228],[33.6312,-19.5822,103.4158],[33.649,-19.5799,93.9236],[33.6598,-19.6017,92.4056],[33.6709,-19.6058,96.0447],[33.702,-19.6051,94.682],[33.7209,-19.6194,96.5562],[33.7362,-19.6204,97.1623],[33.7422,-19.6179,92.2699],[33.7431,-19.6089,102.3668],[33.7408,-19.5987,108.1946]]]]}}