{"type": "Feature","bbox": [32.7399,-24.6392,33.4355,-23.6411],"geometry": {"type": "MultiPolygon","coordinates": [[[[32.9917,-24.478,25.3137],[32.9991,-24.4837,31.2439],[33.0158,-24.5052,29.925],[33.0348,-24.5195,21.7478],[33.0499,-24.5257,20.7934],[33.0529,-24.5292,22.6469],[33.0549,-24.5385,26.0246],[33.0551,-24.5517,25.3518],[33.0751,-24.5571,18.5202],[33.0923,-24.5571,23.0653],[33.0928,-24.5667,23.464],[33.0959,-24.5775,25.1503],[33.0999,-24.5804,24.9617],[33.1171,-24.5816,22.7649],[33.1291,-24.59,17.8716],[33.137,-24.6057,21.797],[33.1496,-24.616,22.8048],[33.2112,-24.6392,21.0122],[33.2337,-24.6323,14.3521],[33.2501,-24.6202,16.462],[33.2649,-24.6173,15.6503],[33.2781,-24.6228,12.4446],[33.282,-24.6217,19.8622],[33.2812,-24.6152,16.2888],[33.2744,-24.6013,20.0012],[33.283,-24.5562,14.4972],[33.3011,-24.5443,13.3757],[33.3082,-24.5378,13.1901],[33.3242,-24.5281,13.9794],[33.3687,-24.5165,7.1435],[33.3847,-24.4982,5.0],[33.4301,-24.4984,7.5],[33.4355,-24.4909,13.2628],[33.4275,-24.48,7.5],[33.4115,-24.4749,7.5],[33.3942,-24.4649,11.3024],[33.3764,-24.4465,12.2653],[33.3724,-24.4333,17.1346],[33.3454,-24.3692,23.7497],[33.3304,-24.3414,27.7581],[33.3266,-24.3362,27.349],[33.2978,-24.3112,29.54],[33.2811,-24.2883,31.1854],[33.2772,-24.2826,31.3221],[33.2755,-24.2754,35.0709],[33.2716,-24.2694,36.0473],[33.2612,-24.2428,35.3347],[33.3591,-24.1459,43.938],[33.3664,-23.788,54.6181],[33.3471,-23.7818,56.4663],[33.3267,-23.7697,55.6512],[33.2708,-23.7192,61.2894],[33.2606,-23.7068,60.8837],[33.2345,-23.6852,64.0351],[33.1651,-23.6513,67.207],[33.1559,-23.6497,66.8087],[33.1385,-23.6411,68.5143],[33.1186,-23.6508,66.5265],[33.1149,-23.6728,71.657],[33.0992,-23.7312,64.0634],[33.0386,-23.8795,56.7186],[33.0172,-23.9194,60.487],[33.0151,-23.9355,61.5172],[33.0079,-23.9523,58.643],[32.9986,-23.9498,58.4316],[32.9789,-23.9394,62.0256],[32.9111,-23.9997,64.5446],[32.914,-24.0035,64.7289],[32.8911,-24.0243,58.3328],[32.8357,-24.0924,58.6837],[32.7399,-24.191,45.5746],[32.7525,-24.2096,39.8454],[32.7669,-24.2227,39.6482],[32.7826,-24.2526,38.081],[32.8203,-24.3025,31.7239],[32.8401,-24.3374,35.3262],[32.8401,-24.3449,36.3163],[32.8429,-24.3561,34.0514],[32.8531,-24.3667,32.6134],[32.8538,-24.3785,33.1604],[32.8764,-24.4097,29.8021],[32.8825,-24.4365,31.328],[32.8873,-24.4459,29.529],[32.9009,-24.4514,34.1744],[32.9217,-24.4511,33.1431],[32.9307,-24.4483,30.163],[32.9565,-24.449,27.578],[32.9652,-24.451,24.4732],[32.9917,-24.478,25.3137]]]]}
,"properties": {"GID_2": "MOZ.2.6_1","GID_0": "MOZ","country": "Mozambique","GID_1": "MOZ.2_1","province": "Gaza","NL_NAME_1": "NA","county": "Guijá","VARNAME_2": "NA","NL_NAME_2": "NA","TYPE_2": "Distrito","ENGTYPE_2": "District","CC_2": "NA","HASC_2": "MZ.GA.GU","name": "Guijá.county","area_km2": 4212.955,"hist_schema_id": "Elevation0-9000","hist_area_km2": {"0": 98.229,"25": 1597.642,"50": 2192.883,"75": 324.201}}}