{"type": "Feature","bbox": [34.4694,-19.2576,34.8455,-18.6434],"geometry": {"type": "MultiPolygon","coordinates": [[[[34.6349,-18.6475,33.0223],[34.6348,-18.6535,32.6887],[34.6248,-18.6645,31.59],[34.6185,-18.6691,31.1992],[34.6212,-18.6804,30.9572],[34.6208,-18.6906,29.9003],[34.61,-18.6988,28.7522],[34.603,-18.708,28.2597],[34.6055,-18.7198,28.3151],[34.6018,-18.7297,27.0458],[34.6015,-18.7504,25.4056],[34.5937,-18.7588,24.6635],[34.5796,-18.7679,24.4797],[34.5434,-18.7873,22.9142],[34.537,-18.8094,21.7174],[34.5249,-18.8197,21.3907],[34.5155,-18.8197,22.4574],[34.5026,-18.8242,20.6601],[34.4908,-18.8368,20.0027],[34.4785,-18.8405,18.5749],[34.4694,-18.8645,18.0],[34.47,-18.8707,18.0],[34.4767,-18.8766,18.0],[34.4949,-18.8812,18.0],[34.5011,-18.8868,18.0],[34.5086,-18.8985,18.0],[34.5152,-18.903,18.0],[34.545,-18.9124,18.7844],[34.5464,-18.938,23.9553],[34.5416,-18.9468,23.1982],[34.5567,-18.9754,22.23],[34.5662,-18.9818,22.5609],[34.5678,-18.9851,19.4092],[34.5665,-18.9931,22.0897],[34.5602,-19.0093,20.3808],[34.5552,-19.0167,22.9447],[34.5595,-19.0279,19.7829],[34.5517,-19.0368,19.8729],[34.554,-19.0498,22.5285],[34.5498,-19.0615,21.2192],[34.5561,-19.0761,18.83],[34.5473,-19.0841,21.6465],[34.5541,-19.0933,21.3764],[34.5481,-19.0987,18.7077],[34.557,-19.1133,16.9797],[34.5549,-19.1289,19.8126],[34.5338,-19.1533,16.5561],[34.5342,-19.17,16.4874],[34.5514,-19.1675,20.7043],[34.5563,-19.1681,24.4206],[34.5623,-19.1714,25.4145],[34.5676,-19.1718,25.6491],[34.5729,-19.1701,27.5658],[34.5772,-19.1745,29.133],[34.5865,-19.1754,32.5043],[34.5953,-19.1819,34.0546],[34.6048,-19.1852,38.8034],[34.6453,-19.2377,93.5822],[34.6702,-19.2546,118.1477],[34.6719,-19.2576,110.139],[34.715,-19.2125,119.4281],[34.7332,-19.2052,117.9974],[34.7452,-19.2023,146.788],[34.7884,-19.1632,159.5378],[34.7862,-19.1272,167.5882],[34.8009,-19.1064,176.0649],[34.8081,-19.0909,182.7637],[34.8039,-19.0779,197.7912],[34.7951,-19.0643,196.1245],[34.7906,-19.0527,193.3724],[34.791,-19.0412,192.6292],[34.7874,-19.0109,192.9725],[34.7888,-18.9995,197.5215],[34.7946,-18.9872,206.667],[34.7887,-18.9458,229.1215],[34.8425,-18.8169,245.7591],[34.837,-18.78,268.0739],[34.8455,-18.7133,300.7709],[34.8385,-18.7165,278.1166],[34.8297,-18.7133,283.8088],[34.8176,-18.7117,257.3611],[34.7969,-18.7042,231.9314],[34.763,-18.6806,211.1683],[34.717,-18.6702,83.7643],[34.7069,-18.6629,78.2774],[34.6952,-18.6586,69.9616],[34.6897,-18.6509,63.6532],[34.6436,-18.6434,39.3338],[34.6349,-18.6475,33.0223]]]]}
,"properties": {"GID_3": "MOZ.9.11.2_1","GID_0": "MOZ","country": "Mozambique","GID_1": "MOZ.9_1","province": "Sofala","NL_NAME_1": "NA","GID_2": "MOZ.9.11_1","county": "Muanza","NL_NAME_2": "NA","city": "Muanza","VARNAME_3": "NA","NL_NAME_3": "NA","TYPE_3": "Localidad","ENGTYPE_3": "Locality","CC_3": "NA","HASC_3": "NA","name": "Muanza.city","area_km2": 1617.731,"hist_schema_id": "Elevation0-9000","hist_area_km2": {"25": 275.529,"50": 171.724,"75": 155.111,"100": 203.692,"125": 167.076,"150": 153.876,"175": 143.321,"200": 132.837,"225": 140.944,"250": 54.588,"275": 12.789,"300": 5.863,"325": 0.382}}}