{"type":"Feature","properties":{"GID_2":"MOZ.7.17_1","GID_0":"MOZ","country":"Mozambique","GID_1":"MOZ.7_1","province":"Nampula","NL_NAME_1":"NA","county":"Nampula","VARNAME_2":"NA","NL_NAME_2":"NA","TYPE_2":"Distrito","ENGTYPE_2":"District","CC_2":"NA","HASC_2":"NA","name":"Nampula.county"},
"geometry":{"type": "MultiPolygon","coordinates": [[[[39.5954,-15.0162,244.9701],[39.6078,-15.007,235.0492],[39.5914,-14.9988,263.7704],[39.587,-14.9946,263.534],[39.5781,-14.9985,248.6813],[39.5736,-14.9986,243.3352],[39.5524,-14.9921,286.1514],[39.5479,-14.9922,258.7708],[39.5435,-14.9959,266.7481],[39.5359,-14.9925,265.6882],[39.521,-14.9948,267.11],[39.4946,-15.0095,269.7123],[39.4808,-15.0047,268.2899],[39.4691,-15.0073,271.8849],[39.4556,-15.0078,276.132],[39.4375,-15.0031,286.7213],[39.4319,-15.0103,305.4175],[39.4183,-15.0077,301.613],[39.4112,-14.9983,300.5222],[39.4046,-14.9995,299.4706],[39.3966,-15.0036,317.9986],[39.3796,-14.9936,331.7155],[39.3653,-14.9894,333.4888],[39.3568,-14.9892,338.942],[39.3527,-14.9821,357.736],[39.3486,-14.9683,369.4358],[39.3375,-14.9519,388.8146],[39.3275,-14.9511,396.4047],[39.3179,-14.9535,401.2849],[39.3038,-14.9536,417.526],[39.2664,-14.9114,405.4775],[39.2626,-14.902,378.2839],[39.257,-14.8986,390.5362],[39.2478,-14.8967,406.5016],[39.2347,-14.8998,441.994],[39.2314,-14.8967,447.8054],[39.2249,-14.8743,396.6541],[39.1962,-14.89,420.7728],[39.1913,-14.8872,427.7741],[39.1818,-14.8899,439.0557],[39.165,-14.8763,470.0305],[39.1594,-14.8638,404.2019],[39.1516,-14.8575,388.8942],[39.1442,-14.856,397.3303],[39.1279,-14.8573,395.0992],[39.1202,-14.8544,396.4647],[39.112,-14.8481,406.3471],[39.102,-14.8432,408.2269],[39.0907,-14.8438,416.5936],[39.0709,-14.865,449.401],[39.0636,-14.8701,454.6438],[39.0545,-14.8714,467.1304],[39.0418,-14.8728,471.7538],[39.0314,-14.8718,464.3901],[39.0001,-14.8631,478.2162],[38.98,-14.8696,477.7307],[38.9479,-14.8725,492.9302],[38.9289,-14.8795,517.3006],[38.9207,-14.871,512.9736],[38.9128,-14.867,519.8749],[38.8946,-14.8693,531.7507],[38.8807,-14.8734,524.0978],[38.8684,-14.874,545.8945],[38.8464,-14.8689,554.9231],[38.8257,-14.8743,570.1097],[38.8087,-14.8806,571.137],[38.8062,-14.8929,547.2352],[38.799,-14.9041,554.3762],[38.7902,-14.9049,543.5138],[38.7884,-14.9026,538.1636],[38.7724,-14.9246,810.9475],[38.7786,-14.9356,588.6016],[38.7766,-14.9458,545.3799],[38.7838,-14.9494,541.6406],[38.7944,-14.9652,508.5929],[38.802,-14.9905,474.3291],[38.8006,-14.9986,459.2538],[38.8141,-15.0176,434.5031],[38.8154,-15.0253,437.2157],[38.8058,-15.0228,434.7829],[38.7962,-15.0158,447.4916],[38.7739,-15.0085,436.1438],[38.7612,-15.0076,454.4288],[38.7469,-15.0142,447.1246],[38.7349,-15.0076,462.4772],[38.7273,-15.0132,469.5065],[38.7219,-15.0204,489.433],[38.7108,-15.0245,485.2062],[38.6964,-15.0254,522.1396],[38.6756,-15.0336,557.5732],[38.6656,-15.0412,564.5704],[38.652,-15.0556,563.7451],[38.646,-15.0663,511.7463],[38.6549,-15.0701,505.7562],[38.6638,-15.0782,499.2965],[38.6736,-15.0825,505.1817],[38.693,-15.0825,504.1444],[38.717,-15.0894,502.8617],[38.7286,-15.1001,479.8748],[38.7346,-15.1083,475.5787],[38.7423,-15.1101,476.8538],[38.7617,-15.1107,482.8203],[38.7698,-15.1142,469.459],[38.7738,-15.1303,460.7508],[38.7802,-15.1369,464.1709],[38.7796,-15.1506,472.2075],[38.7756,-15.1597,443.6742],[38.7558,-15.1749,439.9695],[38.7543,-15.1789,442.7765],[38.7669,-15.2088,406.836],[38.7669,-15.2196,417.3009],[38.7684,-15.2236,407.3163],[38.7844,-15.2309,397.5816],[38.7918,-15.2302,397.9203],[38.801,-15.2325,405.7954],[38.8195,-15.2271,396.652],[38.8255,-15.2289,386.7764],[38.8291,-15.2418,399.6305],[38.8418,-15.2503,392.3272],[38.8478,-15.2519,374.5078],[38.8601,-15.2604,378.5352],[38.8752,-15.2619,362.5614],[38.8829,-15.2719,359.7329],[38.8912,-15.2784,354.1108],[38.9479,-15.2907,341.5818],[38.9694,-15.3149,330.9486],[38.9775,-15.32,325.0761],[38.9898,-15.3316,321.2484],[38.9989,-15.3346,317.7864],[39.0091,-15.3351,323.0795],[39.0034,-15.3494,311.0729],[39.0075,-15.3578,314.6941],[39.0017,-15.3649,311.799],[38.9943,-15.3806,307.2425],[38.9935,-15.3857,304.0489],[38.9947,-15.3904,293.3581],[39.0103,-15.3876,293.31],[39.0186,-15.3883,286.8148],[39.0204,-15.3906,299.0897],[39.0207,-15.3968,284.1816],[39.0235,-15.4001,273.8246],[39.0272,-15.4025,289.4182],[39.041,-15.4063,271.6411],[39.0471,-15.393,279.6121],[39.0626,-15.3776,326.3384],[39.0904,-15.3806,290.2483],[39.1012,-15.3794,272.2661],[39.1276,-15.3688,230.7636],[39.1315,-15.3693,248.8823],[39.1366,-15.3729,235.3805],[39.1409,-15.3706,228.7761],[39.1509,-15.3722,233.1023],[39.1608,-15.3713,233.2638],[39.1736,-15.3823,231.9666],[39.2315,-15.4152,206.8267],[39.234,-15.4374,204.8702],[39.2375,-15.4337,209.652],[39.2416,-15.4362,204.0142],[39.2473,-15.4349,209.2623],[39.2668,-15.4183,222.8023],[39.2828,-15.4095,234.9225],[39.2881,-15.4088,233.8041],[39.3005,-15.4123,266.591],[39.3098,-15.4104,277.04],[39.3246,-15.4154,285.6784],[39.3295,-15.4006,296.5766],[39.3346,-15.395,302.7184],[39.3402,-15.3939,301.7984],[39.3478,-15.3956,299.3159],[39.3635,-15.4054,272.4325],[39.3706,-15.4059,254.0297],[39.3754,-15.4016,257.9105],[39.3671,-15.3975,274.801],[39.3607,-15.3841,343.7147],[39.3611,-15.379,275.1149],[39.3787,-15.3701,291.648],[39.3814,-15.3639,292.5807],[39.3815,-15.3561,322.2783],[39.3764,-15.3479,329.7454],[39.3835,-15.3435,350.2949],[39.3962,-15.3256,312.3538],[39.4043,-15.3294,296.7151],[39.4197,-15.3412,283.2947],[39.4236,-15.3424,280.1224],[39.4332,-15.3413,272.4572],[39.4454,-15.3262,265.8241],[39.451,-15.3216,260.2298],[39.4752,-15.3236,260.1677],[39.4898,-15.3132,261.8336],[39.4929,-15.3055,262.9011],[39.4924,-15.2991,279.1454],[39.4895,-15.2867,273.0922],[39.4819,-15.2765,276.8804],[39.4833,-15.2556,300.354],[39.4807,-15.2423,312.5089],[39.4789,-15.2086,325.9318],[39.5028,-15.2069,305.3636],[39.5037,-15.1862,308.6202],[39.5227,-15.1728,279.7457],[39.5421,-15.1642,252.725],[39.5516,-15.1551,243.0933],[39.5588,-15.1519,247.1193],[39.5685,-15.1516,242.1523],[39.5792,-15.1541,235.6786],[39.5853,-15.1533,235.3343],[39.5873,-15.1414,251.6441],[39.5852,-15.1338,260.9885],[39.5845,-15.117,285.9104],[39.5782,-15.1058,282.2646],[39.5679,-15.0953,303.0744],[39.566,-15.081,323.2732],[39.5573,-15.0598,283.6996],[39.579,-15.0318,263.3871],[39.5954,-15.0162,244.9701]]]]}}