{"type":"Feature","properties":{"GID_3":"MOZ.11.9.2_1","GID_0":"MOZ","country":"Mozambique","GID_1":"MOZ.11_1","province":"Zambezia","NL_NAME_1":"NA","GID_2":"MOZ.11.9_1","county":"Milange","NL_NAME_2":"NA","city":"Milange","VARNAME_3":"NA","NL_NAME_3":"NA","TYPE_3":"Localidad","ENGTYPE_3":"Locality","CC_3":"NA","HASC_3":"NA","name":"Milange.city"},
"geometry":{"type": "MultiPolygon","coordinates": [[[[35.8035,-15.9566,685.462],[35.8026,-15.976,680.3973],[35.804,-15.9808,674.3875],[35.8059,-15.9817,674.0893],[35.8063,-15.9901,671.1762],[35.8108,-15.9941,671.2879],[35.815,-15.9935,669.9141],[35.817,-15.9954,669.1942],[35.8196,-16.0144,665.5729],[35.8186,-16.0242,663.6095],[35.8144,-16.0307,661.8466],[35.7787,-16.0499,676.2927],[35.7684,-16.0584,645.2855],[35.7667,-16.0665,635.9363],[35.7599,-16.072,639.8195],[35.7532,-16.0732,636.8937],[35.7505,-16.0721,637.1821],[35.7483,-16.0739,640.0427],[35.7448,-16.0733,641.4075],[35.7376,-16.0766,630.0617],[35.7343,-16.0807,632.5277],[35.7206,-16.0864,632.3423],[35.7186,-16.0904,636.4467],[35.7112,-16.091,630.1066],[35.7092,-16.0995,634.7622],[35.7051,-16.1009,627.8412],[35.6964,-16.0988,624.3896],[35.691,-16.1013,619.3801],[35.6857,-16.1002,621.0389],[35.6841,-16.1036,616.2074],[35.6822,-16.104,613.3112],[35.6804,-16.1021,615.1044],[35.6837,-16.0987,617.3082],[35.6775,-16.0945,632.8911],[35.6771,-16.0972,615.1171],[35.6746,-16.0986,615.6288],[35.6724,-16.0938,621.6205],[35.6596,-16.1015,606.8577],[35.6296,-16.1131,595.3541],[35.6249,-16.1211,596.5115],[35.6206,-16.1207,603.7184],[35.6185,-16.1247,594.2646],[35.6059,-16.1243,600.1852],[35.6031,-16.1267,589.1566],[35.5955,-16.128,595.9512],[35.5935,-16.1321,589.9043],[35.5839,-16.1296,584.5003],[35.5791,-16.1234,585.7802],[35.5751,-16.126,586.4496],[35.5693,-16.1252,585.2377],[35.5709,-16.1302,581.4834],[35.5697,-16.1324,582.8276],[35.5643,-16.1287,585.2849],[35.5589,-16.1204,580.5464],[35.5571,-16.1202,585.4252],[35.555,-16.1221,584.3213],[35.5559,-16.1247,578.7468],[35.5525,-16.1325,582.9233],[35.5434,-16.1357,578.9518],[35.5439,-16.1394,577.4706],[35.542,-16.1442,578.5269],[35.5443,-16.1491,574.8229],[35.5658,-16.1502,598.5764],[35.5689,-16.1551,608.9825],[35.5642,-16.1902,651.7084],[35.5703,-16.2185,659.3281],[35.5734,-16.2262,660.9171],[35.5746,-16.2536,681.6431],[35.59,-16.237,661.5879],[35.6143,-16.2487,596.0718],[35.642,-16.2723,543.0739],[35.7012,-16.2697,628.3287],[35.7428,-16.3158,603.3624],[35.8002,-16.3265,576.0018],[35.8168,-16.3487,522.242],[35.8533,-16.3748,476.7931],[35.8765,-16.399,456.6805],[35.8843,-16.4217,426.5156],[35.8874,-16.4455,382.6189],[35.9065,-16.4534,377.3027],[35.9149,-16.4615,371.5315],[35.9205,-16.4721,369.8333],[35.9177,-16.5032,351.2593],[35.926,-16.5174,348.1356],[35.9333,-16.5216,344.1269],[35.9426,-16.534,338.3737],[35.9523,-16.5546,348.3649],[35.9536,-16.563,350.3582],[35.9472,-16.5721,339.3442],[35.9518,-16.5823,346.3727],[35.9555,-16.6008,359.4054],[35.9555,-16.6226,349.5704],[35.9601,-16.6343,353.8214],[35.9645,-16.6404,346.407],[35.9645,-16.6439,331.3868],[35.9749,-16.6514,326.1624],[35.9818,-16.6469,332.5343],[35.9912,-16.6328,334.5317],[35.9994,-16.6257,337.0768],[36.022,-16.6159,346.6959],[36.0612,-16.5936,378.9773],[36.0741,-16.5913,386.0652],[36.1302,-16.5665,498.5045],[36.134,-16.5617,451.8926],[36.1362,-16.5551,431.4883],[36.1547,-16.5293,371.9646],[36.1605,-16.5236,378.0425],[36.1722,-16.5206,368.3573],[36.1801,-16.5142,357.304],[36.2364,-16.4975,342.3547],[36.2496,-16.4976,321.1953],[36.2596,-16.4939,322.4056],[36.279,-16.4975,303.813],[36.3039,-16.4897,295.5755],[36.3109,-16.4913,289.7374],[36.3206,-16.4823,296.0994],[36.3309,-16.4783,288.9948],[36.3309,-16.4704,303.478],[36.3023,-16.463,335.3716],[36.2789,-16.4597,361.2396],[36.2676,-16.4559,383.0464],[36.2541,-16.4426,362.908],[36.2576,-16.418,323.4598],[36.2667,-16.4089,293.6777],[36.2755,-16.404,309.1065],[36.2837,-16.4016,291.2823],[36.2903,-16.3921,297.3727],[36.2909,-16.3837,343.4571],[36.2963,-16.3791,359.8625],[36.3007,-16.3794,342.4098],[36.3049,-16.3767,319.2874],[36.3038,-16.3761,327.6988],[36.3218,-16.3695,329.3876],[36.3318,-16.3687,356.3125],[36.3158,-16.3531,307.6084],[36.2404,-16.2895,355.7747],[36.2353,-16.2805,400.6896],[36.2268,-16.2652,361.2244],[36.2225,-16.2463,390.1824],[36.2131,-16.2389,373.773],[36.2088,-16.2266,373.9131],[36.2064,-16.2098,371.8442],[36.1949,-16.2004,372.8034],[36.1966,-16.1948,368.8813],[36.1901,-16.1786,388.0344],[36.1965,-16.1651,408.6589],[36.2126,-16.1579,394.6058],[36.1511,-16.0968,415.6442],[36.1463,-16.0866,421.4364],[36.1639,-16.0702,442.4698],[36.1534,-16.0776,435.1045],[36.1343,-16.084,437.3118],[36.1085,-16.084,429.6819],[36.0866,-16.0629,440.6089],[36.0279,-16.0608,456.3506],[35.9994,-16.0476,469.231],[36.0023,-16.028,451.0297],[36.0147,-16.0011,546.19],[36.0116,-15.9832,690.3275],[36.0085,-15.9474,540.2554],[35.9974,-15.9109,595.0144],[36.0267,-15.894,588.8723],[36.0333,-15.855,656.7697],[36.026,-15.8479,660.6476],[36.0055,-15.8335,691.6099],[36.0055,-15.827,695.9965],[35.9825,-15.8134,718.4287],[35.9739,-15.7962,718.8174],[35.9588,-15.7864,682.9171],[35.9464,-15.7924,664.2595],[35.9371,-15.8103,667.1478],[35.9047,-15.8315,684.0204],[35.8968,-15.8334,681.58],[35.8197,-15.8305,673.0958],[35.8133,-15.9322,690.0161],[35.8114,-15.9294,685.6375],[35.804,-15.9459,684.0693],[35.8035,-15.9566,685.462]]]]}}