{"type": "Feature","bbox": [34.0028,-16.9011,34.534,-16.6048],"geometry": {"type": "MultiPolygon","coordinates": [[[[34.5074,-16.8639,96.005],[34.5074,-16.8528,87.8498],[34.5142,-16.837,76.9176],[34.5308,-16.8188,78.6416],[34.534,-16.8084,78.4889],[34.5335,-16.783,78.1742],[34.4798,-16.7612,79.6275],[34.4724,-16.7476,80.5629],[34.4606,-16.736,81.206],[34.4182,-16.7201,83.0206],[34.4028,-16.7168,84.2652],[34.3582,-16.7162,86.3994],[34.3239,-16.7131,87.8333],[34.3072,-16.7083,86.5],[34.2879,-16.6986,89.0139],[34.2674,-16.6938,89.9218],[34.2094,-16.694,95.854],[34.1983,-16.6917,93.8629],[34.172,-16.6801,95.8824],[34.1491,-16.6546,93.0],[34.1334,-16.6273,94.5],[34.1237,-16.6207,95.0],[34.0832,-16.6117,188.1056],[34.0681,-16.6048,97.0],[34.0362,-16.6144,104.7133],[34.0182,-16.6154,113.9414],[34.0082,-16.6138,104.969],[34.0048,-16.6112,100.6093],[34.007,-16.6201,102.5576],[34.0065,-16.632,192.0345],[34.0031,-16.6383,136.964],[34.0028,-16.6511,218.4122],[34.0536,-16.7248,413.8136],[34.0637,-16.7415,371.8346],[34.067,-16.7542,358.1255],[34.0729,-16.7636,278.2663],[34.0789,-16.7652,274.1714],[34.0796,-16.7698,264.3854],[34.0738,-16.7922,304.7289],[34.0723,-16.8079,341.5481],[34.0732,-16.819,304.8755],[34.0792,-16.8324,216.3731],[34.0969,-16.8557,170.2222],[34.0959,-16.8675,178.5397],[34.1018,-16.8838,186.0491],[34.1186,-16.9011,207.5976],[34.1494,-16.8933,187.4925],[34.1844,-16.8889,200.6926],[34.2066,-16.8827,251.3734],[34.2349,-16.8781,230.5124],[34.342,-16.8398,130.379],[34.3738,-16.8301,127.6396],[34.3941,-16.8263,119.0306],[34.4154,-16.8373,172.0807],[34.476,-16.8586,131.9873],[34.5018,-16.864,101.0711],[34.5074,-16.8639,96.005]]]]}
,"properties": {"GID_3": "MOZ.4.9.3_1","GID_0": "MOZ","country": "Mozambique","GID_1": "MOZ.4_1","province": "Manica","NL_NAME_1": "NA","GID_2": "MOZ.4.9_1","county": "Tambara","NL_NAME_2": "NA","city": "Nhacolo","VARNAME_3": "NA","NL_NAME_3": "NA","TYPE_3": "Localidad","ENGTYPE_3": "Locality","CC_3": "NA","HASC_3": "NA","name": "Nhacolo.city","area_km2": 944.1919,"hist_schema_id": "Elevation0-9000","hist_area_km2": {"75": 181.4247,"100": 172.6824,"125": 137.0441,"150": 113.4049,"175": 70.8946,"200": 44.8136,"225": 36.0265,"250": 28.0965,"275": 28.2215,"300": 27.2664,"325": 22.6991,"350": 19.474,"375": 15.5549,"400": 25.893,"425": 14.4194,"450": 4.2857,"475": 1.95,"500": 0.0406}}}