{"type": "Feature","bbox": [37.3635,-16.2981,38.027,-15.4604],"geometry": {"type": "MultiPolygon","coordinates": [[[[37.3819,-15.7017,563.1891],[37.3845,-15.7105,549.4746],[37.3793,-15.723,536.9603],[37.3856,-15.7231,544.3808],[37.388,-15.726,537.2684],[37.3741,-15.7482,524.1769],[37.3729,-15.7648,517.1776],[37.3678,-15.7808,567.0676],[37.3635,-15.7888,1004.8052],[37.4062,-15.8175,849.3616],[37.4274,-15.8359,627.4405],[37.4411,-15.8533,534.6998],[37.4501,-15.8698,608.7373],[37.478,-15.8901,1106.7059],[37.4959,-15.9102,578.1455],[37.5074,-15.9438,513.201],[37.5042,-15.9567,464.1966],[37.5081,-15.9645,457.9404],[37.5178,-15.9698,435.9139],[37.5393,-15.9719,424.7845],[37.5459,-15.976,413.7631],[37.5593,-15.9742,421.4127],[37.5801,-15.979,398.1887],[37.5974,-15.976,393.5953],[37.6098,-15.9717,382.3351],[37.6443,-15.976,385.3441],[37.6501,-15.9733,372.1948],[37.6589,-15.9747,370.5494],[37.6654,-15.9678,369.8047],[37.6773,-15.9702,367.016],[37.6843,-15.9734,361.3666],[37.6834,-15.9851,371.7258],[37.6735,-15.9924,364.4711],[37.6749,-16.0005,358.8958],[37.6721,-16.0088,354.3233],[37.6803,-16.0193,346.9558],[37.6818,-16.0255,345.4339],[37.6905,-16.0343,337.9092],[37.6963,-16.0368,340.9247],[37.7045,-16.0368,328.8406],[37.6981,-16.0585,320.2802],[37.6935,-16.0674,324.9938],[37.6857,-16.0739,341.5665],[37.707,-16.0819,299.4638],[37.7116,-16.0892,297.0481],[37.7177,-16.0933,300.8676],[37.7249,-16.0956,288.6325],[37.7299,-16.0996,275.345],[37.7384,-16.113,274.509],[37.729,-16.1215,276.9127],[37.7288,-16.1319,273.6379],[37.7235,-16.1347,291.4299],[37.7231,-16.1363,283.7267],[37.7278,-16.1566,283.949],[37.7266,-16.1572,280.8882],[37.7387,-16.169,264.5994],[37.7397,-16.178,248.976],[37.7539,-16.192,263.2706],[37.7826,-16.2021,233.0364],[37.7897,-16.2105,247.9233],[37.7962,-16.2132,227.8313],[37.8061,-16.2117,220.2991],[37.8324,-16.2208,225.8705],[37.8454,-16.239,221.2343],[37.854,-16.2442,222.1363],[37.8523,-16.2543,201.8676],[37.8639,-16.263,209.0317],[37.8674,-16.2598,201.8231],[37.8772,-16.2581,205.0966],[37.8861,-16.2607,197.4499],[37.8931,-16.2752,199.9986],[37.9009,-16.2788,217.1062],[37.9026,-16.2881,183.9773],[37.9078,-16.2981,176.7995],[37.9194,-16.2921,203.5965],[37.9298,-16.2824,230.4864],[37.9422,-16.2741,201.3708],[37.9482,-16.2635,179.4207],[37.9497,-16.2179,198.5374],[37.9562,-16.2028,199.2141],[37.9539,-16.1956,221.8043],[37.9463,-16.189,201.7868],[37.9414,-16.1648,219.3335],[37.9597,-16.1172,231.0585],[37.9733,-16.105,234.5287],[37.9887,-16.0998,248.5936],[37.9966,-16.0934,250.747],[38.0009,-16.0819,257.3898],[38.0145,-16.0618,275.5016],[38.02,-16.0438,297.9236],[38.005,-16.033,330.0626],[37.9921,-16.0148,371.5234],[37.9864,-16.0024,330.1301],[37.9948,-15.9904,311.9355],[37.9956,-15.9867,324.0922],[37.9925,-15.9812,317.703],[37.9922,-15.9752,321.472],[37.9945,-15.9725,326.4896],[37.9994,-15.9712,338.0472],[38.0053,-15.9635,351.7265],[38.0067,-15.9591,344.5139],[38.0064,-15.9389,381.8988],[38.0134,-15.9295,403.4288],[38.0129,-15.9233,388.9906],[38.0151,-15.9178,405.5149],[38.0065,-15.9034,411.778],[38.0037,-15.8883,374.1829],[38.0115,-15.8757,356.181],[38.027,-15.865,348.8678],[38.0261,-15.8596,341.7211],[38.0121,-15.8468,384.0352],[38.0048,-15.8427,368.5587],[38.0037,-15.8377,382.739],[38.009,-15.8123,458.5623],[38.0048,-15.8096,506.2692],[37.9994,-15.813,505.4107],[37.9843,-15.8115,426.4038],[37.9877,-15.7869,393.2226],[37.9863,-15.7668,375.1594],[37.9906,-15.7579,366.5103],[37.9987,-15.7488,366.2177],[38.0011,-15.75,359.3247],[38.0058,-15.7601,366.1769],[38.0085,-15.7592,368.1365],[38.0171,-15.7431,367.0955],[38.0062,-15.7301,374.9896],[37.9955,-15.7216,370.5555],[37.9947,-15.7168,382.2093],[37.9963,-15.7096,380.1857],[37.995,-15.7072,376.3812],[37.9885,-15.7073,381.4123],[37.9843,-15.702,386.5969],[37.9825,-15.6827,410.0648],[37.9771,-15.6751,412.0278],[37.9898,-15.6614,426.8188],[37.994,-15.652,440.5947],[37.9906,-15.6188,613.9474],[37.9744,-15.6015,589.5441],[37.9702,-15.5831,600.1885],[37.9638,-15.5787,581.8999],[37.962,-15.5738,553.0837],[37.9588,-15.5605,581.2204],[37.958,-15.5487,597.7324],[37.9519,-15.5356,619.5536],[37.9446,-15.5346,613.0219],[37.9308,-15.5286,577.5349],[37.9087,-15.5318,603.241],[37.8989,-15.5309,614.0132],[37.8938,-15.5269,599.6028],[37.8924,-15.5191,608.8906],[37.8952,-15.4979,615.0715],[37.8936,-15.4759,633.5972],[37.8858,-15.4647,637.8378],[37.8789,-15.4604,634.0815],[37.8593,-15.4698,632.2302],[37.8365,-15.4863,609.6508],[37.7946,-15.4992,556.9982],[37.7689,-15.5047,557.9591],[37.7402,-15.5183,583.7512],[37.7108,-15.523,617.9057],[37.6874,-15.5213,660.4401],[37.675,-15.5124,665.4421],[37.6376,-15.5004,652.8221],[37.6242,-15.5056,666.4697],[37.6092,-15.4857,719.8723],[37.5911,-15.4915,650.7682],[37.5886,-15.5011,630.0557],[37.5787,-15.5213,638.5247],[37.5632,-15.5213,650.4669],[37.5508,-15.5183,644.4662],[37.5259,-15.5422,698.1584],[37.5042,-15.5541,779.1835],[37.5013,-15.568,760.0954],[37.5013,-15.6065,644.6272],[37.4975,-15.6258,660.0093],[37.4844,-15.6528,664.0624],[37.4514,-15.6585,632.4763],[37.411,-15.6853,633.8994],[37.3819,-15.7017,563.1891]]]]}
,"properties": {"GID_3": "MOZ.11.1.2_1","GID_0": "MOZ","country": "Mozambique","GID_1": "MOZ.11_1","province": "Zambezia","NL_NAME_1": "NA","GID_2": "MOZ.11.1_1","county": "AltoMolocue","NL_NAME_2": "NA","city": "Sede(AltoMolocue)","VARNAME_3": "NA","NL_NAME_3": "NA","TYPE_3": "Localidad","ENGTYPE_3": "Locality","CC_3": "NA","HASC_3": "NA","name": "Sede(Alto_Molocue).city","area_km2": 3802.389,"hist_schema_id": "Elevation0-9000","hist_area_km2": {"175": 4.844,"200": 45.068,"225": 69.346,"250": 98.769,"275": 123.494,"300": 115.445,"325": 107.782,"350": 111.193,"375": 147.476,"400": 190.683,"425": 222.792,"450": 280.013,"475": 312.962,"500": 340.571,"525": 325.133,"550": 311.024,"575": 279.436,"600": 231.098,"625": 196.538,"650": 142.349,"675": 73.12,"700": 29.035,"725": 14.232,"750": 8.146,"775": 4.471,"800": 2.898,"825": 2.123,"850": 2.143,"875": 1.715,"900": 1.286,"925": 1.082,"950": 1.286,"975": 0.959,"1000": 0.796,"1025": 0.51,"1050": 0.408,"1075": 0.408,"1100": 0.388,"1125": 0.265,"1150": 0.306,"1175": 0.184,"1200": 0.184,"1225": 0.143,"1250": 0.163,"1275": 0.123}}}