{"type": "Feature","bbox": [38.4192,-13.5103,38.8258,-13.1439],"geometry": {"type": "MultiPolygon","coordinates": [[[[38.4216,-13.4269,556.6699],[38.4342,-13.4311,566.2021],[38.4627,-13.4495,604.9835],[38.4754,-13.4611,653.3253],[38.54,-13.4664,578.5518],[38.5965,-13.5103,1127.1584],[38.6433,-13.5036,1081.8386],[38.7041,-13.4916,510.539],[38.7015,-13.4911,515.8383],[38.6954,-13.4792,514.5715],[38.6831,-13.4673,547.1038],[38.6761,-13.4437,578.6509],[38.6755,-13.4354,560.892],[38.6877,-13.4237,549.8279],[38.6951,-13.4197,543.5132],[38.7058,-13.4081,535.3914],[38.7327,-13.3911,521.7655],[38.7538,-13.3712,509.4574],[38.7643,-13.3588,507.4083],[38.7717,-13.3539,503.2604],[38.7993,-13.3154,493.404],[38.8083,-13.3079,495.8388],[38.8241,-13.2831,475.9917],[38.8258,-13.2758,473.2677],[38.8216,-13.2681,474.3578],[38.8206,-13.2609,472.3071],[38.8127,-13.2597,466.6597],[38.8077,-13.2645,468.8673],[38.7936,-13.2666,473.3751],[38.7854,-13.2728,471.2386],[38.7503,-13.257,752.8538],[38.7437,-13.2467,585.0169],[38.7378,-13.2437,564.897],[38.7347,-13.2383,553.2377],[38.7229,-13.2287,524.6165],[38.7081,-13.1916,495.8203],[38.7037,-13.1858,490.0284],[38.689,-13.1439,480.2014],[38.6868,-13.1492,483.832],[38.6778,-13.1566,485.5283],[38.6716,-13.1668,484.5612],[38.6638,-13.1717,487.9624],[38.6539,-13.1739,487.0056],[38.6469,-13.1774,489.805],[38.627,-13.1914,490.6523],[38.593,-13.2193,498.5],[38.5837,-13.225,498.5],[38.5766,-13.2313,498.5],[38.5636,-13.248,500.2871],[38.5553,-13.2538,501.8932],[38.5433,-13.2568,506.818],[38.5356,-13.2538,506.5226],[38.5244,-13.2529,508.438],[38.4874,-13.2662,517.6674],[38.4254,-13.3197,526.8818],[38.4192,-13.3305,529.4495],[38.4274,-13.3515,539.8759],[38.4283,-13.3648,540.1128],[38.426,-13.3742,542.616],[38.4199,-13.3872,544.7964],[38.4216,-13.4269,556.6699]]]]}
,"properties": {"GID_3": "MOZ.1.2.1_1","GID_0": "MOZ","country": "Mozambique","GID_1": "MOZ.1_1","province": "CaboDelgado","NL_NAME_1": "NA","GID_2": "MOZ.1.2_1","county": "Balama","NL_NAME_2": "NA","city": "Balama","VARNAME_3": "NA","NL_NAME_3": "NA","TYPE_3": "Localidad","ENGTYPE_3": "Locality","CC_3": "NA","HASC_3": "NA","name": "Balama.city","area_km2": 968.1772,"hist_schema_id": "Elevation0-9000","hist_area_km2": {"475": 17.4796,"500": 112.0383,"525": 214.0238,"550": 293.4661,"575": 201.7488,"600": 67.6697,"625": 23.676,"650": 13.1992,"675": 6.992,"700": 3.9398,"725": 3.1354,"750": 2.2691,"775": 1.6915,"800": 1.4027,"825": 1.0727,"850": 0.9694,"875": 0.7013,"900": 0.8044,"925": 0.3506,"950": 0.5156,"975": 0.3506,"1000": 0.2475,"1025": 0.2475,"1050": 0.0618,"1075": 0.0618,"1100": 0.0412,"1125": 0.0206}}}