{"type":"Feature","properties":{"GID_2":"MOZ.10.5_1","GID_0":"MOZ","country":"Mozambique","GID_1":"MOZ.10_1","province":"Tete","NL_NAME_1":"NA","county":"Chiuta","VARNAME_2":"NA","NL_NAME_2":"NA","TYPE_2":"Distrito","ENGTYPE_2":"District","CC_2":"NA","HASC_2":"MZ.TE.CT","name":"Chiuta.county"},
"geometry":{"type": "MultiPolygon","coordinates": [[[[33.112,-15.7432,139.5],[33.1174,-15.7498,173.5453],[33.1395,-15.7665,142.421],[33.1551,-15.7853,138.1029],[33.1638,-15.7908,137.0],[33.1867,-15.7982,136.5],[33.2256,-15.8041,143.7131],[33.2338,-15.8124,135.5],[33.2593,-15.8495,134.75],[33.2847,-15.8733,134.0],[33.2924,-15.8866,136.2955],[33.3172,-15.9045,133.0],[33.3408,-15.918,134.3658],[33.3677,-15.9435,132.0],[33.3742,-15.9124,144.2894],[33.3955,-15.9082,190.1237],[33.4234,-15.8507,204.0012],[33.4302,-15.8432,189.4377],[33.4401,-15.8356,189.1717],[33.4487,-15.82,214.194],[33.4579,-15.8086,204.6595],[33.4682,-15.811,216.2743],[33.4741,-15.8029,274.4498],[33.4826,-15.7835,381.101],[33.4823,-15.7803,410.1142],[33.464,-15.7701,374.9684],[33.4583,-15.7611,288.8197],[33.4646,-15.7491,374.0048],[33.4646,-15.7316,307.4271],[33.468,-15.7213,329.0536],[33.4731,-15.716,334.807],[33.475,-15.705,325.3276],[33.4795,-15.6964,349.0391],[33.4866,-15.6928,358.4859],[33.4927,-15.6954,367.334],[33.4982,-15.6912,386.1698],[33.5058,-15.6892,382.7755],[33.5135,-15.6925,402.0114],[33.5242,-15.6943,415.8347],[33.5388,-15.7043,698.1756],[33.5574,-15.6825,513.2072],[33.5701,-15.6785,443.5272],[33.5765,-15.6795,412.769],[33.6018,-15.6896,375.3489],[33.6106,-15.6916,367.6877],[33.6447,-15.6952,344.4762],[33.6521,-15.6988,341.271],[33.6539,-15.7031,337.8405],[33.66,-15.7043,329.7274],[33.6684,-15.71,327.9878],[33.6744,-15.7095,320.6861],[33.6786,-15.7121,318.4437],[33.6881,-15.7128,313.6558],[33.7229,-15.7308,304.302],[33.7251,-15.7426,300.522],[33.7348,-15.7429,292.0289],[33.7553,-15.751,287.9562],[33.7577,-15.7468,286.5928],[33.7579,-15.7366,292.9433],[33.7619,-15.7252,296.4189],[33.7693,-15.7156,295.8831],[33.7698,-15.7011,297.2922],[33.7938,-15.6895,300.347],[33.8014,-15.688,291.4572],[33.8052,-15.6931,298.8959],[33.8071,-15.7013,302.3292],[33.8139,-15.703,295.9791],[33.8202,-15.699,296.5069],[33.8229,-15.6898,298.0262],[33.8191,-15.6811,294.2878],[33.805,-15.669,307.7038],[33.7993,-15.6602,315.6158],[33.7951,-15.6525,316.369],[33.7961,-15.6447,298.3259],[33.8018,-15.6395,313.5828],[33.814,-15.6343,326.5836],[33.8213,-15.6286,349.8527],[33.8385,-15.6093,343.7785],[33.8553,-15.5972,348.4361],[33.8656,-15.5865,355.9969],[33.8715,-15.5768,400.9665],[33.8737,-15.5677,431.7834],[33.8797,-15.558,433.9712],[33.882,-15.549,503.9626],[33.8851,-15.5459,437.692],[33.8902,-15.5478,531.8395],[33.8965,-15.5414,476.617],[33.9011,-15.5246,495.1988],[33.9086,-15.519,492.0457],[33.9117,-15.5114,519.359],[33.916,-15.4881,506.1563],[33.9279,-15.4814,534.2267],[33.9342,-15.4728,641.3989],[33.9452,-15.4455,545.2381],[33.9555,-15.4427,551.2505],[33.9626,-15.4363,537.1642],[33.9651,-15.4212,562.472],[33.9732,-15.4151,556.6318],[34.0,-15.4025,563.6487],[34.0029,-15.3984,575.4026],[34.0187,-15.3536,570.3435],[34.0312,-15.3359,629.3372],[34.0342,-15.3287,604.6976],[34.0333,-15.3176,621.6014],[34.0345,-15.303,634.012],[34.0397,-15.2874,627.1498],[34.0316,-15.2762,653.1307],[34.0279,-15.2562,700.2629],[34.0189,-15.2379,678.4551],[34.0108,-15.2336,679.0217],[34.0079,-15.2277,668.1451],[34.0084,-15.2247,675.8693],[33.9978,-15.218,704.1756],[33.9972,-15.2086,701.1493],[33.9935,-15.2074,700.2622],[33.9835,-15.2096,698.8404],[33.9829,-15.2003,703.0946],[33.9698,-15.1567,715.1608],[33.9275,-15.1472,750.3335],[33.9135,-15.1459,787.7866],[33.8923,-15.1402,781.3306],[33.8801,-15.1397,803.0454],[33.8671,-15.135,817.0656],[33.8589,-15.1278,823.8771],[33.8495,-15.1235,837.4702],[33.8395,-15.1223,873.1228],[33.7975,-15.0866,1283.0366],[33.7848,-15.0937,1080.3617],[33.7698,-15.1176,960.625],[33.7644,-15.1211,955.6127],[33.7623,-15.1416,928.2187],[33.7631,-15.1721,913.9886],[33.7832,-15.1762,908.1839],[33.7837,-15.1834,915.1307],[33.7815,-15.2008,895.8898],[33.777,-15.2187,921.373],[33.7718,-15.2585,947.83989999999994],[33.6665,-15.2838,1133.5687],[33.6468,-15.254,946.0104],[33.5907,-15.2378,1001.0392],[33.5369,-15.2342,562.0574],[33.511,-15.2291,515.7993],[33.4971,-15.2169,522.5779],[33.4815,-15.2096,538.0971],[33.4772,-15.2057,539.1244],[33.4654,-15.2036,545.8425],[33.4477,-15.1822,566.3236],[33.4326,-15.1502,588.9962],[33.4059,-15.1557,875.2226],[33.4016,-15.1541,883.1472],[33.355,-15.1189,603.9538],[33.3489,-15.1128,619.7649],[33.3268,-15.1077,596.294],[33.3189,-15.1098,592.6232],[33.3115,-15.1082,589.7749],[33.3005,-15.1029,580.1777],[33.27,-15.1019,563.0748],[33.2619,-15.104,558.2929],[33.2466,-15.1004,547.8721],[33.2355,-15.1023,540.9602],[33.2245,-15.0946,535.8229],[33.2156,-15.1006,530.7435],[33.2074,-15.1004,529.0936],[33.2023,-15.0983,526.7795],[33.1948,-15.0891,522.1383],[33.1801,-15.0812,511.5156],[33.1668,-15.0898,504.2852],[33.145,-15.0994,491.1582],[33.1348,-15.1056,491.2267],[33.1256,-15.1055,482.6484],[33.1185,-15.1074,480.9656],[33.1168,-15.1104,479.9584],[33.1184,-15.115,477.8484],[33.1156,-15.1171,480.6426],[33.1097,-15.1173,481.0318],[33.1062,-15.1223,474.5664],[33.1047,-15.1279,471.5193],[33.1009,-15.1323,472.2721],[33.0711,-15.1398,456.5176],[33.0631,-15.1438,457.4761],[33.0535,-15.1554,445.1773],[33.0614,-15.1636,439.7888],[33.0548,-15.1702,438.3105],[33.0506,-15.1791,433.6276],[33.0404,-15.1881,424.8628],[33.0381,-15.1922,425.6825],[33.0396,-15.2018,426.5317],[33.037,-15.2035,425.7055],[33.0049,-15.2029,421.2188],[33.0017,-15.2067,406.6039],[32.9963,-15.2207,412.6044],[32.9959,-15.2277,409.1957],[32.9995,-15.2321,405.4837],[32.9929,-15.2554,416.0594],[32.9884,-15.2561,403.6864],[32.9833,-15.264,406.881],[32.981,-15.2749,393.3337],[32.9802,-15.2832,377.5587],[32.9842,-15.2931,373.7242],[32.9901,-15.2994,372.3842],[32.991,-15.3049,355.3971],[32.9791,-15.3145,359.8022],[32.976,-15.3266,346.1513],[32.9748,-15.34,332.9914],[32.9686,-15.3632,330.1952],[32.9619,-15.3722,329.5294],[32.9459,-15.386,290.4347],[32.9434,-15.3921,325.0711],[32.9205,-15.4111,238.0651],[32.918,-15.4155,234.6711],[32.9197,-15.4273,237.0268],[32.9535,-15.4806,205.0358],[32.9589,-15.4931,209.9787],[32.9746,-15.5433,195.4708],[32.9822,-15.578,170.4888],[32.9844,-15.5827,167.6324],[33.0035,-15.5943,164.9807],[33.0106,-15.6157,163.1178],[33.0199,-15.6255,171.433],[33.0342,-15.6493,263.4763],[33.0497,-15.6701,151.0621],[33.0633,-15.6803,154.2416],[33.073,-15.6802,144.125],[33.0788,-15.6825,153.4618],[33.0994,-15.7118,146.6579],[33.112,-15.7432,139.5]]]]}}