{"type": "Feature","bbox": [40.0039,-12.842,40.3771,-12.3662],"geometry": {"type": "MultiPolygon","coordinates": [[[[40.025,-12.8338,280.1796],[40.0429,-12.842,312.4393],[40.0448,-12.8412,303.8173],[40.0997,-12.7918,268.3578],[40.1162,-12.7801,291.9586],[40.1303,-12.7666,266.0327],[40.1438,-12.7571,179.5491],[40.162,-12.7486,138.5629],[40.18,-12.7283,93.8213],[40.2054,-12.7289,80.7585],[40.2164,-12.7195,72.1429],[40.2483,-12.6527,81.1002],[40.2698,-12.6497,125.242],[40.3028,-12.6176,45.0779],[40.3158,-12.6072,33.8314],[40.3693,-12.5993,16.6989],[40.3761,-12.586,24.1818],[40.3771,-12.5632,87.9287],[40.374,-12.5244,77.3166],[40.368,-12.5041,45.7059],[40.3655,-12.5008,50.339],[40.3519,-12.4865,81.5251],[40.3315,-12.4787,92.2138],[40.3089,-12.4606,145.5951],[40.3005,-12.4467,162.3322],[40.3005,-12.4382,136.0643],[40.2874,-12.4331,130.5797],[40.2575,-12.4171,181.2404],[40.2459,-12.403,236.0199],[40.2362,-12.3951,241.1261],[40.1932,-12.3664,155.2849],[40.173,-12.3662,221.4432],[40.1948,-12.3853,150.2769],[40.197,-12.3914,145.0175],[40.1822,-12.4425,107.0824],[40.1849,-12.4567,85.4971],[40.1451,-12.4842,83.9569],[40.1573,-12.49,71.2598],[40.1692,-12.4908,67.5412],[40.196,-12.5172,50.2094],[40.2132,-12.5222,44.973],[40.2231,-12.5232,49.017],[40.2348,-12.5297,50.7734],[40.2375,-12.5331,43.4857],[40.2371,-12.5389,45.1526],[40.2248,-12.5483,54.6984],[40.211,-12.5496,53.7463],[40.1782,-12.5447,55.6064],[40.1582,-12.5496,61.1558],[40.1415,-12.5507,61.4366],[40.1371,-12.5547,64.2256],[40.132,-12.5629,64.5239],[40.1295,-12.6114,87.3864],[40.1254,-12.6223,92.8326],[40.0797,-12.6825,158.49],[40.0368,-12.7123,161.3435],[40.0039,-12.7685,209.5704],[40.0104,-12.7868,227.6496],[40.0207,-12.8082,249.1337],[40.0235,-12.8186,260.5919],[40.025,-12.8338,280.1796]]]]}
,"properties": {"GID_3": "MOZ.1.15.1_1","GID_0": "MOZ","country": "Mozambique","GID_1": "MOZ.1_1","province": "CaboDelgado","NL_NAME_1": "NA","GID_2": "MOZ.1.15_1","county": "Quissanga","NL_NAME_2": "NA","city": "Bilibiza","VARNAME_3": "NA","NL_NAME_3": "NA","TYPE_3": "Localidad","ENGTYPE_3": "Locality","CC_3": "NA","HASC_3": "NA","name": "Bilibiza.city","area_km2": 797.0442,"hist_schema_id": "Elevation0-9000","hist_area_km2": {"25": 62.8464,"50": 180.0128,"75": 154.7657,"100": 94.7398,"125": 54.3849,"150": 46.0609,"175": 46.4907,"200": 46.6932,"225": 43.8906,"250": 34.5537,"275": 22.0198,"300": 8.9937,"325": 1.3233,"350": 0.1861,"375": 0.0827}}}