{"type": "Feature","bbox": [38.7683,-13.9556,39.3111,-13.6849],"geometry": {"type": "MultiPolygon","coordinates": [[[[39.2204,-13.8079,282.9899],[39.2093,-13.802,292.0622],[39.2003,-13.7923,289.3069],[39.1897,-13.7878,289.4526],[39.1818,-13.7866,292.3966],[39.1796,-13.7786,298.5055],[39.1647,-13.7801,296.4524],[39.1582,-13.7835,294.5379],[39.1483,-13.7816,299.0465],[39.133,-13.7666,303.1922],[39.1275,-13.7441,308.7002],[39.1042,-13.7403,312.4062],[39.0962,-13.7374,322.7268],[39.0907,-13.7298,309.2573],[39.0901,-13.7257,320.542],[39.08,-13.73,322.5862],[39.0595,-13.7333,317.5606],[39.0551,-13.7313,329.5145],[39.0446,-13.7203,329.3641],[39.0347,-13.7172,340.675],[39.0251,-13.71,338.5037],[39.0161,-13.7071,341.5613],[38.9997,-13.7065,333.4115],[38.9775,-13.7226,339.8496],[38.9694,-13.7234,337.7086],[38.96,-13.7213,346.8235],[38.9572,-13.7119,355.316],[38.9524,-13.7084,358.3885],[38.9332,-13.7113,358.3503],[38.926,-13.7091,352.7849],[38.9252,-13.7007,354.0079],[38.9281,-13.6924,355.0202],[38.915,-13.6849,359.4595],[38.9021,-13.6935,363.4725],[38.8963,-13.7029,366.588],[38.8797,-13.7223,375.9634],[38.8712,-13.7222,378.5019],[38.863,-13.7132,374.7943],[38.8355,-13.7238,388.4991],[38.8066,-13.7394,399.1877],[38.7837,-13.7588,418.1473],[38.7683,-13.7857,441.5015],[38.7754,-13.8062,437.4805],[38.7794,-13.8098,433.2676],[38.7803,-13.8212,419.9236],[38.8253,-13.8238,391.8772],[38.8358,-13.8278,387.924],[38.8524,-13.8304,382.4941],[38.8573,-13.8369,376.229],[38.8668,-13.8382,373.3445],[38.8745,-13.8335,370.5269],[38.8975,-13.8274,361.6043],[38.9129,-13.8334,357.3506],[38.9344,-13.8334,357.2118],[38.9529,-13.8274,345.9166],[38.9657,-13.8456,339.7606],[38.9752,-13.8512,335.9364],[38.9805,-13.8493,330.9497],[39.0086,-13.8306,324.8795],[39.0171,-13.8284,327.8558],[39.0257,-13.8345,329.5905],[39.0432,-13.856,318.698],[39.0496,-13.8664,311.1464],[39.0579,-13.8737,317.4446],[39.0629,-13.8753,314.4495],[39.0745,-13.8647,305.8503],[39.087,-13.8606,303.7681],[39.1033,-13.8703,296.3968],[39.1167,-13.8833,293.0942],[39.1281,-13.8807,293.7038],[39.136,-13.8857,286.9808],[39.1395,-13.8927,286.0195],[39.1482,-13.8959,290.9741],[39.1497,-13.9031,281.4126],[39.1469,-13.9075,278.0057],[39.1599,-13.9169,276.7756],[39.1636,-13.9232,275.8954],[39.1629,-13.9319,273.6943],[39.1723,-13.9385,274.4478],[39.1871,-13.9533,272.7965],[39.196,-13.9556,262.4099],[39.2422,-13.9306,258.2303],[39.2657,-13.9124,257.2937],[39.2803,-13.9034,251.5],[39.2991,-13.8954,254.0],[39.3111,-13.8926,253.6394],[39.3086,-13.8873,260.3718],[39.306,-13.8728,258.8492],[39.3011,-13.8697,261.2141],[39.2966,-13.8627,262.9276],[39.2838,-13.8642,265.8751],[39.2752,-13.8617,265.9977],[39.2658,-13.8561,268.3614],[39.2554,-13.8555,266.554],[39.2462,-13.8568,270.8377],[39.2447,-13.8524,271.6593],[39.2377,-13.8465,272.6077],[39.228,-13.8315,277.2107],[39.229,-13.8251,276.177],[39.2269,-13.8148,278.6655],[39.2204,-13.8079,282.9899]]]]}
,"properties": {"GID_3": "MOZ.1.11.1_1","GID_0": "MOZ","country": "Mozambique","GID_1": "MOZ.1_1","province": "CaboDelgado","NL_NAME_1": "NA","GID_2": "MOZ.1.11_1","county": "Namuno","NL_NAME_2": "NA","city": "Hucula","VARNAME_3": "NA","NL_NAME_3": "NA","TYPE_3": "Localidad","ENGTYPE_3": "Locality","CC_3": "NA","HASC_3": "NA","name": "Hucula.city","area_km2": 732.3474,"hist_schema_id": "Elevation0-9000","hist_area_km2": {"250": 10.0437,"275": 85.1692,"300": 117.7335,"325": 131.3819,"350": 129.0883,"375": 113.2399,"400": 78.0867,"425": 53.7253,"450": 10.8313,"475": 0.8237,"500": 0.3707,"525": 0.2677,"550": 0.2883,"575": 0.3501,"600": 0.2265,"625": 0.2059,"650": 0.1647,"675": 0.1853,"700": 0.1236,"725": 0.0412}}}