{"type":"Feature","properties":{"GID_2":"MOZ.6.3_1","GID_0":"MOZ","country":"Mozambique","GID_1":"MOZ.6_1","province":"Maputo","NL_NAME_1":"NA","county":"Manhiça","VARNAME_2":"NA","NL_NAME_2":"NA","TYPE_2":"Distrito","ENGTYPE_2":"District","CC_2":"NA","HASC_2":"MZ.MP.MN","name":"Manhiça.county"},
"geometry":{"type": "MultiPolygon","coordinates": [[[[32.7822,-25.4995,2.5445],[32.7867,-25.4929,1.7266],[32.8072,-25.4729,1.6052],[32.9765,-25.4746,0.0],[32.9851,-25.4665,0.561],[32.9901,-25.4651,0.0],[32.9932,-25.4621,2.4291],[33.0115,-25.4532,0.0],[33.0221,-25.4446,0.0],[33.0376,-25.4365,0.0],[33.051,-25.4268,1.1396],[33.094,-25.4051,0.0],[33.1317,-25.3829,15.3321],[33.1375,-25.3009,50.6306],[33.1275,-25.2447,52.7034],[33.1011,-25.203,43.3146],[32.9943,-25.2034,6.7683],[32.9906,-25.2022,7.4423],[32.9926,-25.1993,7.5968],[32.9969,-25.1801,8.0337],[32.9946,-25.1757,8.4896],[32.9958,-25.1721,8.9235],[33.0072,-25.1565,8.4319],[33.012,-25.1525,8.4221],[33.0122,-25.1491,12.6411],[33.0103,-25.146,10.874],[33.0123,-25.1337,9.378],[33.0095,-25.1303,10.3811],[33.0037,-25.1316,9.9061],[32.9976,-25.1356,9.4289],[32.9898,-25.1332,9.6071],[32.9843,-25.126,10.5108],[32.9828,-25.1177,9.7611],[32.9958,-25.0949,10.2316],[32.9991,-25.086,11.2769],[32.9552,-25.0788,12.735],[32.9468,-25.0763,10.2765],[32.9355,-25.0699,11.0375],[32.9254,-25.0696,11.3828],[32.9232,-25.0623,12.0501],[32.9244,-25.0529,10.5],[32.915,-25.0388,10.5],[32.915,-25.033,10.5],[32.9208,-25.0112,10.5],[32.9186,-24.9828,14.466],[32.9162,-24.9818,14.0751],[32.9072,-24.9826,13.9362],[32.9052,-24.9855,14.2231],[32.9059,-24.9918,13.257],[32.9023,-24.9924,12.8452],[32.8875,-24.984,14.0649],[32.8746,-24.9832,14.3209],[32.868,-24.9873,13.7843],[32.8575,-24.9873,13.9115],[32.8526,-24.9936,14.9504],[32.8399,-25.0031,16.6314],[32.8367,-25.0031,16.666],[32.8318,-24.9967,18.1222],[32.8133,-24.9857,14.066],[32.805,-24.9816,15.0635],[32.7917,-24.9807,14.4332],[32.7764,-24.9925,21.1306],[32.7698,-25.012,29.6203],[32.765,-25.021,20.5],[32.7571,-25.0195,22.6216],[32.7494,-25.0128,22.9647],[32.7413,-25.0088,23.8732],[32.7277,-25.0091,24.6592],[32.7067,-25.0151,25.4283],[32.7073,-25.0236,25.054],[32.6995,-25.0382,24.8217],[32.7067,-25.0379,24.2129],[32.7258,-25.0466,21.2719],[32.7378,-25.0547,21.9628],[32.7427,-25.0726,19.6208],[32.7504,-25.0872,16.9955],[32.7632,-25.1036,17.2463],[32.7717,-25.1044,17.4152],[32.7686,-25.1157,16.4054],[32.7496,-25.1183,26.0744],[32.7585,-25.1247,21.3278],[32.7621,-25.1376,12.0],[32.7385,-25.14,21.3435],[32.7326,-25.1479,24.6109],[32.7318,-25.157,19.1323],[32.7201,-25.1701,28.9303],[32.6992,-25.1734,30.8358],[32.6863,-25.172,32.3536],[32.6899,-25.184,38.8351],[32.6452,-25.2407,63.2021],[32.6236,-25.3128,48.2595],[32.5519,-25.3897,82.3216],[32.55,-25.393,85.0433],[32.5409,-25.4972,54.5463],[32.5299,-25.504,51.8842],[32.5265,-25.5378,47.8663],[32.5113,-25.5591,41.9729],[32.5501,-25.5835,55.0368],[32.5818,-25.5913,61.1209],[32.7094,-25.5963,0.5],[32.7117,-25.571,1.8199],[32.7206,-25.5626,1.9423],[32.7352,-25.5553,1.8007],[32.744,-25.5455,1.0],[32.7445,-25.5329,1.4813],[32.7481,-25.5239,16.6018],[32.7592,-25.5223,2.7088],[32.7627,-25.5168,2.7705],[32.7594,-25.5074,2.2975],[32.7716,-25.5047,2.1189],[32.7822,-25.4995,2.5445]]]]}}