{"type":"Feature","properties":{"GID_2":"MOZ.7.15_1","GID_0":"MOZ","country":"Mozambique","GID_1":"MOZ.7_1","province":"Nampula","NL_NAME_1":"NA","county":"NacalaVelha","VARNAME_2":"Nacala-Velha","NL_NAME_2":"NA","TYPE_2":"Distrito","ENGTYPE_2":"District","CC_2":"NA","HASC_2":"MZ.NM.NV","name":"Nacala_Velha.county"},
"geometry":{"type": "MultiPolygon","coordinates": [[[[40.6204,-14.5968,0.0],[40.6215,-14.5974,0.4897],[40.6232,-14.5954,0.0],[40.6215,-14.5957,0.3723],[40.6204,-14.5968,0.0]]],
[[[40.4912,-14.4622,58.7786],[40.4884,-14.4664,53.4175],[40.4831,-14.4667,75.5105],[40.4666,-14.4734,72.298],[40.4466,-14.472,82.4161],[40.4391,-14.4674,100.7794],[40.4319,-14.4576,125.1829],[40.4053,-14.4506,137.5952],[40.3921,-14.4431,170.2982],[40.3923,-14.4222,154.9014],[40.3872,-14.3913,126.7899],[40.3753,-14.3796,110.2185],[40.3768,-14.3717,99.1921],[40.3744,-14.3493,85.1398],[40.3631,-14.3521,81.5282],[40.3598,-14.3607,84.4547],[40.3466,-14.3706,92.1398],[40.3466,-14.3851,101.6558],[40.3404,-14.3881,106.2367],[40.325,-14.3911,107.1855],[40.3158,-14.409,109.3471],[40.3219,-14.4239,117.5597],[40.3122,-14.4318,124.365],[40.3087,-14.4497,131.4196],[40.2953,-14.48,170.8632],[40.3045,-14.5025,186.0908],[40.3065,-14.5044,190.1572],[40.3262,-14.5047,221.4367],[40.3129,-14.5338,224.1964],[40.3511,-14.5628,149.0914],[40.3184,-14.5963,191.7708],[40.311,-14.6083,196.7095],[40.3312,-14.6267,170.8486],[40.3404,-14.6267,167.0988],[40.3466,-14.6297,157.7909],[40.3604,-14.6511,215.7655],[40.3528,-14.6714,177.5557],[40.3651,-14.6804,143.7889],[40.3682,-14.6923,135.4385],[40.3749,-14.6923,132.6046],[40.3805,-14.7072,118.3659],[40.3898,-14.7132,120.06],[40.396,-14.7222,108.0357],[40.4207,-14.74,88.1697],[40.4514,-14.7427,81.2231],[40.4699,-14.7459,79.6916],[40.4724,-14.75,74.6454],[40.4708,-14.7576,63.8689],[40.4885,-14.7573,65.0023],[40.5186,-14.7636,66.2625],[40.5334,-14.7698,65.744],[40.5393,-14.744,104.1078],[40.5506,-14.7275,80.5817],[40.5529,-14.7115,84.5972],[40.5613,-14.7087,110.723],[40.6328,-14.7002,115.1047],[40.6512,-14.6827,70.402],[40.6712,-14.6575,139.8268],[40.7213,-14.6574,59.6833],[40.7199,-14.5626,65.2133],[40.7373,-14.5442,10.7413],[40.766,-14.5465,0.3022],[40.7676,-14.5404,0.0],[40.7812,-14.5326,2.6887],[40.7846,-14.5265,3.308],[40.7951,-14.5224,2.1076],[40.7988,-14.5193,13.3712],[40.8043,-14.5201,4.6402],[40.8074,-14.5226,2.9708],[40.811,-14.5201,0.9363],[40.8201,-14.5221,1.6013],[40.8251,-14.5201,0.0],[40.8226,-14.5093,2.8363],[40.8268,-14.5076,1.5171],[40.8299,-14.5024,0.0],[40.8254,-14.4524,0.0],[40.8151,-14.4276,0.0],[40.8104,-14.4213,3.302],[40.8085,-14.4121,0.0],[40.8051,-14.4096,2.6693],[40.8015,-14.4115,0.0],[40.8024,-14.4137,5.1679],[40.801,-14.4149,4.0429],[40.7935,-14.4171,2.7658],[40.7879,-14.4168,2.3819],[40.7846,-14.419,3.4798],[40.7788,-14.4176,0.0],[40.7715,-14.4187,1.2001],[40.7699,-14.4229,2.0345],[40.7629,-14.4224,3.3881],[40.7612,-14.4199,0.0],[40.7571,-14.4204,1.3014],[40.7576,-14.4235,1.7488],[40.7476,-14.4288,0.6561],[40.7432,-14.4335,5.6005],[40.7385,-14.4346,2.6733],[40.7332,-14.4399,6.6361],[40.7235,-14.4393,0.0],[40.7199,-14.4412,0.0],[40.7154,-14.4407,0.0],[40.7051,-14.4429,0.0],[40.7015,-14.4482,4.5669],[40.6888,-14.4515,7.5014],[40.6826,-14.456,0.0],[40.676,-14.4582,1.1157],[40.6768,-14.4601,0.0],[40.681,-14.4621,22.0467],[40.6796,-14.4676,0.0],[40.6815,-14.4682,9.6204],[40.6826,-14.4815,1.893],[40.6782,-14.4996,3.9929],[40.6726,-14.5015,5.6004],[40.6735,-14.5037,5.4256],[40.6721,-14.5071,2.3895],[40.6765,-14.5157,16.5157],[40.6754,-14.5196,1.5224],[40.6768,-14.5235,9.6688],[40.6763,-14.5321,0.9941],[40.6729,-14.5376,12.1842],[40.6693,-14.5371,0.0],[40.6649,-14.5418,2.4763],[40.6701,-14.5471,0.0],[40.6699,-14.5499,0.0],[40.6724,-14.5549,18.5821],[40.6712,-14.5588,8.9843],[40.6613,-14.5671,0.0],[40.6593,-14.5704,0.8128],[40.6524,-14.5732,0.9114],[40.6499,-14.576,0.6824],[40.6393,-14.5751,0.0],[40.6324,-14.5946,1.4051],[40.6282,-14.5976,0.4622],[40.6221,-14.599,0.5649],[40.6224,-14.6007,0.6962],[40.626,-14.6007,0.9955],[40.626,-14.6021,0.3705],[40.6204,-14.6035,0.4143],[40.6188,-14.6026,1.8086],[40.6179,-14.5962,4.5052],[40.6215,-14.5935,0.9232],[40.6257,-14.5932,0.0],[40.6274,-14.591,0.0],[40.626,-14.5826,2.1948],[40.6274,-14.5804,0.0],[40.6251,-14.5776,0.8032],[40.6274,-14.574,0.0],[40.6271,-14.5712,0.6448],[40.6304,-14.5676,0.0],[40.6285,-14.564,0.7506],[40.6288,-14.561,0.0],[40.6274,-14.561,0.0],[40.6254,-14.5565,2.7279],[40.6265,-14.5518,6.4165],[40.6326,-14.5479,5.9999],[40.6329,-14.5393,11.4123],[40.646,-14.526,0.0],[40.6449,-14.524,1.0604],[40.6379,-14.5207,0.0],[40.6299,-14.5229,0.0],[40.621,-14.5215,0.617],[40.6204,-14.5193,2.0166],[40.6312,-14.5107,0.0],[40.6321,-14.5071,1.0457],[40.6307,-14.501,2.3115],[40.6326,-14.4971,4.7482],[40.6443,-14.496,2.2086],[40.6471,-14.4921,2.7415],[40.6529,-14.4904,2.3014],[40.656,-14.4876,0.0],[40.6568,-14.4835,0.0],[40.6601,-14.4801,0.0],[40.659,-14.4768,0.5278],[40.6579,-14.4771,0.0],[40.6557,-14.4821,1.3986],[40.6501,-14.4824,0.8256],[40.6468,-14.489,1.4473],[40.6399,-14.4926,1.9299],[40.6363,-14.4918,1.7563],[40.6296,-14.4876,0.0],[40.6221,-14.4743,3.7236],[40.6246,-14.4668,1.9771],[40.6237,-14.4624,3.6046],[40.6312,-14.4593,4.2046],[40.6346,-14.4618,0.0],[40.6449,-14.4643,5.8375],[40.6471,-14.4671,0.0],[40.6524,-14.4671,3.0466],[40.6568,-14.4712,2.97],[40.6682,-14.4696,0.8693],[40.6496,-14.4551,7.7691],[40.6426,-14.441,6.7379],[40.6374,-14.4199,0.0],[40.6379,-14.4096,0.0],[40.6413,-14.3993,10.4559],[40.6482,-14.3915,0.0],[40.6496,-14.3865,2.8756],[40.6493,-14.384,0.5873],[40.6471,-14.3837,0.9105],[40.6465,-14.386,3.0745],[40.6437,-14.3865,4.3807],[40.6393,-14.3843,1.9312],[40.6404,-14.3732,0.8151],[40.5851,-14.3716,16.4605],[40.5732,-14.3801,18.6528],[40.5531,-14.4073,27.1914],[40.5398,-14.4191,35.0042],[40.5317,-14.4213,36.894],[40.517,-14.4283,39.552],[40.4912,-14.4622,58.7786]]]]}}