{"type": "Feature","bbox": [40.4694,-13.0925,40.5876,-12.9499],"geometry": {"type": "MultiPolygon","coordinates": [[[[40.5527,-13.0696,7.8562],[40.5557,-13.0565,4.1605],[40.5601,-13.046,4.7093],[40.5713,-13.0279,6.2877],[40.5799,-13.0029,5.0799],[40.5874,-12.9876,0.0],[40.5863,-12.9804,0.7781],[40.5876,-12.9724,3.59],[40.586,-12.9676,0.0],[40.5876,-12.9668,0.0],[40.5749,-12.9618,5.7937],[40.5746,-12.9601,0.0],[40.5726,-12.9612,1.4131],[40.5718,-12.9596,1.4131],[40.5699,-12.9604,1.5127],[40.5696,-12.9635,7.7596],[40.5676,-12.9651,12.5849],[40.5638,-12.964,0.0],[40.5632,-12.9657,2.1577],[40.5568,-12.9654,0.0],[40.5471,-12.9712,0.0],[40.5415,-12.9718,3.7255],[40.5332,-12.9668,4.0539],[40.5293,-12.9618,6.0162],[40.5243,-12.9618,2.6564],[40.5235,-12.9601,0.0],[40.5157,-12.9579,0.0],[40.5093,-12.9515,0.0],[40.4982,-12.9499,0.0],[40.4965,-12.9535,8.4648],[40.4885,-12.9568,2.4337],[40.4874,-12.9601,6.0116],[40.4835,-12.9607,1.194],[40.4815,-12.9632,2.2561],[40.4818,-12.9663,0.0],[40.4849,-12.9679,0.0],[40.4904,-12.9668,2.1143],[40.4963,-12.9712,10.7164],[40.5046,-12.9746,2.0283],[40.5121,-12.9835,0.5764],[40.514,-12.9937,10.7037],[40.5137,-12.9971,0.0],[40.5112,-13.0001,0.0],[40.5129,-13.0051,0.0],[40.5099,-13.0157,1.1371],[40.5104,-13.021,0.4238],[40.5076,-13.024,0.0],[40.5088,-13.0279,0.8995],[40.5051,-13.0324,0.601],[40.5001,-13.0337,0.8108],[40.4982,-13.036,0.8055],[40.4963,-13.0357,0.3931],[40.4971,-13.0313,0.4154],[40.4935,-13.0335,0.8958],[40.4935,-13.0474,2.7565],[40.4896,-13.0526,2.6397],[40.4912,-13.0446,4.1099],[40.4843,-13.0586,3.9906],[40.4868,-13.0607,5.1726],[40.4766,-13.0713,4.6664],[40.4712,-13.0803,4.7073],[40.4694,-13.0852,6.3534],[40.4694,-13.0925,8.9997],[40.4811,-13.0835,8.9504],[40.5187,-13.0702,47.6892],[40.5237,-13.0642,103.5531],[40.5293,-13.0625,92.3041],[40.5537,-13.0638,7.5913],[40.5527,-13.0696,7.8562]]]]}
,"properties": {"GID_3": "MOZ.1.14.3_1","GID_0": "MOZ","country": "Mozambique","GID_1": "MOZ.1_1","province": "CaboDelgado","NL_NAME_1": "NA","GID_2": "MOZ.1.14_1","county": "Pemba","NL_NAME_2": "NA","city": "PembaCidade","VARNAME_3": "NA","NL_NAME_3": "NA","TYPE_3": "Localidad","ENGTYPE_3": "Locality","CC_3": "NA","HASC_3": "NA","name": "Pemba_Cidade.city","area_km2": 97.66896,"hist_schema_id": "Elevation0-9000","hist_area_km2": {"0": 26.13035,"25": 41.58563,"50": 13.13822,"75": 6.2799,"100": 10.16305,"125": 0.3718}}}