{"type": "Feature","bbox": [40.0666,-15.771,40.5696,-15.4445],"geometry": {"type": "MultiPolygon","coordinates": [[[[40.1264,-15.627,61.1878],[40.1348,-15.6347,53.0092],[40.1374,-15.6325,62.2269],[40.1361,-15.6258,63.3864],[40.1415,-15.6141,83.241],[40.1627,-15.6149,84.9765],[40.188,-15.6228,54.642],[40.2012,-15.6326,37.8998],[40.2126,-15.6313,32.4716],[40.2375,-15.6183,30.263],[40.248,-15.6187,31.516],[40.2557,-15.6215,30.2252],[40.2652,-15.6289,44.8521],[40.2748,-15.64,25.9701],[40.2839,-15.6662,62.2582],[40.2916,-15.673,75.9454],[40.3053,-15.6903,60.9639],[40.3043,-15.6976,59.3459],[40.2936,-15.7242,30.1229],[40.2972,-15.7303,37.2411],[40.3085,-15.7331,22.5816],[40.3201,-15.7255,38.4721],[40.3299,-15.7303,23.1397],[40.331,-15.7339,19.2535],[40.3218,-15.7592,48.7193],[40.321,-15.771,0.0],[40.3501,-15.7463,0.0],[40.3671,-15.7235,1.9206],[40.3729,-15.714,0.0],[40.3771,-15.7012,5.8086],[40.3821,-15.6946,6.1935],[40.3876,-15.6826,15.1842],[40.3935,-15.6779,1.7829],[40.3985,-15.6626,11.7484],[40.421,-15.6351,3.4875],[40.424,-15.6285,1.3882],[40.4229,-15.6226,6.3583],[40.4254,-15.6185,0.0],[40.441,-15.6037,6.2596],[40.4543,-15.594,3.8037],[40.469,-15.5871,0.0],[40.4721,-15.5846,0.8406],[40.4729,-15.5801,0.0],[40.4704,-15.579,0.0],[40.4682,-15.5801,0.0],[40.4593,-15.5885,1.8251],[40.4485,-15.5896,3.8844],[40.4401,-15.5974,2.2376],[40.4238,-15.5957,0.5],[40.4193,-15.6001,3.2578],[40.4215,-15.5957,0.8936],[40.4404,-15.5954,0.5],[40.4482,-15.5874,0.7431],[40.4596,-15.5857,0.2368],[40.4562,-15.579,2.6516],[40.461,-15.5812,0.2316],[40.4671,-15.5737,0.9349],[40.4799,-15.5687,0.0],[40.4815,-15.5649,0.0],[40.4826,-15.5671,0.0],[40.486,-15.5685,0.0],[40.484,-15.5654,0.8883],[40.4849,-15.5626,3.2232],[40.4949,-15.561,3.3748],[40.4993,-15.5579,2.2635],[40.5013,-15.5543,1.005],[40.4999,-15.5512,0.0],[40.5013,-15.5451,2.9086],[40.4987,-15.5415,1.4824],[40.4932,-15.5426,0.5],[40.4879,-15.5482,3.5922],[40.4815,-15.5482,3.5275],[40.4785,-15.546,2.5087],[40.479,-15.5443,3.7635],[40.4857,-15.546,3.2785],[40.4899,-15.5426,0.5],[40.4851,-15.539,1.3807],[40.4907,-15.5412,3.0859],[40.4949,-15.5371,2.5341],[40.5001,-15.5357,1.2229],[40.504,-15.5393,2.1749],[40.5074,-15.5393,1.038],[40.5143,-15.5332,0.0],[40.5143,-15.5251,0.0],[40.5199,-15.5246,1.6555],[40.5243,-15.5221,1.6613],[40.5251,-15.5201,0.0],[40.5215,-15.519,2.9176],[40.5224,-15.5185,1.4891],[40.526,-15.5193,1.468],[40.526,-15.521,0.0],[40.5221,-15.5251,1.9841],[40.5174,-15.5262,0.0],[40.5168,-15.5337,0.7406],[40.5224,-15.5351,0.0],[40.5254,-15.5335,0.0],[40.5301,-15.5224,3.5052],[40.5332,-15.5201,1.1195],[40.5351,-15.521,0.5859],[40.5396,-15.514,1.0543],[40.5412,-15.5135,1.8344],[40.5426,-15.5151,0.0],[40.5501,-15.5085,0.5463],[40.554,-15.5018,2.3429],[40.5612,-15.4993,1.8255],[40.569,-15.4885,0.0],[40.5696,-15.4849,0.0],[40.5682,-15.4832,0.0],[40.5687,-15.4868,0.0],[40.566,-15.4879,0.0],[40.5654,-15.4926,0.0],[40.5624,-15.4946,0.5759],[40.5621,-15.4932,0.3343],[40.5643,-15.4918,0.0],[40.5624,-15.4907,0.7714],[40.5618,-15.4862,0.0],[40.5576,-15.4876,0.4705],[40.5515,-15.4854,1.2278],[40.551,-15.4907,3.9591],[40.5504,-15.4907,0.9564],[40.5493,-15.4879,0.9914],[40.5513,-15.4843,1.237],[40.5574,-15.4838,0.0],[40.5604,-15.481,0.4182],[40.564,-15.4815,0.0],[40.5638,-15.4829,0.0],[40.5663,-15.4824,0.0],[40.5665,-15.4807,0.0],[40.5638,-15.4801,0.1803],[40.564,-15.4757,1.4479],[40.5671,-15.471,0.0],[40.5651,-15.466,1.9659],[40.5654,-15.4601,0.0],[40.5615,-15.4568,0.0],[40.5524,-15.4596,2.6228],[40.5479,-15.4585,2.3463],[40.5479,-15.4563,1.8014],[40.5404,-15.4535,1.3772],[40.539,-15.4482,0.5],[40.5421,-15.447,2.2508],[40.5404,-15.4445,1.9698],[40.5317,-15.4507,2.5283],[40.5152,-15.4582,3.649],[40.51,-15.4647,4.1999],[40.4875,-15.483,6.0635],[40.4701,-15.5043,15.8508],[40.457,-15.5111,13.0445],[40.4206,-15.5067,7.5026],[40.4033,-15.5117,9.1654],[40.3811,-15.514099999999999,13.4205],[40.3711,-15.5091,25.9961],[40.3686,-15.5051,25.3562],[40.36,-15.4749,21.1996],[40.3567,-15.4681,25.635],[40.3489,-15.4631,37.8418],[40.3435,-15.456,34.3384],[40.3227,-15.46,39.8951],[40.3166,-15.4572,40.8177],[40.3123,-15.453,42.9485],[40.303,-15.4526,47.4706],[40.2971,-15.4479,53.7447],[40.2877,-15.4501,41.7797],[40.2766,-15.4572,43.7357],[40.2665,-15.4569,48.8814],[40.2492,-15.4685,59.0708],[40.2379,-15.4817,63.4242],[40.2366,-15.4871,47.0613],[40.2462,-15.4994,49.6985],[40.2454,-15.5034,27.7592],[40.2351,-15.4972,26.3715],[40.2171,-15.4948,27.0151],[40.2111,-15.4915,34.1213],[40.2031,-15.4926,43.9033],[40.1895,-15.4903,37.3826],[40.1822,-15.4859,34.9028],[40.1679,-15.4825,33.0959],[40.1449,-15.4734,35.2915],[40.1437,-15.476,36.6099],[40.1326,-15.4739,55.614],[40.1255,-15.4744,58.7137],[40.1136,-15.4822,73.3259],[40.1068,-15.489,77.4785],[40.1111,-15.4936,68.7628],[40.114,-15.5021,55.1039],[40.1168,-15.5047,52.0555],[40.1181,-15.5129,52.8266],[40.1148,-15.5153,43.1842],[40.097,-15.5132,41.4146],[40.0916,-15.515,59.78],[40.0881,-15.5251,55.7299],[40.0666,-15.5583,98.1072],[40.0682,-15.5641,107.7858],[40.0773,-15.5678,94.1672],[40.0813,-15.5894,101.5149],[40.0954,-15.6047,79.5358],[40.1034,-15.607,73.5182],[40.1172,-15.6206,63.7011],[40.1264,-15.627,61.1878]]],
[[[40.4632,-15.5799,0.0],[40.4629,-15.5824,0.0],[40.4663,-15.5774,0.0],[40.4657,-15.5774,0.0],[40.4632,-15.5799,0.0]]],
[[[40.4999,-15.5629,0.3707],[40.4999,-15.5604,1.2169],[40.496,-15.5612,0.0],[40.4871,-15.569,0.0],[40.4829,-15.5701,0.234],[40.4824,-15.5732,0.7119],[40.4832,-15.5737,0.0],[40.4999,-15.5629,0.3707]]],
[[[40.4871,-15.5649,1.5054],[40.4857,-15.5646,1.5054],[40.4865,-15.5671,0.7178],[40.4879,-15.5665,0.6337],[40.4871,-15.5649,1.5054]]],
[[[40.5179,-15.5363,1.0058],[40.5151,-15.5363,1.5823],[40.5113,-15.5462,0.0],[40.5165,-15.5424,0.0],[40.5182,-15.5396,0.0],[40.5179,-15.5363,1.0058]]],
[[[40.5168,-15.5265,0.7871],[40.5154,-15.526,0.0],[40.5154,-15.5285,0.4303],[40.5168,-15.5276,0.7871],[40.5168,-15.5265,0.7871]]],
[[[40.5349,-15.5218,0.0],[40.5324,-15.5212,1.1195],[40.5301,-15.5235,2.4738],[40.5304,-15.5287,0.7278],[40.5326,-15.5279,0.478],[40.5349,-15.5218,0.0]]],
[[[40.5412,-15.5154,0.0],[40.5404,-15.5143,1.0543],[40.539,-15.5157,2.0133],[40.5376,-15.5204,0.0],[40.5399,-15.5187,0.0],[40.5412,-15.5154,0.0]]],
[[[40.5554,-15.4518,1.0032],[40.5479,-15.4521,0.5],[40.5465,-15.454,0.5],[40.5524,-15.4574,1.947],[40.556,-15.4546,0.8044],[40.5554,-15.4518,1.0032]]],
[[[40.5626,-15.4532,0.0],[40.561,-15.4537,0.0],[40.5638,-15.4554,0.0],[40.5626,-15.454,0.0],[40.5626,-15.4532,0.0]]]]}
,"properties": {"GID_3": "MOZ.7.11.3_1","GID_0": "MOZ","country": "Mozambique","GID_1": "MOZ.7_1","province": "Nampula","NL_NAME_1": "NA","GID_2": "MOZ.7.11_1","county": "Mongincual","NL_NAME_2": "NA","city": "Namingue","VARNAME_3": "NA","NL_NAME_3": "NA","TYPE_3": "Localidad","ENGTYPE_3": "Locality","CC_3": "NA","HASC_3": "NA","name": "Namingue.city","area_km2": 834.1331,"hist_schema_id": "Elevation0-9000","hist_area_km2": {"0": 144.352,"25": 211.3773,"50": 234.6132,"75": 180.8455,"100": 60.3718,"125": 2.5733}}}