{"type":"Feature","properties":{"GID_3":"MOZ.7.18.1_1","GID_0":"MOZ","country":"Mozambique","GID_1":"MOZ.7_1","province":"Nampula","NL_NAME_1":"NA","GID_2":"MOZ.7.18_1","county":"Ribaue","NL_NAME_2":"NA","city":"Iapala","VARNAME_3":"NA","NL_NAME_3":"NA","TYPE_3":"Localidad","ENGTYPE_3":"Locality","CC_3":"NA","HASC_3":"NA","name":"Iapala.city"},
"geometry":{"type": "MultiPolygon","coordinates": [[[[38.0969,-14.6799,465.8431],[38.0843,-14.6793,464.1011],[38.0645,-14.6951,479.1776],[38.0639,-14.6973,477.4208],[38.0557,-14.7044,479.5162],[38.0487,-14.7166,482.1468],[38.0424,-14.7191,480.9395],[38.0124,-14.7446,483.5366],[38.0034,-14.7492,490.6831],[37.9988,-14.7587,493.4682],[37.9855,-14.7668,494.3204],[37.9713,-14.7815,502.7218],[37.9576,-14.79,506.8419],[37.9476,-14.8066,512.371],[37.9156,-14.8386,524.0267],[37.9111,-14.8478,526.4347],[37.9077,-14.8849,541.2776],[37.8901,-14.9065,544.7327],[37.8829,-14.9113,547.811],[37.8713,-14.9061,569.9195],[37.8635,-14.9092,568.6032],[37.8554,-14.9172,561.0271],[37.8382,-14.9218,573.3654],[37.8316,-14.9159,582.1763],[37.8247,-14.9181,588.347],[37.8096,-14.9163,589.6746],[37.8052,-14.9224,596.0789],[37.7959,-14.9271,598.6326],[37.7761,-14.9301,617.696],[37.7631,-14.9389,616.3187],[37.7392,-14.9498,641.2954],[37.7313,-14.9549,646.908],[37.7305,-14.958,646.2626],[37.7077,-14.9718,670.0102],[37.6954,-14.9837,714.9989],[37.6677,-15.0195,752.6003],[37.6595,-15.0221,743.7709],[37.6606,-15.0332,720.3947],[37.6469,-15.0538,679.5137],[37.6433,-15.0637,666.5347],[37.6669,-15.0873,648.2232],[37.6707,-15.1011,642.8754],[37.6805,-15.1138,640.0963],[37.6821,-15.1202,633.7421],[37.681399999999996,-15.124,630.9163],[37.6706,-15.13,681.7958],[37.6431,-15.1567,662.9973],[37.6369,-15.1656,686.3466],[37.6215,-15.1627,748.514],[37.6123,-15.1656,836.6016],[37.5948,-15.1915,659.0594],[37.5975,-15.1917,660.1962],[37.6175,-15.2073,648.7844],[37.6184,-15.2156,646.7182],[37.6253,-15.232,650.8353],[37.634,-15.2368,628.1942],[37.675,-15.2439,622.0254],[37.6832,-15.2439,622.1635],[37.6912,-15.2471,612.9564],[37.7108,-15.2424,601.6985],[37.7234,-15.2352,603.9771],[37.7402,-15.2224,585.5485],[37.7603,-15.2135,582.2231],[37.7967,-15.2166,575.9104],[37.8335,-15.2055,568.4542],[37.8447,-15.2111,567.6232],[37.8489,-15.2174,567.5702],[37.8671,-15.2262,577.3029],[37.8735,-15.2326,556.3413],[37.8844,-15.2367,552.3066],[37.9003,-15.2266,551.7352],[37.9056,-15.2308,548.6822],[37.925,-15.2305,546.9529],[37.9492,-15.2383,549.812],[37.9802,-15.259,560.1227],[38.0019,-15.2617,540.5452],[38.0047,-15.2915,521.5218],[38.0297,-15.3025,538.4142],[38.0599,-15.2826,556.2927],[38.0599,-15.2668,570.2327],[38.0566,-15.2406,607.0588],[38.049,-15.2034,595.6005],[38.0836,-15.1799,603.938],[38.101,-15.1618,645.0063],[38.1384,-15.1674,575.7075],[38.1272,-15.1179,626.5789],[38.0939,-15.0881,598.5043],[38.1195,-15.0436,650.8212],[38.1105,-15.0027,608.6088],[38.1482,-14.9699,625.9435],[38.1177,-14.9698,581.7645],[38.0948,-14.942,570.6456],[38.1023,-14.9328,589.6588],[38.213,-14.8281,577.1075],[38.1804,-14.79,586.0321],[38.2435,-14.6915,491.3769],[38.2348,-14.6691,474.8965],[38.2516,-14.6409,469.0215],[38.2647,-14.5935,426.3859],[38.2537,-14.5988,425.994],[38.2401,-14.5848,426.6163],[38.2307,-14.5882,421.2231],[38.2256,-14.6024,422.2025],[38.2303,-14.6129,436.2579],[38.2292,-14.6213,425.5764],[38.2085,-14.6249,448.211],[38.1994,-14.6284,441.9304],[38.1946,-14.6329,451.1786],[38.1764,-14.6248,445.0732],[38.1676,-14.6354,455.5374],[38.1503,-14.6458,451.9756],[38.1408,-14.6502,453.9165],[38.129,-14.6514,463.9933],[38.122,-14.6579,466.6715],[38.1079,-14.6806,466.1149],[38.0969,-14.6799,465.8431]]]]}}