{"type":"Feature","properties":{"GID_3":"MOZ.1.2.2_1","GID_0":"MOZ","country":"Mozambique","GID_1":"MOZ.1_1","province":"CaboDelgado","NL_NAME_1":"NA","GID_2":"MOZ.1.2_1","county":"Balama","NL_NAME_2":"NA","city":"Impiri","VARNAME_3":"NA","NL_NAME_3":"NA","TYPE_3":"Localidad","ENGTYPE_3":"Locality","CC_3":"NA","HASC_3":"NA","name":"Impiri.city"},
"geometry":{"type": "MultiPolygon","coordinates": [[[[38.4354,-13.3108,525.0403],[38.4194,-13.3071,532.1112],[38.4021,-13.3065,536.9487],[38.37,-13.2989,564.4684],[38.3238,-13.2733,577.3463],[38.3135,-13.264099999999999,558.4518],[38.2974,-13.2577,514.0596],[38.2874,-13.2567,499.5653],[38.2811,-13.249,488.1693],[38.2697,-13.2203,482.5455],[38.265,-13.2145,469.6321],[38.2627,-13.1757,455.4468],[38.2572,-13.1669,452.366],[38.2507,-13.163,447.3309],[38.2363,-13.1596,457.557],[38.2312,-13.1541,448.6301],[38.2183,-13.1449,430.8487],[38.2186,-13.1694,434.258],[38.2064,-13.185,436.7142],[38.1999,-13.215,446.1395],[38.2002,-13.2206,446.496],[38.2021,-13.2224,448.3513],[38.1806,-13.2761,470.902],[38.1837,-13.291,485.3811],[38.1784,-13.3052,470.8257],[38.1737,-13.3108,469.9658],[38.1561,-13.3238,477.6673],[38.1469,-13.3417,480.9795],[38.1404,-13.348,489.4159],[38.1274,-13.3527,496.6605],[38.1086,-13.3548,499.9503],[38.0615,-13.3875,507.1431],[38.047,-13.4001,514.1075],[38.0412,-13.4073,512.6891],[38.0402,-13.4154,516.1572],[38.0452,-13.4371,549.1439],[38.0643,-13.5022,619.2236],[38.0859,-13.4945,578.8643],[38.1047,-13.4899,544.8267],[38.1144,-13.5123,522.2415],[38.1847,-13.4597,595.825],[38.2011,-13.4431,611.9296],[38.2079,-13.4456,599.8542],[38.2166,-13.4427,594.1033],[38.2596,-13.4357,579.259],[38.2928,-13.4375,586.2327],[38.3401,-13.4247,550.5405],[38.4216,-13.4269,556.6699],[38.4199,-13.3872,544.7964],[38.426,-13.3742,542.616],[38.4283,-13.3648,540.1128],[38.4274,-13.3515,539.8759],[38.4192,-13.3305,529.4495],[38.4254,-13.3197,526.8818],[38.4354,-13.3108,525.0403]]]]}}