{"type":"Feature","properties":{"GID_3":"MOZ.10.2.1_1","GID_0":"MOZ","country":"Mozambique","GID_1":"MOZ.10_1","province":"Tete","NL_NAME_1":"NA","GID_2":"MOZ.10.2_1","county":"CahoraBassa","NL_NAME_2":"NA","city":"Chitholo","VARNAME_3":"NA","NL_NAME_3":"NA","TYPE_3":"Localidad","ENGTYPE_3":"Locality","CC_3":"NA","HASC_3":"NA","name":"Chitholo.city"},
"geometry":{"type": "MultiPolygon","coordinates": [[[[32.1503,-15.8434,335.5826],[32.1535,-15.8949,352.7726],[32.1571,-15.9021,352.1173],[32.1543,-15.9104,354.807],[32.1469,-15.9129,364.9743],[32.1484,-15.9282,364.2497],[32.1413,-15.9435,368.3212],[32.1463,-15.9556,380.4482],[32.1318,-15.9572,379.6594],[32.1343,-15.986,385.2537],[32.1305,-15.9952,389.9348],[32.1353,-15.9999,394.6572],[32.1354,-16.0071,395.3365],[32.1316,-16.0174,407.2132],[32.1275,-16.022,410.3653],[32.104,-16.0274,416.2529],[32.0968,-16.0276,422.9185],[32.089,-16.0313,415.4043],[32.0804,-16.0281,423.3317],[32.0758,-16.035,417.399],[32.0691,-16.0348,421.7639],[32.0662,-16.0368,424.2332],[32.0689,-16.0406,420.8794],[32.0627,-16.0406,423.655],[32.0596,-16.0389,430.1926],[32.0557,-16.0422,426.6154],[32.0496,-16.0427,438.2893],[32.0529,-16.0482,430.0575],[32.0408,-16.0552,435.2222],[32.0371,-16.0593,434.9037],[32.0399,-16.0686,438.0099],[32.0379,-16.0728,444.657],[32.0334,-16.0753,554.9889],[32.0143,-16.0728,468.0497],[32.0051,-16.0827,459.5875],[32.0011,-16.0754,463.214],[31.9977,-16.0824,458.9021],[31.9914,-16.0796,461.2077],[31.9808,-16.0815,464.4116],[31.9737,-16.0894,469.0236],[31.9679,-16.0863,472.3804],[31.967,-16.0803,471.0914],[31.9627,-16.0787,472.3745],[31.9586,-16.0821,476.2085],[31.9556,-16.0901,476.7985],[31.9515,-16.0927,479.7532],[31.9339,-16.0905,488.5249],[31.937,-16.095,485.1247],[31.9292,-16.0997,487.2903],[31.9276,-16.155,528.3244],[31.9215,-16.1597,534.3159],[31.9188,-16.1675,539.7837],[31.9205,-16.1745,548.9408],[31.9254,-16.1781,560.5612],[31.9396,-16.181,571.1284],[31.9755,-16.1855,663.3384],[31.9883,-16.1909,703.814],[32.0033,-16.1898,733.5316],[32.0257,-16.196,737.1354],[32.0156,-16.211,725.3524],[32.0112,-16.2252,689.5072],[32.007,-16.2305,680.2965],[32.0046,-16.2388,687.5609],[32.0046,-16.247,662.0031],[32.0078,-16.2598,641.9987],[32.0014,-16.2625,640.9747],[32.0037,-16.2661,645.1078],[32.0024,-16.2741,639.4223],[32.0044,-16.2778,645.4804],[32.0028,-16.2875,627.4355],[32.0044,-16.2902,628.3527],[32.0142,-16.2876,619.5007],[32.0196,-16.2883,611.0115],[32.0262,-16.3011,607.8936],[32.0293,-16.3036,596.2788],[32.052,-16.3078,590.8663],[32.0627,-16.3313,583.7389],[32.0864,-16.3454,538.8427],[32.0875,-16.3538,535.6453],[32.0901,-16.3579,530.5801],[32.0726,-16.3608,527.0786],[32.0694,-16.3593,534.8004],[32.0663,-16.3647,531.1784],[32.0604,-16.3647,534.6554],[32.0533,-16.3711,534.7932],[32.0468,-16.3696,543.5076],[32.0359,-16.3737,547.7361],[32.0247,-16.374,556.9602],[32.0222,-16.3772,553.4346],[32.0026,-16.368,570.038],[31.9897,-16.387,579.6552],[31.9851,-16.3912,580.6606],[31.9619,-16.3965,596.979],[31.956,-16.3993,601.0316],[31.9437,-16.42,632.681],[32.0375,-16.4424,1108.9065],[32.2853,-16.4346,539.0502],[32.3216,-16.4448,559.2764],[32.3442,-16.4492,549.3353],[32.3482,-16.452,567.8441],[32.412,-16.4696,577.0476],[32.4877,-16.4994,577.8502],[32.5756,-16.5367,584.4054],[32.6254,-16.5594,541.9294],[32.7114,-16.602,709.1843],[32.7253,-16.5975,598.1885],[32.726,-16.5892,556.6432],[32.7355,-16.5524,490.8413],[32.7324,-16.5206,444.3718],[32.7241,-16.4967,368.2669],[32.7236,-16.4858,339.3137],[32.7365,-16.4721,331.7522],[32.7575,-16.358,308.0302],[32.8694,-16.3281,344.468],[32.9149,-16.2846,305.875],[32.8938,-16.2535,364.5723],[32.8858,-16.2372,404.389],[32.8853,-16.2333,426.0595],[32.876,-16.233,348.7549],[32.869,-16.2286,329.5482],[32.8562,-16.1851,341.585],[32.8584,-16.1459,361.29],[32.8618,-16.1362,362.5045],[32.8691,-16.1242,370.8928],[32.865,-16.1055,379.5586],[32.8653,-16.0986,384.0496],[32.8615,-16.096,382.6272],[32.8591,-16.0875,392.9711],[32.8491,-16.077,395.0594],[32.8512,-16.0727,398.2315],[32.8452,-16.0676,400.3114],[32.8495,-16.0602,403.6183],[32.849,-16.054,406.7365],[32.8455,-16.0499,409.2997],[32.8413,-16.0352,418.5018],[32.8279,-16.0181,436.918],[32.8162,-16.0112,447.3806],[32.7989,-16.0063,455.3069],[32.79,-15.998,464.2876],[32.7806,-15.9994,466.8656],[32.7669,-15.9954,478.4644],[32.7518,-15.9957,488.6498],[32.7479,-15.9931,485.7709],[32.6181,-15.9873,554.9998],[32.6091,-15.9813,548.6503],[32.6027,-15.9582,560.2742],[32.5783,-15.9396,563.5843],[32.5668,-15.9383,558.0854],[32.5459,-15.9416,560.4713],[32.5251,-15.9475,560.1268],[32.4898,-15.9641,549.0849],[32.4782,-15.9638,557.2137],[32.464,-15.9611,555.3436],[32.4449,-15.9791,556.6],[32.4305,-15.9836,559.8762],[32.3386,-15.933,507.1589],[32.2967,-15.9299,474.691],[32.2748,-15.9185,452.4008],[32.2606,-15.9136,440.2741],[32.2486,-15.9066,436.7701],[32.2232,-15.877,404.0771],[32.203,-15.8613,384.4773],[32.1659,-15.847,355.1194],[32.1617,-15.8439,348.1786],[32.1552,-15.8452,340.77],[32.1503,-15.8434,335.5826]]]]}}