{"type":"Feature","properties":{"GID_3":"MOZ.10.1.1_1","GID_0":"MOZ","country":"Mozambique","GID_1":"MOZ.10_1","province":"Tete","NL_NAME_1":"NA","GID_2":"MOZ.10.1_1","county":"Angónia","NL_NAME_2":"NA","city":"Domue","VARNAME_3":"NA","NL_NAME_3":"NA","TYPE_3":"Localidad","ENGTYPE_3":"Locality","CC_3":"NA","HASC_3":"NA","name":"Domue.city"},
"geometry":{"type": "MultiPolygon","coordinates": [[[[33.7178,-14.4927,1295.1389],[33.7417,-14.5191,1263.5229],[33.747,-14.5317,1239.1597],[33.7554,-14.5394,1234.4065],[33.7635,-14.5536,1219.6079],[33.7788,-14.5902,1225.9614],[33.7791,-14.5964,1188.0188],[33.788,-14.5987,1168.3011],[33.8062,-14.6319,1132.5173],[33.8181,-14.6373,1113.347],[33.8179,-14.6476,1109.0968],[33.8405,-14.6719,1108.589],[33.8469,-14.6809,1078.8942],[33.8552,-14.6846,1074.2129],[33.8712,-14.707,1058.3514],[33.8796,-14.7147,1055.1531],[33.8814,-14.7233,1047.6472],[33.8887,-14.7241,1064.4971],[33.8987,-14.7349,1038.7371],[33.9078,-14.7505,1038.2957],[33.9174,-14.7567,1023.7544],[33.9195,-14.7642,1018.7832],[33.926,-14.7708,1017.385],[33.9464,-14.775,999.4354],[33.9481,-14.7836,1008.3093],[33.9472,-14.7901,1007.2227],[33.9505,-14.7935,1004.7983],[33.9635,-14.7984,992.4276],[33.9719,-14.8047,999.4437],[33.9673,-14.8111,1060.3131],[33.9655,-14.8197,958.6139],[33.9742,-14.8252,968.6575],[33.9835,-14.8369,961.2814],[34.008,-14.854,953.0794],[34.0162,-14.8649,948.3345],[34.0211,-14.8906,941.3331],[34.0227,-14.9118,931.5745],[34.0208,-14.9273,924.4115],[34.0215,-14.9365,900.1531],[34.0269,-14.9459,890.8351],[34.0305,-14.9473,886.0685],[34.0335,-14.9541,877.3472],[34.0317,-14.9732,871.0357],[34.0367,-14.9822,856.537],[34.0418,-14.9854,856.1766],[34.051,-15.0177,822.4762],[34.0555,-15.0398,815.8447],[34.0672,-15.0652,813.5212],[34.0775,-15.078,828.4043],[34.0782,-15.0836,801.0803],[34.0736,-15.0907,796.0114],[34.074,-15.1036,782.7048],[34.0675,-15.1346,773.2731],[34.0641,-15.1403,750.2769],[34.0904,-15.1457,794.6537],[34.0935,-15.1429,779.3848],[34.1036,-15.1134,805.2237],[34.108,-15.11,821.5441],[34.1356,-15.1048,850.3289],[34.1494,-15.0945,867.7046],[34.1578,-15.0942,853.0264],[34.15,-15.0616,863.9007],[34.1525,-15.0412,875.5737],[34.1506,-15.0323,869.5015],[34.1631,-15.0231,864.2733],[34.1616,-15.0124,882.3604],[34.1575,-15.0052,873.014],[34.1577,-15.002,868.0532],[34.1609,-14.9971,871.0036],[34.158,-14.9924,888.8658],[34.1567,-14.9817,877.4075],[34.1657,-14.9582,930.1521],[34.1825,-14.9507,913.3408],[34.1754,-14.9464,931.4202],[34.1745,-14.9355,902.3185],[34.1817,-14.9156,916.4243],[34.1785,-14.9092,922.26],[34.181,-14.9038,933.6278],[34.1884,-14.8732,968.9471],[34.1861,-14.8615,971.0065],[34.1898,-14.8558,939.9358],[34.1964,-14.8519,956.4249],[34.2015,-14.846,946.3425],[34.2087,-14.8433,957.1308],[34.2119,-14.8388,966.5822],[34.2137,-14.8309,960.5593],[34.2223,-14.8183,986.2259],[34.2171,-14.7908,982.9512],[34.2173,-14.7824,978.7819],[34.2227,-14.772,998.5014],[34.2281,-14.7519,999.7687],[34.2294,-14.7414,1026.6964],[34.2286,-14.7306,1033.802],[34.233,-14.7253,1038.4977],[34.2402,-14.7204,1049.6555],[34.243,-14.7157,1048.9259],[34.2519,-14.7121,1081.4557],[34.2589,-14.7059,1095.3214],[34.253,-14.6951,1102.7487],[34.2459,-14.6678,1120.6167],[34.2243,-14.6354,1119.1453],[34.2219,-14.6297,1122.9497],[34.2297,-14.6207,1180.2855],[34.2173,-14.6075,1195.5286],[34.2118,-14.5977,1186.0457],[34.2138,-14.5914,1184.3033],[34.2215,-14.5841,1206.1807],[34.2244,-14.5617,1230.4205],[34.2279,-14.5632,1235.71],[34.2342,-14.5492,1257.8076],[34.2501,-14.5476,1269.7808],[34.2579,-14.5387,1291.1179],[34.2649,-14.5232,1293.2527],[34.2701,-14.4919,1327.4897],[34.2888,-14.4701,1359.7629],[34.2921,-14.4394,1399.9066],[34.2987,-14.4195,1461.1959],[34.2989,-14.4027,1523.6659],[34.2876,-14.4074,1516.3481],[34.2801,-14.4127,1495.7341],[34.2713,-14.4239,1510.379],[34.2626,-14.4293,1526.1296],[34.2558,-14.429,1520.9833],[34.2372,-14.4229,1535.7274],[34.2294,-14.4273,1493.7504],[34.225,-14.4273,1472.1658],[34.223,-14.4293,1469.2302],[34.2228,-14.4324,1470.8723],[34.22,-14.4342,1465.8308],[34.2051,-14.4395,1445.147],[34.1941,-14.4373,1450.4719],[34.1893,-14.438,1450.9438],[34.1839,-14.4343,1423.0338],[34.1755,-14.4316,1421.5884],[34.1672,-14.4385,1348.7688],[34.1261,-14.4464,1295.6119],[34.1183,-14.4473,1321.5125],[34.1158,-14.4452,1323.0698],[34.1082,-14.4463,1307.8528],[34.0931,-14.4502,1311.9987],[34.0858,-14.4566,1318.8658],[34.0829,-14.463,1329.4934],[34.0822,-14.4782,1335.252],[34.0743,-14.485,1326.2784],[34.0468,-14.4812,1324.6304],[34.0324,-14.4816,1320.083],[33.9726,-14.4764,1253.7556],[33.9717,-14.48,1255.9308],[33.9424,-14.4781,1289.2552],[33.9402,-14.4763,1283.6544],[33.9378,-14.47,1280.9315],[33.9354,-14.4687,1280.001],[33.9285,-14.4727,1263.2435],[33.9235,-14.4785,1253.6936],[33.9144,-14.476,1252.3215],[33.9121,-14.4767,1254.774],[33.9068,-14.4845,1261.0594],[33.8992,-14.4854,1260.4628],[33.8857,-14.4962,1262.8109],[33.8829,-14.501,1257.8838],[33.8863,-14.5135,1267.6482],[33.878,-14.5194,1274.1738],[33.8737,-14.5195,1270.0933],[33.864,-14.5104,1268.6226],[33.8652,-14.5041,1271.8192],[33.8558,-14.5041,1268.3461],[33.8449,-14.5114,1258.5908],[33.8136,-14.5418,1279.9121],[33.8047,-14.5433,1277.6292],[33.7917,-14.5315,1283.0969],[33.7689,-14.5222,1280.5754],[33.7428,-14.4964,1302.3804],[33.7294,-14.488,1279.9036],[33.7178,-14.4927,1295.1389]]]]}}