{"type":"Feature","properties":{"GID_3":"MOZ.10.5.1_1","GID_0":"MOZ","country":"Mozambique","GID_1":"MOZ.10_1","province":"Tete","NL_NAME_1":"NA","GID_2":"MOZ.10.5_1","county":"Chiuta","NL_NAME_2":"NA","city":"Kazula","VARNAME_3":"NA","NL_NAME_3":"NA","TYPE_3":"Localidad","ENGTYPE_3":"Locality","CC_3":"NA","HASC_3":"NA","name":"Kazula.city"},
"geometry":{"type": "MultiPolygon","coordinates": [[[[33.7553,-15.751,287.9562],[33.7577,-15.7468,286.5928],[33.7579,-15.7366,292.9433],[33.7619,-15.7252,296.4189],[33.7693,-15.7156,295.8831],[33.7698,-15.7011,297.2922],[33.7938,-15.6895,300.347],[33.8014,-15.688,291.4572],[33.8052,-15.6931,298.8959],[33.8071,-15.7013,302.3292],[33.8139,-15.703,295.9791],[33.8202,-15.699,296.5069],[33.8229,-15.6898,298.0262],[33.8191,-15.6811,294.2878],[33.805,-15.669,307.7038],[33.7993,-15.6602,315.6158],[33.7951,-15.6525,316.369],[33.7961,-15.6447,298.3259],[33.8018,-15.6395,313.5828],[33.814,-15.6343,326.5836],[33.8213,-15.6286,349.8527],[33.8385,-15.6093,343.7785],[33.8553,-15.5972,348.4361],[33.8656,-15.5865,355.9969],[33.8715,-15.5768,400.9665],[33.8737,-15.5677,431.7834],[33.8797,-15.558,433.9712],[33.882,-15.549,503.9626],[33.8851,-15.5459,437.692],[33.8902,-15.5478,531.8395],[33.8965,-15.5414,476.617],[33.9011,-15.5246,495.1988],[33.9086,-15.519,492.0457],[33.9117,-15.5114,519.359],[33.916,-15.4881,506.1563],[33.9279,-15.4814,534.2267],[33.9342,-15.4728,641.3989],[33.9452,-15.4455,545.2381],[33.9555,-15.4427,551.2505],[33.9626,-15.4363,537.1642],[33.9651,-15.4212,562.472],[33.9732,-15.4151,556.6318],[34.0,-15.4025,563.6487],[34.0029,-15.3984,575.4026],[34.0187,-15.3536,570.3435],[34.0312,-15.3359,629.3372],[34.0342,-15.3287,604.6976],[34.0333,-15.3176,621.6014],[34.0345,-15.303,634.012],[34.0397,-15.2874,627.1498],[34.0316,-15.2762,653.1307],[34.0279,-15.2562,700.2629],[34.0189,-15.2379,678.4551],[34.0108,-15.2336,679.0217],[34.0079,-15.2277,668.1451],[34.0084,-15.2247,675.8693],[33.9978,-15.218,704.1756],[33.9972,-15.2086,701.1493],[33.9935,-15.2074,700.2622],[33.9835,-15.2096,698.8404],[33.9829,-15.2003,703.0946],[33.9698,-15.1567,715.1608],[33.9275,-15.1472,750.3335],[33.9135,-15.1459,787.7866],[33.8923,-15.1402,781.3306],[33.8801,-15.1397,803.0454],[33.8671,-15.135,817.0656],[33.8589,-15.1278,823.8771],[33.8495,-15.1235,837.4702],[33.8395,-15.1223,873.1228],[33.7975,-15.0866,1283.0366],[33.7848,-15.0937,1080.3617],[33.7698,-15.1176,960.625],[33.7644,-15.1211,955.6127],[33.7623,-15.1416,928.2187],[33.7631,-15.1721,913.9886],[33.7832,-15.1762,908.1839],[33.7837,-15.1834,915.1307],[33.7815,-15.2008,895.8898],[33.777,-15.2187,921.373],[33.7718,-15.2585,947.83989999999994],[33.6665,-15.2838,1133.5687],[33.6468,-15.254,946.0104],[33.5907,-15.2378,1001.0392],[33.5369,-15.2342,562.0574],[33.514,-15.2301,523.2177],[33.5158,-15.2383,516.5383],[33.5264,-15.26,506.4272],[33.5258,-15.2747,503.2693],[33.5293,-15.2827,491.2315],[33.5298,-15.3061,478.9403],[33.5319,-15.3166,483.7213],[33.5371,-15.3302,472.4829],[33.5382,-15.3363,470.944],[33.5364,-15.3436,470.8328],[33.5379,-15.3506,465.2745],[33.5465,-15.3593,466.9083],[33.5553,-15.375,455.4463],[33.562,-15.3762,453.6376],[33.5637,-15.3799,457.4741],[33.5627,-15.3909,450.4883],[33.5652,-15.4072,449.0877],[33.5634,-15.4122,445.2095],[33.5577,-15.4148,432.7521],[33.5521,-15.4137,432.635],[33.5474,-15.4167,441.574],[33.5462,-15.4202,437.7301],[33.5374,-15.4165,430.2803],[33.5279,-15.4216,418.1274],[33.5163,-15.4339,423.9108],[33.5096,-15.4351,423.171],[33.4965,-15.4326,418.0651],[33.4974,-15.4436,405.7253],[33.4907,-15.4528,411.1751],[33.4926,-15.4578,411.7583],[33.491,-15.4617,404.3802],[33.4816,-15.472,407.9998],[33.4819,-15.4762,399.9016],[33.489,-15.4815,397.3148],[33.487,-15.4979,395.1953],[33.49,-15.5202,389.9928],[33.49,-15.53,388.6271],[33.4869,-15.5408,379.2199],[33.4884,-15.5468,382.0676],[33.4837,-15.5554,379.0992],[33.4771,-15.5631,378.9128],[33.4768,-15.5869,367.8848],[33.4808,-15.5938,370.3463],[33.4815,-15.6145,365.2812],[33.4649,-15.635,359.0275],[33.4805,-15.639,359.1153],[33.479,-15.6479,350.6593],[33.4678,-15.6633,342.9672],[33.465,-15.6844,341.3543],[33.4622,-15.6883,351.6724],[33.475,-15.705,325.3276],[33.4795,-15.6964,349.0391],[33.4866,-15.6928,358.4859],[33.4927,-15.6954,367.334],[33.4982,-15.6912,386.1698],[33.5058,-15.6892,382.7755],[33.5135,-15.6925,402.0114],[33.5242,-15.6943,415.8347],[33.5388,-15.7043,698.1756],[33.5574,-15.6825,513.2072],[33.5701,-15.6785,443.5272],[33.5765,-15.6795,412.769],[33.6018,-15.6896,375.3489],[33.6106,-15.6916,367.6877],[33.6447,-15.6952,344.4762],[33.6521,-15.6988,341.271],[33.6539,-15.7031,337.8405],[33.66,-15.7043,329.7274],[33.6684,-15.71,327.9878],[33.6744,-15.7095,320.6861],[33.6786,-15.7121,318.4437],[33.6881,-15.7128,313.6558],[33.7229,-15.7308,304.302],[33.7251,-15.7426,300.522],[33.7348,-15.7429,292.0289],[33.7553,-15.751,287.9562]]]]}}