{"type": "Feature","bbox": [40.2691,-13.8279,40.6013,-13.454],"geometry": {"type": "MultiPolygon","coordinates": [[[[40.2823,-13.4736,23.8372],[40.2769,-13.4748,28.6349],[40.2867,-13.4758,19.5578],[40.2867,-13.5236,91.1702],[40.2906,-13.5529,117.1242],[40.2988,-13.5835,140.0582],[40.2897,-13.6011,178.5415],[40.2774,-13.619,244.0924],[40.2691,-13.6244,266.9104],[40.2792,-13.6231,254.7208],[40.323,-13.6114,199.6946],[40.3551,-13.6069,238.3375],[40.3681,-13.6088,217.3671],[40.3777,-13.6134,132.4897],[40.4086,-13.6326,68.9558],[40.409,-13.6342,81.4741],[40.3979,-13.6488,77.1332],[40.3785,-13.6562,92.4721],[40.3683,-13.6643,147.8764],[40.3828,-13.7054,115.0215],[40.3833,-13.7322,268.134],[40.3683,-13.7351,240.4063],[40.3671,-13.7496,191.5799],[40.3595,-13.7526,194.817],[40.3489,-13.7501,182.4433],[40.3242,-13.7501,221.3776],[40.3331,-13.7725,227.5977],[40.3181,-13.8279,241.6555],[40.3705,-13.8187,185.7219],[40.4018,-13.8036,127.8391],[40.4478,-13.8054,90.0545],[40.4699,-13.7938,72.1747],[40.4814,-13.7771,57.2396],[40.4852,-13.7595,59.1026],[40.5027,-13.7707,48.0241],[40.5713,-13.7101,3.6929],[40.5599,-13.6996,1.6107],[40.5563,-13.6974,0.0],[40.5476,-13.696,1.3689],[40.5426,-13.6929,1.4877],[40.5407,-13.6899,1.8445],[40.539,-13.6779,0.0],[40.5376,-13.6765,5.1993],[40.5385,-13.6699,11.2934],[40.5374,-13.6674,9.2995],[40.5393,-13.6618,0.0],[40.5363,-13.6513,14.6998],[40.5374,-13.6451,2.5563],[40.5354,-13.636,3.8786],[40.5415,-13.6271,0.628],[40.5407,-13.6204,0.0],[40.5438,-13.614,5.6391],[40.5557,-13.6062,4.9412],[40.5621,-13.5946,1.15],[40.571,-13.5899,1.7128],[40.5879,-13.586,3.6427],[40.594,-13.5799,1.2048],[40.5962,-13.5685,0.0],[40.5988,-13.5688,0.0],[40.6013,-13.5663,0.0],[40.6007,-13.5568,0.0],[40.5979,-13.5515,4.8038],[40.5929,-13.5507,1.1624],[40.5896,-13.554,0.0],[40.5887,-13.5596,0.0],[40.5915,-13.5626,0.4707],[40.5899,-13.5676,0.0],[40.5857,-13.5701,5.7457],[40.5749,-13.5704,4.3795],[40.5671,-13.5685,5.5313],[40.5579,-13.5632,3.7984],[40.5488,-13.5537,6.1068],[40.5451,-13.5457,0.0],[40.5435,-13.5451,0.6908],[40.5401,-13.5518,2.0371],[40.5415,-13.5543,4.319],[40.5457,-13.5562,3.1702],[40.546,-13.5587,1.0],[40.5421,-13.5643,2.4961],[40.5443,-13.5576,2.0971],[40.541,-13.5565,5.4186],[40.5379,-13.5529,3.9592],[40.5382,-13.5479,1.7722],[40.536,-13.5449,1.8858],[40.5249,-13.5435,3.381],[40.526,-13.5418,1.0304],[40.5246,-13.541,3.6748],[40.5215,-13.5421,4.2955],[40.5199,-13.5404,2.5615],[40.5182,-13.541,2.5615],[40.5187,-13.5401,2.5615],[40.5215,-13.5399,1.4436],[40.5282,-13.5421,0.5],[40.5335,-13.5385,0.0],[40.5388,-13.5374,0.0],[40.5288,-13.5251,4.1449],[40.5246,-13.5085,0.0],[40.5254,-13.4998,2.3444],[40.5162,-13.4986,5.6012],[40.4965,-13.5052,26.5837],[40.4754,-13.5085,10.8467],[40.4705,-13.5086,11.004],[40.4652,-13.5039,29.1937],[40.4635,-13.5078,17.8513],[40.4507,-13.4996,5.915],[40.437,-13.4753,17.7681],[40.4252,-13.4622,10.1034],[40.4168,-13.4569,10.3928],[40.4034,-13.4545,13.0322],[40.3845,-13.454,12.5743],[40.3625,-13.4558,13.3777],[40.3431,-13.4586,15.2153],[40.3097,-13.4716,16.7524],[40.2921,-13.4714,18.3635],[40.2823,-13.4736,23.8372]]],
[[[40.5312,-13.5437,0.5836],[40.5343,-13.5413,1.774],[40.5315,-13.5421,1.3875],[40.5304,-13.5432,0.5836],[40.5312,-13.5437,0.5836]]]]}
,"properties": {"GID_3": "MOZ.7.16.2_1","GID_0": "MOZ","country": "Mozambique","GID_1": "MOZ.7_1","province": "Nampula","NL_NAME_1": "NA","GID_2": "MOZ.7.16_1","county": "Namapa","NL_NAME_2": "NA","city": "Lurio","VARNAME_3": "NA","NL_NAME_3": "NA","TYPE_3": "Localidad","ENGTYPE_3": "Locality","CC_3": "NA","HASC_3": "NA","name": "Lurio.city","area_km2": 806.2107,"hist_schema_id": "Elevation0-9000","hist_area_km2": {"0": 96.288,"25": 132.1602,"50": 164.1863,"75": 146.0184,"100": 71.4763,"125": 38.5762,"150": 36.4308,"175": 42.4638,"200": 40.319,"225": 22.0003,"250": 12.1932,"275": 3.6452,"300": 0.4325,"325": 0.0206}}}