{"type": "Feature","bbox": [37.2082,-16.2981,38.027,-15.1055],"geometry": {"type": "MultiPolygon","coordinates": [[[[37.8818,-15.4624,626.3551],[37.8731,-15.4565,630.9824],[37.8682,-15.4496,618.1205],[37.8521,-15.4375,668.4387],[37.8418,-15.3978,693.3668],[37.8364,-15.3931,669.6313],[37.8234,-15.3719,683.8979],[37.8135,-15.3624,682.0957],[37.8086,-15.3489,692.8863],[37.8117,-15.3387,711.3986],[37.8435,-15.3068,656.1278],[37.8521,-15.3006,642.6245],[37.8986,-15.2767,624.9687],[37.9111,-15.2767,587.1005],[37.9155,-15.2746,580.8074],[37.9175,-15.2627,581.4796],[37.9366,-15.2341,548.1864],[37.925,-15.2305,546.9529],[37.9056,-15.2308,548.6822],[37.9003,-15.2266,551.7352],[37.8844,-15.2367,552.3066],[37.8735,-15.2326,556.3413],[37.8671,-15.2262,577.3029],[37.8489,-15.2174,567.5702],[37.8447,-15.2111,567.6232],[37.8335,-15.2055,568.4542],[37.7967,-15.2166,575.9104],[37.7603,-15.2135,582.2231],[37.7402,-15.2224,585.5485],[37.7234,-15.2352,603.9771],[37.7108,-15.2424,601.6985],[37.6912,-15.2471,612.9564],[37.6832,-15.2439,622.1635],[37.675,-15.2439,622.0254],[37.634,-15.2368,628.1942],[37.6253,-15.232,650.8353],[37.6184,-15.2156,646.7182],[37.6175,-15.2073,648.7844],[37.5975,-15.1917,660.1962],[37.5924,-15.1913,661.5156],[37.5455,-15.1511,688.3672],[37.5384,-15.1477,692.3416],[37.5322,-15.1477,699.4975],[37.5168,-15.1328,714.0221],[37.4768,-15.1537,755.1359],[37.4645,-15.1656,768.3739],[37.4491,-15.1746,795.2949],[37.4368,-15.1805,791.5266],[37.4205,-15.1858,766.9275],[37.4153,-15.1845,798.605],[37.4085,-15.1766,811.2647],[37.406,-15.1597,1090.1382],[37.3999,-15.1395,1287.0228],[37.3805,-15.1183,1303.8149],[37.3624,-15.1055,1348.1821],[37.3557,-15.111,1247.5927],[37.3377,-15.133,786.4878],[37.3234,-15.1348,764.109],[37.3139,-15.1321,748.7648],[37.3102,-15.1274,733.1443],[37.3045,-15.1357,740.6787],[37.306,-15.1363,742.988],[37.3094,-15.1556,736.7383],[37.3004,-15.2027,747.7709],[37.3003,-15.2169,752.0051],[37.2945,-15.2355,750.6013],[37.2758,-15.2569,772.0854],[37.2684,-15.2694,778.9011],[37.2915,-15.2866,804.022],[37.2876,-15.2956,807.0862],[37.273,-15.3177,846.7958],[37.3072,-15.3276,931.1213],[37.3358,-15.345,1117.6819],[37.3871,-15.3588,1280.0353],[37.3605,-15.379,1189.657],[37.3681,-15.3946,822.2683],[37.3453,-15.4542,1097.3557],[37.3424,-15.467,746.8004],[37.3462,-15.4753,736.7154],[37.3409,-15.4899,703.5509],[37.3232,-15.5045,704.1473],[37.3069,-15.5256,661.2657],[37.2864,-15.5321,647.9337],[37.2619,-15.545,635.0739],[37.2415,-15.5588,616.8932],[37.2244,-15.5671,612.7538],[37.2082,-15.597,606.6152],[37.2434,-15.6295,825.4776],[37.269,-15.6322,767.8531],[37.2959,-15.6558,795.8864],[37.3031,-15.6596,788.1807],[37.3272,-15.6616,744.7805],[37.3529,-15.6598,619.7626],[37.3636,-15.6611,688.7673],[37.3682,-15.6647,624.8299],[37.3688,-15.6729,614.1398],[37.3717,-15.6769,577.2971],[37.3648,-15.6916,575.1318],[37.3738,-15.6992,558.4016],[37.3829,-15.703,554.5901],[37.3845,-15.7105,549.4746],[37.3793,-15.723,536.9603],[37.3856,-15.7231,544.3808],[37.388,-15.726,537.2684],[37.3741,-15.7482,524.1769],[37.3729,-15.7648,517.1776],[37.3678,-15.7808,567.0676],[37.3635,-15.7888,1004.8052],[37.4062,-15.8175,849.3616],[37.4274,-15.8359,627.4405],[37.4411,-15.8533,534.6998],[37.4501,-15.8698,608.7373],[37.478,-15.8901,1106.7059],[37.4959,-15.9102,578.1455],[37.5074,-15.9438,513.201],[37.5042,-15.9567,464.1966],[37.5081,-15.9645,457.9404],[37.5178,-15.9698,435.9139],[37.5393,-15.9719,424.7845],[37.5459,-15.976,413.7631],[37.5593,-15.9742,421.4127],[37.5801,-15.979,398.1887],[37.5974,-15.976,393.5953],[37.6098,-15.9717,382.3351],[37.6443,-15.976,385.3441],[37.6501,-15.9733,372.1948],[37.6589,-15.9747,370.5494],[37.6654,-15.9678,369.8047],[37.6805,-15.9711,380.7096],[37.6852,-15.9742,370.6456],[37.6834,-15.9851,371.7258],[37.6735,-15.9924,364.4711],[37.6749,-16.0005,358.8958],[37.6721,-16.0088,354.3233],[37.6803,-16.0193,346.9558],[37.6818,-16.0255,345.4339],[37.6905,-16.0343,337.9092],[37.6963,-16.0368,340.9247],[37.7045,-16.0368,328.8406],[37.6981,-16.0585,320.2802],[37.6935,-16.0674,324.9938],[37.6857,-16.0739,341.5665],[37.707,-16.0819,299.4638],[37.7116,-16.0892,297.0481],[37.7177,-16.0933,300.8676],[37.7249,-16.0956,288.6325],[37.7299,-16.0996,275.345],[37.7384,-16.113,274.509],[37.729,-16.1215,276.9127],[37.7288,-16.1319,273.6379],[37.7235,-16.1347,291.4299],[37.7231,-16.1363,283.7267],[37.7278,-16.1566,283.949],[37.7266,-16.1572,280.8882],[37.7387,-16.169,264.5994],[37.7397,-16.178,248.976],[37.7539,-16.192,263.2706],[37.7826,-16.2021,233.0364],[37.7897,-16.2105,247.9233],[37.7962,-16.2132,227.8313],[37.8061,-16.2117,220.2991],[37.8324,-16.2208,225.8705],[37.8454,-16.239,221.2343],[37.854,-16.2442,222.1363],[37.8523,-16.2543,201.8676],[37.8639,-16.263,209.0317],[37.8674,-16.2598,201.8231],[37.8772,-16.2581,205.0966],[37.8861,-16.2607,197.4499],[37.8931,-16.2752,199.9986],[37.9009,-16.2788,217.1062],[37.9026,-16.2881,183.9773],[37.9078,-16.2981,176.7995],[37.9194,-16.2921,203.5965],[37.9298,-16.2824,230.4864],[37.9422,-16.2741,201.3708],[37.9482,-16.2635,179.4207],[37.9497,-16.2179,198.5374],[37.9562,-16.2028,199.2141],[37.9539,-16.1956,221.8043],[37.9463,-16.189,201.7868],[37.9414,-16.1648,219.3335],[37.9597,-16.1172,231.0585],[37.9733,-16.105,234.5287],[37.9938,-16.0967,257.8358],[37.9966,-16.0934,250.747],[38.0009,-16.0819,257.3898],[38.0145,-16.0618,275.5016],[38.0176,-16.0534,286.206],[38.02,-16.0438,297.9236],[38.005,-16.033,330.0626],[37.9921,-16.0148,371.5234],[37.9864,-16.0024,330.1301],[37.9948,-15.9904,311.9355],[37.9956,-15.9867,324.0922],[37.9925,-15.9812,317.703],[37.9922,-15.9752,321.472],[37.9945,-15.9725,326.4896],[37.9994,-15.9712,338.0472],[38.0053,-15.9635,351.7265],[38.0067,-15.9591,344.5139],[38.0064,-15.9389,381.8988],[38.0134,-15.9295,403.4288],[38.0129,-15.9233,388.9906],[38.0151,-15.9178,405.5149],[38.0065,-15.9034,411.778],[38.0037,-15.8883,374.1829],[38.0115,-15.8757,356.181],[38.027,-15.865,348.8678],[38.0261,-15.8596,341.7211],[38.0121,-15.8468,384.0352],[38.0048,-15.8427,368.5587],[38.0037,-15.8377,382.739],[38.009,-15.8123,458.5623],[38.0048,-15.8096,506.2692],[37.9994,-15.813,505.4107],[37.9843,-15.8115,426.4038],[37.9877,-15.7869,393.2226],[37.9863,-15.7668,375.1594],[37.9906,-15.7579,366.5103],[37.9987,-15.7488,366.2177],[38.0011,-15.75,359.3247],[38.0058,-15.7601,366.1769],[38.0085,-15.7592,368.1365],[38.0171,-15.7431,367.0955],[38.0062,-15.7301,374.9896],[37.9955,-15.7216,370.5555],[37.9947,-15.7168,382.2093],[37.9963,-15.7096,380.1857],[37.995,-15.7072,376.3812],[37.9885,-15.7073,381.4123],[37.9843,-15.702,386.5969],[37.9825,-15.6827,410.0648],[37.9771,-15.6751,412.0278],[37.9898,-15.6614,426.8188],[37.994,-15.652,440.5947],[37.9906,-15.6188,613.9474],[37.9744,-15.6015,589.5441],[37.9702,-15.5831,600.1885],[37.9638,-15.5787,581.8999],[37.962,-15.5738,553.0837],[37.9588,-15.5605,581.2204],[37.958,-15.5487,597.7324],[37.9519,-15.5356,619.5536],[37.9446,-15.5346,613.0219],[37.9308,-15.5286,577.5349],[37.9087,-15.5318,603.241],[37.8989,-15.5309,614.0132],[37.8938,-15.5269,599.6028],[37.8924,-15.5191,608.8906],[37.8952,-15.4979,615.0715],[37.8936,-15.4759,633.5972],[37.8858,-15.4647,637.8378],[37.8818,-15.4624,626.3551]]]]}
,"properties": {"GID_2": "MOZ.11.1_1","GID_0": "MOZ","country": "Mozambique","GID_1": "MOZ.11_1","province": "Zambezia","NL_NAME_1": "NA","county": "AltoMolocue","VARNAME_2": "NA","NL_NAME_2": "NA","TYPE_2": "Distrito","ENGTYPE_2": "District","CC_2": "NA","HASC_2": "MZ.ZA.AM","name": "Alto_Molocue.county","area_km2": 6332.075,"hist_schema_id": "Elevation0-9000","hist_area_km2": {"175": 4.844,"200": 45.068,"225": 69.346,"250": 98.606,"275": 123.534,"300": 115.445,"325": 107.782,"350": 111.193,"375": 147.476,"400": 190.683,"425": 222.792,"450": 280.013,"475": 312.962,"500": 340.571,"525": 327.238,"550": 327.335,"575": 334.489,"600": 336.339,"625": 356.66,"650": 377.545,"675": 383.27,"700": 356.414,"725": 322.405,"750": 262.596,"775": 213.366,"800": 182.243,"825": 136.368,"850": 90.058,"875": 46.67,"900": 22.113,"925": 13.874,"950": 11.871,"975": 9.337,"1000": 8.378,"1025": 5.886,"1050": 4.762,"1075": 4.109,"1100": 3.782,"1125": 3.517,"1150": 3.661,"1175": 3.723,"1200": 2.741,"1225": 2.885,"1250": 1.964,"1275": 1.596,"1300": 1.003,"1325": 0.573,"1350": 0.573,"1375": 0.471,"1400": 0.491,"1425": 0.348,"1450": 0.368,"1475": 0.184,"1500": 0.184,"1525": 0.143,"1550": 0.143,"1575": 0.082}}}