{"type": "Feature","bbox": [34.5798,-24.8013,35.1049,-24.4871],"geometry": {"type": "MultiPolygon","coordinates": [[[[34.9546,-24.4892,0.5],[34.9063,-24.495,0.5],[34.8703,-24.503,0.5],[34.8184,-24.5221,0.5],[34.8066,-24.5281,0.5],[34.7932,-24.5423,0.5],[34.7781,-24.5463,0.5],[34.7614,-24.5416,0.5],[34.7309,-24.5503,6.5013],[34.6907,-24.5583,0.5],[34.6818,-24.563,0.5],[34.6785,-24.5797,0.8967],[34.6673,-24.5896,0.5],[34.6525,-24.5887,0.5],[34.6394,-24.5767,0.5],[34.6368,-24.5765,0.5],[34.6077,-24.5836,14.38],[34.6013,-24.5879,25.6788],[34.5916,-24.5998,32.1078],[34.5798,-24.6107,15.2288],[34.5954,-24.6407,57.7216],[34.5991,-24.6549,72.0879],[34.6058,-24.6663,66.8111],[34.612,-24.6978,66.1163],[34.609,-24.7034,81.0852],[34.6172,-24.7057,81.3131],[34.6283,-24.7123,91.9404],[34.6277,-24.7176,104.0687],[34.6523,-24.8013,0.0],[34.7201,-24.7812,3.8594],[34.8207,-24.7457,3.6889],[34.8596,-24.7265,0.0],[34.8885,-24.7151,0.0],[34.9176,-24.7001,5.4497],[34.9318,-24.696,0.0],[34.9424,-24.6904,8.6112],[34.9607,-24.6849,0.0],[35.0026,-24.6676,3.218],[35.0435,-24.6474,0.0],[35.0563,-24.639,9.8418],[35.0651,-24.636,0.0],[35.0788,-24.6257,16.4662],[35.0918,-24.6204,0.0],[35.0954,-24.6165,2.6723],[35.1049,-24.6112,10.5646],[35.0934,-24.5848,0.5],[35.1021,-24.5727,0.5],[35.1048,-24.5646,0.5],[35.09,-24.5501,0.5],[35.032,-24.5013,0.5],[35.0168,-24.4916,0.5],[35.0004,-24.4938,0.5],[34.9685,-24.4871,0.5],[34.9546,-24.4892,0.5]]]]}
,"properties": {"GID_3": "MOZ.3.12.1_1","GID_0": "MOZ","country": "Mozambique","GID_1": "MOZ.3_1","province": "Inhambane","NL_NAME_1": "NA","GID_2": "MOZ.3.12_1","county": "Zavala","NL_NAME_2": "NA","city": "Quissico","VARNAME_3": "NA","NL_NAME_3": "NA","TYPE_3": "Localidad","ENGTYPE_3": "Locality","CC_3": "NA","HASC_3": "NA","name": "Quissico.city","area_km2": 1067.5182,"hist_schema_id": "Elevation0-9000","hist_area_km2": {"0": 263.1078,"25": 214.7224,"50": 257.2615,"75": 159.612,"100": 68.9202,"125": 77.5568,"150": 23.7356,"175": 2.5633,"200": 0.0385}}}