{"type":"Feature","properties":{"GID_3":"MOZ.4.7.2_1","GID_0":"MOZ","country":"Mozambique","GID_1":"MOZ.4_1","province":"Manica","NL_NAME_1":"NA","GID_2":"MOZ.4.7_1","county":"Mossurize","NL_NAME_2":"NA","city":"Dacata","VARNAME_3":"NA","NL_NAME_3":"NA","TYPE_3":"Localidad","ENGTYPE_3":"Locality","CC_3":"NA","HASC_3":"NA","name":"Dacata.city"},
"geometry":{"type": "MultiPolygon","coordinates": [[[[33.4784,-20.2931,119.053],[33.4948,-20.2778,122.4942],[33.5114,-20.2708,108.6821],[33.5073,-20.2637,115.6745],[33.4975,-20.255,121.2178],[33.4912,-20.2325,128.5887],[33.4832,-20.2184,140.0612],[33.4787,-20.2057,139.5447],[33.4631,-20.1801,160.4482],[33.4594,-20.1673,171.4811],[33.4425,-20.1485,187.2858],[33.4055,-20.1144,167.728],[33.4,-20.121,163.031],[33.3843,-20.1304,165.5889],[33.3764,-20.137,170.235],[33.3499,-20.1378,174.3613],[33.3419,-20.1396,178.8954],[33.3422,-20.1518,177.4848],[33.337,-20.1546,180.6313],[33.324,-20.1569,184.3581],[33.3158,-20.1625,188.7848],[33.3166,-20.1768,192.8886],[33.308,-20.187,196.4079],[33.306,-20.2002,196.7775],[33.2915,-20.2227,212.2241],[33.2798,-20.2306,226.2155],[33.2664,-20.232,218.8994],[33.2573,-20.2311,234.187],[33.2529,-20.2279,222.521],[33.2111,-20.2306,251.4068],[33.2071,-20.2342,261.4726],[33.1918,-20.2373,286.0926],[33.1848,-20.2421,316.2467],[33.1818,-20.2418,336.0858],[33.1775,-20.2404,373.9133],[33.168,-20.2269,457.2283],[33.1692,-20.2102,518.5453],[33.1667,-20.1849,643.371],[33.1574,-20.1437,416.2592],[33.154,-20.0898,286.4314],[33.1515,-20.081,238.9562],[33.1465,-20.0879,201.093],[33.1358,-20.0871,240.0717],[33.1251,-20.0897,212.3117],[33.1159,-20.0859,231.9453],[33.1065,-20.0787,307.3185],[33.0867,-20.093,279.8094],[33.0763,-20.0977,302.9435],[33.0651,-20.0869,295.8619],[33.0537,-20.0865,288.7282],[33.0314,-20.0683,322.8271],[33.0247,-20.0516,342.3402],[33.0249,-20.0436,313.2546],[33.014,-20.011,412.1029],[33.0109,-20.0188,410.4355],[33.0009,-20.024,403.3703],[33.0002,-20.0265,356.9608],[32.9965,-20.0281,335.0786],[32.9812,-20.0308,389.6838],[32.9719,-20.0344,439.9156],[32.9695,-20.0374,369.2089],[32.9263,-20.044,418.678],[32.9205,-20.0476,416.6309],[32.9122,-20.063,677.7405],[32.9185,-20.0735,700.7665],[32.9203,-20.0913,747.0323],[32.9198,-20.1152,723.0148],[32.9098,-20.1202,718.262],[32.8942,-20.1157,917.4907],[32.8899,-20.1103,983.5134],[32.8875,-20.1028,1046.2166],[32.8807,-20.1027,1129.3066],[32.878,-20.1064,1062.6544],[32.8682,-20.1116,1130.4849],[32.8557,-20.1561,1082.2806],[32.8559,-20.1607,1102.8118],[32.8708,-20.1803,1093.5391],[32.8713,-20.1895,1076.2795],[32.8698,-20.1927,1050.0295],[32.8468,-20.2003,1004.8614],[32.8427,-20.2054,932.5748],[32.8389,-20.2193,833.2343],[32.8401,-20.2235,860.5353],[32.8488,-20.2311,953.7621],[32.8627,-20.2358,892.7733],[32.8665,-20.24,881.0539],[32.8662,-20.2517,937.944],[32.8607,-20.2742,799.284],[32.864,-20.2871,941.6151],[32.8274,-20.3208,664.4865],[32.8295,-20.331,620.271],[32.8361,-20.3354,601.4949],[32.8331,-20.3387,600.6614],[32.8368,-20.3428,630.1093],[32.8345,-20.3529,712.4249],[32.8485,-20.3605,558.7054],[32.8434,-20.3708,539.6231],[32.8617,-20.3754,614.707],[32.8626,-20.381,526.3993],[32.8613,-20.3893,549.4567],[32.8657,-20.3919,646.0598],[32.8677,-20.3977,633.9771],[32.8602,-20.3999,478.5154],[32.8533,-20.393,472.1112],[32.8484,-20.3947,470.1274],[32.8457,-20.4139,489.1186],[32.8508,-20.4228,501.8532],[32.8515,-20.4341,473.1754],[32.8551,-20.4434,428.8203],[32.8517,-20.447,422.0872],[32.8414,-20.4495,419.3364],[32.8437,-20.4541,421.2427],[32.859,-20.452,475.5488],[32.8675,-20.4694,454.1531],[32.8673,-20.4753,414.2379],[32.8601,-20.4807,394.0013],[32.8593,-20.4831,391.4273],[32.8664,-20.487,372.5411],[32.8742,-20.4875,373.2443],[32.8778,-20.4916,461.3951],[32.8751,-20.5013,399.8339],[32.8987,-20.5107,354.4263],[32.911,-20.506,403.5802],[32.9131,-20.5107,369.5798],[32.9104,-20.5208,329.9839],[32.9201,-20.5274,308.1493],[32.9234,-20.5326,408.6121],[32.9169,-20.541,268.7375],[32.9213,-20.5501,265.717],[32.925,-20.5714,252.2692],[32.9168,-20.5893,244.2752],[32.9211,-20.5927,239.162],[32.9216,-20.5964,249.9002],[32.9171,-20.6063,233.0571],[32.9196,-20.6192,219.3816],[33.0014,-20.609,202.7838],[33.0037,-20.6054,267.4323],[33.0195,-20.6038,222.5445],[33.0485,-20.596,182.1824],[33.0708,-20.5847,190.4641],[33.089,-20.5787,177.3712],[33.1007,-20.5731,178.35],[33.1114,-20.5648,171.4626],[33.1194,-20.555,173.2475],[33.1216,-20.5413,184.9788],[33.1355,-20.5068,162.4532],[33.1435,-20.5044,187.202],[33.1584,-20.5036,170.3423],[33.1696,-20.4941,153.1192],[33.1806,-20.4821,162.3352],[33.1904,-20.4574,161.2338],[33.2238,-20.4235,156.9806],[33.2295,-20.412,162.8323],[33.2314,-20.4038,141.1652],[33.2351,-20.4013,149.7571],[33.2498,-20.3999,145.8575],[33.258,-20.3902,153.9467],[33.2647,-20.3758,147.9501],[33.2593,-20.3687,154.188],[33.2571,-20.3571,148.582],[33.2651,-20.3471,140.8464],[33.277,-20.3214,143.0155],[33.2859,-20.3169,132.7567],[33.299,-20.3204,138.9918],[33.313,-20.3284,145.1046],[33.3225,-20.3245,137.8904],[33.3352,-20.3255,138.2912],[33.3572,-20.3388,132.0244],[33.3808,-20.3377,127.1839],[33.384,-20.3365,134.0318],[33.3907,-20.3278,136.3408],[33.3944,-20.3175,131.7995],[33.4232,-20.3147,127.0875],[33.4319,-20.3086,128.9948],[33.4477,-20.293,127.1871],[33.4559,-20.2905,129.8128],[33.4675,-20.2931,114.7368],[33.4753,-20.2917,120.2141],[33.4784,-20.2931,119.053]]]]}}