{"type": "Feature","bbox": [34.3687,-23.0628,35.604,-22.2109],"geometry": {"type": "MultiPolygon","coordinates": [[[[34.9523,-23.0562,144.9302],[35.0068,-23.0628,124.447],[35.0161,-23.0534,125.0567],[35.0322,-23.044,113.921],[35.0615,-23.0311,115.5485],[35.1151,-23.0187,105.6417],[35.1429,-22.9985,96.1287],[35.1473,-22.9899,97.9127],[35.1697,-22.9928,104.6669],[35.179,-22.9899,103.6735],[35.1927,-22.9892,104.3814],[35.2119,-22.9839,105.4916],[35.2367,-22.9739,99.6329],[35.2429,-22.9812,97.2735],[35.2695,-23.0024,93.735],[35.4117,-23.0063,124.8829],[35.4131,-23.0095,130.5818],[35.571,-23.0046,3.7054],[35.5865,-22.981,0.0],[35.5954,-22.9638,0.0],[35.601,-22.9449,4.1054],[35.6007,-22.9357,8.3523],[35.604,-22.9235,0.3242],[35.601,-22.9221,0.0],[35.5996,-22.9246,9.3338],[35.5932,-22.9243,2.9425],[35.5757,-22.9196,3.514],[35.5674,-22.9157,1.6326],[35.5507,-22.8968,0.0],[35.5568,-22.9088,0.8098],[35.5643,-22.9157,0.7774],[35.5701,-22.9243,0.7974],[35.5765,-22.9287,3.1846],[35.5779,-22.936,2.0824],[35.5768,-22.9374,0.0],[35.5729,-22.9312,0.0],[35.5676,-22.9321,1.1962],[35.5526,-22.9246,1.7978],[35.5443,-22.9279,0.0],[35.5418,-22.9343,1.3666],[35.539,-22.9365,1.8435],[35.5412,-22.9268,0.0],[35.5504,-22.9221,1.1983],[35.5479,-22.9215,0.9447],[35.5474,-22.9196,0.5073],[35.5449,-22.9204,1.0288],[35.5449,-22.9171,0.7035],[35.5471,-22.9154,0.4598],[35.5454,-22.9096,1.3005],[35.5429,-22.9068,0.5763],[35.5426,-22.903199999999998,0.0],[35.5446,-22.8993,0.0],[35.5387,-22.8926,1.6488],[35.5393,-22.8882,0.0],[35.5376,-22.8821,0.0],[35.5274,-22.8662,1.769],[35.5282,-22.8626,1.6655],[35.5229,-22.8538,19.6935],[35.5221,-22.8429,0.0],[35.5174,-22.829,0.5294],[35.5176,-22.819,0.4614],[35.5157,-22.8068,0.0],[35.5132,-22.8062,0.7784],[35.516,-22.8121,0.0],[35.5149,-22.814,0.0],[35.5121,-22.8065,0.9249],[35.5137,-22.8029,0.0],[35.5124,-22.8004,0.2899],[35.514,-22.7938,0.0],[35.5129,-22.7896,1.7286],[35.5137,-22.7685,0.0],[35.5115,-22.7607,27.6502],[35.5118,-22.7432,0.0],[35.5151,-22.6912,0.0],[35.5115,-22.6635,2.178],[35.5115,-22.6499,2.8322],[35.5046,-22.6118,0.0],[35.504,-22.6213,0.0],[35.5068,-22.6279,0.0],[35.5079,-22.6504,1.6515],[35.5093,-22.6535,1.6654],[35.5049,-22.6485,1.6627],[35.5051,-22.6457,1.4324],[35.5024,-22.6401,0.6676],[35.5035,-22.6326,0.0],[35.5018,-22.6301,2.1376],[35.5013,-22.6182,0.0],[35.4927,-22.6208,37.0254],[35.4855,-22.6258,37.8284],[35.4705,-22.6451,43.4861],[35.4612,-22.6507,12.9901],[35.4456,-22.6574,51.079],[35.4301,-22.6618,52.4741],[35.4001,-22.6633,48.2094],[35.3592,-22.6942,66.7258],[35.3493,-22.7081,62.1072],[35.3371,-22.7331,57.2465],[35.3325,-22.7667,60.577],[35.3359,-22.788,63.6186],[35.1002,-22.7912,91.029],[34.9989,-22.3584,83.7066],[34.9601,-22.3557,92.0452],[34.9503,-22.3515,94.0066],[34.9378,-22.3568,94.2104],[34.933,-22.3518,93.9922],[34.9237,-22.3465,93.0436],[34.545,-22.3461,153.0221],[34.5246,-22.3304,152.1279],[34.5383,-22.3154,147.5689],[34.5081,-22.2311,153.2435],[34.3939,-22.229,176.8667],[34.3793,-22.2146,182.8474],[34.3687,-22.2109,181.7848],[34.3941,-22.3409,174.5159],[34.501,-22.3481,150.2856],[34.5166,-22.5959,161.5235],[34.4427,-22.6498,134.4017],[34.3732,-22.6745,134.131],[34.3751,-22.6902,132.1657],[34.3812,-22.699,125.6976],[34.3812,-22.7252,130.0336],[34.3835,-22.7375,128.422],[34.3875,-22.7463,125.458],[34.4502,-22.8037,134.0116],[34.4735,-22.8066,140.7167],[34.6054,-22.867,139.1754],[34.773,-22.8654,111.5997],[34.7863,-22.8638,110.7693],[34.8661,-22.875,119.3541],[34.8645,-22.9873,110.3079],[34.8859,-22.9988,108.7189],[34.9523,-23.0562,144.9302]]]]}
,"properties": {"GID_3": "MOZ.3.8.1_1","GID_0": "MOZ","country": "Mozambique","GID_1": "MOZ.3_1","province": "Inhambane","NL_NAME_1": "NA","GID_2": "MOZ.3.8_1","county": "Massinga","NL_NAME_2": "NA","city": "Chicomo","VARNAME_3": "NA","NL_NAME_3": "NA","TYPE_3": "Localidad","ENGTYPE_3": "Locality","CC_3": "NA","HASC_3": "NA","name": "Chicomo.city","area_km2": 5419.425,"hist_schema_id": "Elevation0-9000","hist_area_km2": {"0": 59.119,"25": 86.569,"50": 250.075,"75": 744.726,"100": 999.401,"125": 1614.086,"150": 886.889,"175": 749.155,"200": 29.405}}}