{"type":"Feature","properties":{"GID_2":"MOZ.2.4_1","GID_0":"MOZ","country":"Mozambique","GID_1":"MOZ.2_1","province":"Gaza","NL_NAME_1":"NA","county":"Chigubo","VARNAME_2":"NA","NL_NAME_2":"NA","TYPE_2":"Distrito","ENGTYPE_2":"District","CC_2":"NA","HASC_2":"MZ.GA.CG","name":"Chigubo.county"},
"geometry":{"type": "MultiPolygon","coordinates": [[[[33.592,-23.9114,40.8027],[33.642,-23.9287,34.6245],[33.6634,-23.9422,31.8155],[33.6751,-23.9467,33.1303],[33.6895,-23.9422,35.4298],[33.9005,-23.6531,32.1513],[33.9101,-23.6472,32.6397],[33.9116,-23.6397,35.2457],[33.9164,-23.6299,33.2997],[33.9257,-23.6227,38.9691],[33.9282,-23.6091,34.4668],[33.9449,-23.5863,37.2111],[33.9355,-23.5806,34.9672],[33.9303,-23.5753,35.0692],[33.9345,-23.5652,33.8678],[33.9452,-23.5564,35.8291],[33.9473,-23.5454,35.0764],[33.9403,-23.539,36.5418],[33.9305,-23.5077,37.0643],[33.9272,-23.5027,37.7585],[33.927,-23.4911,37.5402],[33.9091,-23.4816,37.0095],[33.8953,-23.4842,41.7333],[33.8883,-23.4749,37.5499],[33.8852,-23.467,38.3393],[33.8796,-23.4399,40.0044],[33.8741,-23.4355,40.5952],[33.8709,-23.4371,39.7015],[33.8656,-23.4308,44.1271],[33.8633,-23.4177,39.9724],[33.8634,-23.3979,44.6625],[33.8429,-23.3887,41.1654],[33.8459,-23.3796,41.2567],[33.8416,-23.3582,41.8422],[33.9021,-23.3356,43.8621],[33.9013,-23.3253,44.1788],[33.8791,-23.3221,47.1437],[33.8699,-23.298,45.3163],[33.8712,-23.2813,47.0762],[33.875,-23.2697,46.3316],[33.8678,-23.2562,46.0785],[33.8563,-23.2418,48.3854],[33.8459,-23.2341,46.787],[33.8495,-23.1868,51.8621],[33.8441,-23.179,49.0851],[33.8281,-23.1761,49.6613],[33.8294,-23.153199999999998,47.986],[33.8203,-23.1479,48.7926],[33.81,-23.1444,50.7744],[33.8021,-23.1252,49.8155],[33.793,-23.1162,51.5732],[33.7803,-23.1106,50.4762],[33.7749,-23.0822,56.8272],[33.7551,-23.0828,55.57],[33.7431,-23.0868,51.3358],[33.7386,-23.0813,50.7952],[33.7358,-23.0696,51.9836],[33.7131,-23.0314,54.2539],[33.6979,-23.0259,57.7884],[33.6874,-23.0177,55.3987],[33.6913,-23.0016,55.75],[33.6846,-22.9846,60.3111],[33.6838,-22.968,59.5786],[33.6791,-22.959,58.1154],[33.6762,-22.9489,62.4686],[33.6688,-22.9406,58.5149],[33.6612,-22.9354,64.609],[33.6581,-22.9237,63.2501],[33.6483,-22.9168,60.4362],[33.6469,-22.8937,65.3301],[33.6388,-22.8945,65.6909],[33.6155,-22.9016,65.4821],[33.6079,-22.8985,62.7985],[33.6012,-22.8934,62.2452],[33.5774,-22.8636,65.5615],[33.5708,-22.8508,68.943],[33.5636,-22.8428,62.8451],[33.5442,-22.8273,65.176],[33.533,-22.8204,62.3238],[33.5131,-22.8126,62.9379],[33.5019,-22.7997,64.542],[33.498,-22.7812,64.8268],[33.4868,-22.7774,65.592],[33.4901,-22.7612,66.2005],[33.4864,-22.7544,68.7455],[33.4708,-22.7463,65.1839],[33.4599,-22.7355,66.4719],[33.458,-22.7254,68.0049],[33.4537,-22.7149,69.6953],[33.446,-22.7082,68.6504],[33.4247,-22.7018,66.1208],[33.4131,-22.6965,65.6937],[33.3975,-22.6868,65.838],[33.3868,-22.6758,68.0089],[33.3725,-22.6712,67.0721],[33.3642,-22.6643,71.4898],[33.3413,-22.6629,66.9565],[33.322,-22.659,68.4941],[33.3221,-22.6448,70.4044],[33.3141,-22.6319,72.6291],[33.3033,-22.6206,71.9347],[33.2964,-22.6077,73.3523],[33.294,-22.5945,76.1104],[33.2887,-22.5917,74.3931],[33.2822,-22.5824,78.4594],[33.2842,-22.5724,81.6597],[33.2722,-22.5638,77.8512],[33.2744,-22.5494,80.2847],[33.2802,-22.5431,83.6822],[33.2788,-22.5381,79.972],[33.287,-22.528,81.5544],[33.2878,-22.5181,84.741],[33.2946,-22.5038,83.7921],[33.2931,-22.4967,83.3932],[33.2979,-22.4875,89.271],[33.307,-22.4624,90.1477],[33.3117,-22.4414,87.8256],[33.3115,-22.4348,92.0075],[33.3061,-22.4157,89.4718],[33.3084,-22.4075,90.7261],[33.3151,-22.3987,92.8208],[33.3206,-22.3846,95.102],[33.3355,-22.3858,94.5547],[33.3589,-22.3802,97.386],[33.3804,-22.388,103.2637],[33.3862,-22.3864,110.3211],[33.3782,-22.3713,100.2146],[33.3702,-22.3636,97.5913],[33.3666,-22.3541,100.9429],[33.359,-22.3146,104.149],[33.3631,-22.2982,102.5298],[33.3719,-22.2857,105.205],[33.3665,-22.2621,104.1014],[33.3555,-22.2585,104.7923],[33.3475,-22.2519,106.3263],[33.3324,-22.2366,115.1981],[33.3299,-22.2253,108.3022],[33.3412,-22.2011,117.2755],[33.3443,-22.178,112.6269],[33.343,-22.1625,115.6005],[33.3625,-22.151,117.8691],[33.3646,-22.1294,114.57],[33.3581,-22.108,113.7417],[33.3525,-22.1004,114.2226],[33.3426,-22.0946,124.7962],[33.3348,-22.087,115.5907],[33.3296,-22.0559,121.7551],[33.3346,-22.034,119.4458],[33.3488,-22.0012,118.332],[33.3197,-21.9922,119.5262],[33.31,-21.9832,119.2956],[33.2906,-21.9742,118.9993],[33.2824,-21.9792,120.4277],[33.0071,-21.9756,121.9444],[32.9325,-21.9646,128.9787],[32.8627,-21.9789,136.9376],[32.8203,-21.9663,141.7043],[32.8053,-21.9661,145.7171],[32.7401,-22.0052,156.7491],[32.7055,-22.0129,162.0633],[32.6903,-22.0199,163.9603],[32.6316,-22.0568,171.9503],[32.5919,-22.0682,176.6908],[32.6063,-22.1557,160.3735],[32.5926,-22.2785,154.259],[32.6088,-22.3506,142.7339],[32.6103,-22.458,129.3814],[32.6413,-22.4531,127.6584],[32.6623,-22.6192,103.3964],[32.7459,-22.8158,99.3864],[32.9053,-22.9816,94.0919],[32.9985,-22.965699999999998,88.186],[33.0194,-22.9644,81.2386],[33.2471,-23.0008,68.3825],[33.2135,-23.0433,69.7294],[33.1853,-23.2395,69.2546],[33.1409,-23.3514,67.0141],[33.1122,-23.3679,71.5862],[33.101,-23.4317,64.7662],[33.0242,-23.5576,79.3714],[33.0161,-23.6269,69.1336],[33.0471,-23.6331,71.022],[33.0751,-23.6483,67.8536],[33.0857,-23.6487,68.2082],[33.1022,-23.6415,69.6511],[33.108,-23.6405,67.6328],[33.1137,-23.6431,68.7598],[33.1186,-23.6508,66.5265],[33.1385,-23.6411,68.5143],[33.1559,-23.6497,66.8087],[33.1651,-23.6513,67.207],[33.2111,-23.6732,64.7072],[33.2345,-23.6852,64.0351],[33.2606,-23.7068,60.8837],[33.2708,-23.7192,61.2894],[33.3267,-23.7697,55.6512],[33.3471,-23.7818,56.4663],[33.3664,-23.788,54.6181],[33.4485,-23.8386,48.1265],[33.4603,-23.8494,47.327],[33.4829,-23.8757,47.8302],[33.4947,-23.8834,44.5373],[33.5284,-23.8878,44.8092],[33.5594,-23.9073,41.9167],[33.592,-23.9114,40.8027]]]]}}