{"type":"Feature","properties":{"GID_3":"MOZ.1.13.4_1","GID_0":"MOZ","country":"Mozambique","GID_1":"MOZ.1_1","province":"CaboDelgado","NL_NAME_1":"NA","GID_2":"MOZ.1.13_1","county":"Palma","NL_NAME_2":"NA","city":"Quionga","VARNAME_3":"NA","NL_NAME_3":"NA","TYPE_3":"Localidad","ENGTYPE_3":"Locality","CC_3":"NA","HASC_3":"NA","name":"Quionga.city"},
"geometry":{"type": "MultiPolygon","coordinates": [[[[40.5849,-10.6118,0.0],[40.5826,-10.6115,0.0],[40.5824,-10.6121,0.0],[40.5854,-10.6138,0.0],[40.5849,-10.6118,0.0]]],
[[[40.5215,-10.5601,3.0023],[40.5154,-10.561,0.0],[40.5199,-10.5635,0.0],[40.526,-10.5624,0.4032],[40.5215,-10.5601,3.0023]]],
[[[40.6284,-10.686,11.2964],[40.6376,-10.6857,0.0],[40.6338,-10.6785,1.8429],[40.6263,-10.6715,1.8639],[40.6143,-10.6696,2.0585],[40.6113,-10.6704,2.6917],[40.6018,-10.6668,0.8612],[40.5946,-10.6674,2.2982],[40.5876,-10.6643,0.0],[40.5846,-10.6646,4.6328],[40.5757,-10.6579,0.0],[40.5726,-10.6529,0.0],[40.5743,-10.6496,0.0],[40.5721,-10.6382,0.0],[40.5771,-10.6257,0.0],[40.5746,-10.6196,0.0],[40.5751,-10.6154,0.3612],[40.5801,-10.6126,1.1333],[40.5824,-10.6135,0.0],[40.5804,-10.6076,0.0],[40.5849,-10.6071,0.0],[40.5865,-10.6043,0.0],[40.589,-10.604,0.0],[40.5854,-10.5982,0.0],[40.5818,-10.5962,0.0],[40.5801,-10.5976,0.0],[40.5754,-10.5949,0.0],[40.5699,-10.5957,0.6954],[40.5565,-10.5843,0.0],[40.5485,-10.5826,6.7172],[40.5421,-10.5768,0.0],[40.5343,-10.5757,0.9129],[40.529,-10.5765,2.0079],[40.5226,-10.5826,3.9299],[40.5085,-10.589,2.5943],[40.4915,-10.5876,1.3991],[40.4857,-10.5854,2.116],[40.4846,-10.581,1.9138],[40.4824,-10.5807,3.7123],[40.4857,-10.5799,1.0],[40.486,-10.5832,1.0],[40.4963,-10.5854,1.4927],[40.5099,-10.584,2.0965],[40.5179,-10.5793,4.0163],[40.5213,-10.5726,0.0],[40.5165,-10.5712,0.0],[40.5126,-10.5679,0.0],[40.5076,-10.571,0.0],[40.4982,-10.5718,2.9292],[40.4954,-10.5704,0.5],[40.4946,-10.5657,5.0538],[40.4904,-10.5635,1.721],[40.489,-10.564,1.0],[40.4885,-10.5704,2.3575],[40.4829,-10.5721,2.8056],[40.4782,-10.5674,5.3306],[40.4807,-10.5576,3.0309],[40.4771,-10.5576,2.1702],[40.4754,-10.5607,1.5],[40.471,-10.559,1.5],[40.4712,-10.5579,3.05],[40.4751,-10.5582,1.5],[40.4771,-10.554,2.2144],[40.481,-10.5551,4.9545],[40.4829,-10.5582,1.5],[40.4804,-10.5651,1.7648],[40.4815,-10.5674,1.0],[40.484,-10.5674,1.0],[40.4868,-10.5618,4.645],[40.4899,-10.5596,0.625],[40.4979,-10.5618,0.5],[40.4982,-10.5557,1.3429],[40.5026,-10.5524,2.2203],[40.5054,-10.5524,1.7437],[40.5137,-10.5571,0.0],[40.5176,-10.5562,2.4139],[40.5213,-10.5576,3.2616],[40.5224,-10.5568,0.0],[40.5215,-10.5535,10.417],[40.531,-10.5535,0.0],[40.5315,-10.5524,0.0],[40.5293,-10.5507,8.2548],[40.5318,-10.5493,5.5977],[40.5357,-10.5496,0.0],[40.5376,-10.5521,0.5605],[40.544,-10.551,1.3399],[40.5446,-10.5412,6.5508],[40.5465,-10.5399,1.3701],[40.549,-10.5407,0.0],[40.5501,-10.5376,0.0],[40.5476,-10.5376,1.5498],[40.544,-10.5343,6.1102],[40.5393,-10.519,0.0],[40.536,-10.516,6.6873],[40.5326,-10.5035,0.0],[40.5337,-10.5018,5.0744],[40.5363,-10.5021,0.0],[40.536,-10.4962,0.0],[40.5332,-10.4962,0.0],[40.534,-10.494,0.1952],[40.5304,-10.489,0.0],[40.5199,-10.4812,0.0],[40.5093,-10.4821,0.7727],[40.5093,-10.4868,0.3722],[40.4976,-10.4974,3.3539],[40.4926,-10.5051,2.4744],[40.4882,-10.5068,3.3016],[40.4857,-10.5057,1.8048],[40.4829,-10.509,0.5],[40.4751,-10.5132,1.5462],[40.4751,-10.5143,1.5462],[40.4796,-10.5137,4.9247],[40.481,-10.5154,4.5896],[40.4793,-10.5229,4.5506],[40.4829,-10.5218,2.8405],[40.484,-10.5229,3.0514],[40.4793,-10.531,4.1854],[40.4782,-10.5288,2.8083],[40.4801,-10.5282,1.5],[40.4824,-10.5237,2.1971],[40.4785,-10.5246,2.3541],[40.4774,-10.5232,3.6516],[40.4799,-10.5187,1.0],[40.4793,-10.5157,1.0],[40.4754,-10.516,1.615],[40.4715,-10.5121,1.6792],[40.4699,-10.5121,3.0625],[40.4679,-10.5154,2.5167],[40.4682,-10.5118,5.1729],[40.4721,-10.5104,2.6381],[40.4746,-10.5124,1.9323],[40.4799,-10.5068,0.5],[40.484,-10.4976,1.3468],[40.4863,-10.4976,3.6219],[40.4926,-10.4915,2.1315],[40.4993,-10.4899,1.1199],[40.4987,-10.4876,0.0],[40.4963,-10.4857,0.0],[40.4888,-10.4862,0.0],[40.4671,-10.4801,0.0],[40.4626,-10.4879,3.0712],[40.4601,-10.4885,1.273],[40.464,-10.4832,0.9607],[40.4626,-10.4793,0.0],[40.4493,-10.4735,0.0],[40.444,-10.4754,2.4274],[40.4365,-10.4712,0.0],[40.4239,-10.4894,0.5],[40.4116,-10.5031,1.0],[40.3992,-10.5148,1.0],[40.3797,-10.5278,2.2684],[40.3745,-10.5351,4.031],[40.366,-10.5586,3.1013],[40.3586,-10.5657,5.7348],[40.3393,-10.5765,3.75],[40.3332,-10.5775,5.1619],[40.3249,-10.5742,5.0012],[40.3062,-10.5757,5.4352],[40.2843,-10.5798,6.0],[40.2621,-10.593,6.5],[40.2335,-10.6074,8.0],[40.1867,-10.6556,12.2756],[40.1815,-10.6589,13.3547],[40.1754,-10.6599,11.875],[40.1501,-10.6819,13.0],[40.2065,-10.6879,15.2396],[40.2888,-10.6939,109.8241],[40.4011,-10.6676,50.0429],[40.5112,-10.6644,26.0297],[40.5141,-10.6662,22.1337],[40.5447,-10.6687,14.5722],[40.5683,-10.6667,10.3555],[40.5786,-10.6719,10.0305],[40.5887,-10.6823,6.4499],[40.5965,-10.6852,8.1194],[40.6284,-10.686,11.2964]]],
[[[40.5049,-10.5546,1.0078],[40.504,-10.5538,0.0],[40.5007,-10.5557,0.5],[40.5013,-10.5615,0.9259],[40.4985,-10.5671,2.4565],[40.4963,-10.5679,0.5],[40.4968,-10.5699,0.5],[40.5068,-10.5699,0.0],[40.5126,-10.5662,2.4636],[40.5179,-10.5696,0.0],[40.5207,-10.5696,0.0],[40.5246,-10.5665,0.0],[40.5238,-10.5651,1.1474],[40.5143,-10.5626,0.0],[40.504,-10.5551,1.0078],[40.5049,-10.5546,1.0078]]],
[[[40.4971,-10.4968,0.125],[40.4946,-10.4957,0.5],[40.4896,-10.4985,4.2823],[40.4857,-10.5021,0.5],[40.4846,-10.5054,0.5],[40.4924,-10.504,1.81],[40.4971,-10.4968,0.125]]]]}}