{"type": "Feature","bbox": [31.9305,-26.2057,32.3132,-25.6706],"geometry": {"type": "MultiPolygon","coordinates": [[[[32.2833,-25.8369,60.0399],[32.2665,-25.8342,84.4766],[32.2665,-25.8182,92.1659],[32.263,-25.8053,108.0639],[32.2665,-25.7828,105.5441],[32.2648,-25.7752,101.7374],[32.2617,-25.7711,123.0139],[32.2624,-25.7568,71.9432],[32.255,-25.7445,75.8734],[32.2473,-25.7422,79.8985],[32.2422,-25.7445,79.9186],[32.2325,-25.7451,80.4545],[32.1936,-25.733,89.0007],[32.1753,-25.7184,96.9655],[32.1563,-25.695,114.8366],[32.1509,-25.6917,157.7383],[32.1401,-25.6872,169.0957],[32.1257,-25.6878,163.6494],[32.1191,-25.6812,174.1236],[32.0893,-25.6803,189.2756],[32.0345,-25.6829,334.1684],[31.9979,-25.6706,382.9418],[31.9959,-25.6767,415.3765],[31.9786,-25.6937,436.4996],[31.9305,-25.8408,586.61],[31.9737,-25.9532,745.307],[31.9813,-25.95,619.1583],[32.0041,-25.9903,586.6097],[32.0285,-25.998,534.3766],[32.0877,-26.0109,455.0635],[32.0972,-26.0724,258.9401],[32.1081,-26.1659,271.9967],[32.1013,-26.1944,87.5236],[32.1123,-26.2,72.5065],[32.1297,-26.2057,88.5645],[32.1583,-26.2044,64.5723],[32.1885,-26.1988,64.1751],[32.2013,-26.1942,52.4105],[32.2137,-26.182,48.474],[32.2144,-26.1796,44.7914],[32.187,-26.1671,47.4078],[32.1909,-26.1531,44.5],[32.2047,-26.1491,44.5],[32.2056,-26.1474,44.5],[32.1952,-26.1285,44.5],[32.2293,-26.126,44.5],[32.2453,-26.1072,44.5],[32.2464,-26.1027,44.5],[32.2412,-26.0899,31.5099],[32.2425,-26.0805,32.7394],[32.2561,-26.0735,23.2141],[32.2588,-26.0614,18.1861],[32.2637,-26.0498,14.4772],[32.2705,-26.0433,13.4955],[32.2821,-26.0405,22.0673],[32.2984,-26.0467,17.3366],[32.2959,-26.0359,9.4082],[32.2804,-26.0326,13.5921],[32.278,-26.029,10.892],[32.2866,-26.0216,13.7032],[32.2934,-26.0196,10.996],[32.2959,-26.0152,12.7957],[32.2933,-26.0106,17.7334],[32.2831,-26.0061,28.2466],[32.2736,-26.0066,14.6548],[32.2811,-25.9996,14.9559],[32.2796,-25.992,18.8812],[32.2678,-25.9762,28.2243],[32.2835,-25.9711,27.4723],[32.2865,-25.9653,23.9926],[32.2794,-25.9519,28.2152],[32.2692,-25.942,32.7504],[32.2731,-25.9373,31.313],[32.2852,-25.9353,30.867],[32.2889,-25.9305,32.7717],[32.288,-25.9256,34.641],[32.274,-25.9219,35.0087],[32.2697,-25.9137,34.2051],[32.2743,-25.9069,42.4596],[32.2848,-25.9056,38.8881],[32.2906,-25.9002,40.9423],[32.2957,-25.891,43.3008],[32.2923,-25.8839,44.2455],[32.3112,-25.8821,47.2347],[32.3113,-25.8714,49.9787],[32.3132,-25.8623,49.4765],[32.3041,-25.8613,52.2793],[32.2865,-25.853,54.1405],[32.2858,-25.8437,60.5619],[32.2833,-25.8369,60.0399]]]]}
,"properties": {"GID_3": "MOZ.6.7.2_1","GID_0": "MOZ","country": "Mozambique","GID_1": "MOZ.6_1","province": "Maputo","NL_NAME_1": "NA","GID_2": "MOZ.6.7_1","county": "Namaacha","NL_NAME_2": "NA","city": "Namaacha","VARNAME_3": "NA","NL_NAME_3": "NA","TYPE_3": "Localidad","ENGTYPE_3": "Locality","CC_3": "NA","HASC_3": "NA","name": "Namaacha.city","area_km2": 1367.424,"hist_schema_id": "Elevation0-9000","hist_area_km2": {"0": 2.096,"25": 31.004,"50": 109.996,"75": 123.932,"100": 188.38,"125": 118.117,"150": 87.363,"175": 81.238,"200": 72.738,"225": 47.434,"250": 38.677,"275": 36.275,"300": 34.622,"325": 33.409,"350": 35.397,"375": 37.383,"400": 43.491,"425": 52.074,"450": 45.908,"475": 37.511,"500": 31.269,"525": 23.442,"550": 16.725,"575": 13.178,"600": 10.279,"625": 6.846,"650": 2.784,"675": 2.326,"700": 1.316,"725": 0.915,"750": 0.858,"775": 0.419,"800": 0.019}}}