{"type": "Feature","bbox": [35.003,-24.3716,35.3143,-24.0459],"geometry": {"type": "MultiPolygon","coordinates": [[[[35.003,-24.2156,55.6969],[35.0165,-24.2657,114.864],[35.0048,-24.3344,59.5],[35.0444,-24.3519,91.8723],[35.0444,-24.3631,135.9807],[35.0558,-24.3557,138.3595],[35.101,-24.3716,45.0918],[35.11,-24.3627,58.9839],[35.1285,-24.352,41.2297],[35.1493,-24.3345,42.4211],[35.1682,-24.3245,37.2278],[35.1778,-24.3167,35.9423],[35.1885,-24.3062,30.7673],[35.2117,-24.2778,31.1598],[35.2296,-24.2772,47.09],[35.2174,-24.2571,59.2822],[35.217,-24.2464,74.5238],[35.2502,-24.2416,30.4944],[35.2653,-24.1998,35.3568],[35.2792,-24.1724,14.7039],[35.2753,-24.1665,15.0822],[35.2698,-24.1664,14.6637],[35.3009,-24.1338,8.601],[35.2964,-24.109,3.8774],[35.303,-24.0758,5.59],[35.3015,-24.0654,3.6468],[35.3043,-24.0588,2.7713],[35.3143,-24.0459,1.3869],[35.2442,-24.0532,135.0094],[35.2389,-24.0517,144.2003],[35.1662,-24.0912,70.7857],[35.072,-24.1631,57.3202],[35.0765,-24.1672,57.5718],[35.0432,-24.1891,54.9571],[35.022,-24.1963,54.6774],[35.0136,-24.2011,54.5484],[35.0092,-24.2129,54.0052],[35.003,-24.2156,55.6969]]]]}
,"properties": {"GID_3": "MOZ.3.6.1_1","GID_0": "MOZ","country": "Mozambique","GID_1": "MOZ.3_1","province": "Inhambane","NL_NAME_1": "NA","GID_2": "MOZ.3.6_1","county": "Jangamo","NL_NAME_2": "NA","city": "Cumbana","VARNAME_3": "NA","NL_NAME_3": "NA","TYPE_3": "Localidad","ENGTYPE_3": "Locality","CC_3": "NA","HASC_3": "NA","name": "Cumbana.city","area_km2": 626.9749,"hist_schema_id": "Elevation0-9000","hist_area_km2": {"0": 17.5725,"25": 33.3732,"50": 105.1713,"75": 255.1489,"100": 168.4842,"125": 40.9818,"150": 6.243}}}