{"type":"Feature","properties":{"GID_3":"MOZ.9.6.2_1","GID_0":"MOZ","country":"Mozambique","GID_1":"MOZ.9_1","province":"Sofala","NL_NAME_1":"NA","GID_2":"MOZ.9.6_1","county":"Dondo","NL_NAME_2":"NA","city":"Dondo","VARNAME_3":"NA","NL_NAME_3":"NA","TYPE_3":"Localidad","ENGTYPE_3":"Locality","CC_3":"NA","HASC_3":"NA","name":"Dondo.city"},
"geometry":{"type": "MultiPolygon","coordinates": [[[[34.6938,-19.702,0.5],[34.6945,-19.707,1.6341],[34.7385,-19.7086,4.3843],[34.7453,-19.7127,4.3682],[34.753,-19.7117,14.7859],[34.7658,-19.6961,21.3224],[34.8245,-19.6538,30.7673],[34.8368,-19.6425,25.1617],[34.8501,-19.6352,27.5843],[34.8677,-19.6305,21.1178],[34.8785,-19.6258,19.3236],[34.8945,-19.6276,18.5606],[34.934,-19.6213,14.4218],[34.9998,-19.634,8.3533],[35.0165,-19.6355,6.8975],[35.0884,-19.6268,2.6655],[35.1026,-19.6207,3.564],[35.1249,-19.6172,11.5726],[35.1362,-19.6201,13.8337],[35.137,-19.6309,9.3315],[35.1465,-19.6309,9.4412],[35.1522,-19.6505,4.4774],[35.1439,-19.6636,0.5],[35.1364,-19.6823,0.0],[35.1368,-19.6871,1.5665],[35.1793,-19.6504,3.7134],[35.1793,-19.6485,8.2732],[35.1824,-19.6482,0.0],[35.1988,-19.6324,2.0543],[35.226,-19.6121,0.0],[35.2271,-19.609,4.202],[35.2324,-19.6051,1.1365],[35.2296,-19.6043,2.3668],[35.2313,-19.6001,2.85],[35.2346,-19.5999,4.1845],[35.2307,-19.604,2.3668],[35.236,-19.6049,0.0],[35.2513,-19.590699999999998,3.4911],[35.2501,-19.5876,4.2746],[35.2521,-19.5882,2.2337],[35.2565,-19.5849,0.0],[35.2604,-19.5796,2.5354],[35.269,-19.574,0.0],[35.2685,-19.5724,2.956],[35.2713,-19.5724,0.8012],[35.2768,-19.5685,3.0839],[35.2776,-19.5663,4.0807],[35.2782,-19.5676,4.0807],[35.2765,-19.5699,0.375],[35.2665,-19.5779,0.0],[35.2624,-19.5835,0.4753],[35.2637,-19.5826,0.0],[35.2996,-19.5487,0.7086],[35.3265,-19.5274,0.6835],[35.3271,-19.5257,0.9115],[35.3218,-19.5279,4.0185],[35.3185,-19.526,2.4605],[35.326,-19.5237,1.9107],[35.3293,-19.5195,3.319],[35.3194,-19.5246,2.4605],[35.3132,-19.5296,6.2918],[35.3101,-19.5268,7.2302],[35.2964,-19.5268,5.3001],[35.2792,-19.5297,5.7669],[35.2605,-19.5252,7.0623],[35.2557,-19.5146,10.9199],[35.2436,-19.5079,9.0081],[35.2238,-19.4911,12.2523],[35.2157,-19.4916,14.1277],[35.1958,-19.4964,11.5754],[35.1799,-19.4927,18.9346],[35.1626,-19.4802,18.243],[35.1589,-19.4826,18.2151],[35.1565,-19.4902,22.437],[35.1488,-19.4937,21.7783],[35.1362,-19.4915,19.8005],[35.1139,-19.4798,24.4844],[35.1161,-19.4752,25.3158],[35.1148,-19.4577,26.0186],[35.0883,-19.4308,27.7775],[35.0834,-19.4214,29.1688],[35.0832,-19.4123,31.4973],[35.08,-19.4064,29.5803],[35.0751,-19.4042,34.7542],[35.0693,-19.4053,34.7328],[35.0637,-19.4025,33.9702],[35.0592,-19.4064,36.315],[35.0436,-19.4026,34.5663],[35.0393,-19.4043,35.9405],[35.0279,-19.4002,39.8198],[35.0258,-19.3965,46.262],[35.0167,-19.3983,39.5258],[34.9996,-19.3861,43.3893],[34.9897,-19.3852,46.2311],[34.9758,-19.3872,46.8094],[34.9598,-19.3858,49.7564],[34.948,-19.39,46.971],[34.9396,-19.3854,51.4666],[34.9268,-19.3814,48.0265],[34.9093,-19.3866,50.3794],[34.8701,-19.3786,53.3088],[34.8573,-19.3813,55.5073],[34.8358,-19.3822,60.2432],[34.8307,-19.3792,62.9965],[34.8156,-19.3759,62.8724],[34.7681,-19.3794,84.7975],[34.75,-19.3696,90.3378],[34.719,-19.3649,110.8751],[34.7069,-19.3609,121.5747],[34.7022,-19.3529,116.4132],[34.7059,-19.3686,103.5117],[34.7073,-19.3914,107.2524],[34.7054,-19.4138,97.9787],[34.7179,-19.4675,87.4629],[34.719,-19.4996,71.9705],[34.7032,-19.5163,70.5405],[34.7055,-19.5283,67.2937],[34.7038,-19.5378,59.3902],[34.6908,-19.5477,47.4047],[34.6842,-19.5574,36.4019],[34.6776,-19.5805,23.1215],[34.6643,-19.6012,6.7609],[34.6578,-19.6159,5.7187],[34.6568,-19.6253,5.0689],[34.6621,-19.6453,4.3951],[34.662,-19.6523,3.9501],[34.6552,-19.6502,5.1084],[34.6543,-19.6526,5.4849],[34.666,-19.6719,0.5],[34.6893,-19.6908,0.5],[34.6938,-19.702,0.5]]],
[[[35.3271,-19.5254,0.9115],[35.3293,-19.5251,1.5958],[35.3343,-19.5201,0.0],[35.3288,-19.5232,0.9247],[35.3271,-19.5254,0.9115]]]]}}