{"type": "Feature","bbox": [34.9374,-24.2209,35.2857,-23.7572],"geometry": {"type": "MultiPolygon","coordinates": [[[[35.2725,-23.7993,4.0799],[35.2432,-23.7917,9.6704],[35.2133,-23.7888,43.3849],[35.1718,-23.779,59.3822],[35.139,-23.7831,67.0156],[35.1267,-23.7742,64.4634],[35.109,-23.766,71.9473],[35.0981,-23.7572,86.6671],[35.0862,-23.7636,85.7412],[35.0594,-23.7697,131.8193],[35.0466,-23.777,137.1837],[35.0411,-23.792,147.161],[35.0436,-23.8063,143.9921],[35.028,-23.821,131.9758],[35.0486,-23.865,120.4867],[35.0607,-23.8767,114.5187],[35.061,-23.8875,113.3267],[35.0649,-23.893,117.5236],[35.0609,-23.9014,113.7481],[35.0437,-23.9102,112.9135],[35.03,-23.9137,108.3468],[34.9994,-23.9404,99.5301],[35.0004,-23.9997,68.8573],[34.9374,-24.2076,53.5191],[34.9461,-24.2163,53.5709],[34.9592,-24.2207,54.0041],[34.9772,-24.2209,54.7009],[35.003,-24.2156,55.6969],[35.0092,-24.2129,54.0052],[35.0136,-24.2011,54.5484],[35.022,-24.1963,54.6774],[35.0432,-24.1891,54.9571],[35.0765,-24.1672,57.5718],[35.072,-24.1631,57.3202],[35.1662,-24.0912,70.7857],[35.2389,-24.0517,144.2003],[35.2857,-23.9207,149.7266],[35.232,-23.9035,8.3835],[35.2566,-23.8711,5.2716],[35.268,-23.8604,10.2062],[35.2721,-23.8539,5.0787],[35.2755,-23.8423,5.8414],[35.2771,-23.8248,4.0957],[35.28,-23.8121,3.9607],[35.2725,-23.7993,4.0799]]]]}
,"properties": {"GID_3": "MOZ.3.3.1_1","GID_0": "MOZ","country": "Mozambique","GID_1": "MOZ.3_1","province": "Inhambane","NL_NAME_1": "NA","GID_2": "MOZ.3.3_1","county": "Homoine","NL_NAME_2": "NA","city": "Homoine-Sede","VARNAME_3": "NA","NL_NAME_3": "NA","TYPE_3": "Localidad","ENGTYPE_3": "Locality","CC_3": "NA","HASC_3": "NA","name": "Homoine-Sede.city","area_km2": 1028.7384,"hist_schema_id": "Elevation0-9000","hist_area_km2": {"0": 6.1473,"25": 80.2748,"50": 332.4553,"75": 294.8742,"100": 72.6796,"125": 60.8313,"150": 104.9612,"175": 55.7464,"200": 20.2059,"225": 0.5625}}}