{"type": "Feature","bbox": [39.3242,-13.4968,40.5654,-12.5758],"geometry": {"type": "MultiPolygon","coordinates": [[[[40.2311,-13.1167,163.0966],[40.2276,-13.1195,168.4196],[40.1998,-13.0526,250.3827],[40.1864,-13.0126,118.8089],[40.1899,-13.0023,112.9804],[40.1948,-13.0024,106.0148],[40.198,-12.9972,93.2077],[40.2066,-12.9928,87.2727],[40.2065,-12.9879,73.8561],[40.1953,-12.9822,77.6232],[40.1622,-12.9798,118.3039],[40.1574,-12.9842,122.9511],[40.1469,-12.9838,120.4293],[40.1152,-12.9553,205.3841],[40.1175,-12.9443,194.8119],[40.1177,-12.9294,188.6042],[40.1117,-12.9243,185.0933],[40.1008,-12.9246,193.7089],[40.089,-12.9148,206.7169],[40.0793,-12.9164,210.0456],[40.075,-12.9115,216.8344],[40.0544,-12.9038,244.2211],[40.0405,-12.9025,259.817],[40.0208,-12.904,264.1979],[40.0149,-12.8973,270.3632],[40.0152,-12.8746,285.8752],[40.0085,-12.8671,298.0079],[40.0043,-12.8588,299.3895],[40.0058,-12.8425,275.4268],[40.0252,-12.8351,286.5117],[40.0235,-12.8186,260.5919],[40.0207,-12.8082,249.1337],[40.0066,-12.7775,216.0681],[40.0039,-12.7685,209.5704],[40.0056,-12.7646,211.3035],[40.0368,-12.7123,161.3435],[40.0797,-12.6825,158.49],[40.1254,-12.6223,92.8326],[40.1295,-12.6114,87.3864],[40.1311,-12.5758,66.5657],[40.1161,-12.5904,69.5843],[40.0832,-12.5984,76.1079],[40.0661,-12.6095,83.447],[40.0577,-12.6217,86.1361],[40.0497,-12.6293,87.0723],[40.032,-12.6351,89.214],[40.0233,-12.6424,96.3391],[40.0149,-12.6437,98.1984],[39.9952,-12.6384,103.1994],[39.9892,-12.6393,112.9412],[39.9698,-12.6372,134.4257],[39.9555,-12.6372,124.2582],[39.9132,-12.6445,156.7584],[39.8961,-12.6424,148.3633],[39.8776,-12.6233,163.4632],[39.8676,-12.6163,156.0245],[39.8383,-12.6091,173.9079],[39.8325,-12.612,173.1343],[39.8182,-12.6079,183.4291],[39.8129,-12.6092,183.2621],[39.8005,-12.6195,197.5215],[39.8024,-12.6386,201.3706],[39.7959,-12.6437,198.639],[39.7872,-12.6539,205.8717],[39.781,-12.6508,201.1684],[39.7642,-12.6656,233.3134],[39.7623,-12.6817,208.3853],[39.7661,-12.6904,216.1799],[39.7657,-12.6992,218.8107],[39.7605,-12.701599999999999,214.1337],[39.7445,-12.7199,220.88],[39.7111,-12.7474,231.3011],[39.6908,-12.7523,245.5467],[39.6528,-12.7539,234.5595],[39.6422,-12.7564,250.8881],[39.6326,-12.7555,241.2733],[39.6242,-12.7582,255.5317],[39.5883,-12.7419,273.5177],[39.5725,-12.7393,274.0399],[39.5457,-12.7428,287.3566],[39.5386,-12.738,282.0373],[39.5345,-12.726,299.055],[39.5312,-12.7212,285.8351],[39.5265,-12.7181,286.5816],[39.5139,-12.7273,312.5474],[39.4967,-12.7144,299.0193],[39.4881,-12.7172,306.9428],[39.4758,-12.7257,302.4421],[39.4646,-12.7199,310.119],[39.4511,-12.7165,310.6761],[39.444,-12.7093,313.8649],[39.4328,-12.7051,310.1608],[39.415,-12.6953,331.4696],[39.4097,-12.6891,320.0307],[39.4051,-12.6796,315.4965],[39.3959,-12.6861,316.7907],[39.3911,-12.696,322.6154],[39.3791,-12.6979,328.7116],[39.3744,-12.704,322.4981],[39.3741,-12.7132,322.1579],[39.3596,-12.721,325.4294],[39.3617,-12.7455,334.7414],[39.3574,-12.7579,334.0676],[39.348,-12.7731,335.2343],[39.3486,-12.7896,338.8127],[39.3516,-12.7993,342.4926],[39.3486,-12.8059,342.9706],[39.3242,-12.8291,347.2191],[39.3297,-12.8439,350.9496],[39.3401,-12.8618,359.4564],[39.347,-12.8809,368.5739],[39.3583,-12.901,376.1844],[39.3632,-12.9239,388.7218],[39.3716,-12.9402,400.0489],[39.3656,-12.9957,469.8671],[39.3709,-13.0074,495.018],[39.3767,-13.0795,479.6925],[39.3798,-13.0915,457.7961],[39.395,-13.1087,422.7121],[39.3955,-13.1625,384.5694],[39.3905,-13.1646,383.9087],[39.3962,-13.1638,376.1521],[39.3996,-13.1988,353.7623],[39.3956,-13.2021,355.3036],[39.3988,-13.2004,351.4491],[39.4452,-13.2039,352.8272],[39.4597,-13.2008,334.2864],[39.4768,-13.2095,341.6087],[39.5188,-13.1944,323.9543],[39.5369,-13.2046,328.1006],[39.5599,-13.2131,318.4955],[39.5694,-13.2148,315.2554],[39.5809,-13.2127,321.1251],[39.5924,-13.2131,311.2723],[39.6027,-13.2103,304.5364],[39.6107,-13.2044,313.1816],[39.6173,-13.206,307.3367],[39.6244,-13.2116,294.5631],[39.626,-13.216,294.091],[39.6461,-13.2256,294.5731],[39.6524,-13.2224,289.2882],[39.6689,-13.2678,333.3859],[39.6691,-13.2888,357.6837],[39.6665,-13.3026,396.4919],[39.6618,-13.3061,393.6562],[39.6646,-13.3122,386.9663],[39.6788,-13.3251,366.6216],[39.6692,-13.3418,335.1347],[39.6717,-13.3618,319.5847],[39.6766,-13.368,315.7413],[39.6939,-13.383,303.5363],[39.6964,-13.3923,297.8271],[39.6905,-13.3957,293.6963],[39.6925,-13.4026,294.5761],[39.7005,-13.4099,284.0267],[39.7121,-13.4096,283.3848],[39.7229,-13.4149,273.6375],[39.7303,-13.422,267.3406],[39.7403,-13.44,256.2348],[39.744,-13.4499,253.3662],[39.7619,-13.4695,252.5824],[39.7773,-13.4713,250.091],[39.7774,-13.4778,248.4101],[39.7797,-13.4849,241.048],[39.784,-13.4806,233.1859],[39.8076,-13.49,226.6449],[39.8333,-13.4928,230.3141],[39.8398,-13.4874,223.0591],[39.8435,-13.4885,221.0394],[39.8489,-13.4963,214.316],[39.8554,-13.4968,216.2401],[39.8686,-13.4805,245.6833],[39.8861,-13.4533,256.8589],[39.884,-13.447,238.6593],[39.8879,-13.4436,238.3006],[39.8903,-13.4376,226.4953],[39.8881,-13.4301,218.4017],[39.8735,-13.4204,226.1272],[39.8656,-13.4023,243.9272],[39.8531,-13.3577,279.2581],[39.8539,-13.3514,289.6086],[39.892,-13.3379,263.2196],[39.8975,-13.3326,264.627],[39.891,-13.3153,293.3825],[39.889,-13.2882,269.7704],[39.8901,-13.2799,258.052],[39.8864,-13.276,273.9648],[39.8851,-13.2712,244.8741],[39.8943,-13.2654,250.0117],[39.9021,-13.2516,233.6153],[39.9129,-13.2532,217.6434],[39.9272,-13.2416,222.1959],[39.9435,-13.2487,192.3781],[39.9554,-13.2562,202.4972],[39.9753,-13.2781,171.1697],[39.9919,-13.283,168.8763],[40.0003,-13.2786,157.1638],[40.0273,-13.2777,149.6121],[40.0321,-13.2793,152.5143],[40.0448,-13.2777,148.8945],[40.0474,-13.2786,144.953],[40.0497,-13.2837,146.8549],[40.0639,-13.2807,141.0962],[40.0862,-13.2933,141.1487],[40.0969,-13.2893,142.1316],[40.1079,-13.2892,125.2277],[40.1151,-13.287,133.4725],[40.126,-13.2721,108.0316],[40.1342,-13.2558,151.1679],[40.1502,-13.2547,116.2845],[40.1682,-13.266,121.369],[40.1801,-13.2683,108.6494],[40.2051,-13.2661,106.7849],[40.2102,-13.2684,94.4011],[40.2112,-13.2818,86.8698],[40.2163,-13.286,100.0463],[40.2317,-13.2806,109.0091],[40.2285,-13.2944,75.5276],[40.2396,-13.3039,92.37],[40.2533,-13.3119,90.1209],[40.2675,-13.3164,79.0675],[40.2769,-13.2896,148.9017],[40.2891,-13.2688,321.9964],[40.3097,-13.2545,192.941],[40.3391,-13.259,124.8717],[40.3597,-13.2448,114.2683],[40.4047,-13.2416,104.4412],[40.4087,-13.2274,87.9699],[40.4298,-13.2154,155.7686],[40.4548,-13.2301,138.5152],[40.467,-13.2509,102.2317],[40.4814,-13.2704,67.5983],[40.5069,-13.236,19.8833],[40.5376,-13.2211,50.0343],[40.5568,-13.221,10.1935],[40.5565,-13.2132,7.687],[40.5585,-13.2032,0.0],[40.5604,-13.2029,0.0],[40.5593,-13.1996,0.0],[40.5612,-13.1993,0.282],[40.5615,-13.1962,0.0],[40.5638,-13.1949,0.0],[40.5632,-13.1885,0.0],[40.5615,-13.1865,0.2173],[40.5654,-13.1718,0.0],[40.564,-13.1707,0.0],[40.5629,-13.1718,0.4963],[40.5624,-13.1785,0.0],[40.5607,-13.1807,2.0109],[40.5601,-13.154,2.9594],[40.5612,-13.1485,7.8932],[40.5571,-13.1404,0.0],[40.5574,-13.1343,0.0],[40.5554,-13.1315,5.1106],[40.5501,-13.0999,2.1249],[40.5524,-13.0879,2.3393],[40.5515,-13.0751,1.5417],[40.5537,-13.0638,7.5913],[40.5293,-13.0625,92.3041],[40.5237,-13.0642,103.5531],[40.5187,-13.0702,47.6892],[40.5014,-13.077,12.7891],[40.4621,-13.1278,24.2256],[40.4643,-13.135,27.6884],[40.4077,-13.1415,50.7364],[40.3961,-13.0894,44.0515],[40.3924,-13.0785,54.057],[40.373,-13.0713,77.8326],[40.3621,-13.0739,96.1983],[40.3485,-13.0615,55.2559],[40.3403,-13.0563,64.5882],[40.3333,-13.0554,61.8551],[40.3189,-13.0572,62.0055],[40.3106,-13.0605,65.0754],[40.3109,-13.0689,64.1872],[40.305,-13.0768,67.9285],[40.2911,-13.0885,89.2525],[40.2597,-13.092,109.49],[40.2552,-13.0975,120.4248],[40.2488,-13.097,131.1367],[40.246,-13.1019,141.8379],[40.2345,-13.1106,160.5122],[40.2311,-13.1167,163.0966]]]]}
,"properties": {"GID_2": "MOZ.1.1_1","GID_0": "MOZ","country": "Mozambique","GID_1": "MOZ.1_1","province": "CaboDelgado","NL_NAME_1": "NA","county": "Ancuabe","VARNAME_2": "NA","NL_NAME_2": "NA","TYPE_2": "Distrito","ENGTYPE_2": "District","CC_2": "NA","HASC_2": "MZ.CD.AN","name": "Ancuabe.county","area_km2": 6279.945,"hist_schema_id": "Elevation0-9000","hist_area_km2": {"0": 7.165,"25": 39.352,"50": 81.285,"75": 129.891,"100": 182.891,"125": 172.772,"150": 166.145,"175": 206.656,"200": 281.042,"225": 392.883,"250": 515.775,"275": 579.755,"300": 635.243,"325": 661.125,"350": 611.914,"375": 499.368,"400": 428.57,"425": 352.286,"450": 214.758,"475": 90.589,"500": 26.038,"525": 1.715,"550": 1.012,"575": 0.826,"600": 0.413,"625": 0.186,"650": 0.186,"675": 0.083}}}