{"type": "Feature","bbox": [37.2612,-12.4893,38.4818,-11.2565],"geometry": {"type": "MultiPolygon","coordinates": [[[[38.4182,-11.7907,172.1599],[38.4159,-11.7679,171.2064],[38.4049,-11.7299,168.7512],[38.4063,-11.7105,152.0],[38.4154,-11.6513,153.9779],[38.4114,-11.6299,150.0959],[38.4114,-11.6103,145.5],[38.4161,-11.5883,146.1091],[38.4187,-11.5625,144.5242],[38.4433,-11.5029,138.5],[38.4509,-11.4801,138.6999],[38.4659,-11.453,134.2458],[38.4818,-11.4163,134.8734],[38.4689,-11.4135,139.9068],[38.4539,-11.4134,135.8548],[38.4481,-11.4107,134.5],[38.4406,-11.4069,143.9846],[38.4273,-11.391,141.9457],[38.4144,-11.3881,143.0003],[38.3925,-11.3875,144.5401],[38.3782,-11.383,156.5331],[38.3636,-11.3678,154.4076],[38.3397,-11.3388,152.9619],[38.3291,-11.3293,162.3764],[38.3213,-11.3255,165.1521],[38.2885,-11.3288,169.5323],[38.2826,-11.3243,164.8403],[38.2741,-11.2968,158.125],[38.2725,-11.2957,158.5],[38.2619,-11.2884,164.4747],[38.2243,-11.2833,196.1409],[38.2102,-11.2752,191.3069],[38.2028,-11.2744,188.0],[38.1823,-11.2778,195.6631],[38.152,-11.2754,196.9763],[38.1398,-11.2732,205.3588],[38.1131,-11.2597,215.0],[38.1028,-11.2607,219.0584],[38.0748,-11.2711,219.5365],[38.0575,-11.274,220.5],[38.0497,-11.2707,226.5226],[38.03,-11.2677,223.0],[38.0175,-11.271,224.25],[37.999,-11.2616,226.0],[37.9844,-11.2615,235.3736],[37.9687,-11.2657,234.8219],[37.9599,-11.264099999999999,232.2715],[37.9458,-11.2579,237.0],[37.9335,-11.2565,240.645],[37.9151,-11.261,240.3042],[37.8976,-11.2716,242.9338],[37.8746,-11.2826,250.5303],[37.866,-11.2888,247.766],[37.8593,-11.298,249.2842],[37.8519,-11.3037,276.7603],[37.8336,-11.3066,256.6166],[37.8311,-11.3083,257.9625],[37.8294,-11.3173,262.9247],[37.8271,-11.3655,279.6464],[37.8157,-11.3778,278.25],[37.8142,-11.3886,280.25],[37.8079,-11.4063,283.5],[37.8022,-11.4122,295.1049],[37.7951,-11.414,299.2076],[37.788,-11.4187,287.5419],[37.7819,-11.432,295.0059],[37.7812,-11.4451,292.5],[37.7735,-11.4629,302.269],[37.7755,-11.4698,297.125],[37.7869,-11.4782,304.125],[37.7881,-11.4868,305.25],[37.7785,-11.5138,311.3134],[37.7638,-11.534,309.0121],[37.7479,-11.5487,308.0],[37.7406,-11.5517,308.0],[37.7289,-11.5526,308.5],[37.7184,-11.5554,309.8185],[37.7016,-11.5628,313.0336],[37.688,-11.5634,310.0],[37.6724,-11.5733,310.5],[37.6588,-11.5742,313.8679],[37.6226,-11.6043,323.3684],[37.5962,-11.6182,312.5],[37.5835,-11.6225,325.1898],[37.5777,-11.6221,327.091],[37.5813,-11.6497,327.9079],[37.5798,-11.6504,327.9079],[37.5851,-11.6718,331.3644],[37.5762,-11.6866,333.7769],[37.572,-11.7009,338.6042],[37.5732,-11.7148,341.046],[37.5866,-11.7236,346.7196],[37.5897,-11.739,342.0247],[37.5839,-11.7444,346.4743],[37.5807,-11.757,344.7981],[37.5909,-11.7711,351.6013],[37.602,-11.7832,348.664],[37.6078,-11.8084,358.9047],[37.6023,-11.8281,359.3733],[37.594,-11.8348,367.278],[37.5903,-11.841,367.2852],[37.5909,-11.8548,366.8106],[37.596,-11.8681,365.7149],[37.5978,-11.8788,368.0418],[37.5975,-11.8876,370.017],[37.5844,-11.9016,372.6282],[37.5808,-11.9113,377.528],[37.582,-11.9312,377.6681],[37.5909,-11.9493,386.1641],[37.5862,-11.97,389.2588],[37.5809,-11.9806,398.8972],[37.5763,-11.9999,397.777],[37.5757,-12.0312,412.1641],[37.5781,-12.0414,418.9203],[37.5762,-12.0551,415.5717],[37.5703,-12.0745,417.1318],[37.5525,-12.1107,434.9396],[37.544,-12.1182,442.6226],[37.5335,-12.1367,449.9013],[37.5139,-12.1505,483.7302],[37.5194,-12.1556,471.7937],[37.5268,-12.159,474.7146],[37.5216,-12.1864,452.9964],[37.4854,-12.2313,399.6979],[37.4775,-12.2271,415.8307],[37.4419,-12.2516,431.5022],[37.3707,-12.3074,462.826],[37.3378,-12.3302,486.5295],[37.3353,-12.3349,532.6761],[37.326,-12.3376,474.3088],[37.3108,-12.3479,454.9601],[37.3062,-12.3472,455.6221],[37.2999,-12.3495,463.3033],[37.2951,-12.3526,443.9762],[37.2916,-12.3584,433.2126],[37.2666,-12.371,418.8504],[37.267,-12.3916,373.6362],[37.2612,-12.41,375.191],[37.2644,-12.4269,357.0016],[37.2666,-12.431,352.938],[37.2797,-12.4389,359.6373],[37.2747,-12.4524,346.4434],[37.2741,-12.4594,345.6663],[37.2758,-12.4636,341.9617],[37.2727,-12.4748,341.0285],[37.2772,-12.4848,331.9634],[37.2818,-12.4828,332.1789],[37.3064,-12.4828,342.2714],[37.3401,-12.4858,341.5732],[37.3527,-12.4893,332.3406],[37.3643,-12.4876,321.9297],[37.376,-12.4813,311.75],[37.4241,-12.4726,311.1249],[37.5087,-12.45,306.4319],[37.5304,-12.453,308.9079],[37.5472,-12.4517,313.2613],[37.561,-12.4474,309.9565],[37.5907,-12.4427,325.7917],[37.6063,-12.4421,292.3861],[37.6469,-12.444,283.9152],[37.6254,-12.4833,519.3546],[37.6653,-12.4869,312.7964],[37.7113,-12.4798,371.6694],[37.727,-12.4525,352.0072],[37.7013,-12.4201,272.7264],[37.7086,-12.4032,272.95],[37.7726,-12.3098,286.5971],[37.7777,-12.2963,268.0326],[37.7857,-12.2868,265.3871],[37.802,-12.2773,268.8419],[37.8384,-12.2622,271.112],[37.8734,-12.2543,257.3161],[37.8838,-12.2486,257.5334],[37.929,-12.2312,247.0],[37.9545,-12.2288,245.6053],[37.9966,-12.2352,242.5],[38.0486,-12.2025,240.3017],[38.0663,-12.1946,241.1893],[38.0863,-12.1791,239.0148],[38.0941,-12.1765,244.4762],[38.1132,-12.1878,244.4781],[38.1318,-12.2036,236.9591],[38.1407,-12.2033,229.8481],[38.169,-12.1937,217.8812],[38.2018,-12.1913,211.065],[38.222,-12.1868,202.0],[38.2531,-12.1608,205.9264],[38.3069,-12.1328,200.5839],[38.3543,-12.1147,182.4583],[38.3719,-12.1057,178.5],[38.3791,-12.0954,180.2429],[38.381,-12.0726,175.5],[38.401,-11.9996,172.0],[38.4077,-11.952,168.238],[38.4204,-11.9193,165.3403],[38.4212,-11.8866,163.5659],[38.4177,-11.8648,169.163],[38.4188,-11.8561,173.8837],[38.4182,-11.7907,172.1599]]]]}
,"properties": {"GID_3": "MOZ.8.10.2_1","GID_0": "MOZ","country": "Mozambique","GID_1": "MOZ.8_1","province": "Nassa","NL_NAME_1": "NA","GID_2": "MOZ.8.10_1","county": "Mecula","NL_NAME_2": "NA","city": "Mecula-Sede","VARNAME_3": "NA","NL_NAME_3": "NA","TYPE_3": "Localidad","ENGTYPE_3": "Locality","CC_3": "NA","HASC_3": "NA","name": "Mecula-Sede.city","area_km2": 9752.471,"hist_schema_id": "Elevation0-9000","hist_area_km2": {"125": 5.819,"150": 100.517,"175": 239.673,"200": 516.734,"225": 778.66,"250": 906.312,"275": 1092.939,"300": 1132.296,"325": 1301.381,"350": 1337.81,"375": 1023.06,"400": 551.883,"425": 269.993,"450": 146.353,"475": 78.653,"500": 37.749,"525": 19.303,"550": 14.143,"575": 11.737,"600": 10.182,"625": 8.502,"650": 8.461,"675": 8.792,"700": 7.922,"725": 8.316,"750": 10.493,"775": 13.231,"800": 13.231,"825": 13.645,"850": 11.053,"875": 9.85,"900": 9.228,"925": 8.108,"950": 7.693,"975": 6.884,"1000": 5.412,"1025": 5.329,"1050": 4.23,"1075": 4.665,"1100": 3.235,"1125": 2.322,"1150": 1.99,"1175": 1.514,"1200": 1.534,"1225": 0.622,"1250": 0.435,"1275": 0.29,"1300": 0.145}}}